[
  {
    "name": "Belep",
    "code": "98801",
    "departement_code": "988",
    "region_code": "988",
    "postal_code": "98811"
  },
  {
    "name": "Bouloupari",
    "code": "98802",
    "departement_code": "988",
    "region_code": "988",
    "postal_code": "98812"
  },
  {
    "name": "Bourail",
    "code": "98803",
    "departement_code": "988",
    "region_code": "988",
    "postal_code": "98870"
  },
  {
    "name": "Canala",
    "code": "98804",
    "departement_code": "988",
    "region_code": "988",
    "postal_code": "98813"
  },
  {
    "name": "Dumbéa",
    "code": "98805",
    "departement_code": "988",
    "region_code": "988",
    "postal_code": "98835"
  },
  {
    "name": "Farino",
    "code": "98806",
    "departement_code": "988",
    "region_code": "988",
    "postal_code": "98881"
  },
  {
    "name": "Hienghène",
    "code": "98807",
    "departement_code": "988",
    "region_code": "988",
    "postal_code": "98815"
  },
  {
    "name": "Houaïlou",
    "code": "98808",
    "departement_code": "988",
    "region_code": "988",
    "postal_code": "98816"
  },
  {
    "name": "L’Île-des-Pins",
    "code": "98809",
    "departement_code": "988",
    "region_code": "988",
    "postal_code": "98832"
  },
  {
    "name": "Kaala-Gomen",
    "code": "98810",
    "departement_code": "988",
    "region_code": "988",
    "postal_code": "98817"
  },
  {
    "name": "Koné",
    "code": "98811",
    "departement_code": "988",
    "region_code": "988",
    "postal_code": "98859"
  },
  {
    "name": "Koumac",
    "code": "98812",
    "departement_code": "988",
    "region_code": "988",
    "postal_code": "98850"
  },
  {
    "name": "La Foa",
    "code": "98813",
    "departement_code": "988",
    "region_code": "988",
    "postal_code": "98880"
  },
  {
    "name": "Lifou",
    "code": "98814",
    "departement_code": "988",
    "region_code": "988",
    "postal_code": "98820"
  },
  {
    "name": "Maré",
    "code": "98815",
    "departement_code": "988",
    "region_code": "988",
    "postal_code": "98828"
  },
  {
    "name": "Moindou",
    "code": "98816",
    "departement_code": "988",
    "region_code": "988",
    "postal_code": "98819"
  },
  {
    "name": "Le Mont-Dore",
    "code": "98817",
    "departement_code": "988",
    "region_code": "988",
    "postal_code": "98809"
  },
  {
    "name": "Nouméa",
    "code": "98818",
    "departement_code": "988",
    "region_code": "988",
    "postal_code": "98800"
  },
  {
    "name": "Ouégoa",
    "code": "98819",
    "departement_code": "988",
    "region_code": "988",
    "postal_code": "98821"
  },
  {
    "name": "Ouvéa",
    "code": "98820",
    "departement_code": "988",
    "region_code": "988",
    "postal_code": "98814"
  },
  {
    "name": "Païta",
    "code": "98821",
    "departement_code": "988",
    "region_code": "988",
    "postal_code": "98889"
  },
  {
    "name": "Poindimié",
    "code": "98822",
    "departement_code": "988",
    "region_code": "988",
    "postal_code": "98822"
  },
  {
    "name": "Ponérihouen",
    "code": "98823",
    "departement_code": "988",
    "region_code": "988",
    "postal_code": "98823"
  },
  {
    "name": "Pouébo",
    "code": "98824",
    "departement_code": "988",
    "region_code": "988",
    "postal_code": "98824"
  },
  {
    "name": "Pouembout",
    "code": "98825",
    "departement_code": "988",
    "region_code": "988",
    "postal_code": "98825"
  },
  {
    "name": "Poum",
    "code": "98826",
    "departement_code": "988",
    "region_code": "988",
    "postal_code": "98826"
  },
  {
    "name": "Poya",
    "code": "98827",
    "departement_code": "988",
    "region_code": "988",
    "postal_code": "98827"
  },
  {
    "name": "Sarraméa",
    "code": "98828",
    "departement_code": "988",
    "region_code": "988",
    "postal_code": "98882"
  },
  {
    "name": "Thio",
    "code": "98829",
    "departement_code": "988",
    "region_code": "988",
    "postal_code": "98829"
  },
  {
    "name": "Touho",
    "code": "98830",
    "departement_code": "988",
    "region_code": "988",
    "postal_code": "98831"
  },
  {
    "name": "Voh",
    "code": "98831",
    "departement_code": "988",
    "region_code": "988",
    "postal_code": "98833"
  },
  {
    "name": "Yaté",
    "code": "98832",
    "departement_code": "988",
    "region_code": "988",
    "postal_code": "98834"
  },
  {
    "name": "Kouaoua",
    "code": "98833",
    "departement_code": "988",
    "region_code": "988",
    "postal_code": "98818"
  }
]