[
  {
    "name": "Abondance",
    "code": "74001",
    "epci_code": "200071967",
    "departement_code": "74",
    "region_code": "84",
    "postal_code": "74360"
  },
  {
    "name": "Alby-sur-Chéran",
    "code": "74002",
    "epci_code": "200066793",
    "departement_code": "74",
    "region_code": "84",
    "postal_code": "74540"
  },
  {
    "name": "Alex",
    "code": "74003",
    "epci_code": "247400617",
    "departement_code": "74",
    "region_code": "84",
    "postal_code": "74290"
  },
  {
    "name": "Allèves",
    "code": "74004",
    "epci_code": "200066793",
    "departement_code": "74",
    "region_code": "84",
    "postal_code": "74540"
  },
  {
    "name": "Allinges",
    "code": "74005",
    "epci_code": "200067551",
    "departement_code": "74",
    "region_code": "84",
    "postal_code": "74200"
  },
  {
    "name": "Allonzier-la-Caille",
    "code": "74006",
    "epci_code": "247400112",
    "departement_code": "74",
    "region_code": "84",
    "postal_code": "74350"
  },
  {
    "name": "Amancy",
    "code": "74007",
    "epci_code": "247400724",
    "departement_code": "74",
    "region_code": "84",
    "postal_code": "74800"
  },
  {
    "name": "Ambilly",
    "code": "74008",
    "epci_code": "200011773",
    "departement_code": "74",
    "region_code": "84",
    "postal_code": "74100"
  },
  {
    "name": "Andilly",
    "code": "74009",
    "epci_code": "247400112",
    "departement_code": "74",
    "region_code": "84",
    "postal_code": "74350"
  },
  {
    "name": "Annecy",
    "code": "74010",
    "epci_code": "200066793",
    "departement_code": "74",
    "region_code": "84",
    "postal_code": "74000"
  },
  {
    "name": "Annecy",
    "code": "74010",
    "epci_code": "200066793",
    "departement_code": "74",
    "region_code": "84",
    "postal_code": "74370"
  },
  {
    "name": "Annecy",
    "code": "74010",
    "epci_code": "200066793",
    "departement_code": "74",
    "region_code": "84",
    "postal_code": "74600"
  },
  {
    "name": "Annecy",
    "code": "74010",
    "epci_code": "200066793",
    "departement_code": "74",
    "region_code": "84",
    "postal_code": "74940"
  },
  {
    "name": "Annecy",
    "code": "74010",
    "epci_code": "200066793",
    "departement_code": "74",
    "region_code": "84",
    "postal_code": "74960"
  },
  {
    "name": "Annemasse",
    "code": "74012",
    "epci_code": "200011773",
    "departement_code": "74",
    "region_code": "84",
    "postal_code": "74100"
  },
  {
    "name": "Anthy-sur-Léman",
    "code": "74013",
    "epci_code": "200067551",
    "departement_code": "74",
    "region_code": "84",
    "postal_code": "74200"
  },
  {
    "name": "Arâches-la-Frasse",
    "code": "74014",
    "epci_code": "200033116",
    "departement_code": "74",
    "region_code": "84",
    "postal_code": "74300"
  },
  {
    "name": "Arbusigny",
    "code": "74015",
    "epci_code": "247400583",
    "departement_code": "74",
    "region_code": "84",
    "postal_code": "74930"
  },
  {
    "name": "Archamps",
    "code": "74016",
    "epci_code": "247400690",
    "departement_code": "74",
    "region_code": "84",
    "postal_code": "74160"
  },
  {
    "name": "Arenthon",
    "code": "74018",
    "epci_code": "247400724",
    "departement_code": "74",
    "region_code": "84",
    "postal_code": "74800"
  },
  {
    "name": "Argonay",
    "code": "74019",
    "epci_code": "200066793",
    "departement_code": "74",
    "region_code": "84",
    "postal_code": "74370"
  },
  {
    "name": "Armoy",
    "code": "74020",
    "epci_code": "200067551",
    "departement_code": "74",
    "region_code": "84",
    "postal_code": "74200"
  },
  {
    "name": "Arthaz-Pont-Notre-Dame",
    "code": "74021",
    "epci_code": "247400583",
    "departement_code": "74",
    "region_code": "84",
    "postal_code": "74380"
  },
  {
    "name": "Ayse",
    "code": "74024",
    "epci_code": "200000172",
    "departement_code": "74",
    "region_code": "84",
    "postal_code": "74130"
  },
  {
    "name": "Ballaison",
    "code": "74025",
    "epci_code": "200067551",
    "departement_code": "74",
    "region_code": "84",
    "postal_code": "74140"
  },
  {
    "name": "La Balme-de-Sillingy",
    "code": "74026",
    "epci_code": "247400567",
    "departement_code": "74",
    "region_code": "84",
    "postal_code": "74330"
  },
  {
    "name": "La Balme-de-Thuy",
    "code": "74027",
    "epci_code": "247400617",
    "departement_code": "74",
    "region_code": "84",
    "postal_code": "74230"
  },
  {
    "name": "Bassy",
    "code": "74029",
    "epci_code": "200070852",
    "departement_code": "74",
    "region_code": "84",
    "postal_code": "74910"
  },
  {
    "name": "La Baume",
    "code": "74030",
    "epci_code": "247400682",
    "departement_code": "74",
    "region_code": "84",
    "postal_code": "74430"
  },
  {
    "name": "Beaumont",
    "code": "74031",
    "epci_code": "247400690",
    "departement_code": "74",
    "region_code": "84",
    "postal_code": "74160"
  },
  {
    "name": "Bellevaux",
    "code": "74032",
    "epci_code": "247400682",
    "departement_code": "74",
    "region_code": "84",
    "postal_code": "74470"
  },
  {
    "name": "Bernex",
    "code": "74033",
    "epci_code": "200071967",
    "departement_code": "74",
    "region_code": "84",
    "postal_code": "74500"
  },
  {
    "name": "Le Biot",
    "code": "74034",
    "epci_code": "247400682",
    "departement_code": "74",
    "region_code": "84",
    "postal_code": "74430"
  },
  {
    "name": "Bloye",
    "code": "74035",
    "epci_code": "247400740",
    "departement_code": "74",
    "region_code": "84",
    "postal_code": "74150"
  },
  {
    "name": "Bluffy",
    "code": "74036",
    "epci_code": "200066793",
    "departement_code": "74",
    "region_code": "84",
    "postal_code": "74290"
  },
  {
    "name": "Boëge",
    "code": "74037",
    "epci_code": "247400047",
    "departement_code": "74",
    "region_code": "84",
    "postal_code": "74420"
  },
  {
    "name": "Bogève",
    "code": "74038",
    "epci_code": "247400047",
    "departement_code": "74",
    "region_code": "84",
    "postal_code": "74250"
  },
  {
    "name": "Bonne",
    "code": "74040",
    "epci_code": "200011773",
    "departement_code": "74",
    "region_code": "84",
    "postal_code": "74380"
  },
  {
    "name": "Bonnevaux",
    "code": "74041",
    "epci_code": "200071967",
    "departement_code": "74",
    "region_code": "84",
    "postal_code": "74360"
  },
  {
    "name": "Bonneville",
    "code": "74042",
    "epci_code": "200000172",
    "departement_code": "74",
    "region_code": "84",
    "postal_code": "74130"
  },
  {
    "name": "Bons-en-Chablais",
    "code": "74043",
    "epci_code": "200067551",
    "departement_code": "74",
    "region_code": "84",
    "postal_code": "74890"
  },
  {
    "name": "Bossey",
    "code": "74044",
    "epci_code": "247400690",
    "departement_code": "74",
    "region_code": "84",
    "postal_code": "74160"
  },
  {
    "name": "Le Bouchet-Mont-Charvin",
    "code": "74045",
    "epci_code": "247400617",
    "departement_code": "74",
    "region_code": "84",
    "postal_code": "74230"
  },
  {
    "name": "Boussy",
    "code": "74046",
    "epci_code": "247400740",
    "departement_code": "74",
    "region_code": "84",
    "postal_code": "74150"
  },
  {
    "name": "Brenthonne",
    "code": "74048",
    "epci_code": "200067551",
    "departement_code": "74",
    "region_code": "84",
    "postal_code": "74890"
  },
  {
    "name": "Brizon",
    "code": "74049",
    "epci_code": "200000172",
    "departement_code": "74",
    "region_code": "84",
    "postal_code": "74130"
  },
  {
    "name": "Burdignin",
    "code": "74050",
    "epci_code": "247400047",
    "departement_code": "74",
    "region_code": "84",
    "postal_code": "74420"
  },
  {
    "name": "Cercier",
    "code": "74051",
    "epci_code": "247400112",
    "departement_code": "74",
    "region_code": "84",
    "postal_code": "74350"
  },
  {
    "name": "Cernex",
    "code": "74052",
    "epci_code": "247400112",
    "departement_code": "74",
    "region_code": "84",
    "postal_code": "74350"
  },
  {
    "name": "Cervens",
    "code": "74053",
    "epci_code": "200067551",
    "departement_code": "74",
    "region_code": "84",
    "postal_code": "74550"
  },
  {
    "name": "Chainaz-les-Frasses",
    "code": "74054",
    "epci_code": "200066793",
    "departement_code": "74",
    "region_code": "84",
    "postal_code": "74540"
  },
  {
    "name": "Challonges",
    "code": "74055",
    "epci_code": "200070852",
    "departement_code": "74",
    "region_code": "84",
    "postal_code": "74910"
  },
  {
    "name": "Chamonix-Mont-Blanc",
    "code": "74056",
    "epci_code": "200023372",
    "departement_code": "74",
    "region_code": "84",
    "postal_code": "74400"
  },
  {
    "name": "Champanges",
    "code": "74057",
    "epci_code": "200071967",
    "departement_code": "74",
    "region_code": "84",
    "postal_code": "74500"
  },
  {
    "name": "La Chapelle-d’Abondance",
    "code": "74058",
    "epci_code": "200071967",
    "departement_code": "74",
    "region_code": "84",
    "postal_code": "74360"
  },
  {
    "name": "La Chapelle-Rambaud",
    "code": "74059",
    "epci_code": "247400724",
    "departement_code": "74",
    "region_code": "84",
    "postal_code": "74800"
  },
  {
    "name": "La Chapelle-Saint-Maurice",
    "code": "74060",
    "epci_code": "200066793",
    "departement_code": "74",
    "region_code": "84",
    "postal_code": "74410"
  },
  {
    "name": "Chapeiry",
    "code": "74061",
    "epci_code": "200066793",
    "departement_code": "74",
    "region_code": "84",
    "postal_code": "74540"
  },
  {
    "name": "Charvonnex",
    "code": "74062",
    "epci_code": "200066793",
    "departement_code": "74",
    "region_code": "84",
    "postal_code": "74370"
  },
  {
    "name": "Châtel",
    "code": "74063",
    "epci_code": "200071967",
    "departement_code": "74",
    "region_code": "84",
    "postal_code": "74390"
  },
  {
    "name": "Châtillon-sur-Cluses",
    "code": "74064",
    "epci_code": "200034098",
    "departement_code": "74",
    "region_code": "84",
    "postal_code": "74300"
  },
  {
    "name": "Chaumont",
    "code": "74065",
    "epci_code": "200070852",
    "departement_code": "74",
    "region_code": "84",
    "postal_code": "74270"
  },
  {
    "name": "Chavannaz",
    "code": "74066",
    "epci_code": "200070852",
    "departement_code": "74",
    "region_code": "84",
    "postal_code": "74270"
  },
  {
    "name": "Chavanod",
    "code": "74067",
    "epci_code": "200066793",
    "departement_code": "74",
    "region_code": "84",
    "postal_code": "74650"
  },
  {
    "name": "Chêne-en-Semine",
    "code": "74068",
    "epci_code": "200070852",
    "departement_code": "74",
    "region_code": "84",
    "postal_code": "74270"
  },
  {
    "name": "Chênex",
    "code": "74069",
    "epci_code": "247400690",
    "departement_code": "74",
    "region_code": "84",
    "postal_code": "74520"
  },
  {
    "name": "Chens-sur-Léman",
    "code": "74070",
    "epci_code": "200067551",
    "departement_code": "74",
    "region_code": "84",
    "postal_code": "74140"
  },
  {
    "name": "Chessenaz",
    "code": "74071",
    "epci_code": "200070852",
    "departement_code": "74",
    "region_code": "84",
    "postal_code": "74270"
  },
  {
    "name": "Chevaline",
    "code": "74072",
    "epci_code": "247400773",
    "departement_code": "74",
    "region_code": "84",
    "postal_code": "74210"
  },
  {
    "name": "Chevenoz",
    "code": "74073",
    "epci_code": "200071967",
    "departement_code": "74",
    "region_code": "84",
    "postal_code": "74500"
  },
  {
    "name": "Chevrier",
    "code": "74074",
    "epci_code": "247400690",
    "departement_code": "74",
    "region_code": "84",
    "postal_code": "74520"
  },
  {
    "name": "Chilly",
    "code": "74075",
    "epci_code": "200070852",
    "departement_code": "74",
    "region_code": "84",
    "postal_code": "74270"
  },
  {
    "name": "Choisy",
    "code": "74076",
    "epci_code": "247400567",
    "departement_code": "74",
    "region_code": "84",
    "postal_code": "74330"
  },
  {
    "name": "Clarafond-Arcine",
    "code": "74077",
    "epci_code": "200070852",
    "departement_code": "74",
    "region_code": "84",
    "postal_code": "74270"
  },
  {
    "name": "Clermont",
    "code": "74078",
    "epci_code": "200070852",
    "departement_code": "74",
    "region_code": "84",
    "postal_code": "74270"
  },
  {
    "name": "Les Clefs",
    "code": "74079",
    "epci_code": "247400617",
    "departement_code": "74",
    "region_code": "84",
    "postal_code": "74230"
  },
  {
    "name": "La Clusaz",
    "code": "74080",
    "epci_code": "247400617",
    "departement_code": "74",
    "region_code": "84",
    "postal_code": "74220"
  },
  {
    "name": "Cluses",
    "code": "74081",
    "epci_code": "200033116",
    "departement_code": "74",
    "region_code": "84",
    "postal_code": "74300"
  },
  {
    "name": "Collonges-sous-Salève",
    "code": "74082",
    "epci_code": "247400690",
    "departement_code": "74",
    "region_code": "84",
    "postal_code": "74160"
  },
  {
    "name": "Combloux",
    "code": "74083",
    "epci_code": "200034882",
    "departement_code": "74",
    "region_code": "84",
    "postal_code": "74920"
  },
  {
    "name": "Les Contamines-Montjoie",
    "code": "74085",
    "epci_code": "200034882",
    "departement_code": "74",
    "region_code": "84",
    "postal_code": "74170"
  },
  {
    "name": "Contamine-Sarzin",
    "code": "74086",
    "epci_code": "200070852",
    "departement_code": "74",
    "region_code": "84",
    "postal_code": "74270"
  },
  {
    "name": "Contamine-sur-Arve",
    "code": "74087",
    "epci_code": "200000172",
    "departement_code": "74",
    "region_code": "84",
    "postal_code": "74130"
  },
  {
    "name": "Copponex",
    "code": "74088",
    "epci_code": "247400112",
    "departement_code": "74",
    "region_code": "84",
    "postal_code": "74350"
  },
  {
    "name": "Cordon",
    "code": "74089",
    "epci_code": "200034882",
    "departement_code": "74",
    "region_code": "84",
    "postal_code": "74700"
  },
  {
    "name": "Cornier",
    "code": "74090",
    "epci_code": "247400724",
    "departement_code": "74",
    "region_code": "84",
    "postal_code": "74800"
  },
  {
    "name": "La Côte-d’Arbroz",
    "code": "74091",
    "epci_code": "247400682",
    "departement_code": "74",
    "region_code": "84",
    "postal_code": "74110"
  },
  {
    "name": "Cranves-Sales",
    "code": "74094",
    "epci_code": "200011773",
    "departement_code": "74",
    "region_code": "84",
    "postal_code": "74380"
  },
  {
    "name": "Crempigny-Bonneguête",
    "code": "74095",
    "epci_code": "247400740",
    "departement_code": "74",
    "region_code": "84",
    "postal_code": "74150"
  },
  {
    "name": "Cruseilles",
    "code": "74096",
    "epci_code": "247400112",
    "departement_code": "74",
    "region_code": "84",
    "postal_code": "74350"
  },
  {
    "name": "Cusy",
    "code": "74097",
    "epci_code": "200066793",
    "departement_code": "74",
    "region_code": "84",
    "postal_code": "74540"
  },
  {
    "name": "Cuvat",
    "code": "74098",
    "epci_code": "247400112",
    "departement_code": "74",
    "region_code": "84",
    "postal_code": "74350"
  },
  {
    "name": "Demi-Quartier",
    "code": "74099",
    "epci_code": "200034882",
    "departement_code": "74",
    "region_code": "84",
    "postal_code": "74120"
  },
  {
    "name": "Desingy",
    "code": "74100",
    "epci_code": "200070852",
    "departement_code": "74",
    "region_code": "84",
    "postal_code": "74270"
  },
  {
    "name": "Dingy-en-Vuache",
    "code": "74101",
    "epci_code": "247400690",
    "departement_code": "74",
    "region_code": "84",
    "postal_code": "74520"
  },
  {
    "name": "Dingy-Saint-Clair",
    "code": "74102",
    "epci_code": "247400617",
    "departement_code": "74",
    "region_code": "84",
    "postal_code": "74230"
  },
  {
    "name": "Domancy",
    "code": "74103",
    "epci_code": "200034882",
    "departement_code": "74",
    "region_code": "84",
    "postal_code": "74700"
  },
  {
    "name": "Doussard",
    "code": "74104",
    "epci_code": "247400773",
    "departement_code": "74",
    "region_code": "84",
    "postal_code": "74210"
  },
  {
    "name": "Douvaine",
    "code": "74105",
    "epci_code": "200067551",
    "departement_code": "74",
    "region_code": "84",
    "postal_code": "74140"
  },
  {
    "name": "Draillant",
    "code": "74106",
    "epci_code": "200067551",
    "departement_code": "74",
    "region_code": "84",
    "postal_code": "74550"
  },
  {
    "name": "Droisy",
    "code": "74107",
    "epci_code": "200070852",
    "departement_code": "74",
    "region_code": "84",
    "postal_code": "74270"
  },
  {
    "name": "Duingt",
    "code": "74108",
    "epci_code": "200066793",
    "departement_code": "74",
    "region_code": "84",
    "postal_code": "74410"
  },
  {
    "name": "Éloise",
    "code": "74109",
    "epci_code": "200070852",
    "departement_code": "74",
    "region_code": "84",
    "postal_code": "01200"
  },
  {
    "name": "Entrevernes",
    "code": "74111",
    "epci_code": "200066793",
    "departement_code": "74",
    "region_code": "84",
    "postal_code": "74410"
  },
  {
    "name": "Epagny Metz-Tessy",
    "code": "74112",
    "epci_code": "200066793",
    "departement_code": "74",
    "region_code": "84",
    "postal_code": "74330"
  },
  {
    "name": "Epagny Metz-Tessy",
    "code": "74112",
    "epci_code": "200066793",
    "departement_code": "74",
    "region_code": "84",
    "postal_code": "74370"
  },
  {
    "name": "Essert-Romand",
    "code": "74114",
    "epci_code": "247400682",
    "departement_code": "74",
    "region_code": "84",
    "postal_code": "74110"
  },
  {
    "name": "Etaux",
    "code": "74116",
    "epci_code": "247400724",
    "departement_code": "74",
    "region_code": "84",
    "postal_code": "74800"
  },
  {
    "name": "Étercy",
    "code": "74117",
    "epci_code": "247400740",
    "departement_code": "74",
    "region_code": "84",
    "postal_code": "74150"
  },
  {
    "name": "Étrembières",
    "code": "74118",
    "epci_code": "200011773",
    "departement_code": "74",
    "region_code": "84",
    "postal_code": "74100"
  },
  {
    "name": "Évian-les-Bains",
    "code": "74119",
    "epci_code": "200071967",
    "departement_code": "74",
    "region_code": "84",
    "postal_code": "74500"
  },
  {
    "name": "Excenevex",
    "code": "74121",
    "epci_code": "200067551",
    "departement_code": "74",
    "region_code": "84",
    "postal_code": "74140"
  },
  {
    "name": "Faucigny",
    "code": "74122",
    "epci_code": "247400666",
    "departement_code": "74",
    "region_code": "84",
    "postal_code": "74130"
  },
  {
    "name": "Faverges-Seythenex",
    "code": "74123",
    "epci_code": "247400773",
    "departement_code": "74",
    "region_code": "84",
    "postal_code": "74210"
  },
  {
    "name": "Feigères",
    "code": "74124",
    "epci_code": "247400690",
    "departement_code": "74",
    "region_code": "84",
    "postal_code": "74160"
  },
  {
    "name": "Fessy",
    "code": "74126",
    "epci_code": "200067551",
    "departement_code": "74",
    "region_code": "84",
    "postal_code": "74890"
  },
  {
    "name": "Féternes",
    "code": "74127",
    "epci_code": "200071967",
    "departement_code": "74",
    "region_code": "84",
    "postal_code": "74500"
  },
  {
    "name": "Fillinges",
    "code": "74128",
    "epci_code": "247400666",
    "departement_code": "74",
    "region_code": "84",
    "postal_code": "74250"
  },
  {
    "name": "La Forclaz",
    "code": "74129",
    "epci_code": "247400682",
    "departement_code": "74",
    "region_code": "84",
    "postal_code": "74200"
  },
  {
    "name": "Franclens",
    "code": "74130",
    "epci_code": "200070852",
    "departement_code": "74",
    "region_code": "84",
    "postal_code": "74910"
  },
  {
    "name": "Frangy",
    "code": "74131",
    "epci_code": "200070852",
    "departement_code": "74",
    "region_code": "84",
    "postal_code": "74270"
  },
  {
    "name": "Gaillard",
    "code": "74133",
    "epci_code": "200011773",
    "departement_code": "74",
    "region_code": "84",
    "postal_code": "74240"
  },
  {
    "name": "Les Gets",
    "code": "74134",
    "epci_code": "247400682",
    "departement_code": "74",
    "region_code": "84",
    "postal_code": "74260"
  },
  {
    "name": "Giez",
    "code": "74135",
    "epci_code": "247400773",
    "departement_code": "74",
    "region_code": "84",
    "postal_code": "74210"
  },
  {
    "name": "Le Grand-Bornand",
    "code": "74136",
    "epci_code": "247400617",
    "departement_code": "74",
    "region_code": "84",
    "postal_code": "74450"
  },
  {
    "name": "Groisy",
    "code": "74137",
    "epci_code": "200066793",
    "departement_code": "74",
    "region_code": "84",
    "postal_code": "74570"
  },
  {
    "name": "Gruffy",
    "code": "74138",
    "epci_code": "200066793",
    "departement_code": "74",
    "region_code": "84",
    "postal_code": "74540"
  },
  {
    "name": "Habère-Lullin",
    "code": "74139",
    "epci_code": "247400047",
    "departement_code": "74",
    "region_code": "84",
    "postal_code": "74420"
  },
  {
    "name": "Habère-Poche",
    "code": "74140",
    "epci_code": "247400047",
    "departement_code": "74",
    "region_code": "84",
    "postal_code": "74420"
  },
  {
    "name": "Hauteville-sur-Fier",
    "code": "74141",
    "epci_code": "247400740",
    "departement_code": "74",
    "region_code": "84",
    "postal_code": "74150"
  },
  {
    "name": "Héry-sur-Alby",
    "code": "74142",
    "epci_code": "200066793",
    "departement_code": "74",
    "region_code": "84",
    "postal_code": "74540"
  },
  {
    "name": "Les Houches",
    "code": "74143",
    "epci_code": "200023372",
    "departement_code": "74",
    "region_code": "84",
    "postal_code": "74310"
  },
  {
    "name": "Jonzier-Épagny",
    "code": "74144",
    "epci_code": "247400690",
    "departement_code": "74",
    "region_code": "84",
    "postal_code": "74520"
  },
  {
    "name": "Juvigny",
    "code": "74145",
    "epci_code": "200011773",
    "departement_code": "74",
    "region_code": "84",
    "postal_code": "74100"
  },
  {
    "name": "Larringes",
    "code": "74146",
    "epci_code": "200071967",
    "departement_code": "74",
    "region_code": "84",
    "postal_code": "74500"
  },
  {
    "name": "Lathuile",
    "code": "74147",
    "epci_code": "247400773",
    "departement_code": "74",
    "region_code": "84",
    "postal_code": "74210"
  },
  {
    "name": "Leschaux",
    "code": "74148",
    "epci_code": "200066793",
    "departement_code": "74",
    "region_code": "84",
    "postal_code": "74320"
  },
  {
    "name": "Loisin",
    "code": "74150",
    "epci_code": "200067551",
    "departement_code": "74",
    "region_code": "84",
    "postal_code": "74140"
  },
  {
    "name": "Lornay",
    "code": "74151",
    "epci_code": "247400740",
    "departement_code": "74",
    "region_code": "84",
    "postal_code": "74150"
  },
  {
    "name": "Lovagny",
    "code": "74152",
    "epci_code": "247400567",
    "departement_code": "74",
    "region_code": "84",
    "postal_code": "74330"
  },
  {
    "name": "Lucinges",
    "code": "74153",
    "epci_code": "200011773",
    "departement_code": "74",
    "region_code": "84",
    "postal_code": "74380"
  },
  {
    "name": "Lugrin",
    "code": "74154",
    "epci_code": "200071967",
    "departement_code": "74",
    "region_code": "84",
    "postal_code": "74500"
  },
  {
    "name": "Lullin",
    "code": "74155",
    "epci_code": "247400682",
    "departement_code": "74",
    "region_code": "84",
    "postal_code": "74470"
  },
  {
    "name": "Lully",
    "code": "74156",
    "epci_code": "200067551",
    "departement_code": "74",
    "region_code": "84",
    "postal_code": "74890"
  },
  {
    "name": "Lyaud",
    "code": "74157",
    "epci_code": "200067551",
    "departement_code": "74",
    "region_code": "84",
    "postal_code": "74200"
  },
  {
    "name": "Machilly",
    "code": "74158",
    "epci_code": "200011773",
    "departement_code": "74",
    "region_code": "84",
    "postal_code": "74140"
  },
  {
    "name": "Magland",
    "code": "74159",
    "epci_code": "200033116",
    "departement_code": "74",
    "region_code": "84",
    "postal_code": "74300"
  },
  {
    "name": "Manigod",
    "code": "74160",
    "epci_code": "247400617",
    "departement_code": "74",
    "region_code": "84",
    "postal_code": "74230"
  },
  {
    "name": "Marcellaz-Albanais",
    "code": "74161",
    "epci_code": "247400740",
    "departement_code": "74",
    "region_code": "84",
    "postal_code": "74150"
  },
  {
    "name": "Marcellaz",
    "code": "74162",
    "epci_code": "247400666",
    "departement_code": "74",
    "region_code": "84",
    "postal_code": "74250"
  },
  {
    "name": "Margencel",
    "code": "74163",
    "epci_code": "200067551",
    "departement_code": "74",
    "region_code": "84",
    "postal_code": "74200"
  },
  {
    "name": "Marignier",
    "code": "74164",
    "epci_code": "200000172",
    "departement_code": "74",
    "region_code": "84",
    "postal_code": "74970"
  },
  {
    "name": "Marigny-Saint-Marcel",
    "code": "74165",
    "epci_code": "247400740",
    "departement_code": "74",
    "region_code": "84",
    "postal_code": "74150"
  },
  {
    "name": "Marin",
    "code": "74166",
    "epci_code": "200071967",
    "departement_code": "74",
    "region_code": "84",
    "postal_code": "74200"
  },
  {
    "name": "Val de Chaise",
    "code": "74167",
    "epci_code": "247400773",
    "departement_code": "74",
    "region_code": "84",
    "postal_code": "74210"
  },
  {
    "name": "Marlioz",
    "code": "74168",
    "epci_code": "200070852",
    "departement_code": "74",
    "region_code": "84",
    "postal_code": "74270"
  },
  {
    "name": "Marnaz",
    "code": "74169",
    "epci_code": "200033116",
    "departement_code": "74",
    "region_code": "84",
    "postal_code": "74460"
  },
  {
    "name": "Massingy",
    "code": "74170",
    "epci_code": "247400740",
    "departement_code": "74",
    "region_code": "84",
    "postal_code": "74150"
  },
  {
    "name": "Massongy",
    "code": "74171",
    "epci_code": "200067551",
    "departement_code": "74",
    "region_code": "84",
    "postal_code": "74140"
  },
  {
    "name": "Maxilly-sur-Léman",
    "code": "74172",
    "epci_code": "200071967",
    "departement_code": "74",
    "region_code": "84",
    "postal_code": "74500"
  },
  {
    "name": "Megève",
    "code": "74173",
    "epci_code": "200034882",
    "departement_code": "74",
    "region_code": "84",
    "postal_code": "74120"
  },
  {
    "name": "Mégevette",
    "code": "74174",
    "epci_code": "247400666",
    "departement_code": "74",
    "region_code": "84",
    "postal_code": "74490"
  },
  {
    "name": "Meillerie",
    "code": "74175",
    "epci_code": "200071967",
    "departement_code": "74",
    "region_code": "84",
    "postal_code": "74500"
  },
  {
    "name": "Menthon-Saint-Bernard",
    "code": "74176",
    "epci_code": "200066793",
    "departement_code": "74",
    "region_code": "84",
    "postal_code": "74290"
  },
  {
    "name": "Menthonnex-en-Bornes",
    "code": "74177",
    "epci_code": "247400112",
    "departement_code": "74",
    "region_code": "84",
    "postal_code": "74350"
  },
  {
    "name": "Menthonnex-sous-Clermont",
    "code": "74178",
    "epci_code": "200070852",
    "departement_code": "74",
    "region_code": "84",
    "postal_code": "74270"
  },
  {
    "name": "Mésigny",
    "code": "74179",
    "epci_code": "247400567",
    "departement_code": "74",
    "region_code": "84",
    "postal_code": "74330"
  },
  {
    "name": "Messery",
    "code": "74180",
    "epci_code": "200067551",
    "departement_code": "74",
    "region_code": "84",
    "postal_code": "74140"
  },
  {
    "name": "Mieussy",
    "code": "74183",
    "epci_code": "200034098",
    "departement_code": "74",
    "region_code": "84",
    "postal_code": "74440"
  },
  {
    "name": "Minzier",
    "code": "74184",
    "epci_code": "200070852",
    "departement_code": "74",
    "region_code": "84",
    "postal_code": "74270"
  },
  {
    "name": "Monnetier-Mornex",
    "code": "74185",
    "epci_code": "247400583",
    "departement_code": "74",
    "region_code": "84",
    "postal_code": "74560"
  },
  {
    "name": "Montagny-les-Lanches",
    "code": "74186",
    "epci_code": "200066793",
    "departement_code": "74",
    "region_code": "84",
    "postal_code": "74600"
  },
  {
    "name": "Montriond",
    "code": "74188",
    "epci_code": "247400682",
    "departement_code": "74",
    "region_code": "84",
    "postal_code": "74110"
  },
  {
    "name": "Mont-Saxonnex",
    "code": "74189",
    "epci_code": "200033116",
    "departement_code": "74",
    "region_code": "84",
    "postal_code": "74130"
  },
  {
    "name": "Morillon",
    "code": "74190",
    "epci_code": "200034098",
    "departement_code": "74",
    "region_code": "84",
    "postal_code": "74440"
  },
  {
    "name": "Morzine",
    "code": "74191",
    "epci_code": "247400682",
    "departement_code": "74",
    "region_code": "84",
    "postal_code": "74110"
  },
  {
    "name": "Moye",
    "code": "74192",
    "epci_code": "247400740",
    "departement_code": "74",
    "region_code": "84",
    "postal_code": "74150"
  },
  {
    "name": "La Muraz",
    "code": "74193",
    "epci_code": "247400583",
    "departement_code": "74",
    "region_code": "84",
    "postal_code": "74560"
  },
  {
    "name": "Mûres",
    "code": "74194",
    "epci_code": "200066793",
    "departement_code": "74",
    "region_code": "84",
    "postal_code": "74540"
  },
  {
    "name": "Musièges",
    "code": "74195",
    "epci_code": "200070852",
    "departement_code": "74",
    "region_code": "84",
    "postal_code": "74270"
  },
  {
    "name": "Nancy-sur-Cluses",
    "code": "74196",
    "epci_code": "200033116",
    "departement_code": "74",
    "region_code": "84",
    "postal_code": "74300"
  },
  {
    "name": "Nangy",
    "code": "74197",
    "epci_code": "247400583",
    "departement_code": "74",
    "region_code": "84",
    "postal_code": "74380"
  },
  {
    "name": "Nâves-Parmelan",
    "code": "74198",
    "epci_code": "200066793",
    "departement_code": "74",
    "region_code": "84",
    "postal_code": "74370"
  },
  {
    "name": "Nernier",
    "code": "74199",
    "epci_code": "200067551",
    "departement_code": "74",
    "region_code": "84",
    "postal_code": "74140"
  },
  {
    "name": "Neuvecelle",
    "code": "74200",
    "epci_code": "200071967",
    "departement_code": "74",
    "region_code": "84",
    "postal_code": "74500"
  },
  {
    "name": "Neydens",
    "code": "74201",
    "epci_code": "247400690",
    "departement_code": "74",
    "region_code": "84",
    "postal_code": "74160"
  },
  {
    "name": "Nonglard",
    "code": "74202",
    "epci_code": "247400567",
    "departement_code": "74",
    "region_code": "84",
    "postal_code": "74330"
  },
  {
    "name": "Novel",
    "code": "74203",
    "epci_code": "200071967",
    "departement_code": "74",
    "region_code": "84",
    "postal_code": "74500"
  },
  {
    "name": "Onnion",
    "code": "74205",
    "epci_code": "247400666",
    "departement_code": "74",
    "region_code": "84",
    "postal_code": "74490"
  },
  {
    "name": "Orcier",
    "code": "74206",
    "epci_code": "200067551",
    "departement_code": "74",
    "region_code": "84",
    "postal_code": "74550"
  },
  {
    "name": "Passy",
    "code": "74208",
    "epci_code": "200034882",
    "departement_code": "74",
    "region_code": "84",
    "postal_code": "74190"
  },
  {
    "name": "Peillonnex",
    "code": "74209",
    "epci_code": "247400666",
    "departement_code": "74",
    "region_code": "84",
    "postal_code": "74250"
  },
  {
    "name": "Perrignier",
    "code": "74210",
    "epci_code": "200067551",
    "departement_code": "74",
    "region_code": "84",
    "postal_code": "74550"
  },
  {
    "name": "Pers-Jussy",
    "code": "74211",
    "epci_code": "247400583",
    "departement_code": "74",
    "region_code": "84",
    "postal_code": "74930"
  },
  {
    "name": "Glières-Val-de-Borne",
    "code": "74212",
    "epci_code": "200000172",
    "departement_code": "74",
    "region_code": "84",
    "postal_code": "74130"
  },
  {
    "name": "Poisy",
    "code": "74213",
    "epci_code": "200066793",
    "departement_code": "74",
    "region_code": "84",
    "postal_code": "74330"
  },
  {
    "name": "Praz-sur-Arly",
    "code": "74215",
    "epci_code": "200034882",
    "departement_code": "74",
    "region_code": "84",
    "postal_code": "74120"
  },
  {
    "name": "Présilly",
    "code": "74216",
    "epci_code": "247400690",
    "departement_code": "74",
    "region_code": "84",
    "postal_code": "74160"
  },
  {
    "name": "Publier",
    "code": "74218",
    "epci_code": "200071967",
    "departement_code": "74",
    "region_code": "84",
    "postal_code": "74500"
  },
  {
    "name": "Quintal",
    "code": "74219",
    "epci_code": "200066793",
    "departement_code": "74",
    "region_code": "84",
    "postal_code": "74600"
  },
  {
    "name": "Reignier-Ésery",
    "code": "74220",
    "epci_code": "247400583",
    "departement_code": "74",
    "region_code": "84",
    "postal_code": "74930"
  },
  {
    "name": "Le Reposoir",
    "code": "74221",
    "epci_code": "200033116",
    "departement_code": "74",
    "region_code": "84",
    "postal_code": "74950"
  },
  {
    "name": "Reyvroz",
    "code": "74222",
    "epci_code": "247400682",
    "departement_code": "74",
    "region_code": "84",
    "postal_code": "74200"
  },
  {
    "name": "La Rivière-Enverse",
    "code": "74223",
    "epci_code": "200034098",
    "departement_code": "74",
    "region_code": "84",
    "postal_code": "74440"
  },
  {
    "name": "La Roche-sur-Foron",
    "code": "74224",
    "epci_code": "247400724",
    "departement_code": "74",
    "region_code": "84",
    "postal_code": "74800"
  },
  {
    "name": "Rumilly",
    "code": "74225",
    "epci_code": "247400740",
    "departement_code": "74",
    "region_code": "84",
    "postal_code": "74150"
  },
  {
    "name": "Saint-André-de-Boëge",
    "code": "74226",
    "epci_code": "247400047",
    "departement_code": "74",
    "region_code": "84",
    "postal_code": "74420"
  },
  {
    "name": "Saint-Blaise",
    "code": "74228",
    "epci_code": "247400112",
    "departement_code": "74",
    "region_code": "84",
    "postal_code": "74350"
  },
  {
    "name": "Saint-Cergues",
    "code": "74229",
    "epci_code": "200011773",
    "departement_code": "74",
    "region_code": "84",
    "postal_code": "74140"
  },
  {
    "name": "Saint-Eusèbe",
    "code": "74231",
    "epci_code": "247400740",
    "departement_code": "74",
    "region_code": "84",
    "postal_code": "74150"
  },
  {
    "name": "Saint-Eustache",
    "code": "74232",
    "epci_code": "200066793",
    "departement_code": "74",
    "region_code": "84",
    "postal_code": "74410"
  },
  {
    "name": "Saint-Félix",
    "code": "74233",
    "epci_code": "200066793",
    "departement_code": "74",
    "region_code": "84",
    "postal_code": "74540"
  },
  {
    "name": "Saint-Ferréol",
    "code": "74234",
    "epci_code": "247400773",
    "departement_code": "74",
    "region_code": "84",
    "postal_code": "74210"
  },
  {
    "name": "Saint-Germain-sur-Rhône",
    "code": "74235",
    "epci_code": "200070852",
    "departement_code": "74",
    "region_code": "84",
    "postal_code": "74910"
  },
  {
    "name": "Saint-Gervais-les-Bains",
    "code": "74236",
    "epci_code": "200034882",
    "departement_code": "74",
    "region_code": "84",
    "postal_code": "74170"
  },
  {
    "name": "Saint-Gingolph",
    "code": "74237",
    "epci_code": "200071967",
    "departement_code": "74",
    "region_code": "84",
    "postal_code": "74500"
  },
  {
    "name": "Saint-Jean-d’Aulps",
    "code": "74238",
    "epci_code": "247400682",
    "departement_code": "74",
    "region_code": "84",
    "postal_code": "74430"
  },
  {
    "name": "Saint-Jean-de-Sixt",
    "code": "74239",
    "epci_code": "247400617",
    "departement_code": "74",
    "region_code": "84",
    "postal_code": "74450"
  },
  {
    "name": "Saint-Jean-de-Tholome",
    "code": "74240",
    "epci_code": "247400666",
    "departement_code": "74",
    "region_code": "84",
    "postal_code": "74250"
  },
  {
    "name": "Saint-Jeoire",
    "code": "74241",
    "epci_code": "247400666",
    "departement_code": "74",
    "region_code": "84",
    "postal_code": "74490"
  },
  {
    "name": "Saint-Jorioz",
    "code": "74242",
    "epci_code": "200066793",
    "departement_code": "74",
    "region_code": "84",
    "postal_code": "74410"
  },
  {
    "name": "Saint-Julien-en-Genevois",
    "code": "74243",
    "epci_code": "247400690",
    "departement_code": "74",
    "region_code": "84",
    "postal_code": "74160"
  },
  {
    "name": "Saint-Laurent",
    "code": "74244",
    "epci_code": "247400724",
    "departement_code": "74",
    "region_code": "84",
    "postal_code": "74800"
  },
  {
    "name": "Saint-Paul-en-Chablais",
    "code": "74249",
    "epci_code": "200071967",
    "departement_code": "74",
    "region_code": "84",
    "postal_code": "74500"
  },
  {
    "name": "Saint-Pierre-en-Faucigny",
    "code": "74250",
    "epci_code": "247400724",
    "departement_code": "74",
    "region_code": "84",
    "postal_code": "74800"
  },
  {
    "name": "Saint-Sigismond",
    "code": "74252",
    "epci_code": "200033116",
    "departement_code": "74",
    "region_code": "84",
    "postal_code": "74300"
  },
  {
    "name": "Saint-Sixt",
    "code": "74253",
    "epci_code": "247400724",
    "departement_code": "74",
    "region_code": "84",
    "postal_code": "74800"
  },
  {
    "name": "Saint-Sylvestre",
    "code": "74254",
    "epci_code": "200066793",
    "departement_code": "74",
    "region_code": "84",
    "postal_code": "74540"
  },
  {
    "name": "Sales",
    "code": "74255",
    "epci_code": "247400740",
    "departement_code": "74",
    "region_code": "84",
    "postal_code": "74150"
  },
  {
    "name": "Sallanches",
    "code": "74256",
    "epci_code": "200034882",
    "departement_code": "74",
    "region_code": "84",
    "postal_code": "74700"
  },
  {
    "name": "Sallenôves",
    "code": "74257",
    "epci_code": "247400567",
    "departement_code": "74",
    "region_code": "84",
    "postal_code": "74270"
  },
  {
    "name": "Samoëns",
    "code": "74258",
    "epci_code": "200034098",
    "departement_code": "74",
    "region_code": "84",
    "postal_code": "74340"
  },
  {
    "name": "Le Sappey",
    "code": "74259",
    "epci_code": "247400112",
    "departement_code": "74",
    "region_code": "84",
    "postal_code": "74350"
  },
  {
    "name": "Savigny",
    "code": "74260",
    "epci_code": "247400690",
    "departement_code": "74",
    "region_code": "84",
    "postal_code": "74520"
  },
  {
    "name": "Saxel",
    "code": "74261",
    "epci_code": "247400047",
    "departement_code": "74",
    "region_code": "84",
    "postal_code": "74420"
  },
  {
    "name": "Scientrier",
    "code": "74262",
    "epci_code": "247400583",
    "departement_code": "74",
    "region_code": "84",
    "postal_code": "74930"
  },
  {
    "name": "Sciez",
    "code": "74263",
    "epci_code": "200067551",
    "departement_code": "74",
    "region_code": "84",
    "postal_code": "74140"
  },
  {
    "name": "Scionzier",
    "code": "74264",
    "epci_code": "200033116",
    "departement_code": "74",
    "region_code": "84",
    "postal_code": "74950"
  },
  {
    "name": "Serraval",
    "code": "74265",
    "epci_code": "247400617",
    "departement_code": "74",
    "region_code": "84",
    "postal_code": "74230"
  },
  {
    "name": "Servoz",
    "code": "74266",
    "epci_code": "200023372",
    "departement_code": "74",
    "region_code": "84",
    "postal_code": "74310"
  },
  {
    "name": "Sevrier",
    "code": "74267",
    "epci_code": "200066793",
    "departement_code": "74",
    "region_code": "84",
    "postal_code": "74320"
  },
  {
    "name": "Seyssel",
    "code": "74269",
    "epci_code": "200070852",
    "departement_code": "74",
    "region_code": "84",
    "postal_code": "74910"
  },
  {
    "name": "Seytroux",
    "code": "74271",
    "epci_code": "247400682",
    "departement_code": "74",
    "region_code": "84",
    "postal_code": "74430"
  },
  {
    "name": "Sillingy",
    "code": "74272",
    "epci_code": "247400567",
    "departement_code": "74",
    "region_code": "84",
    "postal_code": "74330"
  },
  {
    "name": "Sixt-Fer-à-Cheval",
    "code": "74273",
    "epci_code": "200034098",
    "departement_code": "74",
    "region_code": "84",
    "postal_code": "74740"
  },
  {
    "name": "Talloires-Montmin",
    "code": "74275",
    "epci_code": "200066793",
    "departement_code": "74",
    "region_code": "84",
    "postal_code": "74210"
  },
  {
    "name": "Talloires-Montmin",
    "code": "74275",
    "epci_code": "200066793",
    "departement_code": "74",
    "region_code": "84",
    "postal_code": "74290"
  },
  {
    "name": "Taninges",
    "code": "74276",
    "epci_code": "200034098",
    "departement_code": "74",
    "region_code": "84",
    "postal_code": "74440"
  },
  {
    "name": "Thyez",
    "code": "74278",
    "epci_code": "200033116",
    "departement_code": "74",
    "region_code": "84",
    "postal_code": "74300"
  },
  {
    "name": "Thollon-les-Mémises",
    "code": "74279",
    "epci_code": "200071967",
    "departement_code": "74",
    "region_code": "84",
    "postal_code": "74500"
  },
  {
    "name": "Thônes",
    "code": "74280",
    "epci_code": "247400617",
    "departement_code": "74",
    "region_code": "84",
    "postal_code": "74230"
  },
  {
    "name": "Thonon-les-Bains",
    "code": "74281",
    "epci_code": "200067551",
    "departement_code": "74",
    "region_code": "84",
    "postal_code": "74200"
  },
  {
    "name": "Fillière",
    "code": "74282",
    "epci_code": "200066793",
    "departement_code": "74",
    "region_code": "84",
    "postal_code": "74370"
  },
  {
    "name": "Fillière",
    "code": "74282",
    "epci_code": "200066793",
    "departement_code": "74",
    "region_code": "84",
    "postal_code": "74570"
  },
  {
    "name": "Thusy",
    "code": "74283",
    "epci_code": "247400740",
    "departement_code": "74",
    "region_code": "84",
    "postal_code": "74150"
  },
  {
    "name": "La Tour",
    "code": "74284",
    "epci_code": "247400666",
    "departement_code": "74",
    "region_code": "84",
    "postal_code": "74250"
  },
  {
    "name": "Usinens",
    "code": "74285",
    "epci_code": "200070852",
    "departement_code": "74",
    "region_code": "84",
    "postal_code": "74910"
  },
  {
    "name": "Vacheresse",
    "code": "74286",
    "epci_code": "200071967",
    "departement_code": "74",
    "region_code": "84",
    "postal_code": "74360"
  },
  {
    "name": "Vailly",
    "code": "74287",
    "epci_code": "247400682",
    "departement_code": "74",
    "region_code": "84",
    "postal_code": "74470"
  },
  {
    "name": "Valleiry",
    "code": "74288",
    "epci_code": "247400690",
    "departement_code": "74",
    "region_code": "84",
    "postal_code": "74520"
  },
  {
    "name": "Vallières-sur-Fier",
    "code": "74289",
    "epci_code": "247400740",
    "departement_code": "74",
    "region_code": "84",
    "postal_code": "74150"
  },
  {
    "name": "Vallorcine",
    "code": "74290",
    "epci_code": "200023372",
    "departement_code": "74",
    "region_code": "84",
    "postal_code": "74660"
  },
  {
    "name": "Vanzy",
    "code": "74291",
    "epci_code": "200070852",
    "departement_code": "74",
    "region_code": "84",
    "postal_code": "74270"
  },
  {
    "name": "Vaulx",
    "code": "74292",
    "epci_code": "247400740",
    "departement_code": "74",
    "region_code": "84",
    "postal_code": "74150"
  },
  {
    "name": "Veigy-Foncenex",
    "code": "74293",
    "epci_code": "200067551",
    "departement_code": "74",
    "region_code": "84",
    "postal_code": "74140"
  },
  {
    "name": "Verchaix",
    "code": "74294",
    "epci_code": "200034098",
    "departement_code": "74",
    "region_code": "84",
    "postal_code": "74440"
  },
  {
    "name": "La Vernaz",
    "code": "74295",
    "epci_code": "247400682",
    "departement_code": "74",
    "region_code": "84",
    "postal_code": "74200"
  },
  {
    "name": "Vers",
    "code": "74296",
    "epci_code": "247400690",
    "departement_code": "74",
    "region_code": "84",
    "postal_code": "74160"
  },
  {
    "name": "Versonnex",
    "code": "74297",
    "epci_code": "247400740",
    "departement_code": "74",
    "region_code": "84",
    "postal_code": "74150"
  },
  {
    "name": "Vétraz-Monthoux",
    "code": "74298",
    "epci_code": "200011773",
    "departement_code": "74",
    "region_code": "84",
    "postal_code": "74100"
  },
  {
    "name": "Veyrier-du-Lac",
    "code": "74299",
    "epci_code": "200066793",
    "departement_code": "74",
    "region_code": "84",
    "postal_code": "74290"
  },
  {
    "name": "Villard",
    "code": "74301",
    "epci_code": "247400047",
    "departement_code": "74",
    "region_code": "84",
    "postal_code": "74420"
  },
  {
    "name": "Les Villards-sur-Thônes",
    "code": "74302",
    "epci_code": "247400617",
    "departement_code": "74",
    "region_code": "84",
    "postal_code": "74230"
  },
  {
    "name": "Villaz",
    "code": "74303",
    "epci_code": "200066793",
    "departement_code": "74",
    "region_code": "84",
    "postal_code": "74370"
  },
  {
    "name": "Ville-en-Sallaz",
    "code": "74304",
    "epci_code": "247400666",
    "departement_code": "74",
    "region_code": "84",
    "postal_code": "74250"
  },
  {
    "name": "Ville-la-Grand",
    "code": "74305",
    "epci_code": "200011773",
    "departement_code": "74",
    "region_code": "84",
    "postal_code": "74100"
  },
  {
    "name": "Villy-le-Bouveret",
    "code": "74306",
    "epci_code": "247400112",
    "departement_code": "74",
    "region_code": "84",
    "postal_code": "74350"
  },
  {
    "name": "Villy-le-Pelloux",
    "code": "74307",
    "epci_code": "247400112",
    "departement_code": "74",
    "region_code": "84",
    "postal_code": "74350"
  },
  {
    "name": "Vinzier",
    "code": "74308",
    "epci_code": "200071967",
    "departement_code": "74",
    "region_code": "84",
    "postal_code": "74500"
  },
  {
    "name": "Viry",
    "code": "74309",
    "epci_code": "247400690",
    "departement_code": "74",
    "region_code": "84",
    "postal_code": "74580"
  },
  {
    "name": "Viuz-la-Chiésaz",
    "code": "74310",
    "epci_code": "200066793",
    "departement_code": "74",
    "region_code": "84",
    "postal_code": "74540"
  },
  {
    "name": "Viuz-en-Sallaz",
    "code": "74311",
    "epci_code": "247400666",
    "departement_code": "74",
    "region_code": "84",
    "postal_code": "74250"
  },
  {
    "name": "Vougy",
    "code": "74312",
    "epci_code": "200000172",
    "departement_code": "74",
    "region_code": "84",
    "postal_code": "74130"
  },
  {
    "name": "Vovray-en-Bornes",
    "code": "74313",
    "epci_code": "247400112",
    "departement_code": "74",
    "region_code": "84",
    "postal_code": "74350"
  },
  {
    "name": "Vulbens",
    "code": "74314",
    "epci_code": "247400690",
    "departement_code": "74",
    "region_code": "84",
    "postal_code": "74520"
  },
  {
    "name": "Yvoire",
    "code": "74315",
    "epci_code": "200067551",
    "departement_code": "74",
    "region_code": "84",
    "postal_code": "74140"
  }
]