[
  {
    "name": "Aigremont",
    "code": "89002",
    "epci_code": "200067080",
    "departement_code": "89",
    "region_code": "27",
    "postal_code": "89800"
  },
  {
    "name": "Montholon",
    "code": "89003",
    "epci_code": "248900524",
    "departement_code": "89",
    "region_code": "27",
    "postal_code": "89110"
  },
  {
    "name": "Montholon",
    "code": "89003",
    "epci_code": "248900524",
    "departement_code": "89",
    "region_code": "27",
    "postal_code": "89710"
  },
  {
    "name": "Aisy-sur-Armançon",
    "code": "89004",
    "epci_code": "200039642",
    "departement_code": "89",
    "region_code": "27",
    "postal_code": "89390"
  },
  {
    "name": "Ancy-le-Franc",
    "code": "89005",
    "epci_code": "200039642",
    "departement_code": "89",
    "region_code": "27",
    "postal_code": "89160"
  },
  {
    "name": "Ancy-le-Libre",
    "code": "89006",
    "epci_code": "200039642",
    "departement_code": "89",
    "region_code": "27",
    "postal_code": "89160"
  },
  {
    "name": "Andryes",
    "code": "89007",
    "epci_code": "200067130",
    "departement_code": "89",
    "region_code": "27",
    "postal_code": "89480"
  },
  {
    "name": "Angely",
    "code": "89008",
    "epci_code": "200039709",
    "departement_code": "89",
    "region_code": "27",
    "postal_code": "89440"
  },
  {
    "name": "Annay-la-Côte",
    "code": "89009",
    "epci_code": "200039758",
    "departement_code": "89",
    "region_code": "27",
    "postal_code": "89200"
  },
  {
    "name": "Annay-sur-Serein",
    "code": "89010",
    "epci_code": "200039709",
    "departement_code": "89",
    "region_code": "27",
    "postal_code": "89310"
  },
  {
    "name": "Annéot",
    "code": "89011",
    "epci_code": "200039758",
    "departement_code": "89",
    "region_code": "27",
    "postal_code": "89200"
  },
  {
    "name": "Annoux",
    "code": "89012",
    "epci_code": "200039709",
    "departement_code": "89",
    "region_code": "27",
    "postal_code": "89440"
  },
  {
    "name": "Appoigny",
    "code": "89013",
    "epci_code": "200067114",
    "departement_code": "89",
    "region_code": "27",
    "postal_code": "89380"
  },
  {
    "name": "Arces-Dilo",
    "code": "89014",
    "epci_code": "248900664",
    "departement_code": "89",
    "region_code": "27",
    "postal_code": "89320"
  },
  {
    "name": "Arcy-sur-Cure",
    "code": "89015",
    "epci_code": "200039758",
    "departement_code": "89",
    "region_code": "27",
    "postal_code": "89270"
  },
  {
    "name": "Argentenay",
    "code": "89016",
    "epci_code": "200039642",
    "departement_code": "89",
    "region_code": "27",
    "postal_code": "89160"
  },
  {
    "name": "Argenteuil-sur-Armançon",
    "code": "89017",
    "epci_code": "200039642",
    "departement_code": "89",
    "region_code": "27",
    "postal_code": "89160"
  },
  {
    "name": "Armeau",
    "code": "89018",
    "epci_code": "248900334",
    "departement_code": "89",
    "region_code": "27",
    "postal_code": "89500"
  },
  {
    "name": "Arthonnay",
    "code": "89019",
    "epci_code": "200039642",
    "departement_code": "89",
    "region_code": "27",
    "postal_code": "89740"
  },
  {
    "name": "Asnières-sous-Bois",
    "code": "89020",
    "epci_code": "200039758",
    "departement_code": "89",
    "region_code": "27",
    "postal_code": "89660"
  },
  {
    "name": "Asquins",
    "code": "89021",
    "epci_code": "200039758",
    "departement_code": "89",
    "region_code": "27",
    "postal_code": "89450"
  },
  {
    "name": "Athie",
    "code": "89022",
    "epci_code": "200039758",
    "departement_code": "89",
    "region_code": "27",
    "postal_code": "89440"
  },
  {
    "name": "Augy",
    "code": "89023",
    "epci_code": "200067114",
    "departement_code": "89",
    "region_code": "27",
    "postal_code": "89290"
  },
  {
    "name": "Auxerre",
    "code": "89024",
    "epci_code": "200067114",
    "departement_code": "89",
    "region_code": "27",
    "postal_code": "89000"
  },
  {
    "name": "Auxerre",
    "code": "89024",
    "epci_code": "200067114",
    "departement_code": "89",
    "region_code": "27",
    "postal_code": "89290"
  },
  {
    "name": "Avallon",
    "code": "89025",
    "epci_code": "200039758",
    "departement_code": "89",
    "region_code": "27",
    "postal_code": "89200"
  },
  {
    "name": "Bagneaux",
    "code": "89027",
    "epci_code": "248900664",
    "departement_code": "89",
    "region_code": "27",
    "postal_code": "89190"
  },
  {
    "name": "Baon",
    "code": "89028",
    "epci_code": "200039642",
    "departement_code": "89",
    "region_code": "27",
    "postal_code": "89430"
  },
  {
    "name": "Bassou",
    "code": "89029",
    "epci_code": "248900383",
    "departement_code": "89",
    "region_code": "27",
    "postal_code": "89400"
  },
  {
    "name": "Bazarnes",
    "code": "89030",
    "epci_code": "200067080",
    "departement_code": "89",
    "region_code": "27",
    "postal_code": "89460"
  },
  {
    "name": "Beaumont",
    "code": "89031",
    "epci_code": "200067304",
    "departement_code": "89",
    "region_code": "27",
    "postal_code": "89250"
  },
  {
    "name": "Beauvilliers",
    "code": "89032",
    "epci_code": "200039758",
    "departement_code": "89",
    "region_code": "27",
    "postal_code": "89630"
  },
  {
    "name": "Beauvoir",
    "code": "89033",
    "epci_code": "200067130",
    "departement_code": "89",
    "region_code": "27",
    "postal_code": "89240"
  },
  {
    "name": "Beine",
    "code": "89034",
    "epci_code": "200067080",
    "departement_code": "89",
    "region_code": "27",
    "postal_code": "89800"
  },
  {
    "name": "Bellechaume",
    "code": "89035",
    "epci_code": "200067304",
    "departement_code": "89",
    "region_code": "27",
    "postal_code": "89210"
  },
  {
    "name": "La Belliole",
    "code": "89036",
    "epci_code": "248900748",
    "departement_code": "89",
    "region_code": "27",
    "postal_code": "89150"
  },
  {
    "name": "Béon",
    "code": "89037",
    "epci_code": "248900938",
    "departement_code": "89",
    "region_code": "27",
    "postal_code": "89410"
  },
  {
    "name": "Bernouil",
    "code": "89038",
    "epci_code": "200039642",
    "departement_code": "89",
    "region_code": "27",
    "postal_code": "89360"
  },
  {
    "name": "Béru",
    "code": "89039",
    "epci_code": "200067080",
    "departement_code": "89",
    "region_code": "27",
    "postal_code": "89700"
  },
  {
    "name": "Bessy-sur-Cure",
    "code": "89040",
    "epci_code": "200067080",
    "departement_code": "89",
    "region_code": "27",
    "postal_code": "89270"
  },
  {
    "name": "Beugnon",
    "code": "89041",
    "epci_code": "200067304",
    "departement_code": "89",
    "region_code": "27",
    "postal_code": "89570"
  },
  {
    "name": "Bierry-les-Belles-Fontaines",
    "code": "89042",
    "epci_code": "200039709",
    "departement_code": "89",
    "region_code": "27",
    "postal_code": "89420"
  },
  {
    "name": "Blacy",
    "code": "89043",
    "epci_code": "200039709",
    "departement_code": "89",
    "region_code": "27",
    "postal_code": "89440"
  },
  {
    "name": "Blannay",
    "code": "89044",
    "epci_code": "200039758",
    "departement_code": "89",
    "region_code": "27",
    "postal_code": "89200"
  },
  {
    "name": "Bleigny-le-Carreau",
    "code": "89045",
    "epci_code": "200067114",
    "departement_code": "89",
    "region_code": "27",
    "postal_code": "89230"
  },
  {
    "name": "Bléneau",
    "code": "89046",
    "epci_code": "200067130",
    "departement_code": "89",
    "region_code": "27",
    "postal_code": "89220"
  },
  {
    "name": "Bœurs-en-Othe",
    "code": "89048",
    "epci_code": "248900664",
    "departement_code": "89",
    "region_code": "27",
    "postal_code": "89770"
  },
  {
    "name": "Bois-d’Arcy",
    "code": "89049",
    "epci_code": "200039758",
    "departement_code": "89",
    "region_code": "27",
    "postal_code": "89660"
  },
  {
    "name": "Bonnard",
    "code": "89050",
    "epci_code": "248900383",
    "departement_code": "89",
    "region_code": "27",
    "postal_code": "89400"
  },
  {
    "name": "Les Bordes",
    "code": "89051",
    "epci_code": "248900334",
    "departement_code": "89",
    "region_code": "27",
    "postal_code": "89500"
  },
  {
    "name": "Branches",
    "code": "89053",
    "epci_code": "200067114",
    "departement_code": "89",
    "region_code": "27",
    "postal_code": "89113"
  },
  {
    "name": "Brannay",
    "code": "89054",
    "epci_code": "248900748",
    "departement_code": "89",
    "region_code": "27",
    "postal_code": "89150"
  },
  {
    "name": "Brienon-sur-Armançon",
    "code": "89055",
    "epci_code": "200067304",
    "departement_code": "89",
    "region_code": "27",
    "postal_code": "89210"
  },
  {
    "name": "Brion",
    "code": "89056",
    "epci_code": "248900938",
    "departement_code": "89",
    "region_code": "27",
    "postal_code": "89400"
  },
  {
    "name": "Brosses",
    "code": "89057",
    "epci_code": "200039758",
    "departement_code": "89",
    "region_code": "27",
    "postal_code": "89660"
  },
  {
    "name": "Bussières",
    "code": "89058",
    "epci_code": "200039758",
    "departement_code": "89",
    "region_code": "27",
    "postal_code": "89630"
  },
  {
    "name": "Bussy-en-Othe",
    "code": "89059",
    "epci_code": "248900938",
    "departement_code": "89",
    "region_code": "27",
    "postal_code": "89400"
  },
  {
    "name": "Bussy-le-Repos",
    "code": "89060",
    "epci_code": "248900748",
    "departement_code": "89",
    "region_code": "27",
    "postal_code": "89500"
  },
  {
    "name": "Butteaux",
    "code": "89061",
    "epci_code": "200067304",
    "departement_code": "89",
    "region_code": "27",
    "postal_code": "89360"
  },
  {
    "name": "Carisey",
    "code": "89062",
    "epci_code": "200067080",
    "departement_code": "89",
    "region_code": "27",
    "postal_code": "89360"
  },
  {
    "name": "La Celle-Saint-Cyr",
    "code": "89063",
    "epci_code": "248900938",
    "departement_code": "89",
    "region_code": "27",
    "postal_code": "89116"
  },
  {
    "name": "Censy",
    "code": "89064",
    "epci_code": "200039709",
    "departement_code": "89",
    "region_code": "27",
    "postal_code": "89310"
  },
  {
    "name": "Cérilly",
    "code": "89065",
    "epci_code": "248900664",
    "departement_code": "89",
    "region_code": "27",
    "postal_code": "89320"
  },
  {
    "name": "Cerisiers",
    "code": "89066",
    "epci_code": "248900664",
    "departement_code": "89",
    "region_code": "27",
    "postal_code": "89320"
  },
  {
    "name": "Cézy",
    "code": "89067",
    "epci_code": "248900938",
    "departement_code": "89",
    "region_code": "27",
    "postal_code": "89410"
  },
  {
    "name": "Chablis",
    "code": "89068",
    "epci_code": "200067080",
    "departement_code": "89",
    "region_code": "27",
    "postal_code": "89800"
  },
  {
    "name": "Chailley",
    "code": "89069",
    "epci_code": "200067304",
    "departement_code": "89",
    "region_code": "27",
    "postal_code": "89770"
  },
  {
    "name": "Chamoux",
    "code": "89071",
    "epci_code": "200039758",
    "departement_code": "89",
    "region_code": "27",
    "postal_code": "89660"
  },
  {
    "name": "Champcevrais",
    "code": "89072",
    "epci_code": "200067130",
    "departement_code": "89",
    "region_code": "27",
    "postal_code": "89220"
  },
  {
    "name": "Champignelles",
    "code": "89073",
    "epci_code": "200067130",
    "departement_code": "89",
    "region_code": "27",
    "postal_code": "89350"
  },
  {
    "name": "Champigny",
    "code": "89074",
    "epci_code": "248900896",
    "departement_code": "89",
    "region_code": "27",
    "postal_code": "89340"
  },
  {
    "name": "Champlay",
    "code": "89075",
    "epci_code": "248900938",
    "departement_code": "89",
    "region_code": "27",
    "postal_code": "89300"
  },
  {
    "name": "Champlost",
    "code": "89076",
    "epci_code": "200067304",
    "departement_code": "89",
    "region_code": "27",
    "postal_code": "89210"
  },
  {
    "name": "Champs-sur-Yonne",
    "code": "89077",
    "epci_code": "200067114",
    "departement_code": "89",
    "region_code": "27",
    "postal_code": "89290"
  },
  {
    "name": "Chamvres",
    "code": "89079",
    "epci_code": "248900938",
    "departement_code": "89",
    "region_code": "27",
    "postal_code": "89300"
  },
  {
    "name": "La Chapelle-sur-Oreuse",
    "code": "89080",
    "epci_code": "248900896",
    "departement_code": "89",
    "region_code": "27",
    "postal_code": "89260"
  },
  {
    "name": "La Chapelle-Vaupelteigne",
    "code": "89081",
    "epci_code": "200067080",
    "departement_code": "89",
    "region_code": "27",
    "postal_code": "89800"
  },
  {
    "name": "Charbuy",
    "code": "89083",
    "epci_code": "200067114",
    "departement_code": "89",
    "region_code": "27",
    "postal_code": "89113"
  },
  {
    "name": "Charentenay",
    "code": "89084",
    "epci_code": "200067130",
    "departement_code": "89",
    "region_code": "27",
    "postal_code": "89580"
  },
  {
    "name": "Charmoy",
    "code": "89085",
    "epci_code": "248900383",
    "departement_code": "89",
    "region_code": "27",
    "postal_code": "89400"
  },
  {
    "name": "Charny Orée de Puisaye",
    "code": "89086",
    "epci_code": "200067130",
    "departement_code": "89",
    "region_code": "27",
    "postal_code": "89120"
  },
  {
    "name": "Chassignelles",
    "code": "89087",
    "epci_code": "200039642",
    "departement_code": "89",
    "region_code": "27",
    "postal_code": "89160"
  },
  {
    "name": "Chassy",
    "code": "89088",
    "epci_code": "248900524",
    "departement_code": "89",
    "region_code": "27",
    "postal_code": "89110"
  },
  {
    "name": "Chastellux-sur-Cure",
    "code": "89089",
    "epci_code": "200039758",
    "departement_code": "89",
    "region_code": "27",
    "postal_code": "89630"
  },
  {
    "name": "Châtel-Censoir",
    "code": "89091",
    "epci_code": "200039758",
    "departement_code": "89",
    "region_code": "27",
    "postal_code": "89660"
  },
  {
    "name": "Châtel-Gérard",
    "code": "89092",
    "epci_code": "200039709",
    "departement_code": "89",
    "region_code": "27",
    "postal_code": "89310"
  },
  {
    "name": "Chaumont",
    "code": "89093",
    "epci_code": "248900896",
    "departement_code": "89",
    "region_code": "27",
    "postal_code": "89340"
  },
  {
    "name": "Chaumot",
    "code": "89094",
    "epci_code": "248900748",
    "departement_code": "89",
    "region_code": "27",
    "postal_code": "89500"
  },
  {
    "name": "Chemilly-sur-Serein",
    "code": "89095",
    "epci_code": "200067080",
    "departement_code": "89",
    "region_code": "27",
    "postal_code": "89800"
  },
  {
    "name": "Chemilly-sur-Yonne",
    "code": "89096",
    "epci_code": "200067304",
    "departement_code": "89",
    "region_code": "27",
    "postal_code": "89250"
  },
  {
    "name": "Cheney",
    "code": "89098",
    "epci_code": "200039642",
    "departement_code": "89",
    "region_code": "27",
    "postal_code": "89700"
  },
  {
    "name": "Cheny",
    "code": "89099",
    "epci_code": "248900383",
    "departement_code": "89",
    "region_code": "27",
    "postal_code": "89400"
  },
  {
    "name": "Chéroy",
    "code": "89100",
    "epci_code": "248900748",
    "departement_code": "89",
    "region_code": "27",
    "postal_code": "89690"
  },
  {
    "name": "Chéu",
    "code": "89101",
    "epci_code": "200067304",
    "departement_code": "89",
    "region_code": "27",
    "postal_code": "89600"
  },
  {
    "name": "Chevannes",
    "code": "89102",
    "epci_code": "200067114",
    "departement_code": "89",
    "region_code": "27",
    "postal_code": "89240"
  },
  {
    "name": "Chichée",
    "code": "89104",
    "epci_code": "200067080",
    "departement_code": "89",
    "region_code": "27",
    "postal_code": "89800"
  },
  {
    "name": "Chichery",
    "code": "89105",
    "epci_code": "248900383",
    "departement_code": "89",
    "region_code": "27",
    "postal_code": "89400"
  },
  {
    "name": "Chitry",
    "code": "89108",
    "epci_code": "200067114",
    "departement_code": "89",
    "region_code": "27",
    "postal_code": "89530"
  },
  {
    "name": "Les Clérimois",
    "code": "89111",
    "epci_code": "248900664",
    "departement_code": "89",
    "region_code": "27",
    "postal_code": "89190"
  },
  {
    "name": "Collan",
    "code": "89112",
    "epci_code": "200039642",
    "departement_code": "89",
    "region_code": "27",
    "postal_code": "89700"
  },
  {
    "name": "Collemiers",
    "code": "89113",
    "epci_code": "248900334",
    "departement_code": "89",
    "region_code": "27",
    "postal_code": "89100"
  },
  {
    "name": "Compigny",
    "code": "89115",
    "epci_code": "248900896",
    "departement_code": "89",
    "region_code": "27",
    "postal_code": "89140"
  },
  {
    "name": "Cornant",
    "code": "89116",
    "epci_code": "248900748",
    "departement_code": "89",
    "region_code": "27",
    "postal_code": "89500"
  },
  {
    "name": "Coulangeron",
    "code": "89117",
    "epci_code": "200067130",
    "departement_code": "89",
    "region_code": "27",
    "postal_code": "89580"
  },
  {
    "name": "Coulanges-la-Vineuse",
    "code": "89118",
    "epci_code": "200067114",
    "departement_code": "89",
    "region_code": "27",
    "postal_code": "89580"
  },
  {
    "name": "Coulanges-sur-Yonne",
    "code": "89119",
    "epci_code": "200067429",
    "departement_code": "89",
    "region_code": "27",
    "postal_code": "89480"
  },
  {
    "name": "Coulours",
    "code": "89120",
    "epci_code": "248900664",
    "departement_code": "89",
    "region_code": "27",
    "postal_code": "89320"
  },
  {
    "name": "Courgenay",
    "code": "89122",
    "epci_code": "248900664",
    "departement_code": "89",
    "region_code": "27",
    "postal_code": "89190"
  },
  {
    "name": "Courgis",
    "code": "89123",
    "epci_code": "200067080",
    "departement_code": "89",
    "region_code": "27",
    "postal_code": "89800"
  },
  {
    "name": "Courlon-sur-Yonne",
    "code": "89124",
    "epci_code": "248900896",
    "departement_code": "89",
    "region_code": "27",
    "postal_code": "89140"
  },
  {
    "name": "Courson-les-Carrières",
    "code": "89125",
    "epci_code": "200067130",
    "departement_code": "89",
    "region_code": "27",
    "postal_code": "89560"
  },
  {
    "name": "Courtoin",
    "code": "89126",
    "epci_code": "248900748",
    "departement_code": "89",
    "region_code": "27",
    "postal_code": "89150"
  },
  {
    "name": "Courtois-sur-Yonne",
    "code": "89127",
    "epci_code": "248900334",
    "departement_code": "89",
    "region_code": "27",
    "postal_code": "89100"
  },
  {
    "name": "Coutarnoux",
    "code": "89128",
    "epci_code": "200039709",
    "departement_code": "89",
    "region_code": "27",
    "postal_code": "89440"
  },
  {
    "name": "Crain",
    "code": "89129",
    "epci_code": "200067429",
    "departement_code": "89",
    "region_code": "27",
    "postal_code": "89480"
  },
  {
    "name": "Deux Rivières",
    "code": "89130",
    "epci_code": "200067080",
    "departement_code": "89",
    "region_code": "27",
    "postal_code": "89460"
  },
  {
    "name": "Cruzy-le-Châtel",
    "code": "89131",
    "epci_code": "200039642",
    "departement_code": "89",
    "region_code": "27",
    "postal_code": "89740"
  },
  {
    "name": "Cry",
    "code": "89132",
    "epci_code": "200039642",
    "departement_code": "89",
    "region_code": "27",
    "postal_code": "89390"
  },
  {
    "name": "Cudot",
    "code": "89133",
    "epci_code": "248900938",
    "departement_code": "89",
    "region_code": "27",
    "postal_code": "89116"
  },
  {
    "name": "Cussy-les-Forges",
    "code": "89134",
    "epci_code": "200039758",
    "departement_code": "89",
    "region_code": "27",
    "postal_code": "89420"
  },
  {
    "name": "Cuy",
    "code": "89136",
    "epci_code": "248900896",
    "departement_code": "89",
    "region_code": "27",
    "postal_code": "89140"
  },
  {
    "name": "Dannemoine",
    "code": "89137",
    "epci_code": "200039642",
    "departement_code": "89",
    "region_code": "27",
    "postal_code": "89700"
  },
  {
    "name": "Diges",
    "code": "89139",
    "epci_code": "200067130",
    "departement_code": "89",
    "region_code": "27",
    "postal_code": "89240"
  },
  {
    "name": "Dissangis",
    "code": "89141",
    "epci_code": "200039709",
    "departement_code": "89",
    "region_code": "27",
    "postal_code": "89440"
  },
  {
    "name": "Dixmont",
    "code": "89142",
    "epci_code": "248900334",
    "departement_code": "89",
    "region_code": "27",
    "postal_code": "89500"
  },
  {
    "name": "Dollot",
    "code": "89143",
    "epci_code": "248900748",
    "departement_code": "89",
    "region_code": "27",
    "postal_code": "89150"
  },
  {
    "name": "Domats",
    "code": "89144",
    "epci_code": "248900748",
    "departement_code": "89",
    "region_code": "27",
    "postal_code": "89150"
  },
  {
    "name": "Domecy-sur-Cure",
    "code": "89145",
    "epci_code": "200039758",
    "departement_code": "89",
    "region_code": "27",
    "postal_code": "89450"
  },
  {
    "name": "Domecy-sur-le-Vault",
    "code": "89146",
    "epci_code": "200039758",
    "departement_code": "89",
    "region_code": "27",
    "postal_code": "89200"
  },
  {
    "name": "Dracy",
    "code": "89147",
    "epci_code": "200067130",
    "departement_code": "89",
    "region_code": "27",
    "postal_code": "89130"
  },
  {
    "name": "Druyes-les-Belles-Fontaines",
    "code": "89148",
    "epci_code": "200067130",
    "departement_code": "89",
    "region_code": "27",
    "postal_code": "89560"
  },
  {
    "name": "Dyé",
    "code": "89149",
    "epci_code": "200039642",
    "departement_code": "89",
    "region_code": "27",
    "postal_code": "89360"
  },
  {
    "name": "Égleny",
    "code": "89150",
    "epci_code": "200067130",
    "departement_code": "89",
    "region_code": "27",
    "postal_code": "89240"
  },
  {
    "name": "Égriselles-le-Bocage",
    "code": "89151",
    "epci_code": "248900748",
    "departement_code": "89",
    "region_code": "27",
    "postal_code": "89500"
  },
  {
    "name": "Épineau-les-Voves",
    "code": "89152",
    "epci_code": "248900383",
    "departement_code": "89",
    "region_code": "27",
    "postal_code": "89400"
  },
  {
    "name": "Épineuil",
    "code": "89153",
    "epci_code": "200039642",
    "departement_code": "89",
    "region_code": "27",
    "postal_code": "89700"
  },
  {
    "name": "Escamps",
    "code": "89154",
    "epci_code": "200067114",
    "departement_code": "89",
    "region_code": "27",
    "postal_code": "89240"
  },
  {
    "name": "Escolives-Sainte-Camille",
    "code": "89155",
    "epci_code": "200067114",
    "departement_code": "89",
    "region_code": "27",
    "postal_code": "89290"
  },
  {
    "name": "Esnon",
    "code": "89156",
    "epci_code": "200067304",
    "departement_code": "89",
    "region_code": "27",
    "postal_code": "89210"
  },
  {
    "name": "Étais-la-Sauvin",
    "code": "89158",
    "epci_code": "200067130",
    "departement_code": "89",
    "region_code": "27",
    "postal_code": "89480"
  },
  {
    "name": "Étaule",
    "code": "89159",
    "epci_code": "200039758",
    "departement_code": "89",
    "region_code": "27",
    "postal_code": "89200"
  },
  {
    "name": "Étigny",
    "code": "89160",
    "epci_code": "248900334",
    "departement_code": "89",
    "region_code": "27",
    "postal_code": "89510"
  },
  {
    "name": "Étivey",
    "code": "89161",
    "epci_code": "200039709",
    "departement_code": "89",
    "region_code": "27",
    "postal_code": "89310"
  },
  {
    "name": "Évry",
    "code": "89162",
    "epci_code": "248900896",
    "departement_code": "89",
    "region_code": "27",
    "postal_code": "89140"
  },
  {
    "name": "La Ferté-Loupière",
    "code": "89163",
    "epci_code": "248900524",
    "departement_code": "89",
    "region_code": "27",
    "postal_code": "89110"
  },
  {
    "name": "Festigny",
    "code": "89164",
    "epci_code": "200067429",
    "departement_code": "89",
    "region_code": "27",
    "postal_code": "89480"
  },
  {
    "name": "Flacy",
    "code": "89165",
    "epci_code": "248900664",
    "departement_code": "89",
    "region_code": "27",
    "postal_code": "89190"
  },
  {
    "name": "Fleury-la-Vallée",
    "code": "89167",
    "epci_code": "248900524",
    "departement_code": "89",
    "region_code": "27",
    "postal_code": "89113"
  },
  {
    "name": "Fleys",
    "code": "89168",
    "epci_code": "200067080",
    "departement_code": "89",
    "region_code": "27",
    "postal_code": "89800"
  },
  {
    "name": "Flogny-la-Chapelle",
    "code": "89169",
    "epci_code": "200039642",
    "departement_code": "89",
    "region_code": "27",
    "postal_code": "89360"
  },
  {
    "name": "Foissy-lès-Vézelay",
    "code": "89170",
    "epci_code": "200039758",
    "departement_code": "89",
    "region_code": "27",
    "postal_code": "89450"
  },
  {
    "name": "Foissy-sur-Vanne",
    "code": "89171",
    "epci_code": "248900664",
    "departement_code": "89",
    "region_code": "27",
    "postal_code": "89190"
  },
  {
    "name": "Fontaine-la-Gaillarde",
    "code": "89172",
    "epci_code": "248900334",
    "departement_code": "89",
    "region_code": "27",
    "postal_code": "89100"
  },
  {
    "name": "Fontaines",
    "code": "89173",
    "epci_code": "200067130",
    "departement_code": "89",
    "region_code": "27",
    "postal_code": "89130"
  },
  {
    "name": "Fontenay-près-Chablis",
    "code": "89175",
    "epci_code": "200067080",
    "departement_code": "89",
    "region_code": "27",
    "postal_code": "89800"
  },
  {
    "name": "Fontenay-près-Vézelay",
    "code": "89176",
    "epci_code": "200039758",
    "departement_code": "89",
    "region_code": "27",
    "postal_code": "89450"
  },
  {
    "name": "Fontenay-sous-Fouronnes",
    "code": "89177",
    "epci_code": "200067130",
    "departement_code": "89",
    "region_code": "27",
    "postal_code": "89660"
  },
  {
    "name": "Fontenoy",
    "code": "89179",
    "epci_code": "200067130",
    "departement_code": "89",
    "region_code": "27",
    "postal_code": "89520"
  },
  {
    "name": "Fouchères",
    "code": "89180",
    "epci_code": "248900748",
    "departement_code": "89",
    "region_code": "27",
    "postal_code": "89150"
  },
  {
    "name": "Fournaudin",
    "code": "89181",
    "epci_code": "248900664",
    "departement_code": "89",
    "region_code": "27",
    "postal_code": "89320"
  },
  {
    "name": "Fouronnes",
    "code": "89182",
    "epci_code": "200067130",
    "departement_code": "89",
    "region_code": "27",
    "postal_code": "89560"
  },
  {
    "name": "Fresnes",
    "code": "89183",
    "epci_code": "200039709",
    "departement_code": "89",
    "region_code": "27",
    "postal_code": "89310"
  },
  {
    "name": "Fulvy",
    "code": "89184",
    "epci_code": "200039642",
    "departement_code": "89",
    "region_code": "27",
    "postal_code": "89160"
  },
  {
    "name": "Germigny",
    "code": "89186",
    "epci_code": "200067304",
    "departement_code": "89",
    "region_code": "27",
    "postal_code": "89600"
  },
  {
    "name": "Gigny",
    "code": "89187",
    "epci_code": "200039642",
    "departement_code": "89",
    "region_code": "27",
    "postal_code": "89160"
  },
  {
    "name": "Girolles",
    "code": "89188",
    "epci_code": "200039758",
    "departement_code": "89",
    "region_code": "27",
    "postal_code": "89200"
  },
  {
    "name": "Gisy-les-Nobles",
    "code": "89189",
    "epci_code": "248900896",
    "departement_code": "89",
    "region_code": "27",
    "postal_code": "89140"
  },
  {
    "name": "Givry",
    "code": "89190",
    "epci_code": "200039758",
    "departement_code": "89",
    "region_code": "27",
    "postal_code": "89200"
  },
  {
    "name": "Gland",
    "code": "89191",
    "epci_code": "200039642",
    "departement_code": "89",
    "region_code": "27",
    "postal_code": "89740"
  },
  {
    "name": "Grimault",
    "code": "89194",
    "epci_code": "200039709",
    "departement_code": "89",
    "region_code": "27",
    "postal_code": "89310"
  },
  {
    "name": "Gron",
    "code": "89195",
    "epci_code": "248900334",
    "departement_code": "89",
    "region_code": "27",
    "postal_code": "89100"
  },
  {
    "name": "Valravillon",
    "code": "89196",
    "epci_code": "248900524",
    "departement_code": "89",
    "region_code": "27",
    "postal_code": "89110"
  },
  {
    "name": "Valravillon",
    "code": "89196",
    "epci_code": "248900524",
    "departement_code": "89",
    "region_code": "27",
    "postal_code": "89113"
  },
  {
    "name": "Guillon-Terre-Plaine",
    "code": "89197",
    "epci_code": "200039709",
    "departement_code": "89",
    "region_code": "27",
    "postal_code": "89420"
  },
  {
    "name": "Gurgy",
    "code": "89198",
    "epci_code": "200067114",
    "departement_code": "89",
    "region_code": "27",
    "postal_code": "89250"
  },
  {
    "name": "Gy-l’Évêque",
    "code": "89199",
    "epci_code": "200067114",
    "departement_code": "89",
    "region_code": "27",
    "postal_code": "89580"
  },
  {
    "name": "Hauterive",
    "code": "89200",
    "epci_code": "200067304",
    "departement_code": "89",
    "region_code": "27",
    "postal_code": "89250"
  },
  {
    "name": "Héry",
    "code": "89201",
    "epci_code": "200067304",
    "departement_code": "89",
    "region_code": "27",
    "postal_code": "89550"
  },
  {
    "name": "Irancy",
    "code": "89202",
    "epci_code": "200067114",
    "departement_code": "89",
    "region_code": "27",
    "postal_code": "89290"
  },
  {
    "name": "Island",
    "code": "89203",
    "epci_code": "200039758",
    "departement_code": "89",
    "region_code": "27",
    "postal_code": "89200"
  },
  {
    "name": "L’Isle-sur-Serein",
    "code": "89204",
    "epci_code": "200039709",
    "departement_code": "89",
    "region_code": "27",
    "postal_code": "89440"
  },
  {
    "name": "Jaulges",
    "code": "89205",
    "epci_code": "200067304",
    "departement_code": "89",
    "region_code": "27",
    "postal_code": "89360"
  },
  {
    "name": "Joigny",
    "code": "89206",
    "epci_code": "248900938",
    "departement_code": "89",
    "region_code": "27",
    "postal_code": "89300"
  },
  {
    "name": "Jouancy",
    "code": "89207",
    "epci_code": "200039709",
    "departement_code": "89",
    "region_code": "27",
    "postal_code": "89310"
  },
  {
    "name": "Joux-la-Ville",
    "code": "89208",
    "epci_code": "200039709",
    "departement_code": "89",
    "region_code": "27",
    "postal_code": "89440"
  },
  {
    "name": "Jouy",
    "code": "89209",
    "epci_code": "248900748",
    "departement_code": "89",
    "region_code": "27",
    "postal_code": "89150"
  },
  {
    "name": "Jully",
    "code": "89210",
    "epci_code": "200039642",
    "departement_code": "89",
    "region_code": "27",
    "postal_code": "89160"
  },
  {
    "name": "Junay",
    "code": "89211",
    "epci_code": "200039642",
    "departement_code": "89",
    "region_code": "27",
    "postal_code": "89700"
  },
  {
    "name": "Jussy",
    "code": "89212",
    "epci_code": "200067114",
    "departement_code": "89",
    "region_code": "27",
    "postal_code": "89290"
  },
  {
    "name": "Lailly",
    "code": "89214",
    "epci_code": "248900664",
    "departement_code": "89",
    "region_code": "27",
    "postal_code": "89190"
  },
  {
    "name": "Lain",
    "code": "89215",
    "epci_code": "200067130",
    "departement_code": "89",
    "region_code": "27",
    "postal_code": "89560"
  },
  {
    "name": "Lainsecq",
    "code": "89216",
    "epci_code": "200067130",
    "departement_code": "89",
    "region_code": "27",
    "postal_code": "89520"
  },
  {
    "name": "Lalande",
    "code": "89217",
    "epci_code": "200067130",
    "departement_code": "89",
    "region_code": "27",
    "postal_code": "89130"
  },
  {
    "name": "Laroche-Saint-Cydroine",
    "code": "89218",
    "epci_code": "248900383",
    "departement_code": "89",
    "region_code": "27",
    "postal_code": "89400"
  },
  {
    "name": "Lasson",
    "code": "89219",
    "epci_code": "200067304",
    "departement_code": "89",
    "region_code": "27",
    "postal_code": "89570"
  },
  {
    "name": "Lavau",
    "code": "89220",
    "epci_code": "200067130",
    "departement_code": "89",
    "region_code": "27",
    "postal_code": "89170"
  },
  {
    "name": "Leugny",
    "code": "89221",
    "epci_code": "200067130",
    "departement_code": "89",
    "region_code": "27",
    "postal_code": "89130"
  },
  {
    "name": "Levis",
    "code": "89222",
    "epci_code": "200067130",
    "departement_code": "89",
    "region_code": "27",
    "postal_code": "89520"
  },
  {
    "name": "Lézinnes",
    "code": "89223",
    "epci_code": "200039642",
    "departement_code": "89",
    "region_code": "27",
    "postal_code": "89160"
  },
  {
    "name": "Lichères-près-Aigremont",
    "code": "89224",
    "epci_code": "200067080",
    "departement_code": "89",
    "region_code": "27",
    "postal_code": "89800"
  },
  {
    "name": "Lichères-sur-Yonne",
    "code": "89225",
    "epci_code": "200039758",
    "departement_code": "89",
    "region_code": "27",
    "postal_code": "89660"
  },
  {
    "name": "Lignorelles",
    "code": "89226",
    "epci_code": "200067080",
    "departement_code": "89",
    "region_code": "27",
    "postal_code": "89800"
  },
  {
    "name": "Ligny-le-Châtel",
    "code": "89227",
    "epci_code": "200067080",
    "departement_code": "89",
    "region_code": "27",
    "postal_code": "89144"
  },
  {
    "name": "Lindry",
    "code": "89228",
    "epci_code": "200067114",
    "departement_code": "89",
    "region_code": "27",
    "postal_code": "89240"
  },
  {
    "name": "Lixy",
    "code": "89229",
    "epci_code": "248900748",
    "departement_code": "89",
    "region_code": "27",
    "postal_code": "89140"
  },
  {
    "name": "Looze",
    "code": "89230",
    "epci_code": "248900938",
    "departement_code": "89",
    "region_code": "27",
    "postal_code": "89300"
  },
  {
    "name": "Lucy-le-Bois",
    "code": "89232",
    "epci_code": "200039758",
    "departement_code": "89",
    "region_code": "27",
    "postal_code": "89200"
  },
  {
    "name": "Lucy-sur-Cure",
    "code": "89233",
    "epci_code": "200067080",
    "departement_code": "89",
    "region_code": "27",
    "postal_code": "89270"
  },
  {
    "name": "Lucy-sur-Yonne",
    "code": "89234",
    "epci_code": "200067429",
    "departement_code": "89",
    "region_code": "27",
    "postal_code": "89480"
  },
  {
    "name": "Magny",
    "code": "89235",
    "epci_code": "200039758",
    "departement_code": "89",
    "region_code": "27",
    "postal_code": "89200"
  },
  {
    "name": "Maillot",
    "code": "89236",
    "epci_code": "248900334",
    "departement_code": "89",
    "region_code": "27",
    "postal_code": "89100"
  },
  {
    "name": "Mailly-la-Ville",
    "code": "89237",
    "epci_code": "200067080",
    "departement_code": "89",
    "region_code": "27",
    "postal_code": "89270"
  },
  {
    "name": "Mailly-le-Château",
    "code": "89238",
    "epci_code": "200067080",
    "departement_code": "89",
    "region_code": "27",
    "postal_code": "89660"
  },
  {
    "name": "Malay-le-Grand",
    "code": "89239",
    "epci_code": "248900334",
    "departement_code": "89",
    "region_code": "27",
    "postal_code": "89100"
  },
  {
    "name": "Malay-le-Petit",
    "code": "89240",
    "epci_code": "248900334",
    "departement_code": "89",
    "region_code": "27",
    "postal_code": "89100"
  },
  {
    "name": "Maligny",
    "code": "89242",
    "epci_code": "200067080",
    "departement_code": "89",
    "region_code": "27",
    "postal_code": "89800"
  },
  {
    "name": "Marmeaux",
    "code": "89244",
    "epci_code": "200039709",
    "departement_code": "89",
    "region_code": "27",
    "postal_code": "89420"
  },
  {
    "name": "Marsangy",
    "code": "89245",
    "epci_code": "248900334",
    "departement_code": "89",
    "region_code": "27",
    "postal_code": "89500"
  },
  {
    "name": "Massangis",
    "code": "89246",
    "epci_code": "200039709",
    "departement_code": "89",
    "region_code": "27",
    "postal_code": "89440"
  },
  {
    "name": "Mélisey",
    "code": "89247",
    "epci_code": "200039642",
    "departement_code": "89",
    "region_code": "27",
    "postal_code": "89430"
  },
  {
    "name": "Menades",
    "code": "89248",
    "epci_code": "200039758",
    "departement_code": "89",
    "region_code": "27",
    "postal_code": "89450"
  },
  {
    "name": "Mercy",
    "code": "89249",
    "epci_code": "200067304",
    "departement_code": "89",
    "region_code": "27",
    "postal_code": "89210"
  },
  {
    "name": "Méré",
    "code": "89250",
    "epci_code": "200067080",
    "departement_code": "89",
    "region_code": "27",
    "postal_code": "89144"
  },
  {
    "name": "Merry-la-Vallée",
    "code": "89251",
    "epci_code": "248900524",
    "departement_code": "89",
    "region_code": "27",
    "postal_code": "89110"
  },
  {
    "name": "Merry-Sec",
    "code": "89252",
    "epci_code": "200067130",
    "departement_code": "89",
    "region_code": "27",
    "postal_code": "89560"
  },
  {
    "name": "Merry-sur-Yonne",
    "code": "89253",
    "epci_code": "200039758",
    "departement_code": "89",
    "region_code": "27",
    "postal_code": "89660"
  },
  {
    "name": "Mézilles",
    "code": "89254",
    "epci_code": "200067130",
    "departement_code": "89",
    "region_code": "27",
    "postal_code": "89130"
  },
  {
    "name": "Michery",
    "code": "89255",
    "epci_code": "248900896",
    "departement_code": "89",
    "region_code": "27",
    "postal_code": "89140"
  },
  {
    "name": "Migé",
    "code": "89256",
    "epci_code": "200067130",
    "departement_code": "89",
    "region_code": "27",
    "postal_code": "89580"
  },
  {
    "name": "Migennes",
    "code": "89257",
    "epci_code": "248900383",
    "departement_code": "89",
    "region_code": "27",
    "postal_code": "89400"
  },
  {
    "name": "Môlay",
    "code": "89259",
    "epci_code": "200039709",
    "departement_code": "89",
    "region_code": "27",
    "postal_code": "89310"
  },
  {
    "name": "Molinons",
    "code": "89261",
    "epci_code": "248900664",
    "departement_code": "89",
    "region_code": "27",
    "postal_code": "89190"
  },
  {
    "name": "Molosmes",
    "code": "89262",
    "epci_code": "200039642",
    "departement_code": "89",
    "region_code": "27",
    "postal_code": "89700"
  },
  {
    "name": "Monéteau",
    "code": "89263",
    "epci_code": "200067114",
    "departement_code": "89",
    "region_code": "27",
    "postal_code": "89470"
  },
  {
    "name": "Montacher-Villegardin",
    "code": "89264",
    "epci_code": "248900748",
    "departement_code": "89",
    "region_code": "27",
    "postal_code": "89150"
  },
  {
    "name": "Montigny-la-Resle",
    "code": "89265",
    "epci_code": "200067114",
    "departement_code": "89",
    "region_code": "27",
    "postal_code": "89230"
  },
  {
    "name": "Montillot",
    "code": "89266",
    "epci_code": "200039758",
    "departement_code": "89",
    "region_code": "27",
    "postal_code": "89660"
  },
  {
    "name": "Montréal",
    "code": "89267",
    "epci_code": "200039709",
    "departement_code": "89",
    "region_code": "27",
    "postal_code": "89420"
  },
  {
    "name": "Mont-Saint-Sulpice",
    "code": "89268",
    "epci_code": "200067304",
    "departement_code": "89",
    "region_code": "27",
    "postal_code": "89250"
  },
  {
    "name": "Mouffy",
    "code": "89270",
    "epci_code": "200067130",
    "departement_code": "89",
    "region_code": "27",
    "postal_code": "89560"
  },
  {
    "name": "Moulins-en-Tonnerrois",
    "code": "89271",
    "epci_code": "200039709",
    "departement_code": "89",
    "region_code": "27",
    "postal_code": "89310"
  },
  {
    "name": "Moulins-sur-Ouanne",
    "code": "89272",
    "epci_code": "200067130",
    "departement_code": "89",
    "region_code": "27",
    "postal_code": "89130"
  },
  {
    "name": "Moutiers-en-Puisaye",
    "code": "89273",
    "epci_code": "200067130",
    "departement_code": "89",
    "region_code": "27",
    "postal_code": "89520"
  },
  {
    "name": "Nailly",
    "code": "89274",
    "epci_code": "248900748",
    "departement_code": "89",
    "region_code": "27",
    "postal_code": "89100"
  },
  {
    "name": "Neuvy-Sautour",
    "code": "89276",
    "epci_code": "200067304",
    "departement_code": "89",
    "region_code": "27",
    "postal_code": "89570"
  },
  {
    "name": "Nitry",
    "code": "89277",
    "epci_code": "200067080",
    "departement_code": "89",
    "region_code": "27",
    "postal_code": "89310"
  },
  {
    "name": "Noé",
    "code": "89278",
    "epci_code": "248900334",
    "departement_code": "89",
    "region_code": "27",
    "postal_code": "89320"
  },
  {
    "name": "Noyers",
    "code": "89279",
    "epci_code": "200039709",
    "departement_code": "89",
    "region_code": "27",
    "postal_code": "89310"
  },
  {
    "name": "Nuits",
    "code": "89280",
    "epci_code": "200039642",
    "departement_code": "89",
    "region_code": "27",
    "postal_code": "89390"
  },
  {
    "name": "Les Ormes",
    "code": "89281",
    "epci_code": "248900524",
    "departement_code": "89",
    "region_code": "27",
    "postal_code": "89110"
  },
  {
    "name": "Ormoy",
    "code": "89282",
    "epci_code": "200067304",
    "departement_code": "89",
    "region_code": "27",
    "postal_code": "89400"
  },
  {
    "name": "Ouanne",
    "code": "89283",
    "epci_code": "200067130",
    "departement_code": "89",
    "region_code": "27",
    "postal_code": "89560"
  },
  {
    "name": "Pacy-sur-Armançon",
    "code": "89284",
    "epci_code": "200039642",
    "departement_code": "89",
    "region_code": "27",
    "postal_code": "89160"
  },
  {
    "name": "Pailly",
    "code": "89285",
    "epci_code": "248900896",
    "departement_code": "89",
    "region_code": "27",
    "postal_code": "89140"
  },
  {
    "name": "Parly",
    "code": "89286",
    "epci_code": "200067130",
    "departement_code": "89",
    "region_code": "27",
    "postal_code": "89240"
  },
  {
    "name": "Paron",
    "code": "89287",
    "epci_code": "248900334",
    "departement_code": "89",
    "region_code": "27",
    "postal_code": "89100"
  },
  {
    "name": "Paroy-en-Othe",
    "code": "89288",
    "epci_code": "200067304",
    "departement_code": "89",
    "region_code": "27",
    "postal_code": "89210"
  },
  {
    "name": "Paroy-sur-Tholon",
    "code": "89289",
    "epci_code": "248900938",
    "departement_code": "89",
    "region_code": "27",
    "postal_code": "89300"
  },
  {
    "name": "Pasilly",
    "code": "89290",
    "epci_code": "200039709",
    "departement_code": "89",
    "region_code": "27",
    "postal_code": "89310"
  },
  {
    "name": "Passy",
    "code": "89291",
    "epci_code": "248900334",
    "departement_code": "89",
    "region_code": "27",
    "postal_code": "89510"
  },
  {
    "name": "Percey",
    "code": "89292",
    "epci_code": "200067304",
    "departement_code": "89",
    "region_code": "27",
    "postal_code": "89360"
  },
  {
    "name": "Perrigny",
    "code": "89295",
    "epci_code": "200067114",
    "departement_code": "89",
    "region_code": "27",
    "postal_code": "89000"
  },
  {
    "name": "Perrigny-sur-Armançon",
    "code": "89296",
    "epci_code": "200039642",
    "departement_code": "89",
    "region_code": "27",
    "postal_code": "89390"
  },
  {
    "name": "Pierre-Perthuis",
    "code": "89297",
    "epci_code": "200039758",
    "departement_code": "89",
    "region_code": "27",
    "postal_code": "89450"
  },
  {
    "name": "Piffonds",
    "code": "89298",
    "epci_code": "248900748",
    "departement_code": "89",
    "region_code": "27",
    "postal_code": "89330"
  },
  {
    "name": "Pimelles",
    "code": "89299",
    "epci_code": "200039642",
    "departement_code": "89",
    "region_code": "27",
    "postal_code": "89740"
  },
  {
    "name": "Pisy",
    "code": "89300",
    "epci_code": "200039709",
    "departement_code": "89",
    "region_code": "27",
    "postal_code": "89420"
  },
  {
    "name": "Plessis-Saint-Jean",
    "code": "89302",
    "epci_code": "248900896",
    "departement_code": "89",
    "region_code": "27",
    "postal_code": "89140"
  },
  {
    "name": "Poilly-sur-Serein",
    "code": "89303",
    "epci_code": "200067080",
    "departement_code": "89",
    "region_code": "27",
    "postal_code": "89310"
  },
  {
    "name": "Poilly-sur-Tholon",
    "code": "89304",
    "epci_code": "248900524",
    "departement_code": "89",
    "region_code": "27",
    "postal_code": "89110"
  },
  {
    "name": "Pontaubert",
    "code": "89306",
    "epci_code": "200039758",
    "departement_code": "89",
    "region_code": "27",
    "postal_code": "89200"
  },
  {
    "name": "Pontigny",
    "code": "89307",
    "epci_code": "200067080",
    "departement_code": "89",
    "region_code": "27",
    "postal_code": "89230"
  },
  {
    "name": "Pont-sur-Vanne",
    "code": "89308",
    "epci_code": "248900664",
    "departement_code": "89",
    "region_code": "27",
    "postal_code": "89190"
  },
  {
    "name": "Pont-sur-Yonne",
    "code": "89309",
    "epci_code": "248900896",
    "departement_code": "89",
    "region_code": "27",
    "postal_code": "89140"
  },
  {
    "name": "La Postolle",
    "code": "89310",
    "epci_code": "248900664",
    "departement_code": "89",
    "region_code": "27",
    "postal_code": "89260"
  },
  {
    "name": "Pourrain",
    "code": "89311",
    "epci_code": "200067130",
    "departement_code": "89",
    "region_code": "27",
    "postal_code": "89240"
  },
  {
    "name": "Précy-le-Sec",
    "code": "89312",
    "epci_code": "200039709",
    "departement_code": "89",
    "region_code": "27",
    "postal_code": "89440"
  },
  {
    "name": "Précy-sur-Vrin",
    "code": "89313",
    "epci_code": "248900938",
    "departement_code": "89",
    "region_code": "27",
    "postal_code": "89116"
  },
  {
    "name": "Prégilbert",
    "code": "89314",
    "epci_code": "200067080",
    "departement_code": "89",
    "region_code": "27",
    "postal_code": "89460"
  },
  {
    "name": "Préhy",
    "code": "89315",
    "epci_code": "200067080",
    "departement_code": "89",
    "region_code": "27",
    "postal_code": "89800"
  },
  {
    "name": "Provency",
    "code": "89316",
    "epci_code": "200039758",
    "departement_code": "89",
    "region_code": "27",
    "postal_code": "89200"
  },
  {
    "name": "Quarré-les-Tombes",
    "code": "89318",
    "epci_code": "200039758",
    "departement_code": "89",
    "region_code": "27",
    "postal_code": "89630"
  },
  {
    "name": "Quenne",
    "code": "89319",
    "epci_code": "200067114",
    "departement_code": "89",
    "region_code": "27",
    "postal_code": "89290"
  },
  {
    "name": "Quincerot",
    "code": "89320",
    "epci_code": "200039642",
    "departement_code": "89",
    "region_code": "27",
    "postal_code": "89740"
  },
  {
    "name": "Ravières",
    "code": "89321",
    "epci_code": "200039642",
    "departement_code": "89",
    "region_code": "27",
    "postal_code": "89390"
  },
  {
    "name": "Roffey",
    "code": "89323",
    "epci_code": "200039642",
    "departement_code": "89",
    "region_code": "27",
    "postal_code": "89700"
  },
  {
    "name": "Rogny-les-Sept-Écluses",
    "code": "89324",
    "epci_code": "200067130",
    "departement_code": "89",
    "region_code": "27",
    "postal_code": "89220"
  },
  {
    "name": "Ronchères",
    "code": "89325",
    "epci_code": "200067130",
    "departement_code": "89",
    "region_code": "27",
    "postal_code": "89170"
  },
  {
    "name": "Rosoy",
    "code": "89326",
    "epci_code": "248900334",
    "departement_code": "89",
    "region_code": "27",
    "postal_code": "89100"
  },
  {
    "name": "Rousson",
    "code": "89327",
    "epci_code": "248900334",
    "departement_code": "89",
    "region_code": "27",
    "postal_code": "89500"
  },
  {
    "name": "Rouvray",
    "code": "89328",
    "epci_code": "200067080",
    "departement_code": "89",
    "region_code": "27",
    "postal_code": "89230"
  },
  {
    "name": "Rugny",
    "code": "89329",
    "epci_code": "200039642",
    "departement_code": "89",
    "region_code": "27",
    "postal_code": "89430"
  },
  {
    "name": "Sainpuits",
    "code": "89331",
    "epci_code": "200067130",
    "departement_code": "89",
    "region_code": "27",
    "postal_code": "89520"
  },
  {
    "name": "Saint-Agnan",
    "code": "89332",
    "epci_code": "248900748",
    "departement_code": "89",
    "region_code": "27",
    "postal_code": "89340"
  },
  {
    "name": "Saint-André-en-Terre-Plaine",
    "code": "89333",
    "epci_code": "200039709",
    "departement_code": "89",
    "region_code": "27",
    "postal_code": "89420"
  },
  {
    "name": "Le Val d’Ocre",
    "code": "89334",
    "epci_code": "248900524",
    "departement_code": "89",
    "region_code": "27",
    "postal_code": "89110"
  },
  {
    "name": "Saint-Aubin-sur-Yonne",
    "code": "89335",
    "epci_code": "248900938",
    "departement_code": "89",
    "region_code": "27",
    "postal_code": "89300"
  },
  {
    "name": "Saint-Brancher",
    "code": "89336",
    "epci_code": "200039758",
    "departement_code": "89",
    "region_code": "27",
    "postal_code": "89630"
  },
  {
    "name": "Saint-Bris-le-Vineux",
    "code": "89337",
    "epci_code": "200067114",
    "departement_code": "89",
    "region_code": "27",
    "postal_code": "89530"
  },
  {
    "name": "Saint-Clément",
    "code": "89338",
    "epci_code": "248900334",
    "departement_code": "89",
    "region_code": "27",
    "postal_code": "89100"
  },
  {
    "name": "Sainte-Colombe",
    "code": "89339",
    "epci_code": "200039709",
    "departement_code": "89",
    "region_code": "27",
    "postal_code": "89440"
  },
  {
    "name": "Saint-Cyr-les-Colons",
    "code": "89341",
    "epci_code": "200067080",
    "departement_code": "89",
    "region_code": "27",
    "postal_code": "89800"
  },
  {
    "name": "Saint-Denis-lès-Sens",
    "code": "89342",
    "epci_code": "248900334",
    "departement_code": "89",
    "region_code": "27",
    "postal_code": "89100"
  },
  {
    "name": "Saint-Fargeau",
    "code": "89344",
    "epci_code": "200067130",
    "departement_code": "89",
    "region_code": "27",
    "postal_code": "89170"
  },
  {
    "name": "Saint-Florentin",
    "code": "89345",
    "epci_code": "200067304",
    "departement_code": "89",
    "region_code": "27",
    "postal_code": "89600"
  },
  {
    "name": "Saint-Georges-sur-Baulche",
    "code": "89346",
    "epci_code": "200067114",
    "departement_code": "89",
    "region_code": "27",
    "postal_code": "89000"
  },
  {
    "name": "Saint-Germain-des-Champs",
    "code": "89347",
    "epci_code": "200039758",
    "departement_code": "89",
    "region_code": "27",
    "postal_code": "89630"
  },
  {
    "name": "Saint-Julien-du-Sault",
    "code": "89348",
    "epci_code": "248900938",
    "departement_code": "89",
    "region_code": "27",
    "postal_code": "89330"
  },
  {
    "name": "Saint-Léger-Vauban",
    "code": "89349",
    "epci_code": "200039758",
    "departement_code": "89",
    "region_code": "27",
    "postal_code": "89630"
  },
  {
    "name": "Saint-Loup-d’Ordon",
    "code": "89350",
    "epci_code": "200067668",
    "departement_code": "89",
    "region_code": "27",
    "postal_code": "89330"
  },
  {
    "name": "Sainte-Magnance",
    "code": "89351",
    "epci_code": "200039758",
    "departement_code": "89",
    "region_code": "27",
    "postal_code": "89420"
  },
  {
    "name": "Saint-Martin-des-Champs",
    "code": "89352",
    "epci_code": "200067130",
    "departement_code": "89",
    "region_code": "27",
    "postal_code": "89170"
  },
  {
    "name": "Saint-Martin-d’Ordon",
    "code": "89353",
    "epci_code": "248900938",
    "departement_code": "89",
    "region_code": "27",
    "postal_code": "89330"
  },
  {
    "name": "Saint-Martin-du-Tertre",
    "code": "89354",
    "epci_code": "248900334",
    "departement_code": "89",
    "region_code": "27",
    "postal_code": "89100"
  },
  {
    "name": "Saint-Martin-sur-Armançon",
    "code": "89355",
    "epci_code": "200039642",
    "departement_code": "89",
    "region_code": "27",
    "postal_code": "89700"
  },
  {
    "name": "Saint-Maurice-aux-Riches-Hommes",
    "code": "89359",
    "epci_code": "248900664",
    "departement_code": "89",
    "region_code": "27",
    "postal_code": "89190"
  },
  {
    "name": "Saint-Maurice-le-Vieil",
    "code": "89360",
    "epci_code": "248900524",
    "departement_code": "89",
    "region_code": "27",
    "postal_code": "89110"
  },
  {
    "name": "Saint-Maurice-Thizouaille",
    "code": "89361",
    "epci_code": "248900524",
    "departement_code": "89",
    "region_code": "27",
    "postal_code": "89110"
  },
  {
    "name": "Saint-Moré",
    "code": "89362",
    "epci_code": "200039758",
    "departement_code": "89",
    "region_code": "27",
    "postal_code": "89270"
  },
  {
    "name": "Sainte-Pallaye",
    "code": "89363",
    "epci_code": "200067080",
    "departement_code": "89",
    "region_code": "27",
    "postal_code": "89460"
  },
  {
    "name": "Saint-Père",
    "code": "89364",
    "epci_code": "200039758",
    "departement_code": "89",
    "region_code": "27",
    "postal_code": "89450"
  },
  {
    "name": "Saint-Privé",
    "code": "89365",
    "epci_code": "200067130",
    "departement_code": "89",
    "region_code": "27",
    "postal_code": "89220"
  },
  {
    "name": "Saints-en-Puisaye",
    "code": "89367",
    "epci_code": "200067130",
    "departement_code": "89",
    "region_code": "27",
    "postal_code": "89520"
  },
  {
    "name": "Saint-Sauveur-en-Puisaye",
    "code": "89368",
    "epci_code": "200067130",
    "departement_code": "89",
    "region_code": "27",
    "postal_code": "89520"
  },
  {
    "name": "Saint-Sérotin",
    "code": "89369",
    "epci_code": "248900896",
    "departement_code": "89",
    "region_code": "27",
    "postal_code": "89140"
  },
  {
    "name": "Saint-Valérien",
    "code": "89370",
    "epci_code": "248900748",
    "departement_code": "89",
    "region_code": "27",
    "postal_code": "89150"
  },
  {
    "name": "Sainte-Vertu",
    "code": "89371",
    "epci_code": "200039709",
    "departement_code": "89",
    "region_code": "27",
    "postal_code": "89310"
  },
  {
    "name": "Saligny",
    "code": "89373",
    "epci_code": "248900334",
    "departement_code": "89",
    "region_code": "27",
    "postal_code": "89100"
  },
  {
    "name": "Sambourg",
    "code": "89374",
    "epci_code": "200039642",
    "departement_code": "89",
    "region_code": "27",
    "postal_code": "89160"
  },
  {
    "name": "Santigny",
    "code": "89375",
    "epci_code": "200039709",
    "departement_code": "89",
    "region_code": "27",
    "postal_code": "89420"
  },
  {
    "name": "Sarry",
    "code": "89376",
    "epci_code": "200039709",
    "departement_code": "89",
    "region_code": "27",
    "postal_code": "89310"
  },
  {
    "name": "Sauvigny-le-Beuréal",
    "code": "89377",
    "epci_code": "200039709",
    "departement_code": "89",
    "region_code": "27",
    "postal_code": "89420"
  },
  {
    "name": "Sauvigny-le-Bois",
    "code": "89378",
    "epci_code": "200039758",
    "departement_code": "89",
    "region_code": "27",
    "postal_code": "89200"
  },
  {
    "name": "Savigny-en-Terre-Plaine",
    "code": "89379",
    "epci_code": "200039709",
    "departement_code": "89",
    "region_code": "27",
    "postal_code": "89420"
  },
  {
    "name": "Savigny-sur-Clairis",
    "code": "89380",
    "epci_code": "248900748",
    "departement_code": "89",
    "region_code": "27",
    "postal_code": "89150"
  },
  {
    "name": "Seignelay",
    "code": "89382",
    "epci_code": "200067304",
    "departement_code": "89",
    "region_code": "27",
    "postal_code": "89250"
  },
  {
    "name": "Sementron",
    "code": "89383",
    "epci_code": "200067130",
    "departement_code": "89",
    "region_code": "27",
    "postal_code": "89560"
  },
  {
    "name": "Senan",
    "code": "89384",
    "epci_code": "248900524",
    "departement_code": "89",
    "region_code": "27",
    "postal_code": "89710"
  },
  {
    "name": "Sennevoy-le-Bas",
    "code": "89385",
    "epci_code": "200039642",
    "departement_code": "89",
    "region_code": "27",
    "postal_code": "89160"
  },
  {
    "name": "Sennevoy-le-Haut",
    "code": "89386",
    "epci_code": "200039642",
    "departement_code": "89",
    "region_code": "27",
    "postal_code": "89160"
  },
  {
    "name": "Sens",
    "code": "89387",
    "epci_code": "248900334",
    "departement_code": "89",
    "region_code": "27",
    "postal_code": "89100"
  },
  {
    "name": "Sépeaux-Saint Romain",
    "code": "89388",
    "epci_code": "248900938",
    "departement_code": "89",
    "region_code": "27",
    "postal_code": "89116"
  },
  {
    "name": "Serbonnes",
    "code": "89390",
    "epci_code": "248900896",
    "departement_code": "89",
    "region_code": "27",
    "postal_code": "89140"
  },
  {
    "name": "Sergines",
    "code": "89391",
    "epci_code": "248900896",
    "departement_code": "89",
    "region_code": "27",
    "postal_code": "89140"
  },
  {
    "name": "Sermizelles",
    "code": "89392",
    "epci_code": "200039758",
    "departement_code": "89",
    "region_code": "27",
    "postal_code": "89200"
  },
  {
    "name": "Serrigny",
    "code": "89393",
    "epci_code": "200039642",
    "departement_code": "89",
    "region_code": "27",
    "postal_code": "89700"
  },
  {
    "name": "Sery",
    "code": "89394",
    "epci_code": "200067080",
    "departement_code": "89",
    "region_code": "27",
    "postal_code": "89270"
  },
  {
    "name": "Les Sièges",
    "code": "89395",
    "epci_code": "248900664",
    "departement_code": "89",
    "region_code": "27",
    "postal_code": "89190"
  },
  {
    "name": "Sommecaise",
    "code": "89397",
    "epci_code": "248900524",
    "departement_code": "89",
    "region_code": "27",
    "postal_code": "89110"
  },
  {
    "name": "Sormery",
    "code": "89398",
    "epci_code": "200067304",
    "departement_code": "89",
    "region_code": "27",
    "postal_code": "89570"
  },
  {
    "name": "Soucy",
    "code": "89399",
    "epci_code": "248900334",
    "departement_code": "89",
    "region_code": "27",
    "postal_code": "89100"
  },
  {
    "name": "Sougères-en-Puisaye",
    "code": "89400",
    "epci_code": "200067130",
    "departement_code": "89",
    "region_code": "27",
    "postal_code": "89520"
  },
  {
    "name": "Soumaintrain",
    "code": "89402",
    "epci_code": "200067304",
    "departement_code": "89",
    "region_code": "27",
    "postal_code": "89570"
  },
  {
    "name": "Stigny",
    "code": "89403",
    "epci_code": "200039642",
    "departement_code": "89",
    "region_code": "27",
    "postal_code": "89160"
  },
  {
    "name": "Subligny",
    "code": "89404",
    "epci_code": "248900748",
    "departement_code": "89",
    "region_code": "27",
    "postal_code": "89100"
  },
  {
    "name": "Les Hauts de Forterre",
    "code": "89405",
    "epci_code": "200067130",
    "departement_code": "89",
    "region_code": "27",
    "postal_code": "89560"
  },
  {
    "name": "Talcy",
    "code": "89406",
    "epci_code": "200039709",
    "departement_code": "89",
    "region_code": "27",
    "postal_code": "89420"
  },
  {
    "name": "Tanlay",
    "code": "89407",
    "epci_code": "200039642",
    "departement_code": "89",
    "region_code": "27",
    "postal_code": "89430"
  },
  {
    "name": "Tannerre-en-Puisaye",
    "code": "89408",
    "epci_code": "200067130",
    "departement_code": "89",
    "region_code": "27",
    "postal_code": "89350"
  },
  {
    "name": "Tharoiseau",
    "code": "89409",
    "epci_code": "200039758",
    "departement_code": "89",
    "region_code": "27",
    "postal_code": "89450"
  },
  {
    "name": "Tharot",
    "code": "89410",
    "epci_code": "200039758",
    "departement_code": "89",
    "region_code": "27",
    "postal_code": "89200"
  },
  {
    "name": "Les Vallées de la Vanne",
    "code": "89411",
    "epci_code": "248900664",
    "departement_code": "89",
    "region_code": "27",
    "postal_code": "89190"
  },
  {
    "name": "Les Vallées de la Vanne",
    "code": "89411",
    "epci_code": "248900664",
    "departement_code": "89",
    "region_code": "27",
    "postal_code": "89320"
  },
  {
    "name": "Thizy",
    "code": "89412",
    "epci_code": "200039709",
    "departement_code": "89",
    "region_code": "27",
    "postal_code": "89420"
  },
  {
    "name": "Thorey",
    "code": "89413",
    "epci_code": "200039642",
    "departement_code": "89",
    "region_code": "27",
    "postal_code": "89430"
  },
  {
    "name": "Thorigny-sur-Oreuse",
    "code": "89414",
    "epci_code": "248900896",
    "departement_code": "89",
    "region_code": "27",
    "postal_code": "89260"
  },
  {
    "name": "Thory",
    "code": "89415",
    "epci_code": "200039758",
    "departement_code": "89",
    "region_code": "27",
    "postal_code": "89200"
  },
  {
    "name": "Thury",
    "code": "89416",
    "epci_code": "200067130",
    "departement_code": "89",
    "region_code": "27",
    "postal_code": "89520"
  },
  {
    "name": "Tissey",
    "code": "89417",
    "epci_code": "200039642",
    "departement_code": "89",
    "region_code": "27",
    "postal_code": "89700"
  },
  {
    "name": "Tonnerre",
    "code": "89418",
    "epci_code": "200039642",
    "departement_code": "89",
    "region_code": "27",
    "postal_code": "89700"
  },
  {
    "name": "Toucy",
    "code": "89419",
    "epci_code": "200067130",
    "departement_code": "89",
    "region_code": "27",
    "postal_code": "89130"
  },
  {
    "name": "Treigny-Perreuse-Sainte-Colombe",
    "code": "89420",
    "epci_code": "200067130",
    "departement_code": "89",
    "region_code": "27",
    "postal_code": "89520"
  },
  {
    "name": "Trichey",
    "code": "89422",
    "epci_code": "200039642",
    "departement_code": "89",
    "region_code": "27",
    "postal_code": "89430"
  },
  {
    "name": "Tronchoy",
    "code": "89423",
    "epci_code": "200039642",
    "departement_code": "89",
    "region_code": "27",
    "postal_code": "89700"
  },
  {
    "name": "Trucy-sur-Yonne",
    "code": "89424",
    "epci_code": "200067080",
    "departement_code": "89",
    "region_code": "27",
    "postal_code": "89460"
  },
  {
    "name": "Turny",
    "code": "89425",
    "epci_code": "200067304",
    "departement_code": "89",
    "region_code": "27",
    "postal_code": "89570"
  },
  {
    "name": "Val-de-Mercy",
    "code": "89426",
    "epci_code": "200067130",
    "departement_code": "89",
    "region_code": "27",
    "postal_code": "89580"
  },
  {
    "name": "Vallan",
    "code": "89427",
    "epci_code": "200067114",
    "departement_code": "89",
    "region_code": "27",
    "postal_code": "89580"
  },
  {
    "name": "Vallery",
    "code": "89428",
    "epci_code": "248900748",
    "departement_code": "89",
    "region_code": "27",
    "postal_code": "89150"
  },
  {
    "name": "Varennes",
    "code": "89430",
    "epci_code": "200067080",
    "departement_code": "89",
    "region_code": "27",
    "postal_code": "89144"
  },
  {
    "name": "Vassy-sous-Pisy",
    "code": "89431",
    "epci_code": "200039709",
    "departement_code": "89",
    "region_code": "27",
    "postal_code": "89420"
  },
  {
    "name": "Vaudeurs",
    "code": "89432",
    "epci_code": "248900664",
    "departement_code": "89",
    "region_code": "27",
    "postal_code": "89320"
  },
  {
    "name": "Vault-de-Lugny",
    "code": "89433",
    "epci_code": "200039758",
    "departement_code": "89",
    "region_code": "27",
    "postal_code": "89200"
  },
  {
    "name": "Vaumort",
    "code": "89434",
    "epci_code": "248900664",
    "departement_code": "89",
    "region_code": "27",
    "postal_code": "89320"
  },
  {
    "name": "Venizy",
    "code": "89436",
    "epci_code": "200067304",
    "departement_code": "89",
    "region_code": "27",
    "postal_code": "89210"
  },
  {
    "name": "Venouse",
    "code": "89437",
    "epci_code": "200067080",
    "departement_code": "89",
    "region_code": "27",
    "postal_code": "89230"
  },
  {
    "name": "Venoy",
    "code": "89438",
    "epci_code": "200067114",
    "departement_code": "89",
    "region_code": "27",
    "postal_code": "89290"
  },
  {
    "name": "Vergigny",
    "code": "89439",
    "epci_code": "200067304",
    "departement_code": "89",
    "region_code": "27",
    "postal_code": "89600"
  },
  {
    "name": "Verlin",
    "code": "89440",
    "epci_code": "248900938",
    "departement_code": "89",
    "region_code": "27",
    "postal_code": "89330"
  },
  {
    "name": "Vermenton",
    "code": "89441",
    "epci_code": "200067080",
    "departement_code": "89",
    "region_code": "27",
    "postal_code": "89270"
  },
  {
    "name": "Vernoy",
    "code": "89442",
    "epci_code": "248900748",
    "departement_code": "89",
    "region_code": "27",
    "postal_code": "89150"
  },
  {
    "name": "Véron",
    "code": "89443",
    "epci_code": "248900334",
    "departement_code": "89",
    "region_code": "27",
    "postal_code": "89510"
  },
  {
    "name": "Vézannes",
    "code": "89445",
    "epci_code": "200039642",
    "departement_code": "89",
    "region_code": "27",
    "postal_code": "89700"
  },
  {
    "name": "Vézelay",
    "code": "89446",
    "epci_code": "200039758",
    "departement_code": "89",
    "region_code": "27",
    "postal_code": "89450"
  },
  {
    "name": "Vézinnes",
    "code": "89447",
    "epci_code": "200039642",
    "departement_code": "89",
    "region_code": "27",
    "postal_code": "89700"
  },
  {
    "name": "Villeblevin",
    "code": "89449",
    "epci_code": "248900896",
    "departement_code": "89",
    "region_code": "27",
    "postal_code": "89340"
  },
  {
    "name": "Villebougis",
    "code": "89450",
    "epci_code": "248900748",
    "departement_code": "89",
    "region_code": "27",
    "postal_code": "89150"
  },
  {
    "name": "Villechétive",
    "code": "89451",
    "epci_code": "248900664",
    "departement_code": "89",
    "region_code": "27",
    "postal_code": "89320"
  },
  {
    "name": "Villecien",
    "code": "89452",
    "epci_code": "248900938",
    "departement_code": "89",
    "region_code": "27",
    "postal_code": "89300"
  },
  {
    "name": "Villefargeau",
    "code": "89453",
    "epci_code": "200067114",
    "departement_code": "89",
    "region_code": "27",
    "postal_code": "89240"
  },
  {
    "name": "Villemanoche",
    "code": "89456",
    "epci_code": "248900896",
    "departement_code": "89",
    "region_code": "27",
    "postal_code": "89140"
  },
  {
    "name": "Villenavotte",
    "code": "89458",
    "epci_code": "248900896",
    "departement_code": "89",
    "region_code": "27",
    "postal_code": "89140"
  },
  {
    "name": "Villeneuve-la-Dondagre",
    "code": "89459",
    "epci_code": "248900748",
    "departement_code": "89",
    "region_code": "27",
    "postal_code": "89150"
  },
  {
    "name": "Villeneuve-la-Guyard",
    "code": "89460",
    "epci_code": "248900896",
    "departement_code": "89",
    "region_code": "27",
    "postal_code": "89340"
  },
  {
    "name": "Villeneuve-l’Archevêque",
    "code": "89461",
    "epci_code": "248900664",
    "departement_code": "89",
    "region_code": "27",
    "postal_code": "89190"
  },
  {
    "name": "Villeneuve-les-Genêts",
    "code": "89462",
    "epci_code": "200067130",
    "departement_code": "89",
    "region_code": "27",
    "postal_code": "89350"
  },
  {
    "name": "Villeneuve-Saint-Salves",
    "code": "89463",
    "epci_code": "200067114",
    "departement_code": "89",
    "region_code": "27",
    "postal_code": "89230"
  },
  {
    "name": "Villeneuve-sur-Yonne",
    "code": "89464",
    "epci_code": "248900334",
    "departement_code": "89",
    "region_code": "27",
    "postal_code": "89500"
  },
  {
    "name": "Villeperrot",
    "code": "89465",
    "epci_code": "248900896",
    "departement_code": "89",
    "region_code": "27",
    "postal_code": "89140"
  },
  {
    "name": "Villeroy",
    "code": "89466",
    "epci_code": "248900748",
    "departement_code": "89",
    "region_code": "27",
    "postal_code": "89100"
  },
  {
    "name": "Villethierry",
    "code": "89467",
    "epci_code": "248900748",
    "departement_code": "89",
    "region_code": "27",
    "postal_code": "89140"
  },
  {
    "name": "Villevallier",
    "code": "89468",
    "epci_code": "248900938",
    "departement_code": "89",
    "region_code": "27",
    "postal_code": "89330"
  },
  {
    "name": "Perceneige",
    "code": "89469",
    "epci_code": "248900896",
    "departement_code": "89",
    "region_code": "27",
    "postal_code": "89260"
  },
  {
    "name": "Villiers-les-Hauts",
    "code": "89470",
    "epci_code": "200039642",
    "departement_code": "89",
    "region_code": "27",
    "postal_code": "89160"
  },
  {
    "name": "Villiers-Louis",
    "code": "89471",
    "epci_code": "248900334",
    "departement_code": "89",
    "region_code": "27",
    "postal_code": "89320"
  },
  {
    "name": "Villiers-Saint-Benoît",
    "code": "89472",
    "epci_code": "200067130",
    "departement_code": "89",
    "region_code": "27",
    "postal_code": "89130"
  },
  {
    "name": "Villiers-Vineux",
    "code": "89474",
    "epci_code": "200067304",
    "departement_code": "89",
    "region_code": "27",
    "postal_code": "89360"
  },
  {
    "name": "Villon",
    "code": "89475",
    "epci_code": "200039642",
    "departement_code": "89",
    "region_code": "27",
    "postal_code": "89740"
  },
  {
    "name": "Villy",
    "code": "89477",
    "epci_code": "200067080",
    "departement_code": "89",
    "region_code": "27",
    "postal_code": "89800"
  },
  {
    "name": "Vincelles",
    "code": "89478",
    "epci_code": "200067114",
    "departement_code": "89",
    "region_code": "27",
    "postal_code": "89290"
  },
  {
    "name": "Vincelottes",
    "code": "89479",
    "epci_code": "200067114",
    "departement_code": "89",
    "region_code": "27",
    "postal_code": "89290"
  },
  {
    "name": "Vinneuf",
    "code": "89480",
    "epci_code": "248900896",
    "departement_code": "89",
    "region_code": "27",
    "postal_code": "89140"
  },
  {
    "name": "Vireaux",
    "code": "89481",
    "epci_code": "200039642",
    "departement_code": "89",
    "region_code": "27",
    "postal_code": "89160"
  },
  {
    "name": "Viviers",
    "code": "89482",
    "epci_code": "200039642",
    "departement_code": "89",
    "region_code": "27",
    "postal_code": "89700"
  },
  {
    "name": "Voisines",
    "code": "89483",
    "epci_code": "248900334",
    "departement_code": "89",
    "region_code": "27",
    "postal_code": "89260"
  },
  {
    "name": "Voutenay-sur-Cure",
    "code": "89485",
    "epci_code": "200039758",
    "departement_code": "89",
    "region_code": "27",
    "postal_code": "89270"
  },
  {
    "name": "Yrouerre",
    "code": "89486",
    "epci_code": "200039642",
    "departement_code": "89",
    "region_code": "27",
    "postal_code": "89700"
  }
]