[
  {
    "name": "Aire-sur-l’Adour",
    "code": "40001",
    "epci_code": "200030435",
    "departement_code": "40",
    "region_code": "75",
    "postal_code": "40800"
  },
  {
    "name": "Amou",
    "code": "40002",
    "epci_code": "244000881",
    "departement_code": "40",
    "region_code": "75",
    "postal_code": "40330"
  },
  {
    "name": "Angoumé",
    "code": "40003",
    "epci_code": "244000675",
    "departement_code": "40",
    "region_code": "75",
    "postal_code": "40990"
  },
  {
    "name": "Angresse",
    "code": "40004",
    "epci_code": "244000865",
    "departement_code": "40",
    "region_code": "75",
    "postal_code": "40150"
  },
  {
    "name": "Arboucave",
    "code": "40005",
    "epci_code": "200069649",
    "departement_code": "40",
    "region_code": "75",
    "postal_code": "40320"
  },
  {
    "name": "Arengosse",
    "code": "40006",
    "epci_code": "244000691",
    "departement_code": "40",
    "region_code": "75",
    "postal_code": "40110"
  },
  {
    "name": "Argelos",
    "code": "40007",
    "epci_code": "244000881",
    "departement_code": "40",
    "region_code": "75",
    "postal_code": "40700"
  },
  {
    "name": "Argelouse",
    "code": "40008",
    "epci_code": "200069656",
    "departement_code": "40",
    "region_code": "75",
    "postal_code": "40430"
  },
  {
    "name": "Arsague",
    "code": "40011",
    "epci_code": "244000881",
    "departement_code": "40",
    "region_code": "75",
    "postal_code": "40330"
  },
  {
    "name": "Artassenx",
    "code": "40012",
    "epci_code": "244000824",
    "departement_code": "40",
    "region_code": "75",
    "postal_code": "40090"
  },
  {
    "name": "Arthez-d’Armagnac",
    "code": "40013",
    "epci_code": "244000774",
    "departement_code": "40",
    "region_code": "75",
    "postal_code": "40190"
  },
  {
    "name": "Arue",
    "code": "40014",
    "epci_code": "200035541",
    "departement_code": "40",
    "region_code": "75",
    "postal_code": "40120"
  },
  {
    "name": "Arx",
    "code": "40015",
    "epci_code": "200035541",
    "departement_code": "40",
    "region_code": "75",
    "postal_code": "40310"
  },
  {
    "name": "Aubagnan",
    "code": "40016",
    "epci_code": "200069649",
    "departement_code": "40",
    "region_code": "75",
    "postal_code": "40700"
  },
  {
    "name": "Audignon",
    "code": "40017",
    "epci_code": "200069649",
    "departement_code": "40",
    "region_code": "75",
    "postal_code": "40500"
  },
  {
    "name": "Audon",
    "code": "40018",
    "epci_code": "244000766",
    "departement_code": "40",
    "region_code": "75",
    "postal_code": "40400"
  },
  {
    "name": "Aureilhan",
    "code": "40019",
    "epci_code": "244000543",
    "departement_code": "40",
    "region_code": "75",
    "postal_code": "40200"
  },
  {
    "name": "Aurice",
    "code": "40020",
    "epci_code": "200069649",
    "departement_code": "40",
    "region_code": "75",
    "postal_code": "40500"
  },
  {
    "name": "Azur",
    "code": "40021",
    "epci_code": "244000865",
    "departement_code": "40",
    "region_code": "75",
    "postal_code": "40140"
  },
  {
    "name": "Bahus-Soubiran",
    "code": "40022",
    "epci_code": "200030435",
    "departement_code": "40",
    "region_code": "75",
    "postal_code": "40320"
  },
  {
    "name": "Baigts",
    "code": "40023",
    "epci_code": "200069631",
    "departement_code": "40",
    "region_code": "75",
    "postal_code": "40380"
  },
  {
    "name": "Banos",
    "code": "40024",
    "epci_code": "200069649",
    "departement_code": "40",
    "region_code": "75",
    "postal_code": "40500"
  },
  {
    "name": "Bascons",
    "code": "40025",
    "epci_code": "244000824",
    "departement_code": "40",
    "region_code": "75",
    "postal_code": "40090"
  },
  {
    "name": "Bas-Mauco",
    "code": "40026",
    "epci_code": "200069649",
    "departement_code": "40",
    "region_code": "75",
    "postal_code": "40500"
  },
  {
    "name": "Bassercles",
    "code": "40027",
    "epci_code": "244000881",
    "departement_code": "40",
    "region_code": "75",
    "postal_code": "40700"
  },
  {
    "name": "Bastennes",
    "code": "40028",
    "epci_code": "244000881",
    "departement_code": "40",
    "region_code": "75",
    "postal_code": "40360"
  },
  {
    "name": "Bats",
    "code": "40029",
    "epci_code": "200069649",
    "departement_code": "40",
    "region_code": "75",
    "postal_code": "40320"
  },
  {
    "name": "Baudignan",
    "code": "40030",
    "epci_code": "200035541",
    "departement_code": "40",
    "region_code": "75",
    "postal_code": "40310"
  },
  {
    "name": "Bégaar",
    "code": "40031",
    "epci_code": "244000766",
    "departement_code": "40",
    "region_code": "75",
    "postal_code": "40400"
  },
  {
    "name": "Belhade",
    "code": "40032",
    "epci_code": "200069656",
    "departement_code": "40",
    "region_code": "75",
    "postal_code": "40410"
  },
  {
    "name": "Bélis",
    "code": "40033",
    "epci_code": "200069656",
    "departement_code": "40",
    "region_code": "75",
    "postal_code": "40120"
  },
  {
    "name": "Bélus",
    "code": "40034",
    "epci_code": "200069417",
    "departement_code": "40",
    "region_code": "75",
    "postal_code": "40300"
  },
  {
    "name": "Bénesse-lès-Dax",
    "code": "40035",
    "epci_code": "244000675",
    "departement_code": "40",
    "region_code": "75",
    "postal_code": "40180"
  },
  {
    "name": "Bénesse-Maremne",
    "code": "40036",
    "epci_code": "244000865",
    "departement_code": "40",
    "region_code": "75",
    "postal_code": "40230"
  },
  {
    "name": "Benquet",
    "code": "40037",
    "epci_code": "244000808",
    "departement_code": "40",
    "region_code": "75",
    "postal_code": "40280"
  },
  {
    "name": "Bergouey",
    "code": "40038",
    "epci_code": "200069631",
    "departement_code": "40",
    "region_code": "75",
    "postal_code": "40250"
  },
  {
    "name": "Betbezer-d’Armagnac",
    "code": "40039",
    "epci_code": "200035541",
    "departement_code": "40",
    "region_code": "75",
    "postal_code": "40240"
  },
  {
    "name": "Beylongue",
    "code": "40040",
    "epci_code": "244000766",
    "departement_code": "40",
    "region_code": "75",
    "postal_code": "40370"
  },
  {
    "name": "Beyries",
    "code": "40041",
    "epci_code": "244000881",
    "departement_code": "40",
    "region_code": "75",
    "postal_code": "40700"
  },
  {
    "name": "Biarrotte",
    "code": "40042",
    "epci_code": "244000659",
    "departement_code": "40",
    "region_code": "75",
    "postal_code": "40390"
  },
  {
    "name": "Bias",
    "code": "40043",
    "epci_code": "244000543",
    "departement_code": "40",
    "region_code": "75",
    "postal_code": "40170"
  },
  {
    "name": "Biaudos",
    "code": "40044",
    "epci_code": "244000659",
    "departement_code": "40",
    "region_code": "75",
    "postal_code": "40390"
  },
  {
    "name": "Biscarrosse",
    "code": "40046",
    "epci_code": "244000873",
    "departement_code": "40",
    "region_code": "75",
    "postal_code": "40600"
  },
  {
    "name": "Bonnegarde",
    "code": "40047",
    "epci_code": "244000881",
    "departement_code": "40",
    "region_code": "75",
    "postal_code": "40330"
  },
  {
    "name": "Bordères-et-Lamensans",
    "code": "40049",
    "epci_code": "244000824",
    "departement_code": "40",
    "region_code": "75",
    "postal_code": "40270"
  },
  {
    "name": "Bostens",
    "code": "40050",
    "epci_code": "244000808",
    "departement_code": "40",
    "region_code": "75",
    "postal_code": "40090"
  },
  {
    "name": "Bougue",
    "code": "40051",
    "epci_code": "244000808",
    "departement_code": "40",
    "region_code": "75",
    "postal_code": "40090"
  },
  {
    "name": "Bourdalat",
    "code": "40052",
    "epci_code": "244000774",
    "departement_code": "40",
    "region_code": "75",
    "postal_code": "40190"
  },
  {
    "name": "Bourriot-Bergonce",
    "code": "40053",
    "epci_code": "200035541",
    "departement_code": "40",
    "region_code": "75",
    "postal_code": "40120"
  },
  {
    "name": "Brassempouy",
    "code": "40054",
    "epci_code": "244000881",
    "departement_code": "40",
    "region_code": "75",
    "postal_code": "40330"
  },
  {
    "name": "Bretagne-de-Marsan",
    "code": "40055",
    "epci_code": "244000808",
    "departement_code": "40",
    "region_code": "75",
    "postal_code": "40280"
  },
  {
    "name": "Brocas",
    "code": "40056",
    "epci_code": "200069656",
    "departement_code": "40",
    "region_code": "75",
    "postal_code": "40420"
  },
  {
    "name": "Buanes",
    "code": "40057",
    "epci_code": "200030435",
    "departement_code": "40",
    "region_code": "75",
    "postal_code": "40320"
  },
  {
    "name": "Cachen",
    "code": "40058",
    "epci_code": "200035541",
    "departement_code": "40",
    "region_code": "75",
    "postal_code": "40120"
  },
  {
    "name": "Cagnotte",
    "code": "40059",
    "epci_code": "200069417",
    "departement_code": "40",
    "region_code": "75",
    "postal_code": "40300"
  },
  {
    "name": "Callen",
    "code": "40060",
    "epci_code": "200069656",
    "departement_code": "40",
    "region_code": "75",
    "postal_code": "40430"
  },
  {
    "name": "Campagne",
    "code": "40061",
    "epci_code": "244000808",
    "departement_code": "40",
    "region_code": "75",
    "postal_code": "40090"
  },
  {
    "name": "Campet-et-Lamolère",
    "code": "40062",
    "epci_code": "244000808",
    "departement_code": "40",
    "region_code": "75",
    "postal_code": "40090"
  },
  {
    "name": "Candresse",
    "code": "40063",
    "epci_code": "244000675",
    "departement_code": "40",
    "region_code": "75",
    "postal_code": "40180"
  },
  {
    "name": "Canenx-et-Réaut",
    "code": "40064",
    "epci_code": "200069656",
    "departement_code": "40",
    "region_code": "75",
    "postal_code": "40090"
  },
  {
    "name": "Capbreton",
    "code": "40065",
    "epci_code": "244000865",
    "departement_code": "40",
    "region_code": "75",
    "postal_code": "40130"
  },
  {
    "name": "Carcarès-Sainte-Croix",
    "code": "40066",
    "epci_code": "244000766",
    "departement_code": "40",
    "region_code": "75",
    "postal_code": "40400"
  },
  {
    "name": "Carcen-Ponson",
    "code": "40067",
    "epci_code": "244000766",
    "departement_code": "40",
    "region_code": "75",
    "postal_code": "40400"
  },
  {
    "name": "Cassen",
    "code": "40068",
    "epci_code": "200069631",
    "departement_code": "40",
    "region_code": "75",
    "postal_code": "40380"
  },
  {
    "name": "Castaignos-Souslens",
    "code": "40069",
    "epci_code": "244000881",
    "departement_code": "40",
    "region_code": "75",
    "postal_code": "40700"
  },
  {
    "name": "Castandet",
    "code": "40070",
    "epci_code": "244000824",
    "departement_code": "40",
    "region_code": "75",
    "postal_code": "40270"
  },
  {
    "name": "Castelnau-Chalosse",
    "code": "40071",
    "epci_code": "244000881",
    "departement_code": "40",
    "region_code": "75",
    "postal_code": "40360"
  },
  {
    "name": "Castelnau-Tursan",
    "code": "40072",
    "epci_code": "200069649",
    "departement_code": "40",
    "region_code": "75",
    "postal_code": "40320"
  },
  {
    "name": "Castelner",
    "code": "40073",
    "epci_code": "200069649",
    "departement_code": "40",
    "region_code": "75",
    "postal_code": "40700"
  },
  {
    "name": "Castel-Sarrazin",
    "code": "40074",
    "epci_code": "244000881",
    "departement_code": "40",
    "region_code": "75",
    "postal_code": "40330"
  },
  {
    "name": "Castets",
    "code": "40075",
    "epci_code": "244000857",
    "departement_code": "40",
    "region_code": "75",
    "postal_code": "40260"
  },
  {
    "name": "Cauna",
    "code": "40076",
    "epci_code": "200069649",
    "departement_code": "40",
    "region_code": "75",
    "postal_code": "40500"
  },
  {
    "name": "Cauneille",
    "code": "40077",
    "epci_code": "200069417",
    "departement_code": "40",
    "region_code": "75",
    "postal_code": "40300"
  },
  {
    "name": "Caupenne",
    "code": "40078",
    "epci_code": "200069631",
    "departement_code": "40",
    "region_code": "75",
    "postal_code": "40250"
  },
  {
    "name": "Cazalis",
    "code": "40079",
    "epci_code": "200069649",
    "departement_code": "40",
    "region_code": "75",
    "postal_code": "40700"
  },
  {
    "name": "Cazères-sur-l’Adour",
    "code": "40080",
    "epci_code": "244000824",
    "departement_code": "40",
    "region_code": "75",
    "postal_code": "40270"
  },
  {
    "name": "Cère",
    "code": "40081",
    "epci_code": "200069656",
    "departement_code": "40",
    "region_code": "75",
    "postal_code": "40090"
  },
  {
    "name": "Classun",
    "code": "40082",
    "epci_code": "200030435",
    "departement_code": "40",
    "region_code": "75",
    "postal_code": "40320"
  },
  {
    "name": "Clèdes",
    "code": "40083",
    "epci_code": "200069649",
    "departement_code": "40",
    "region_code": "75",
    "postal_code": "40320"
  },
  {
    "name": "Clermont",
    "code": "40084",
    "epci_code": "200069631",
    "departement_code": "40",
    "region_code": "75",
    "postal_code": "40180"
  },
  {
    "name": "Commensacq",
    "code": "40085",
    "epci_code": "200069656",
    "departement_code": "40",
    "region_code": "75",
    "postal_code": "40210"
  },
  {
    "name": "Coudures",
    "code": "40086",
    "epci_code": "200069649",
    "departement_code": "40",
    "region_code": "75",
    "postal_code": "40500"
  },
  {
    "name": "Créon-d’Armagnac",
    "code": "40087",
    "epci_code": "200035541",
    "departement_code": "40",
    "region_code": "75",
    "postal_code": "40240"
  },
  {
    "name": "Dax",
    "code": "40088",
    "epci_code": "244000675",
    "departement_code": "40",
    "region_code": "75",
    "postal_code": "40100"
  },
  {
    "name": "Doazit",
    "code": "40089",
    "epci_code": "200069631",
    "departement_code": "40",
    "region_code": "75",
    "postal_code": "40700"
  },
  {
    "name": "Donzacq",
    "code": "40090",
    "epci_code": "244000881",
    "departement_code": "40",
    "region_code": "75",
    "postal_code": "40360"
  },
  {
    "name": "Duhort-Bachen",
    "code": "40091",
    "epci_code": "200030435",
    "departement_code": "40",
    "region_code": "75",
    "postal_code": "40800"
  },
  {
    "name": "Dumes",
    "code": "40092",
    "epci_code": "200069649",
    "departement_code": "40",
    "region_code": "75",
    "postal_code": "40500"
  },
  {
    "name": "Escalans",
    "code": "40093",
    "epci_code": "200035541",
    "departement_code": "40",
    "region_code": "75",
    "postal_code": "40310"
  },
  {
    "name": "Escource",
    "code": "40094",
    "epci_code": "200069656",
    "departement_code": "40",
    "region_code": "75",
    "postal_code": "40210"
  },
  {
    "name": "Estibeaux",
    "code": "40095",
    "epci_code": "200069417",
    "departement_code": "40",
    "region_code": "75",
    "postal_code": "40290"
  },
  {
    "name": "Estigarde",
    "code": "40096",
    "epci_code": "200035541",
    "departement_code": "40",
    "region_code": "75",
    "postal_code": "40240"
  },
  {
    "name": "Eugénie-les-Bains",
    "code": "40097",
    "epci_code": "200030435",
    "departement_code": "40",
    "region_code": "75",
    "postal_code": "40320"
  },
  {
    "name": "Eyres-Moncube",
    "code": "40098",
    "epci_code": "200069649",
    "departement_code": "40",
    "region_code": "75",
    "postal_code": "40500"
  },
  {
    "name": "Fargues",
    "code": "40099",
    "epci_code": "200069649",
    "departement_code": "40",
    "region_code": "75",
    "postal_code": "40500"
  },
  {
    "name": "Le Frêche",
    "code": "40100",
    "epci_code": "244000774",
    "departement_code": "40",
    "region_code": "75",
    "postal_code": "40190"
  },
  {
    "name": "Gaas",
    "code": "40101",
    "epci_code": "200069417",
    "departement_code": "40",
    "region_code": "75",
    "postal_code": "40350"
  },
  {
    "name": "Gabarret",
    "code": "40102",
    "epci_code": "200035541",
    "departement_code": "40",
    "region_code": "75",
    "postal_code": "40310"
  },
  {
    "name": "Gaillères",
    "code": "40103",
    "epci_code": "244000808",
    "departement_code": "40",
    "region_code": "75",
    "postal_code": "40090"
  },
  {
    "name": "Gamarde-les-Bains",
    "code": "40104",
    "epci_code": "200069631",
    "departement_code": "40",
    "region_code": "75",
    "postal_code": "40380"
  },
  {
    "name": "Garein",
    "code": "40105",
    "epci_code": "200069656",
    "departement_code": "40",
    "region_code": "75",
    "postal_code": "40420"
  },
  {
    "name": "Garrey",
    "code": "40106",
    "epci_code": "200069631",
    "departement_code": "40",
    "region_code": "75",
    "postal_code": "40180"
  },
  {
    "name": "Gastes",
    "code": "40108",
    "epci_code": "244000873",
    "departement_code": "40",
    "region_code": "75",
    "postal_code": "40160"
  },
  {
    "name": "Gaujacq",
    "code": "40109",
    "epci_code": "244000881",
    "departement_code": "40",
    "region_code": "75",
    "postal_code": "40330"
  },
  {
    "name": "Geaune",
    "code": "40110",
    "epci_code": "200069649",
    "departement_code": "40",
    "region_code": "75",
    "postal_code": "40320"
  },
  {
    "name": "Geloux",
    "code": "40111",
    "epci_code": "244000808",
    "departement_code": "40",
    "region_code": "75",
    "postal_code": "40090"
  },
  {
    "name": "Gibret",
    "code": "40112",
    "epci_code": "200069631",
    "departement_code": "40",
    "region_code": "75",
    "postal_code": "40380"
  },
  {
    "name": "Goos",
    "code": "40113",
    "epci_code": "200069631",
    "departement_code": "40",
    "region_code": "75",
    "postal_code": "40180"
  },
  {
    "name": "Gourbera",
    "code": "40114",
    "epci_code": "244000675",
    "departement_code": "40",
    "region_code": "75",
    "postal_code": "40990"
  },
  {
    "name": "Gousse",
    "code": "40115",
    "epci_code": "200069631",
    "departement_code": "40",
    "region_code": "75",
    "postal_code": "40465"
  },
  {
    "name": "Gouts",
    "code": "40116",
    "epci_code": "244000766",
    "departement_code": "40",
    "region_code": "75",
    "postal_code": "40400"
  },
  {
    "name": "Grenade-sur-l’Adour",
    "code": "40117",
    "epci_code": "244000824",
    "departement_code": "40",
    "region_code": "75",
    "postal_code": "40270"
  },
  {
    "name": "Habas",
    "code": "40118",
    "epci_code": "200069417",
    "departement_code": "40",
    "region_code": "75",
    "postal_code": "40290"
  },
  {
    "name": "Hagetmau",
    "code": "40119",
    "epci_code": "200069649",
    "departement_code": "40",
    "region_code": "75",
    "postal_code": "40700"
  },
  {
    "name": "Hastingues",
    "code": "40120",
    "epci_code": "200069417",
    "departement_code": "40",
    "region_code": "75",
    "postal_code": "40300"
  },
  {
    "name": "Hauriet",
    "code": "40121",
    "epci_code": "200069631",
    "departement_code": "40",
    "region_code": "75",
    "postal_code": "40250"
  },
  {
    "name": "Haut-Mauco",
    "code": "40122",
    "epci_code": "200069649",
    "departement_code": "40",
    "region_code": "75",
    "postal_code": "40280"
  },
  {
    "name": "Herm",
    "code": "40123",
    "epci_code": "244000675",
    "departement_code": "40",
    "region_code": "75",
    "postal_code": "40990"
  },
  {
    "name": "Herré",
    "code": "40124",
    "epci_code": "200035541",
    "departement_code": "40",
    "region_code": "75",
    "postal_code": "40310"
  },
  {
    "name": "Heugas",
    "code": "40125",
    "epci_code": "244000675",
    "departement_code": "40",
    "region_code": "75",
    "postal_code": "40180"
  },
  {
    "name": "Hinx",
    "code": "40126",
    "epci_code": "200069631",
    "departement_code": "40",
    "region_code": "75",
    "postal_code": "40180"
  },
  {
    "name": "Hontanx",
    "code": "40127",
    "epci_code": "244000774",
    "departement_code": "40",
    "region_code": "75",
    "postal_code": "40190"
  },
  {
    "name": "Horsarrieu",
    "code": "40128",
    "epci_code": "200069649",
    "departement_code": "40",
    "region_code": "75",
    "postal_code": "40700"
  },
  {
    "name": "Josse",
    "code": "40129",
    "epci_code": "244000865",
    "departement_code": "40",
    "region_code": "75",
    "postal_code": "40230"
  },
  {
    "name": "Labastide-Chalosse",
    "code": "40130",
    "epci_code": "200069649",
    "departement_code": "40",
    "region_code": "75",
    "postal_code": "40700"
  },
  {
    "name": "Labastide-d’Armagnac",
    "code": "40131",
    "epci_code": "200035541",
    "departement_code": "40",
    "region_code": "75",
    "postal_code": "40240"
  },
  {
    "name": "Labatut",
    "code": "40132",
    "epci_code": "200069417",
    "departement_code": "40",
    "region_code": "75",
    "postal_code": "40300"
  },
  {
    "name": "Labenne",
    "code": "40133",
    "epci_code": "244000865",
    "departement_code": "40",
    "region_code": "75",
    "postal_code": "40530"
  },
  {
    "name": "Labouheyre",
    "code": "40134",
    "epci_code": "200069656",
    "departement_code": "40",
    "region_code": "75",
    "postal_code": "40210"
  },
  {
    "name": "Labrit",
    "code": "40135",
    "epci_code": "200069656",
    "departement_code": "40",
    "region_code": "75",
    "postal_code": "40420"
  },
  {
    "name": "Lacajunte",
    "code": "40136",
    "epci_code": "200069649",
    "departement_code": "40",
    "region_code": "75",
    "postal_code": "40320"
  },
  {
    "name": "Lacquy",
    "code": "40137",
    "epci_code": "244000774",
    "departement_code": "40",
    "region_code": "75",
    "postal_code": "40120"
  },
  {
    "name": "Lacrabe",
    "code": "40138",
    "epci_code": "200069649",
    "departement_code": "40",
    "region_code": "75",
    "postal_code": "40700"
  },
  {
    "name": "Laglorieuse",
    "code": "40139",
    "epci_code": "244000808",
    "departement_code": "40",
    "region_code": "75",
    "postal_code": "40090"
  },
  {
    "name": "Lagrange",
    "code": "40140",
    "epci_code": "200035541",
    "departement_code": "40",
    "region_code": "75",
    "postal_code": "40240"
  },
  {
    "name": "Lahosse",
    "code": "40141",
    "epci_code": "200069631",
    "departement_code": "40",
    "region_code": "75",
    "postal_code": "40250"
  },
  {
    "name": "Laluque",
    "code": "40142",
    "epci_code": "244000766",
    "departement_code": "40",
    "region_code": "75",
    "postal_code": "40465"
  },
  {
    "name": "Lamothe",
    "code": "40143",
    "epci_code": "244000766",
    "departement_code": "40",
    "region_code": "75",
    "postal_code": "40250"
  },
  {
    "name": "Larbey",
    "code": "40144",
    "epci_code": "200069631",
    "departement_code": "40",
    "region_code": "75",
    "postal_code": "40250"
  },
  {
    "name": "Larrivière-Saint-Savin",
    "code": "40145",
    "epci_code": "244000824",
    "departement_code": "40",
    "region_code": "75",
    "postal_code": "40270"
  },
  {
    "name": "Latrille",
    "code": "40146",
    "epci_code": "200030435",
    "departement_code": "40",
    "region_code": "75",
    "postal_code": "40800"
  },
  {
    "name": "Laurède",
    "code": "40147",
    "epci_code": "200069631",
    "departement_code": "40",
    "region_code": "75",
    "postal_code": "40250"
  },
  {
    "name": "Lauret",
    "code": "40148",
    "epci_code": "200069649",
    "departement_code": "40",
    "region_code": "75",
    "postal_code": "40320"
  },
  {
    "name": "Lencouacq",
    "code": "40149",
    "epci_code": "200035541",
    "departement_code": "40",
    "region_code": "75",
    "postal_code": "40120"
  },
  {
    "name": "Léon",
    "code": "40150",
    "epci_code": "244000857",
    "departement_code": "40",
    "region_code": "75",
    "postal_code": "40550"
  },
  {
    "name": "Lesgor",
    "code": "40151",
    "epci_code": "244000766",
    "departement_code": "40",
    "region_code": "75",
    "postal_code": "40400"
  },
  {
    "name": "Lesperon",
    "code": "40152",
    "epci_code": "244000691",
    "departement_code": "40",
    "region_code": "75",
    "postal_code": "40260"
  },
  {
    "name": "Le Leuy",
    "code": "40153",
    "epci_code": "244000766",
    "departement_code": "40",
    "region_code": "75",
    "postal_code": "40250"
  },
  {
    "name": "Lévignacq",
    "code": "40154",
    "epci_code": "244000857",
    "departement_code": "40",
    "region_code": "75",
    "postal_code": "40170"
  },
  {
    "name": "Linxe",
    "code": "40155",
    "epci_code": "244000857",
    "departement_code": "40",
    "region_code": "75",
    "postal_code": "40260"
  },
  {
    "name": "Liposthey",
    "code": "40156",
    "epci_code": "200069656",
    "departement_code": "40",
    "region_code": "75",
    "postal_code": "40410"
  },
  {
    "name": "Lit-et-Mixe",
    "code": "40157",
    "epci_code": "244000857",
    "departement_code": "40",
    "region_code": "75",
    "postal_code": "40170"
  },
  {
    "name": "Losse",
    "code": "40158",
    "epci_code": "200035541",
    "departement_code": "40",
    "region_code": "75",
    "postal_code": "40240"
  },
  {
    "name": "Louer",
    "code": "40159",
    "epci_code": "200069631",
    "departement_code": "40",
    "region_code": "75",
    "postal_code": "40380"
  },
  {
    "name": "Lourquen",
    "code": "40160",
    "epci_code": "200069631",
    "departement_code": "40",
    "region_code": "75",
    "postal_code": "40250"
  },
  {
    "name": "Lubbon",
    "code": "40161",
    "epci_code": "200035541",
    "departement_code": "40",
    "region_code": "75",
    "postal_code": "40240"
  },
  {
    "name": "Lucbardez-et-Bargues",
    "code": "40162",
    "epci_code": "244000808",
    "departement_code": "40",
    "region_code": "75",
    "postal_code": "40090"
  },
  {
    "name": "Lüe",
    "code": "40163",
    "epci_code": "244000873",
    "departement_code": "40",
    "region_code": "75",
    "postal_code": "40210"
  },
  {
    "name": "Retjons",
    "code": "40164",
    "epci_code": "200035541",
    "departement_code": "40",
    "region_code": "75",
    "postal_code": "40120"
  },
  {
    "name": "Luglon",
    "code": "40165",
    "epci_code": "200069656",
    "departement_code": "40",
    "region_code": "75",
    "postal_code": "40630"
  },
  {
    "name": "Lussagnet",
    "code": "40166",
    "epci_code": "244000824",
    "departement_code": "40",
    "region_code": "75",
    "postal_code": "40270"
  },
  {
    "name": "Luxey",
    "code": "40167",
    "epci_code": "200069656",
    "departement_code": "40",
    "region_code": "75",
    "postal_code": "40430"
  },
  {
    "name": "Magescq",
    "code": "40168",
    "epci_code": "244000865",
    "departement_code": "40",
    "region_code": "75",
    "postal_code": "40140"
  },
  {
    "name": "Maillas",
    "code": "40169",
    "epci_code": "200035541",
    "departement_code": "40",
    "region_code": "75",
    "postal_code": "40120"
  },
  {
    "name": "Maillères",
    "code": "40170",
    "epci_code": "200069656",
    "departement_code": "40",
    "region_code": "75",
    "postal_code": "40120"
  },
  {
    "name": "Mano",
    "code": "40171",
    "epci_code": "200069656",
    "departement_code": "40",
    "region_code": "75",
    "postal_code": "40410"
  },
  {
    "name": "Mant",
    "code": "40172",
    "epci_code": "200069649",
    "departement_code": "40",
    "region_code": "75",
    "postal_code": "40700"
  },
  {
    "name": "Marpaps",
    "code": "40173",
    "epci_code": "244000881",
    "departement_code": "40",
    "region_code": "75",
    "postal_code": "40330"
  },
  {
    "name": "Mauries",
    "code": "40174",
    "epci_code": "200069649",
    "departement_code": "40",
    "region_code": "75",
    "postal_code": "40320"
  },
  {
    "name": "Maurrin",
    "code": "40175",
    "epci_code": "244000824",
    "departement_code": "40",
    "region_code": "75",
    "postal_code": "40270"
  },
  {
    "name": "Mauvezin-d’Armagnac",
    "code": "40176",
    "epci_code": "200035541",
    "departement_code": "40",
    "region_code": "75",
    "postal_code": "40240"
  },
  {
    "name": "Maylis",
    "code": "40177",
    "epci_code": "200069631",
    "departement_code": "40",
    "region_code": "75",
    "postal_code": "40250"
  },
  {
    "name": "Mazerolles",
    "code": "40178",
    "epci_code": "244000808",
    "departement_code": "40",
    "region_code": "75",
    "postal_code": "40090"
  },
  {
    "name": "Mées",
    "code": "40179",
    "epci_code": "244000675",
    "departement_code": "40",
    "region_code": "75",
    "postal_code": "40990"
  },
  {
    "name": "Meilhan",
    "code": "40180",
    "epci_code": "244000766",
    "departement_code": "40",
    "region_code": "75",
    "postal_code": "40400"
  },
  {
    "name": "Messanges",
    "code": "40181",
    "epci_code": "244000865",
    "departement_code": "40",
    "region_code": "75",
    "postal_code": "40660"
  },
  {
    "name": "Mézos",
    "code": "40182",
    "epci_code": "244000543",
    "departement_code": "40",
    "region_code": "75",
    "postal_code": "40170"
  },
  {
    "name": "Mimbaste",
    "code": "40183",
    "epci_code": "200069417",
    "departement_code": "40",
    "region_code": "75",
    "postal_code": "40350"
  },
  {
    "name": "Mimizan",
    "code": "40184",
    "epci_code": "244000543",
    "departement_code": "40",
    "region_code": "75",
    "postal_code": "40200"
  },
  {
    "name": "Miramont-Sensacq",
    "code": "40185",
    "epci_code": "200069649",
    "departement_code": "40",
    "region_code": "75",
    "postal_code": "40320"
  },
  {
    "name": "Misson",
    "code": "40186",
    "epci_code": "200069417",
    "departement_code": "40",
    "region_code": "75",
    "postal_code": "40290"
  },
  {
    "name": "Moliets-et-Maa",
    "code": "40187",
    "epci_code": "244000865",
    "departement_code": "40",
    "region_code": "75",
    "postal_code": "40660"
  },
  {
    "name": "Momuy",
    "code": "40188",
    "epci_code": "200069649",
    "departement_code": "40",
    "region_code": "75",
    "postal_code": "40700"
  },
  {
    "name": "Monget",
    "code": "40189",
    "epci_code": "200069649",
    "departement_code": "40",
    "region_code": "75",
    "postal_code": "40700"
  },
  {
    "name": "Monségur",
    "code": "40190",
    "epci_code": "200069649",
    "departement_code": "40",
    "region_code": "75",
    "postal_code": "40700"
  },
  {
    "name": "Montaut",
    "code": "40191",
    "epci_code": "200069649",
    "departement_code": "40",
    "region_code": "75",
    "postal_code": "40500"
  },
  {
    "name": "Mont-de-Marsan",
    "code": "40192",
    "epci_code": "244000808",
    "departement_code": "40",
    "region_code": "75",
    "postal_code": "40000"
  },
  {
    "name": "Montégut",
    "code": "40193",
    "epci_code": "244000774",
    "departement_code": "40",
    "region_code": "75",
    "postal_code": "40190"
  },
  {
    "name": "Montfort-en-Chalosse",
    "code": "40194",
    "epci_code": "200069631",
    "departement_code": "40",
    "region_code": "75",
    "postal_code": "40380"
  },
  {
    "name": "Montgaillard",
    "code": "40195",
    "epci_code": "200069649",
    "departement_code": "40",
    "region_code": "75",
    "postal_code": "40500"
  },
  {
    "name": "Montsoué",
    "code": "40196",
    "epci_code": "200069649",
    "departement_code": "40",
    "region_code": "75",
    "postal_code": "40500"
  },
  {
    "name": "Morcenx-la-Nouvelle",
    "code": "40197",
    "epci_code": "244000691",
    "departement_code": "40",
    "region_code": "75",
    "postal_code": "40110"
  },
  {
    "name": "Morganx",
    "code": "40198",
    "epci_code": "200069649",
    "departement_code": "40",
    "region_code": "75",
    "postal_code": "40700"
  },
  {
    "name": "Mouscardès",
    "code": "40199",
    "epci_code": "200069417",
    "departement_code": "40",
    "region_code": "75",
    "postal_code": "40290"
  },
  {
    "name": "Moustey",
    "code": "40200",
    "epci_code": "200069656",
    "departement_code": "40",
    "region_code": "75",
    "postal_code": "40410"
  },
  {
    "name": "Mugron",
    "code": "40201",
    "epci_code": "200069631",
    "departement_code": "40",
    "region_code": "75",
    "postal_code": "40250"
  },
  {
    "name": "Narrosse",
    "code": "40202",
    "epci_code": "244000675",
    "departement_code": "40",
    "region_code": "75",
    "postal_code": "40180"
  },
  {
    "name": "Nassiet",
    "code": "40203",
    "epci_code": "244000881",
    "departement_code": "40",
    "region_code": "75",
    "postal_code": "40330"
  },
  {
    "name": "Nerbis",
    "code": "40204",
    "epci_code": "200069631",
    "departement_code": "40",
    "region_code": "75",
    "postal_code": "40250"
  },
  {
    "name": "Nousse",
    "code": "40205",
    "epci_code": "200069631",
    "departement_code": "40",
    "region_code": "75",
    "postal_code": "40380"
  },
  {
    "name": "Oeyregave",
    "code": "40206",
    "epci_code": "200069417",
    "departement_code": "40",
    "region_code": "75",
    "postal_code": "40300"
  },
  {
    "name": "Oeyreluy",
    "code": "40207",
    "epci_code": "244000675",
    "departement_code": "40",
    "region_code": "75",
    "postal_code": "40180"
  },
  {
    "name": "Onard",
    "code": "40208",
    "epci_code": "200069631",
    "departement_code": "40",
    "region_code": "75",
    "postal_code": "40380"
  },
  {
    "name": "Ondres",
    "code": "40209",
    "epci_code": "244000659",
    "departement_code": "40",
    "region_code": "75",
    "postal_code": "40440"
  },
  {
    "name": "Onesse-Laharie",
    "code": "40210",
    "epci_code": "244000691",
    "departement_code": "40",
    "region_code": "75",
    "postal_code": "40110"
  },
  {
    "name": "Orist",
    "code": "40211",
    "epci_code": "200069417",
    "departement_code": "40",
    "region_code": "75",
    "postal_code": "40300"
  },
  {
    "name": "Orthevielle",
    "code": "40212",
    "epci_code": "200069417",
    "departement_code": "40",
    "region_code": "75",
    "postal_code": "40300"
  },
  {
    "name": "Orx",
    "code": "40213",
    "epci_code": "244000865",
    "departement_code": "40",
    "region_code": "75",
    "postal_code": "40230"
  },
  {
    "name": "Ossages",
    "code": "40214",
    "epci_code": "200069417",
    "departement_code": "40",
    "region_code": "75",
    "postal_code": "40290"
  },
  {
    "name": "Ousse-Suzan",
    "code": "40215",
    "epci_code": "244000691",
    "departement_code": "40",
    "region_code": "75",
    "postal_code": "40110"
  },
  {
    "name": "Ozourt",
    "code": "40216",
    "epci_code": "200069631",
    "departement_code": "40",
    "region_code": "75",
    "postal_code": "40380"
  },
  {
    "name": "Parentis-en-Born",
    "code": "40217",
    "epci_code": "244000873",
    "departement_code": "40",
    "region_code": "75",
    "postal_code": "40160"
  },
  {
    "name": "Parleboscq",
    "code": "40218",
    "epci_code": "200035541",
    "departement_code": "40",
    "region_code": "75",
    "postal_code": "40310"
  },
  {
    "name": "Payros-Cazautets",
    "code": "40219",
    "epci_code": "200069649",
    "departement_code": "40",
    "region_code": "75",
    "postal_code": "40320"
  },
  {
    "name": "Pécorade",
    "code": "40220",
    "epci_code": "200069649",
    "departement_code": "40",
    "region_code": "75",
    "postal_code": "40320"
  },
  {
    "name": "Perquie",
    "code": "40221",
    "epci_code": "244000774",
    "departement_code": "40",
    "region_code": "75",
    "postal_code": "40190"
  },
  {
    "name": "Pey",
    "code": "40222",
    "epci_code": "200069417",
    "departement_code": "40",
    "region_code": "75",
    "postal_code": "40300"
  },
  {
    "name": "Peyre",
    "code": "40223",
    "epci_code": "200069649",
    "departement_code": "40",
    "region_code": "75",
    "postal_code": "40700"
  },
  {
    "name": "Peyrehorade",
    "code": "40224",
    "epci_code": "200069417",
    "departement_code": "40",
    "region_code": "75",
    "postal_code": "40300"
  },
  {
    "name": "Philondenx",
    "code": "40225",
    "epci_code": "200069649",
    "departement_code": "40",
    "region_code": "75",
    "postal_code": "40320"
  },
  {
    "name": "Pimbo",
    "code": "40226",
    "epci_code": "200069649",
    "departement_code": "40",
    "region_code": "75",
    "postal_code": "40320"
  },
  {
    "name": "Pissos",
    "code": "40227",
    "epci_code": "200069656",
    "departement_code": "40",
    "region_code": "75",
    "postal_code": "40410"
  },
  {
    "name": "Pomarez",
    "code": "40228",
    "epci_code": "244000881",
    "departement_code": "40",
    "region_code": "75",
    "postal_code": "40360"
  },
  {
    "name": "Pontenx-les-Forges",
    "code": "40229",
    "epci_code": "244000543",
    "departement_code": "40",
    "region_code": "75",
    "postal_code": "40200"
  },
  {
    "name": "Pontonx-sur-l’Adour",
    "code": "40230",
    "epci_code": "244000766",
    "departement_code": "40",
    "region_code": "75",
    "postal_code": "40465"
  },
  {
    "name": "Port-de-Lanne",
    "code": "40231",
    "epci_code": "200069417",
    "departement_code": "40",
    "region_code": "75",
    "postal_code": "40300"
  },
  {
    "name": "Poudenx",
    "code": "40232",
    "epci_code": "200069649",
    "departement_code": "40",
    "region_code": "75",
    "postal_code": "40700"
  },
  {
    "name": "Pouillon",
    "code": "40233",
    "epci_code": "200069417",
    "departement_code": "40",
    "region_code": "75",
    "postal_code": "40350"
  },
  {
    "name": "Pouydesseaux",
    "code": "40234",
    "epci_code": "244000808",
    "departement_code": "40",
    "region_code": "75",
    "postal_code": "40120"
  },
  {
    "name": "Poyanne",
    "code": "40235",
    "epci_code": "200069631",
    "departement_code": "40",
    "region_code": "75",
    "postal_code": "40380"
  },
  {
    "name": "Poyartin",
    "code": "40236",
    "epci_code": "200069631",
    "departement_code": "40",
    "region_code": "75",
    "postal_code": "40380"
  },
  {
    "name": "Préchacq-les-Bains",
    "code": "40237",
    "epci_code": "200069631",
    "departement_code": "40",
    "region_code": "75",
    "postal_code": "40465"
  },
  {
    "name": "Pujo-le-Plan",
    "code": "40238",
    "epci_code": "244000774",
    "departement_code": "40",
    "region_code": "75",
    "postal_code": "40190"
  },
  {
    "name": "Puyol-Cazalet",
    "code": "40239",
    "epci_code": "200069649",
    "departement_code": "40",
    "region_code": "75",
    "postal_code": "40320"
  },
  {
    "name": "Renung",
    "code": "40240",
    "epci_code": "200030435",
    "departement_code": "40",
    "region_code": "75",
    "postal_code": "40270"
  },
  {
    "name": "Rimbez-et-Baudiets",
    "code": "40242",
    "epci_code": "200035541",
    "departement_code": "40",
    "region_code": "75",
    "postal_code": "40310"
  },
  {
    "name": "Rion-des-Landes",
    "code": "40243",
    "epci_code": "244000766",
    "departement_code": "40",
    "region_code": "75",
    "postal_code": "40370"
  },
  {
    "name": "Rivière-Saas-et-Gourby",
    "code": "40244",
    "epci_code": "244000675",
    "departement_code": "40",
    "region_code": "75",
    "postal_code": "40180"
  },
  {
    "name": "Roquefort",
    "code": "40245",
    "epci_code": "200035541",
    "departement_code": "40",
    "region_code": "75",
    "postal_code": "40120"
  },
  {
    "name": "Sabres",
    "code": "40246",
    "epci_code": "200069656",
    "departement_code": "40",
    "region_code": "75",
    "postal_code": "40630"
  },
  {
    "name": "Saint-Agnet",
    "code": "40247",
    "epci_code": "200030435",
    "departement_code": "40",
    "region_code": "75",
    "postal_code": "40800"
  },
  {
    "name": "Saint-André-de-Seignanx",
    "code": "40248",
    "epci_code": "244000659",
    "departement_code": "40",
    "region_code": "75",
    "postal_code": "40390"
  },
  {
    "name": "Saint-Aubin",
    "code": "40249",
    "epci_code": "200069631",
    "departement_code": "40",
    "region_code": "75",
    "postal_code": "40250"
  },
  {
    "name": "Saint-Avit",
    "code": "40250",
    "epci_code": "244000808",
    "departement_code": "40",
    "region_code": "75",
    "postal_code": "40090"
  },
  {
    "name": "Saint-Barthélemy",
    "code": "40251",
    "epci_code": "244000659",
    "departement_code": "40",
    "region_code": "75",
    "postal_code": "40390"
  },
  {
    "name": "Sainte-Colombe",
    "code": "40252",
    "epci_code": "200069649",
    "departement_code": "40",
    "region_code": "75",
    "postal_code": "40700"
  },
  {
    "name": "Saint-Cricq-Chalosse",
    "code": "40253",
    "epci_code": "200069649",
    "departement_code": "40",
    "region_code": "75",
    "postal_code": "40700"
  },
  {
    "name": "Saint-Cricq-du-Gave",
    "code": "40254",
    "epci_code": "200069417",
    "departement_code": "40",
    "region_code": "75",
    "postal_code": "40300"
  },
  {
    "name": "Saint-Cricq-Villeneuve",
    "code": "40255",
    "epci_code": "244000774",
    "departement_code": "40",
    "region_code": "75",
    "postal_code": "40190"
  },
  {
    "name": "Saint-Étienne-d’Orthe",
    "code": "40256",
    "epci_code": "200069417",
    "departement_code": "40",
    "region_code": "75",
    "postal_code": "40300"
  },
  {
    "name": "Sainte-Eulalie-en-Born",
    "code": "40257",
    "epci_code": "244000873",
    "departement_code": "40",
    "region_code": "75",
    "postal_code": "40200"
  },
  {
    "name": "Sainte-Foy",
    "code": "40258",
    "epci_code": "244000774",
    "departement_code": "40",
    "region_code": "75",
    "postal_code": "40190"
  },
  {
    "name": "Saint-Gein",
    "code": "40259",
    "epci_code": "244000774",
    "departement_code": "40",
    "region_code": "75",
    "postal_code": "40190"
  },
  {
    "name": "Saint-Geours-d’Auribat",
    "code": "40260",
    "epci_code": "200069631",
    "departement_code": "40",
    "region_code": "75",
    "postal_code": "40380"
  },
  {
    "name": "Saint-Geours-de-Maremne",
    "code": "40261",
    "epci_code": "244000865",
    "departement_code": "40",
    "region_code": "75",
    "postal_code": "40230"
  },
  {
    "name": "Saint-Gor",
    "code": "40262",
    "epci_code": "200035541",
    "departement_code": "40",
    "region_code": "75",
    "postal_code": "40120"
  },
  {
    "name": "Saint-Jean-de-Lier",
    "code": "40263",
    "epci_code": "200069631",
    "departement_code": "40",
    "region_code": "75",
    "postal_code": "40380"
  },
  {
    "name": "Saint-Jean-de-Marsacq",
    "code": "40264",
    "epci_code": "244000865",
    "departement_code": "40",
    "region_code": "75",
    "postal_code": "40230"
  },
  {
    "name": "Saint-Julien-d’Armagnac",
    "code": "40265",
    "epci_code": "200035541",
    "departement_code": "40",
    "region_code": "75",
    "postal_code": "40240"
  },
  {
    "name": "Saint-Julien-en-Born",
    "code": "40266",
    "epci_code": "244000857",
    "departement_code": "40",
    "region_code": "75",
    "postal_code": "40170"
  },
  {
    "name": "Saint-Justin",
    "code": "40267",
    "epci_code": "200035541",
    "departement_code": "40",
    "region_code": "75",
    "postal_code": "40240"
  },
  {
    "name": "Saint-Laurent-de-Gosse",
    "code": "40268",
    "epci_code": "244000659",
    "departement_code": "40",
    "region_code": "75",
    "postal_code": "40390"
  },
  {
    "name": "Saint-Lon-les-Mines",
    "code": "40269",
    "epci_code": "200069417",
    "departement_code": "40",
    "region_code": "75",
    "postal_code": "40300"
  },
  {
    "name": "Saint-Loubouer",
    "code": "40270",
    "epci_code": "200030435",
    "departement_code": "40",
    "region_code": "75",
    "postal_code": "40320"
  },
  {
    "name": "Sainte-Marie-de-Gosse",
    "code": "40271",
    "epci_code": "244000865",
    "departement_code": "40",
    "region_code": "75",
    "postal_code": "40390"
  },
  {
    "name": "Saint-Martin-de-Hinx",
    "code": "40272",
    "epci_code": "244000865",
    "departement_code": "40",
    "region_code": "75",
    "postal_code": "40390"
  },
  {
    "name": "Saint-Martin-de-Seignanx",
    "code": "40273",
    "epci_code": "244000659",
    "departement_code": "40",
    "region_code": "75",
    "postal_code": "40390"
  },
  {
    "name": "Saint-Martin-d’Oney",
    "code": "40274",
    "epci_code": "244000808",
    "departement_code": "40",
    "region_code": "75",
    "postal_code": "40090"
  },
  {
    "name": "Saint-Maurice-sur-Adour",
    "code": "40275",
    "epci_code": "244000824",
    "departement_code": "40",
    "region_code": "75",
    "postal_code": "40270"
  },
  {
    "name": "Saint-Michel-Escalus",
    "code": "40276",
    "epci_code": "244000857",
    "departement_code": "40",
    "region_code": "75",
    "postal_code": "40550"
  },
  {
    "name": "Saint-Pandelon",
    "code": "40277",
    "epci_code": "244000675",
    "departement_code": "40",
    "region_code": "75",
    "postal_code": "40180"
  },
  {
    "name": "Saint-Paul-en-Born",
    "code": "40278",
    "epci_code": "244000543",
    "departement_code": "40",
    "region_code": "75",
    "postal_code": "40200"
  },
  {
    "name": "Saint-Paul-lès-Dax",
    "code": "40279",
    "epci_code": "244000675",
    "departement_code": "40",
    "region_code": "75",
    "postal_code": "40990"
  },
  {
    "name": "Saint-Perdon",
    "code": "40280",
    "epci_code": "244000808",
    "departement_code": "40",
    "region_code": "75",
    "postal_code": "40090"
  },
  {
    "name": "Saint-Pierre-du-Mont",
    "code": "40281",
    "epci_code": "244000808",
    "departement_code": "40",
    "region_code": "75",
    "postal_code": "40280"
  },
  {
    "name": "Saint-Sever",
    "code": "40282",
    "epci_code": "200069649",
    "departement_code": "40",
    "region_code": "75",
    "postal_code": "40500"
  },
  {
    "name": "Saint-Vincent-de-Paul",
    "code": "40283",
    "epci_code": "244000675",
    "departement_code": "40",
    "region_code": "75",
    "postal_code": "40990"
  },
  {
    "name": "Saint-Vincent-de-Tyrosse",
    "code": "40284",
    "epci_code": "244000865",
    "departement_code": "40",
    "region_code": "75",
    "postal_code": "40230"
  },
  {
    "name": "Saint-Yaguen",
    "code": "40285",
    "epci_code": "244000766",
    "departement_code": "40",
    "region_code": "75",
    "postal_code": "40400"
  },
  {
    "name": "Samadet",
    "code": "40286",
    "epci_code": "200069649",
    "departement_code": "40",
    "region_code": "75",
    "postal_code": "40320"
  },
  {
    "name": "Sanguinet",
    "code": "40287",
    "epci_code": "244000873",
    "departement_code": "40",
    "region_code": "75",
    "postal_code": "40460"
  },
  {
    "name": "Sarbazan",
    "code": "40288",
    "epci_code": "200035541",
    "departement_code": "40",
    "region_code": "75",
    "postal_code": "40120"
  },
  {
    "name": "Sarraziet",
    "code": "40289",
    "epci_code": "200069649",
    "departement_code": "40",
    "region_code": "75",
    "postal_code": "40500"
  },
  {
    "name": "Sarron",
    "code": "40290",
    "epci_code": "200030435",
    "departement_code": "40",
    "region_code": "75",
    "postal_code": "40800"
  },
  {
    "name": "Saubion",
    "code": "40291",
    "epci_code": "244000865",
    "departement_code": "40",
    "region_code": "75",
    "postal_code": "40230"
  },
  {
    "name": "Saubrigues",
    "code": "40292",
    "epci_code": "244000865",
    "departement_code": "40",
    "region_code": "75",
    "postal_code": "40230"
  },
  {
    "name": "Saubusse",
    "code": "40293",
    "epci_code": "244000865",
    "departement_code": "40",
    "region_code": "75",
    "postal_code": "40180"
  },
  {
    "name": "Saugnac-et-Cambran",
    "code": "40294",
    "epci_code": "244000675",
    "departement_code": "40",
    "region_code": "75",
    "postal_code": "40180"
  },
  {
    "name": "Saugnac-et-Muret",
    "code": "40295",
    "epci_code": "200069656",
    "departement_code": "40",
    "region_code": "75",
    "postal_code": "40410"
  },
  {
    "name": "Seignosse",
    "code": "40296",
    "epci_code": "244000865",
    "departement_code": "40",
    "region_code": "75",
    "postal_code": "40510"
  },
  {
    "name": "Le Sen",
    "code": "40297",
    "epci_code": "200069656",
    "departement_code": "40",
    "region_code": "75",
    "postal_code": "40420"
  },
  {
    "name": "Serres-Gaston",
    "code": "40298",
    "epci_code": "200069649",
    "departement_code": "40",
    "region_code": "75",
    "postal_code": "40700"
  },
  {
    "name": "Serreslous-et-Arribans",
    "code": "40299",
    "epci_code": "200069649",
    "departement_code": "40",
    "region_code": "75",
    "postal_code": "40700"
  },
  {
    "name": "Seyresse",
    "code": "40300",
    "epci_code": "244000675",
    "departement_code": "40",
    "region_code": "75",
    "postal_code": "40180"
  },
  {
    "name": "Siest",
    "code": "40301",
    "epci_code": "244000675",
    "departement_code": "40",
    "region_code": "75",
    "postal_code": "40180"
  },
  {
    "name": "Solférino",
    "code": "40303",
    "epci_code": "200069656",
    "departement_code": "40",
    "region_code": "75",
    "postal_code": "40210"
  },
  {
    "name": "Soorts-Hossegor",
    "code": "40304",
    "epci_code": "244000865",
    "departement_code": "40",
    "region_code": "75",
    "postal_code": "40150"
  },
  {
    "name": "Sorbets",
    "code": "40305",
    "epci_code": "200069649",
    "departement_code": "40",
    "region_code": "75",
    "postal_code": "40320"
  },
  {
    "name": "Sorde-l’Abbaye",
    "code": "40306",
    "epci_code": "200069417",
    "departement_code": "40",
    "region_code": "75",
    "postal_code": "40300"
  },
  {
    "name": "Sore",
    "code": "40307",
    "epci_code": "200069656",
    "departement_code": "40",
    "region_code": "75",
    "postal_code": "40430"
  },
  {
    "name": "Sort-en-Chalosse",
    "code": "40308",
    "epci_code": "200069631",
    "departement_code": "40",
    "region_code": "75",
    "postal_code": "40180"
  },
  {
    "name": "Souprosse",
    "code": "40309",
    "epci_code": "244000766",
    "departement_code": "40",
    "region_code": "75",
    "postal_code": "40250"
  },
  {
    "name": "Soustons",
    "code": "40310",
    "epci_code": "244000865",
    "departement_code": "40",
    "region_code": "75",
    "postal_code": "40140"
  },
  {
    "name": "Taller",
    "code": "40311",
    "epci_code": "244000857",
    "departement_code": "40",
    "region_code": "75",
    "postal_code": "40260"
  },
  {
    "name": "Tarnos",
    "code": "40312",
    "epci_code": "244000659",
    "departement_code": "40",
    "region_code": "75",
    "postal_code": "40220"
  },
  {
    "name": "Tartas",
    "code": "40313",
    "epci_code": "244000766",
    "departement_code": "40",
    "region_code": "75",
    "postal_code": "40400"
  },
  {
    "name": "Tercis-les-Bains",
    "code": "40314",
    "epci_code": "244000675",
    "departement_code": "40",
    "region_code": "75",
    "postal_code": "40180"
  },
  {
    "name": "Téthieu",
    "code": "40315",
    "epci_code": "244000675",
    "departement_code": "40",
    "region_code": "75",
    "postal_code": "40990"
  },
  {
    "name": "Tilh",
    "code": "40316",
    "epci_code": "200069417",
    "departement_code": "40",
    "region_code": "75",
    "postal_code": "40360"
  },
  {
    "name": "Tosse",
    "code": "40317",
    "epci_code": "244000865",
    "departement_code": "40",
    "region_code": "75",
    "postal_code": "40230"
  },
  {
    "name": "Toulouzette",
    "code": "40318",
    "epci_code": "200069631",
    "departement_code": "40",
    "region_code": "75",
    "postal_code": "40250"
  },
  {
    "name": "Trensacq",
    "code": "40319",
    "epci_code": "200069656",
    "departement_code": "40",
    "region_code": "75",
    "postal_code": "40630"
  },
  {
    "name": "Uchacq-et-Parentis",
    "code": "40320",
    "epci_code": "244000808",
    "departement_code": "40",
    "region_code": "75",
    "postal_code": "40090"
  },
  {
    "name": "Urgons",
    "code": "40321",
    "epci_code": "200069649",
    "departement_code": "40",
    "region_code": "75",
    "postal_code": "40320"
  },
  {
    "name": "Uza",
    "code": "40322",
    "epci_code": "244000857",
    "departement_code": "40",
    "region_code": "75",
    "postal_code": "40170"
  },
  {
    "name": "Vert",
    "code": "40323",
    "epci_code": "200069656",
    "departement_code": "40",
    "region_code": "75",
    "postal_code": "40420"
  },
  {
    "name": "Vicq-d’Auribat",
    "code": "40324",
    "epci_code": "200069631",
    "departement_code": "40",
    "region_code": "75",
    "postal_code": "40380"
  },
  {
    "name": "Vielle-Tursan",
    "code": "40325",
    "epci_code": "200030435",
    "departement_code": "40",
    "region_code": "75",
    "postal_code": "40320"
  },
  {
    "name": "Vielle-Saint-Girons",
    "code": "40326",
    "epci_code": "244000857",
    "departement_code": "40",
    "region_code": "75",
    "postal_code": "40560"
  },
  {
    "name": "Vielle-Soubiran",
    "code": "40327",
    "epci_code": "200035541",
    "departement_code": "40",
    "region_code": "75",
    "postal_code": "40240"
  },
  {
    "name": "Vieux-Boucau-les-Bains",
    "code": "40328",
    "epci_code": "244000865",
    "departement_code": "40",
    "region_code": "75",
    "postal_code": "40480"
  },
  {
    "name": "Le Vignau",
    "code": "40329",
    "epci_code": "244000824",
    "departement_code": "40",
    "region_code": "75",
    "postal_code": "40270"
  },
  {
    "name": "Villenave",
    "code": "40330",
    "epci_code": "244000766",
    "departement_code": "40",
    "region_code": "75",
    "postal_code": "40110"
  },
  {
    "name": "Villeneuve-de-Marsan",
    "code": "40331",
    "epci_code": "244000774",
    "departement_code": "40",
    "region_code": "75",
    "postal_code": "40190"
  },
  {
    "name": "Ychoux",
    "code": "40332",
    "epci_code": "244000873",
    "departement_code": "40",
    "region_code": "75",
    "postal_code": "40160"
  },
  {
    "name": "Ygos-Saint-Saturnin",
    "code": "40333",
    "epci_code": "244000691",
    "departement_code": "40",
    "region_code": "75",
    "postal_code": "40110"
  },
  {
    "name": "Yzosse",
    "code": "40334",
    "epci_code": "244000675",
    "departement_code": "40",
    "region_code": "75",
    "postal_code": "40180"
  }
]