[
  {
    "name": "Ablancourt",
    "code": "51001",
    "epci_code": "200034718",
    "departement_code": "51",
    "region_code": "44",
    "postal_code": "51240"
  },
  {
    "name": "Saint-Martin-d’Ablois",
    "code": "51002",
    "epci_code": "200066850",
    "departement_code": "51",
    "region_code": "44",
    "postal_code": "51530"
  },
  {
    "name": "Aigny",
    "code": "51003",
    "epci_code": "200066876",
    "departement_code": "51",
    "region_code": "44",
    "postal_code": "51150"
  },
  {
    "name": "Allemanche-Launay-et-Soyer",
    "code": "51004",
    "epci_code": "200066835",
    "departement_code": "51",
    "region_code": "44",
    "postal_code": "51260"
  },
  {
    "name": "Allemant",
    "code": "51005",
    "epci_code": "200066835",
    "departement_code": "51",
    "region_code": "44",
    "postal_code": "51120"
  },
  {
    "name": "Alliancelles",
    "code": "51006",
    "epci_code": "200067379",
    "departement_code": "51",
    "region_code": "44",
    "postal_code": "51250"
  },
  {
    "name": "Ambonnay",
    "code": "51007",
    "epci_code": "245100615",
    "departement_code": "51",
    "region_code": "44",
    "postal_code": "51150"
  },
  {
    "name": "Ambrières",
    "code": "51008",
    "epci_code": "200068666",
    "departement_code": "51",
    "region_code": "44",
    "postal_code": "51290"
  },
  {
    "name": "Anglure",
    "code": "51009",
    "epci_code": "200066835",
    "departement_code": "51",
    "region_code": "44",
    "postal_code": "51260"
  },
  {
    "name": "Angluzelles-et-Courcelles",
    "code": "51010",
    "epci_code": "245100979",
    "departement_code": "51",
    "region_code": "44",
    "postal_code": "51230"
  },
  {
    "name": "Anthenay",
    "code": "51012",
    "epci_code": "200067213",
    "departement_code": "51",
    "region_code": "44",
    "postal_code": "51700"
  },
  {
    "name": "Aougny",
    "code": "51013",
    "epci_code": "200067213",
    "departement_code": "51",
    "region_code": "44",
    "postal_code": "51170"
  },
  {
    "name": "Arcis-le-Ponsart",
    "code": "51014",
    "epci_code": "200067213",
    "departement_code": "51",
    "region_code": "44",
    "postal_code": "51170"
  },
  {
    "name": "Argers",
    "code": "51015",
    "epci_code": "200042703",
    "departement_code": "51",
    "region_code": "44",
    "postal_code": "51800"
  },
  {
    "name": "Arrigny",
    "code": "51016",
    "epci_code": "200042992",
    "departement_code": "51",
    "region_code": "44",
    "postal_code": "51290"
  },
  {
    "name": "Arzillières-Neuville",
    "code": "51017",
    "epci_code": "200034718",
    "departement_code": "51",
    "region_code": "44",
    "postal_code": "51290"
  },
  {
    "name": "Athis",
    "code": "51018",
    "epci_code": "200067684",
    "departement_code": "51",
    "region_code": "44",
    "postal_code": "51150"
  },
  {
    "name": "Aubérive",
    "code": "51019",
    "epci_code": "200067213",
    "departement_code": "51",
    "region_code": "44",
    "postal_code": "51600"
  },
  {
    "name": "Aubilly",
    "code": "51020",
    "epci_code": "200067213",
    "departement_code": "51",
    "region_code": "44",
    "postal_code": "51170"
  },
  {
    "name": "Aulnay-l’Aître",
    "code": "51022",
    "epci_code": "200034718",
    "departement_code": "51",
    "region_code": "44",
    "postal_code": "51240"
  },
  {
    "name": "Aulnay-sur-Marne",
    "code": "51023",
    "epci_code": "200066876",
    "departement_code": "51",
    "region_code": "44",
    "postal_code": "51150"
  },
  {
    "name": "Auménancourt",
    "code": "51025",
    "epci_code": "200067213",
    "departement_code": "51",
    "region_code": "44",
    "postal_code": "51110"
  },
  {
    "name": "Auve",
    "code": "51027",
    "epci_code": "200042703",
    "departement_code": "51",
    "region_code": "44",
    "postal_code": "51800"
  },
  {
    "name": "Avenay-Val-d’Or",
    "code": "51028",
    "epci_code": "245100615",
    "departement_code": "51",
    "region_code": "44",
    "postal_code": "51160"
  },
  {
    "name": "Avize",
    "code": "51029",
    "epci_code": "200067684",
    "departement_code": "51",
    "region_code": "44",
    "postal_code": "51190"
  },
  {
    "name": "Aÿ-Champagne",
    "code": "51030",
    "epci_code": "245100615",
    "departement_code": "51",
    "region_code": "44",
    "postal_code": "51150"
  },
  {
    "name": "Aÿ-Champagne",
    "code": "51030",
    "epci_code": "245100615",
    "departement_code": "51",
    "region_code": "44",
    "postal_code": "51160"
  },
  {
    "name": "Baconnes",
    "code": "51031",
    "epci_code": "200066876",
    "departement_code": "51",
    "region_code": "44",
    "postal_code": "51400"
  },
  {
    "name": "Bagneux",
    "code": "51032",
    "epci_code": "200066835",
    "departement_code": "51",
    "region_code": "44",
    "postal_code": "51260"
  },
  {
    "name": "Le Baizil",
    "code": "51033",
    "epci_code": "200066850",
    "departement_code": "51",
    "region_code": "44",
    "postal_code": "51270"
  },
  {
    "name": "Bannay",
    "code": "51034",
    "epci_code": "200066850",
    "departement_code": "51",
    "region_code": "44",
    "postal_code": "51270"
  },
  {
    "name": "Bannes",
    "code": "51035",
    "epci_code": "245100979",
    "departement_code": "51",
    "region_code": "44",
    "postal_code": "51230"
  },
  {
    "name": "Barbonne-Fayel",
    "code": "51036",
    "epci_code": "200066835",
    "departement_code": "51",
    "region_code": "44",
    "postal_code": "51120"
  },
  {
    "name": "Baslieux-lès-Fismes",
    "code": "51037",
    "epci_code": "200067213",
    "departement_code": "51",
    "region_code": "44",
    "postal_code": "51170"
  },
  {
    "name": "Baslieux-sous-Châtillon",
    "code": "51038",
    "epci_code": "200066850",
    "departement_code": "51",
    "region_code": "44",
    "postal_code": "51700"
  },
  {
    "name": "Bassu",
    "code": "51039",
    "epci_code": "200067379",
    "departement_code": "51",
    "region_code": "44",
    "postal_code": "51300"
  },
  {
    "name": "Bassuet",
    "code": "51040",
    "epci_code": "200067379",
    "departement_code": "51",
    "region_code": "44",
    "postal_code": "51300"
  },
  {
    "name": "Baudement",
    "code": "51041",
    "epci_code": "200066835",
    "departement_code": "51",
    "region_code": "44",
    "postal_code": "51260"
  },
  {
    "name": "Baye",
    "code": "51042",
    "epci_code": "200066850",
    "departement_code": "51",
    "region_code": "44",
    "postal_code": "51270"
  },
  {
    "name": "Bazancourt",
    "code": "51043",
    "epci_code": "200067213",
    "departement_code": "51",
    "region_code": "44",
    "postal_code": "51110"
  },
  {
    "name": "Beaumont-sur-Vesle",
    "code": "51044",
    "epci_code": "200067213",
    "departement_code": "51",
    "region_code": "44",
    "postal_code": "51360"
  },
  {
    "name": "Beaunay",
    "code": "51045",
    "epci_code": "200066850",
    "departement_code": "51",
    "region_code": "44",
    "postal_code": "51270"
  },
  {
    "name": "Beine-Nauroy",
    "code": "51046",
    "epci_code": "200067213",
    "departement_code": "51",
    "region_code": "44",
    "postal_code": "51490"
  },
  {
    "name": "Belval-en-Argonne",
    "code": "51047",
    "epci_code": "200042703",
    "departement_code": "51",
    "region_code": "44",
    "postal_code": "51330"
  },
  {
    "name": "Belval-sous-Châtillon",
    "code": "51048",
    "epci_code": "200066850",
    "departement_code": "51",
    "region_code": "44",
    "postal_code": "51480"
  },
  {
    "name": "Bergères-lès-Vertus",
    "code": "51049",
    "epci_code": "200067684",
    "departement_code": "51",
    "region_code": "44",
    "postal_code": "51130"
  },
  {
    "name": "Bergères-sous-Montmirail",
    "code": "51050",
    "epci_code": "245100888",
    "departement_code": "51",
    "region_code": "44",
    "postal_code": "51210"
  },
  {
    "name": "Berméricourt",
    "code": "51051",
    "epci_code": "200067213",
    "departement_code": "51",
    "region_code": "44",
    "postal_code": "51220"
  },
  {
    "name": "Berru",
    "code": "51052",
    "epci_code": "200067213",
    "departement_code": "51",
    "region_code": "44",
    "postal_code": "51420"
  },
  {
    "name": "Berzieux",
    "code": "51053",
    "epci_code": "200042703",
    "departement_code": "51",
    "region_code": "44",
    "postal_code": "51800"
  },
  {
    "name": "Bétheniville",
    "code": "51054",
    "epci_code": "200067213",
    "departement_code": "51",
    "region_code": "44",
    "postal_code": "51490"
  },
  {
    "name": "Bétheny",
    "code": "51055",
    "epci_code": "200067213",
    "departement_code": "51",
    "region_code": "44",
    "postal_code": "51450"
  },
  {
    "name": "Bethon",
    "code": "51056",
    "epci_code": "200066835",
    "departement_code": "51",
    "region_code": "44",
    "postal_code": "51260"
  },
  {
    "name": "Bettancourt-la-Longue",
    "code": "51057",
    "epci_code": "200067379",
    "departement_code": "51",
    "region_code": "44",
    "postal_code": "51330"
  },
  {
    "name": "Bezannes",
    "code": "51058",
    "epci_code": "200067213",
    "departement_code": "51",
    "region_code": "44",
    "postal_code": "51430"
  },
  {
    "name": "Bignicourt-sur-Marne",
    "code": "51059",
    "epci_code": "200034718",
    "departement_code": "51",
    "region_code": "44",
    "postal_code": "51300"
  },
  {
    "name": "Bignicourt-sur-Saulx",
    "code": "51060",
    "epci_code": "200067379",
    "departement_code": "51",
    "region_code": "44",
    "postal_code": "51340"
  },
  {
    "name": "Billy-le-Grand",
    "code": "51061",
    "epci_code": "200067213",
    "departement_code": "51",
    "region_code": "44",
    "postal_code": "51400"
  },
  {
    "name": "Binarville",
    "code": "51062",
    "epci_code": "200042703",
    "departement_code": "51",
    "region_code": "44",
    "postal_code": "51800"
  },
  {
    "name": "Blacy",
    "code": "51065",
    "epci_code": "200034718",
    "departement_code": "51",
    "region_code": "44",
    "postal_code": "51300"
  },
  {
    "name": "Blaise-sous-Arzillières",
    "code": "51066",
    "epci_code": "200034718",
    "departement_code": "51",
    "region_code": "44",
    "postal_code": "51300"
  },
  {
    "name": "Blesme",
    "code": "51068",
    "epci_code": "200067379",
    "departement_code": "51",
    "region_code": "44",
    "postal_code": "51340"
  },
  {
    "name": "Bligny",
    "code": "51069",
    "epci_code": "200067213",
    "departement_code": "51",
    "region_code": "44",
    "postal_code": "51170"
  },
  {
    "name": "Boissy-le-Repos",
    "code": "51070",
    "epci_code": "245100888",
    "departement_code": "51",
    "region_code": "44",
    "postal_code": "51210"
  },
  {
    "name": "Bouchy-Saint-Genest",
    "code": "51071",
    "epci_code": "200066835",
    "departement_code": "51",
    "region_code": "44",
    "postal_code": "51310"
  },
  {
    "name": "Bouilly",
    "code": "51072",
    "epci_code": "200067213",
    "departement_code": "51",
    "region_code": "44",
    "postal_code": "51390"
  },
  {
    "name": "Bouleuse",
    "code": "51073",
    "epci_code": "200067213",
    "departement_code": "51",
    "region_code": "44",
    "postal_code": "51170"
  },
  {
    "name": "Boult-sur-Suippe",
    "code": "51074",
    "epci_code": "200067213",
    "departement_code": "51",
    "region_code": "44",
    "postal_code": "51110"
  },
  {
    "name": "Bourgogne-Fresne",
    "code": "51075",
    "epci_code": "200067213",
    "departement_code": "51",
    "region_code": "44",
    "postal_code": "51110"
  },
  {
    "name": "Boursault",
    "code": "51076",
    "epci_code": "200066850",
    "departement_code": "51",
    "region_code": "44",
    "postal_code": "51480"
  },
  {
    "name": "Bouvancourt",
    "code": "51077",
    "epci_code": "200067213",
    "departement_code": "51",
    "region_code": "44",
    "postal_code": "51140"
  },
  {
    "name": "Bouy",
    "code": "51078",
    "epci_code": "200066876",
    "departement_code": "51",
    "region_code": "44",
    "postal_code": "51400"
  },
  {
    "name": "Bouzy",
    "code": "51079",
    "epci_code": "245100615",
    "departement_code": "51",
    "region_code": "44",
    "postal_code": "51150"
  },
  {
    "name": "Brandonvillers",
    "code": "51080",
    "epci_code": "200042992",
    "departement_code": "51",
    "region_code": "44",
    "postal_code": "51290"
  },
  {
    "name": "Branscourt",
    "code": "51081",
    "epci_code": "200067213",
    "departement_code": "51",
    "region_code": "44",
    "postal_code": "51140"
  },
  {
    "name": "Braux-Sainte-Cohière",
    "code": "51082",
    "epci_code": "200042703",
    "departement_code": "51",
    "region_code": "44",
    "postal_code": "51800"
  },
  {
    "name": "Braux-Saint-Remy",
    "code": "51083",
    "epci_code": "200042703",
    "departement_code": "51",
    "region_code": "44",
    "postal_code": "51800"
  },
  {
    "name": "Bréban",
    "code": "51084",
    "epci_code": "200034718",
    "departement_code": "51",
    "region_code": "44",
    "postal_code": "51320"
  },
  {
    "name": "Le Breuil",
    "code": "51085",
    "epci_code": "200066850",
    "departement_code": "51",
    "region_code": "44",
    "postal_code": "51210"
  },
  {
    "name": "Breuil-sur-Vesle",
    "code": "51086",
    "epci_code": "200067213",
    "departement_code": "51",
    "region_code": "44",
    "postal_code": "51140"
  },
  {
    "name": "Breuvery-sur-Coole",
    "code": "51087",
    "epci_code": "200043438",
    "departement_code": "51",
    "region_code": "44",
    "postal_code": "51240"
  },
  {
    "name": "Brimont",
    "code": "51088",
    "epci_code": "200067213",
    "departement_code": "51",
    "region_code": "44",
    "postal_code": "51220"
  },
  {
    "name": "Brouillet",
    "code": "51089",
    "epci_code": "200067213",
    "departement_code": "51",
    "region_code": "44",
    "postal_code": "51170"
  },
  {
    "name": "Broussy-le-Grand",
    "code": "51090",
    "epci_code": "245100979",
    "departement_code": "51",
    "region_code": "44",
    "postal_code": "51230"
  },
  {
    "name": "Broussy-le-Petit",
    "code": "51091",
    "epci_code": "200066835",
    "departement_code": "51",
    "region_code": "44",
    "postal_code": "51230"
  },
  {
    "name": "Broyes",
    "code": "51092",
    "epci_code": "200066835",
    "departement_code": "51",
    "region_code": "44",
    "postal_code": "51120"
  },
  {
    "name": "Brugny-Vaudancourt",
    "code": "51093",
    "epci_code": "200067684",
    "departement_code": "51",
    "region_code": "44",
    "postal_code": "51530"
  },
  {
    "name": "Brusson",
    "code": "51094",
    "epci_code": "200067379",
    "departement_code": "51",
    "region_code": "44",
    "postal_code": "51300"
  },
  {
    "name": "Le Buisson",
    "code": "51095",
    "epci_code": "200067379",
    "departement_code": "51",
    "region_code": "44",
    "postal_code": "51300"
  },
  {
    "name": "Bussy-le-Château",
    "code": "51097",
    "epci_code": "200042620",
    "departement_code": "51",
    "region_code": "44",
    "postal_code": "51600"
  },
  {
    "name": "Bussy-le-Repos",
    "code": "51098",
    "epci_code": "200067379",
    "departement_code": "51",
    "region_code": "44",
    "postal_code": "51330"
  },
  {
    "name": "Bussy-Lettrée",
    "code": "51099",
    "epci_code": "200066876",
    "departement_code": "51",
    "region_code": "44",
    "postal_code": "51320"
  },
  {
    "name": "La Caure",
    "code": "51100",
    "epci_code": "200066850",
    "departement_code": "51",
    "region_code": "44",
    "postal_code": "51270"
  },
  {
    "name": "Caurel",
    "code": "51101",
    "epci_code": "200067213",
    "departement_code": "51",
    "region_code": "44",
    "postal_code": "51110"
  },
  {
    "name": "Cauroy-lès-Hermonville",
    "code": "51102",
    "epci_code": "200067213",
    "departement_code": "51",
    "region_code": "44",
    "postal_code": "51220"
  },
  {
    "name": "La Celle-sous-Chantemerle",
    "code": "51103",
    "epci_code": "200066835",
    "departement_code": "51",
    "region_code": "44",
    "postal_code": "51260"
  },
  {
    "name": "Cernay-en-Dormois",
    "code": "51104",
    "epci_code": "200042703",
    "departement_code": "51",
    "region_code": "44",
    "postal_code": "51800"
  },
  {
    "name": "Cernay-lès-Reims",
    "code": "51105",
    "epci_code": "200067213",
    "departement_code": "51",
    "region_code": "44",
    "postal_code": "51420"
  },
  {
    "name": "Cernon",
    "code": "51106",
    "epci_code": "200043438",
    "departement_code": "51",
    "region_code": "44",
    "postal_code": "51240"
  },
  {
    "name": "Chaintrix-Bierges",
    "code": "51107",
    "epci_code": "200067684",
    "departement_code": "51",
    "region_code": "44",
    "postal_code": "51130"
  },
  {
    "name": "Châlons-en-Champagne",
    "code": "51108",
    "epci_code": "200066876",
    "departement_code": "51",
    "region_code": "44",
    "postal_code": "51000"
  },
  {
    "name": "Châlons-sur-Vesle",
    "code": "51109",
    "epci_code": "200067213",
    "departement_code": "51",
    "region_code": "44",
    "postal_code": "51140"
  },
  {
    "name": "Chaltrait",
    "code": "51110",
    "epci_code": "200067684",
    "departement_code": "51",
    "region_code": "44",
    "postal_code": "51130"
  },
  {
    "name": "Chambrecy",
    "code": "51111",
    "epci_code": "200067213",
    "departement_code": "51",
    "region_code": "44",
    "postal_code": "51170"
  },
  {
    "name": "Chamery",
    "code": "51112",
    "epci_code": "200067213",
    "departement_code": "51",
    "region_code": "44",
    "postal_code": "51500"
  },
  {
    "name": "Champaubert",
    "code": "51113",
    "epci_code": "200066850",
    "departement_code": "51",
    "region_code": "44",
    "postal_code": "51270"
  },
  {
    "name": "Champfleury",
    "code": "51115",
    "epci_code": "200067213",
    "departement_code": "51",
    "region_code": "44",
    "postal_code": "51500"
  },
  {
    "name": "Champguyon",
    "code": "51116",
    "epci_code": "200066835",
    "departement_code": "51",
    "region_code": "44",
    "postal_code": "51310"
  },
  {
    "name": "Champigneul-Champagne",
    "code": "51117",
    "epci_code": "200066876",
    "departement_code": "51",
    "region_code": "44",
    "postal_code": "51150"
  },
  {
    "name": "Champigny",
    "code": "51118",
    "epci_code": "200067213",
    "departement_code": "51",
    "region_code": "44",
    "postal_code": "51370"
  },
  {
    "name": "Champillon",
    "code": "51119",
    "epci_code": "245100615",
    "departement_code": "51",
    "region_code": "44",
    "postal_code": "51160"
  },
  {
    "name": "Champlat-et-Boujacourt",
    "code": "51120",
    "epci_code": "200066850",
    "departement_code": "51",
    "region_code": "44",
    "postal_code": "51480"
  },
  {
    "name": "Champvoisy",
    "code": "51121",
    "epci_code": "200066850",
    "departement_code": "51",
    "region_code": "44",
    "postal_code": "51700"
  },
  {
    "name": "Changy",
    "code": "51122",
    "epci_code": "200067379",
    "departement_code": "51",
    "region_code": "44",
    "postal_code": "51300"
  },
  {
    "name": "Chantemerle",
    "code": "51124",
    "epci_code": "200066835",
    "departement_code": "51",
    "region_code": "44",
    "postal_code": "51260"
  },
  {
    "name": "Chapelaine",
    "code": "51125",
    "epci_code": "200034718",
    "departement_code": "51",
    "region_code": "44",
    "postal_code": "51290"
  },
  {
    "name": "La Chapelle-Felcourt",
    "code": "51126",
    "epci_code": "200042703",
    "departement_code": "51",
    "region_code": "44",
    "postal_code": "51800"
  },
  {
    "name": "La Chapelle-Lasson",
    "code": "51127",
    "epci_code": "200066835",
    "departement_code": "51",
    "region_code": "44",
    "postal_code": "51260"
  },
  {
    "name": "La Chapelle-sous-Orbais",
    "code": "51128",
    "epci_code": "200066850",
    "departement_code": "51",
    "region_code": "44",
    "postal_code": "51270"
  },
  {
    "name": "Charleville",
    "code": "51129",
    "epci_code": "245100888",
    "departement_code": "51",
    "region_code": "44",
    "postal_code": "51120"
  },
  {
    "name": "Charmont",
    "code": "51130",
    "epci_code": "200067379",
    "departement_code": "51",
    "region_code": "44",
    "postal_code": "51330"
  },
  {
    "name": "Les Charmontois",
    "code": "51132",
    "epci_code": "200042703",
    "departement_code": "51",
    "region_code": "44",
    "postal_code": "51330"
  },
  {
    "name": "Le Châtelier",
    "code": "51133",
    "epci_code": "200042703",
    "departement_code": "51",
    "region_code": "44",
    "postal_code": "51330"
  },
  {
    "name": "Châtelraould-Saint-Louvent",
    "code": "51134",
    "epci_code": "200034718",
    "departement_code": "51",
    "region_code": "44",
    "postal_code": "51300"
  },
  {
    "name": "Châtillon-sur-Broué",
    "code": "51135",
    "epci_code": "200042992",
    "departement_code": "51",
    "region_code": "44",
    "postal_code": "51290"
  },
  {
    "name": "Châtillon-sur-Marne",
    "code": "51136",
    "epci_code": "200066850",
    "departement_code": "51",
    "region_code": "44",
    "postal_code": "51700"
  },
  {
    "name": "Châtillon-sur-Morin",
    "code": "51137",
    "epci_code": "200066835",
    "departement_code": "51",
    "region_code": "44",
    "postal_code": "51310"
  },
  {
    "name": "Châtrices",
    "code": "51138",
    "epci_code": "200042703",
    "departement_code": "51",
    "region_code": "44",
    "postal_code": "51800"
  },
  {
    "name": "Chaudefontaine",
    "code": "51139",
    "epci_code": "200042703",
    "departement_code": "51",
    "region_code": "44",
    "postal_code": "51800"
  },
  {
    "name": "Chaumuzy",
    "code": "51140",
    "epci_code": "200067213",
    "departement_code": "51",
    "region_code": "44",
    "postal_code": "51170"
  },
  {
    "name": "La Chaussée-sur-Marne",
    "code": "51141",
    "epci_code": "200034718",
    "departement_code": "51",
    "region_code": "44",
    "postal_code": "51240"
  },
  {
    "name": "Chavot-Courcourt",
    "code": "51142",
    "epci_code": "200067684",
    "departement_code": "51",
    "region_code": "44",
    "postal_code": "51530"
  },
  {
    "name": "Le Chemin",
    "code": "51143",
    "epci_code": "200042703",
    "departement_code": "51",
    "region_code": "44",
    "postal_code": "51800"
  },
  {
    "name": "Cheminon",
    "code": "51144",
    "epci_code": "200068666",
    "departement_code": "51",
    "region_code": "44",
    "postal_code": "51250"
  },
  {
    "name": "Chenay",
    "code": "51145",
    "epci_code": "200067213",
    "departement_code": "51",
    "region_code": "44",
    "postal_code": "51140"
  },
  {
    "name": "Cheniers",
    "code": "51146",
    "epci_code": "200066876",
    "departement_code": "51",
    "region_code": "44",
    "postal_code": "51510"
  },
  {
    "name": "La Cheppe",
    "code": "51147",
    "epci_code": "200042620",
    "departement_code": "51",
    "region_code": "44",
    "postal_code": "51600"
  },
  {
    "name": "Cheppes-la-Prairie",
    "code": "51148",
    "epci_code": "200043438",
    "departement_code": "51",
    "region_code": "44",
    "postal_code": "51240"
  },
  {
    "name": "Chepy",
    "code": "51149",
    "epci_code": "200043438",
    "departement_code": "51",
    "region_code": "44",
    "postal_code": "51240"
  },
  {
    "name": "Cherville",
    "code": "51150",
    "epci_code": "200066876",
    "departement_code": "51",
    "region_code": "44",
    "postal_code": "51150"
  },
  {
    "name": "Chichey",
    "code": "51151",
    "epci_code": "200066835",
    "departement_code": "51",
    "region_code": "44",
    "postal_code": "51120"
  },
  {
    "name": "Chigny-les-Roses",
    "code": "51152",
    "epci_code": "200067213",
    "departement_code": "51",
    "region_code": "44",
    "postal_code": "51500"
  },
  {
    "name": "Chouilly",
    "code": "51153",
    "epci_code": "200067684",
    "departement_code": "51",
    "region_code": "44",
    "postal_code": "51530"
  },
  {
    "name": "Clamanges",
    "code": "51154",
    "epci_code": "200067684",
    "departement_code": "51",
    "region_code": "44",
    "postal_code": "51130"
  },
  {
    "name": "Clesles",
    "code": "51155",
    "epci_code": "200066835",
    "departement_code": "51",
    "region_code": "44",
    "postal_code": "51260"
  },
  {
    "name": "Cloyes-sur-Marne",
    "code": "51156",
    "epci_code": "200042992",
    "departement_code": "51",
    "region_code": "44",
    "postal_code": "51300"
  },
  {
    "name": "Coizard-Joches",
    "code": "51157",
    "epci_code": "200066850",
    "departement_code": "51",
    "region_code": "44",
    "postal_code": "51270"
  },
  {
    "name": "Val-des-Marais",
    "code": "51158",
    "epci_code": "200067684",
    "departement_code": "51",
    "region_code": "44",
    "postal_code": "51130"
  },
  {
    "name": "Compertrix",
    "code": "51160",
    "epci_code": "200066876",
    "departement_code": "51",
    "region_code": "44",
    "postal_code": "51510"
  },
  {
    "name": "Condé-sur-Marne",
    "code": "51161",
    "epci_code": "200066876",
    "departement_code": "51",
    "region_code": "44",
    "postal_code": "51150"
  },
  {
    "name": "Conflans-sur-Seine",
    "code": "51162",
    "epci_code": "200066835",
    "departement_code": "51",
    "region_code": "44",
    "postal_code": "51260"
  },
  {
    "name": "Congy",
    "code": "51163",
    "epci_code": "200066850",
    "departement_code": "51",
    "region_code": "44",
    "postal_code": "51270"
  },
  {
    "name": "Connantray-Vaurefroy",
    "code": "51164",
    "epci_code": "245100979",
    "departement_code": "51",
    "region_code": "44",
    "postal_code": "51230"
  },
  {
    "name": "Connantre",
    "code": "51165",
    "epci_code": "245100979",
    "departement_code": "51",
    "region_code": "44",
    "postal_code": "51230"
  },
  {
    "name": "Contault",
    "code": "51166",
    "epci_code": "200042703",
    "departement_code": "51",
    "region_code": "44",
    "postal_code": "51330"
  },
  {
    "name": "Coole",
    "code": "51167",
    "epci_code": "200034718",
    "departement_code": "51",
    "region_code": "44",
    "postal_code": "51320"
  },
  {
    "name": "Coolus",
    "code": "51168",
    "epci_code": "200066876",
    "departement_code": "51",
    "region_code": "44",
    "postal_code": "51510"
  },
  {
    "name": "Corbeil",
    "code": "51169",
    "epci_code": "200034718",
    "departement_code": "51",
    "region_code": "44",
    "postal_code": "51320"
  },
  {
    "name": "Corfélix",
    "code": "51170",
    "epci_code": "245100888",
    "departement_code": "51",
    "region_code": "44",
    "postal_code": "51210"
  },
  {
    "name": "Cormicy",
    "code": "51171",
    "epci_code": "200067213",
    "departement_code": "51",
    "region_code": "44",
    "postal_code": "51220"
  },
  {
    "name": "Cormontreuil",
    "code": "51172",
    "epci_code": "200067213",
    "departement_code": "51",
    "region_code": "44",
    "postal_code": "51350"
  },
  {
    "name": "Cormoyeux",
    "code": "51173",
    "epci_code": "200066850",
    "departement_code": "51",
    "region_code": "44",
    "postal_code": "51480"
  },
  {
    "name": "Corribert",
    "code": "51174",
    "epci_code": "200066850",
    "departement_code": "51",
    "region_code": "44",
    "postal_code": "51270"
  },
  {
    "name": "Corrobert",
    "code": "51175",
    "epci_code": "245100888",
    "departement_code": "51",
    "region_code": "44",
    "postal_code": "51210"
  },
  {
    "name": "Corroy",
    "code": "51176",
    "epci_code": "245100979",
    "departement_code": "51",
    "region_code": "44",
    "postal_code": "51230"
  },
  {
    "name": "Coulommes-la-Montagne",
    "code": "51177",
    "epci_code": "200067213",
    "departement_code": "51",
    "region_code": "44",
    "postal_code": "51390"
  },
  {
    "name": "Coupetz",
    "code": "51178",
    "epci_code": "200043438",
    "departement_code": "51",
    "region_code": "44",
    "postal_code": "51240"
  },
  {
    "name": "Coupéville",
    "code": "51179",
    "epci_code": "200043438",
    "departement_code": "51",
    "region_code": "44",
    "postal_code": "51240"
  },
  {
    "name": "Courcelles-Sapicourt",
    "code": "51181",
    "epci_code": "200067213",
    "departement_code": "51",
    "region_code": "44",
    "postal_code": "51140"
  },
  {
    "name": "Courcemain",
    "code": "51182",
    "epci_code": "200066835",
    "departement_code": "51",
    "region_code": "44",
    "postal_code": "51260"
  },
  {
    "name": "Courcy",
    "code": "51183",
    "epci_code": "200067213",
    "departement_code": "51",
    "region_code": "44",
    "postal_code": "51220"
  },
  {
    "name": "Courdemanges",
    "code": "51184",
    "epci_code": "200034718",
    "departement_code": "51",
    "region_code": "44",
    "postal_code": "51300"
  },
  {
    "name": "Courgivaux",
    "code": "51185",
    "epci_code": "200066835",
    "departement_code": "51",
    "region_code": "44",
    "postal_code": "51310"
  },
  {
    "name": "Courjeonnet",
    "code": "51186",
    "epci_code": "200066850",
    "departement_code": "51",
    "region_code": "44",
    "postal_code": "51270"
  },
  {
    "name": "Courlandon",
    "code": "51187",
    "epci_code": "200067213",
    "departement_code": "51",
    "region_code": "44",
    "postal_code": "51170"
  },
  {
    "name": "Courmas",
    "code": "51188",
    "epci_code": "200067213",
    "departement_code": "51",
    "region_code": "44",
    "postal_code": "51390"
  },
  {
    "name": "Courtagnon",
    "code": "51190",
    "epci_code": "200067213",
    "departement_code": "51",
    "region_code": "44",
    "postal_code": "51480"
  },
  {
    "name": "Courtémont",
    "code": "51191",
    "epci_code": "200042703",
    "departement_code": "51",
    "region_code": "44",
    "postal_code": "51800"
  },
  {
    "name": "Courthiézy",
    "code": "51192",
    "epci_code": "200066850",
    "departement_code": "51",
    "region_code": "44",
    "postal_code": "51700"
  },
  {
    "name": "Courtisols",
    "code": "51193",
    "epci_code": "200043438",
    "departement_code": "51",
    "region_code": "44",
    "postal_code": "51460"
  },
  {
    "name": "Courville",
    "code": "51194",
    "epci_code": "200067213",
    "departement_code": "51",
    "region_code": "44",
    "postal_code": "51170"
  },
  {
    "name": "Couvrot",
    "code": "51195",
    "epci_code": "200034718",
    "departement_code": "51",
    "region_code": "44",
    "postal_code": "51300"
  },
  {
    "name": "Cramant",
    "code": "51196",
    "epci_code": "200067684",
    "departement_code": "51",
    "region_code": "44",
    "postal_code": "51530"
  },
  {
    "name": "La Croix-en-Champagne",
    "code": "51197",
    "epci_code": "200042620",
    "departement_code": "51",
    "region_code": "44",
    "postal_code": "51600"
  },
  {
    "name": "Crugny",
    "code": "51198",
    "epci_code": "200067213",
    "departement_code": "51",
    "region_code": "44",
    "postal_code": "51170"
  },
  {
    "name": "Cuchery",
    "code": "51199",
    "epci_code": "200066850",
    "departement_code": "51",
    "region_code": "44",
    "postal_code": "51480"
  },
  {
    "name": "Cuis",
    "code": "51200",
    "epci_code": "200067684",
    "departement_code": "51",
    "region_code": "44",
    "postal_code": "51530"
  },
  {
    "name": "Cuisles",
    "code": "51201",
    "epci_code": "200067213",
    "departement_code": "51",
    "region_code": "44",
    "postal_code": "51700"
  },
  {
    "name": "Cumières",
    "code": "51202",
    "epci_code": "200067684",
    "departement_code": "51",
    "region_code": "44",
    "postal_code": "51480"
  },
  {
    "name": "Cuperly",
    "code": "51203",
    "epci_code": "200042620",
    "departement_code": "51",
    "region_code": "44",
    "postal_code": "51400"
  },
  {
    "name": "Damery",
    "code": "51204",
    "epci_code": "200066850",
    "departement_code": "51",
    "region_code": "44",
    "postal_code": "51480"
  },
  {
    "name": "Dampierre-le-Château",
    "code": "51206",
    "epci_code": "200042703",
    "departement_code": "51",
    "region_code": "44",
    "postal_code": "51330"
  },
  {
    "name": "Dampierre-sur-Moivre",
    "code": "51208",
    "epci_code": "200043438",
    "departement_code": "51",
    "region_code": "44",
    "postal_code": "51240"
  },
  {
    "name": "Dizy",
    "code": "51210",
    "epci_code": "245100615",
    "departement_code": "51",
    "region_code": "44",
    "postal_code": "51530"
  },
  {
    "name": "Dommartin-Dampierre",
    "code": "51211",
    "epci_code": "200042703",
    "departement_code": "51",
    "region_code": "44",
    "postal_code": "51800"
  },
  {
    "name": "Dommartin-Lettrée",
    "code": "51212",
    "epci_code": "200066876",
    "departement_code": "51",
    "region_code": "44",
    "postal_code": "51320"
  },
  {
    "name": "Dommartin-sous-Hans",
    "code": "51213",
    "epci_code": "200042703",
    "departement_code": "51",
    "region_code": "44",
    "postal_code": "51800"
  },
  {
    "name": "Dommartin-Varimont",
    "code": "51214",
    "epci_code": "200042703",
    "departement_code": "51",
    "region_code": "44",
    "postal_code": "51330"
  },
  {
    "name": "Dompremy",
    "code": "51215",
    "epci_code": "200042992",
    "departement_code": "51",
    "region_code": "44",
    "postal_code": "51300"
  },
  {
    "name": "Dontrien",
    "code": "51216",
    "epci_code": "200067213",
    "departement_code": "51",
    "region_code": "44",
    "postal_code": "51490"
  },
  {
    "name": "Dormans",
    "code": "51217",
    "epci_code": "200066850",
    "departement_code": "51",
    "region_code": "44",
    "postal_code": "51700"
  },
  {
    "name": "Val-de-Vière",
    "code": "51218",
    "epci_code": "200067379",
    "departement_code": "51",
    "region_code": "44",
    "postal_code": "51340"
  },
  {
    "name": "Drosnay",
    "code": "51219",
    "epci_code": "200042992",
    "departement_code": "51",
    "region_code": "44",
    "postal_code": "51290"
  },
  {
    "name": "Drouilly",
    "code": "51220",
    "epci_code": "200034718",
    "departement_code": "51",
    "region_code": "44",
    "postal_code": "51300"
  },
  {
    "name": "Éclaires",
    "code": "51222",
    "epci_code": "200042703",
    "departement_code": "51",
    "region_code": "44",
    "postal_code": "51800"
  },
  {
    "name": "Écollemont",
    "code": "51223",
    "epci_code": "200042992",
    "departement_code": "51",
    "region_code": "44",
    "postal_code": "51290"
  },
  {
    "name": "Écriennes",
    "code": "51224",
    "epci_code": "200042992",
    "departement_code": "51",
    "region_code": "44",
    "postal_code": "51300"
  },
  {
    "name": "Écueil",
    "code": "51225",
    "epci_code": "200067213",
    "departement_code": "51",
    "region_code": "44",
    "postal_code": "51500"
  },
  {
    "name": "Écury-le-Repos",
    "code": "51226",
    "epci_code": "200067684",
    "departement_code": "51",
    "region_code": "44",
    "postal_code": "51230"
  },
  {
    "name": "Écury-sur-Coole",
    "code": "51227",
    "epci_code": "200043438",
    "departement_code": "51",
    "region_code": "44",
    "postal_code": "51240"
  },
  {
    "name": "Élise-Daucourt",
    "code": "51228",
    "epci_code": "200042703",
    "departement_code": "51",
    "region_code": "44",
    "postal_code": "51800"
  },
  {
    "name": "Épense",
    "code": "51229",
    "epci_code": "200042703",
    "departement_code": "51",
    "region_code": "44",
    "postal_code": "51330"
  },
  {
    "name": "Épernay",
    "code": "51230",
    "epci_code": "200067684",
    "departement_code": "51",
    "region_code": "44",
    "postal_code": "51200"
  },
  {
    "name": "L’Épine",
    "code": "51231",
    "epci_code": "200066876",
    "departement_code": "51",
    "region_code": "44",
    "postal_code": "51460"
  },
  {
    "name": "Époye",
    "code": "51232",
    "epci_code": "200067213",
    "departement_code": "51",
    "region_code": "44",
    "postal_code": "51490"
  },
  {
    "name": "Escardes",
    "code": "51233",
    "epci_code": "200066835",
    "departement_code": "51",
    "region_code": "44",
    "postal_code": "51310"
  },
  {
    "name": "Esclavolles-Lurey",
    "code": "51234",
    "epci_code": "200066835",
    "departement_code": "51",
    "region_code": "44",
    "postal_code": "51260"
  },
  {
    "name": "Les Essarts-lès-Sézanne",
    "code": "51235",
    "epci_code": "200066835",
    "departement_code": "51",
    "region_code": "44",
    "postal_code": "51120"
  },
  {
    "name": "Les Essarts-le-Vicomte",
    "code": "51236",
    "epci_code": "200066835",
    "departement_code": "51",
    "region_code": "44",
    "postal_code": "51310"
  },
  {
    "name": "Esternay",
    "code": "51237",
    "epci_code": "200066835",
    "departement_code": "51",
    "region_code": "44",
    "postal_code": "51310"
  },
  {
    "name": "Étoges",
    "code": "51238",
    "epci_code": "200066850",
    "departement_code": "51",
    "region_code": "44",
    "postal_code": "51270"
  },
  {
    "name": "Étréchy",
    "code": "51239",
    "epci_code": "200067684",
    "departement_code": "51",
    "region_code": "44",
    "postal_code": "51130"
  },
  {
    "name": "Étrepy",
    "code": "51240",
    "epci_code": "200067379",
    "departement_code": "51",
    "region_code": "44",
    "postal_code": "51340"
  },
  {
    "name": "Euvy",
    "code": "51241",
    "epci_code": "245100979",
    "departement_code": "51",
    "region_code": "44",
    "postal_code": "51230"
  },
  {
    "name": "Fagnières",
    "code": "51242",
    "epci_code": "200066876",
    "departement_code": "51",
    "region_code": "44",
    "postal_code": "51510"
  },
  {
    "name": "Faux-Fresnay",
    "code": "51243",
    "epci_code": "245100979",
    "departement_code": "51",
    "region_code": "44",
    "postal_code": "51230"
  },
  {
    "name": "Faux-Vésigneul",
    "code": "51244",
    "epci_code": "200043438",
    "departement_code": "51",
    "region_code": "44",
    "postal_code": "51320"
  },
  {
    "name": "Faverolles-et-Coëmy",
    "code": "51245",
    "epci_code": "200067213",
    "departement_code": "51",
    "region_code": "44",
    "postal_code": "51170"
  },
  {
    "name": "Favresse",
    "code": "51246",
    "epci_code": "200042992",
    "departement_code": "51",
    "region_code": "44",
    "postal_code": "51300"
  },
  {
    "name": "Fèrebrianges",
    "code": "51247",
    "epci_code": "200066850",
    "departement_code": "51",
    "region_code": "44",
    "postal_code": "51270"
  },
  {
    "name": "Fère-Champenoise",
    "code": "51248",
    "epci_code": "245100979",
    "departement_code": "51",
    "region_code": "44",
    "postal_code": "51230"
  },
  {
    "name": "Festigny",
    "code": "51249",
    "epci_code": "200066850",
    "departement_code": "51",
    "region_code": "44",
    "postal_code": "51700"
  },
  {
    "name": "Fismes",
    "code": "51250",
    "epci_code": "200067213",
    "departement_code": "51",
    "region_code": "44",
    "postal_code": "51170"
  },
  {
    "name": "Flavigny",
    "code": "51251",
    "epci_code": "200067684",
    "departement_code": "51",
    "region_code": "44",
    "postal_code": "51190"
  },
  {
    "name": "Fleury-la-Rivière",
    "code": "51252",
    "epci_code": "200066850",
    "departement_code": "51",
    "region_code": "44",
    "postal_code": "51480"
  },
  {
    "name": "Florent-en-Argonne",
    "code": "51253",
    "epci_code": "200042703",
    "departement_code": "51",
    "region_code": "44",
    "postal_code": "51800"
  },
  {
    "name": "Fontaine-Denis-Nuisy",
    "code": "51254",
    "epci_code": "200066835",
    "departement_code": "51",
    "region_code": "44",
    "postal_code": "51120"
  },
  {
    "name": "Fontaine-en-Dormois",
    "code": "51255",
    "epci_code": "200042703",
    "departement_code": "51",
    "region_code": "44",
    "postal_code": "51800"
  },
  {
    "name": "Fontaine-sur-Ay",
    "code": "51256",
    "epci_code": "245100615",
    "departement_code": "51",
    "region_code": "44",
    "postal_code": "51160"
  },
  {
    "name": "La Forestière",
    "code": "51258",
    "epci_code": "200066835",
    "departement_code": "51",
    "region_code": "44",
    "postal_code": "51120"
  },
  {
    "name": "Francheville",
    "code": "51259",
    "epci_code": "200043438",
    "departement_code": "51",
    "region_code": "44",
    "postal_code": "51240"
  },
  {
    "name": "Le Fresne",
    "code": "51260",
    "epci_code": "200043438",
    "departement_code": "51",
    "region_code": "44",
    "postal_code": "51240"
  },
  {
    "name": "Frignicourt",
    "code": "51262",
    "epci_code": "200034718",
    "departement_code": "51",
    "region_code": "44",
    "postal_code": "51300"
  },
  {
    "name": "Fromentières",
    "code": "51263",
    "epci_code": "245100888",
    "departement_code": "51",
    "region_code": "44",
    "postal_code": "51210"
  },
  {
    "name": "Le Gault-Soigny",
    "code": "51264",
    "epci_code": "245100888",
    "departement_code": "51",
    "region_code": "44",
    "postal_code": "51210"
  },
  {
    "name": "Gaye",
    "code": "51265",
    "epci_code": "200066835",
    "departement_code": "51",
    "region_code": "44",
    "postal_code": "51120"
  },
  {
    "name": "Germaine",
    "code": "51266",
    "epci_code": "245100615",
    "departement_code": "51",
    "region_code": "44",
    "postal_code": "51160"
  },
  {
    "name": "Germigny",
    "code": "51267",
    "epci_code": "200067213",
    "departement_code": "51",
    "region_code": "44",
    "postal_code": "51390"
  },
  {
    "name": "Germinon",
    "code": "51268",
    "epci_code": "200067684",
    "departement_code": "51",
    "region_code": "44",
    "postal_code": "51130"
  },
  {
    "name": "Giffaumont-Champaubert",
    "code": "51269",
    "epci_code": "200042992",
    "departement_code": "51",
    "region_code": "44",
    "postal_code": "51290"
  },
  {
    "name": "Gigny-Bussy",
    "code": "51270",
    "epci_code": "200042992",
    "departement_code": "51",
    "region_code": "44",
    "postal_code": "51290"
  },
  {
    "name": "Givry-en-Argonne",
    "code": "51272",
    "epci_code": "200042703",
    "departement_code": "51",
    "region_code": "44",
    "postal_code": "51330"
  },
  {
    "name": "Givry-lès-Loisy",
    "code": "51273",
    "epci_code": "200067684",
    "departement_code": "51",
    "region_code": "44",
    "postal_code": "51130"
  },
  {
    "name": "Gizaucourt",
    "code": "51274",
    "epci_code": "200042703",
    "departement_code": "51",
    "region_code": "44",
    "postal_code": "51800"
  },
  {
    "name": "Glannes",
    "code": "51275",
    "epci_code": "200034718",
    "departement_code": "51",
    "region_code": "44",
    "postal_code": "51300"
  },
  {
    "name": "Gourgançon",
    "code": "51276",
    "epci_code": "245100979",
    "departement_code": "51",
    "region_code": "44",
    "postal_code": "51230"
  },
  {
    "name": "Sainte-Marie-du-Lac-Nuisement",
    "code": "51277",
    "epci_code": "200042992",
    "departement_code": "51",
    "region_code": "44",
    "postal_code": "51290"
  },
  {
    "name": "Les Grandes-Loges",
    "code": "51278",
    "epci_code": "200066876",
    "departement_code": "51",
    "region_code": "44",
    "postal_code": "51400"
  },
  {
    "name": "Granges-sur-Aube",
    "code": "51279",
    "epci_code": "200066835",
    "departement_code": "51",
    "region_code": "44",
    "postal_code": "51260"
  },
  {
    "name": "Gratreuil",
    "code": "51280",
    "epci_code": "200042703",
    "departement_code": "51",
    "region_code": "44",
    "postal_code": "51800"
  },
  {
    "name": "Grauves",
    "code": "51281",
    "epci_code": "200067684",
    "departement_code": "51",
    "region_code": "44",
    "postal_code": "51190"
  },
  {
    "name": "Gueux",
    "code": "51282",
    "epci_code": "200067213",
    "departement_code": "51",
    "region_code": "44",
    "postal_code": "51390"
  },
  {
    "name": "Hans",
    "code": "51283",
    "epci_code": "200042703",
    "departement_code": "51",
    "region_code": "44",
    "postal_code": "51800"
  },
  {
    "name": "Haussignémont",
    "code": "51284",
    "epci_code": "200042992",
    "departement_code": "51",
    "region_code": "44",
    "postal_code": "51300"
  },
  {
    "name": "Haussimont",
    "code": "51285",
    "epci_code": "200066876",
    "departement_code": "51",
    "region_code": "44",
    "postal_code": "51320"
  },
  {
    "name": "Hauteville",
    "code": "51286",
    "epci_code": "200068666",
    "departement_code": "51",
    "region_code": "44",
    "postal_code": "51290"
  },
  {
    "name": "Hautvillers",
    "code": "51287",
    "epci_code": "245100615",
    "departement_code": "51",
    "region_code": "44",
    "postal_code": "51160"
  },
  {
    "name": "Heiltz-le-Hutier",
    "code": "51288",
    "epci_code": "200042992",
    "departement_code": "51",
    "region_code": "44",
    "postal_code": "51300"
  },
  {
    "name": "Heiltz-le-Maurupt",
    "code": "51289",
    "epci_code": "200067379",
    "departement_code": "51",
    "region_code": "44",
    "postal_code": "51340"
  },
  {
    "name": "Heiltz-l’Évêque",
    "code": "51290",
    "epci_code": "200067379",
    "departement_code": "51",
    "region_code": "44",
    "postal_code": "51340"
  },
  {
    "name": "Hermonville",
    "code": "51291",
    "epci_code": "200067213",
    "departement_code": "51",
    "region_code": "44",
    "postal_code": "51220"
  },
  {
    "name": "Herpont",
    "code": "51292",
    "epci_code": "200042703",
    "departement_code": "51",
    "region_code": "44",
    "postal_code": "51460"
  },
  {
    "name": "Heutrégiville",
    "code": "51293",
    "epci_code": "200067213",
    "departement_code": "51",
    "region_code": "44",
    "postal_code": "51110"
  },
  {
    "name": "Hourges",
    "code": "51294",
    "epci_code": "200067213",
    "departement_code": "51",
    "region_code": "44",
    "postal_code": "51140"
  },
  {
    "name": "Huiron",
    "code": "51295",
    "epci_code": "200034718",
    "departement_code": "51",
    "region_code": "44",
    "postal_code": "51300"
  },
  {
    "name": "Humbauville",
    "code": "51296",
    "epci_code": "200034718",
    "departement_code": "51",
    "region_code": "44",
    "postal_code": "51320"
  },
  {
    "name": "Igny-Comblizy",
    "code": "51298",
    "epci_code": "200066850",
    "departement_code": "51",
    "region_code": "44",
    "postal_code": "51700"
  },
  {
    "name": "Isles-sur-Suippe",
    "code": "51299",
    "epci_code": "200067213",
    "departement_code": "51",
    "region_code": "44",
    "postal_code": "51110"
  },
  {
    "name": "Isle-sur-Marne",
    "code": "51300",
    "epci_code": "200042992",
    "departement_code": "51",
    "region_code": "44",
    "postal_code": "51290"
  },
  {
    "name": "Isse",
    "code": "51301",
    "epci_code": "200066876",
    "departement_code": "51",
    "region_code": "44",
    "postal_code": "51150"
  },
  {
    "name": "Les Istres-et-Bury",
    "code": "51302",
    "epci_code": "200067684",
    "departement_code": "51",
    "region_code": "44",
    "postal_code": "51190"
  },
  {
    "name": "Jâlons",
    "code": "51303",
    "epci_code": "200066876",
    "departement_code": "51",
    "region_code": "44",
    "postal_code": "51150"
  },
  {
    "name": "Janvilliers",
    "code": "51304",
    "epci_code": "245100888",
    "departement_code": "51",
    "region_code": "44",
    "postal_code": "51210"
  },
  {
    "name": "Janvry",
    "code": "51305",
    "epci_code": "200067213",
    "departement_code": "51",
    "region_code": "44",
    "postal_code": "51390"
  },
  {
    "name": "Joiselle",
    "code": "51306",
    "epci_code": "200066835",
    "departement_code": "51",
    "region_code": "44",
    "postal_code": "51310"
  },
  {
    "name": "Jonchery-sur-Suippe",
    "code": "51307",
    "epci_code": "200042620",
    "departement_code": "51",
    "region_code": "44",
    "postal_code": "51600"
  },
  {
    "name": "Jonchery-sur-Vesle",
    "code": "51308",
    "epci_code": "200067213",
    "departement_code": "51",
    "region_code": "44",
    "postal_code": "51140"
  },
  {
    "name": "Jonquery",
    "code": "51309",
    "epci_code": "200067213",
    "departement_code": "51",
    "region_code": "44",
    "postal_code": "51700"
  },
  {
    "name": "Jouy-lès-Reims",
    "code": "51310",
    "epci_code": "200067213",
    "departement_code": "51",
    "region_code": "44",
    "postal_code": "51390"
  },
  {
    "name": "Jussecourt-Minecourt",
    "code": "51311",
    "epci_code": "200067379",
    "departement_code": "51",
    "region_code": "44",
    "postal_code": "51340"
  },
  {
    "name": "Juvigny",
    "code": "51312",
    "epci_code": "200066876",
    "departement_code": "51",
    "region_code": "44",
    "postal_code": "51150"
  },
  {
    "name": "Lachy",
    "code": "51313",
    "epci_code": "200066835",
    "departement_code": "51",
    "region_code": "44",
    "postal_code": "51120"
  },
  {
    "name": "Lagery",
    "code": "51314",
    "epci_code": "200067213",
    "departement_code": "51",
    "region_code": "44",
    "postal_code": "51170"
  },
  {
    "name": "Landricourt",
    "code": "51315",
    "epci_code": "200068666",
    "departement_code": "51",
    "region_code": "44",
    "postal_code": "51290"
  },
  {
    "name": "Larzicourt",
    "code": "51316",
    "epci_code": "200042992",
    "departement_code": "51",
    "region_code": "44",
    "postal_code": "51290"
  },
  {
    "name": "Laval-sur-Tourbe",
    "code": "51317",
    "epci_code": "200042620",
    "departement_code": "51",
    "region_code": "44",
    "postal_code": "51600"
  },
  {
    "name": "Lavannes",
    "code": "51318",
    "epci_code": "200067213",
    "departement_code": "51",
    "region_code": "44",
    "postal_code": "51110"
  },
  {
    "name": "Lenharrée",
    "code": "51319",
    "epci_code": "200066876",
    "departement_code": "51",
    "region_code": "44",
    "postal_code": "51230"
  },
  {
    "name": "Leuvrigny",
    "code": "51320",
    "epci_code": "200066850",
    "departement_code": "51",
    "region_code": "44",
    "postal_code": "51700"
  },
  {
    "name": "Lhéry",
    "code": "51321",
    "epci_code": "200067213",
    "departement_code": "51",
    "region_code": "44",
    "postal_code": "51170"
  },
  {
    "name": "Lignon",
    "code": "51322",
    "epci_code": "200034718",
    "departement_code": "51",
    "region_code": "44",
    "postal_code": "51290"
  },
  {
    "name": "Linthelles",
    "code": "51323",
    "epci_code": "200066835",
    "departement_code": "51",
    "region_code": "44",
    "postal_code": "51230"
  },
  {
    "name": "Linthes",
    "code": "51324",
    "epci_code": "200066835",
    "departement_code": "51",
    "region_code": "44",
    "postal_code": "51230"
  },
  {
    "name": "Lisse-en-Champagne",
    "code": "51325",
    "epci_code": "200067379",
    "departement_code": "51",
    "region_code": "44",
    "postal_code": "51300"
  },
  {
    "name": "Livry-Louvercy",
    "code": "51326",
    "epci_code": "200066876",
    "departement_code": "51",
    "region_code": "44",
    "postal_code": "51400"
  },
  {
    "name": "Loisy-en-Brie",
    "code": "51327",
    "epci_code": "200067684",
    "departement_code": "51",
    "region_code": "44",
    "postal_code": "51130"
  },
  {
    "name": "Loisy-sur-Marne",
    "code": "51328",
    "epci_code": "200034718",
    "departement_code": "51",
    "region_code": "44",
    "postal_code": "51300"
  },
  {
    "name": "Loivre",
    "code": "51329",
    "epci_code": "200067213",
    "departement_code": "51",
    "region_code": "44",
    "postal_code": "51220"
  },
  {
    "name": "Ludes",
    "code": "51333",
    "epci_code": "200067213",
    "departement_code": "51",
    "region_code": "44",
    "postal_code": "51500"
  },
  {
    "name": "Luxémont-et-Villotte",
    "code": "51334",
    "epci_code": "200042992",
    "departement_code": "51",
    "region_code": "44",
    "postal_code": "51300"
  },
  {
    "name": "Maffrécourt",
    "code": "51336",
    "epci_code": "200042703",
    "departement_code": "51",
    "region_code": "44",
    "postal_code": "51800"
  },
  {
    "name": "Magneux",
    "code": "51337",
    "epci_code": "200067213",
    "departement_code": "51",
    "region_code": "44",
    "postal_code": "51170"
  },
  {
    "name": "Mailly-Champagne",
    "code": "51338",
    "epci_code": "200067213",
    "departement_code": "51",
    "region_code": "44",
    "postal_code": "51500"
  },
  {
    "name": "Mairy-sur-Marne",
    "code": "51339",
    "epci_code": "200043438",
    "departement_code": "51",
    "region_code": "44",
    "postal_code": "51240"
  },
  {
    "name": "Maisons-en-Champagne",
    "code": "51340",
    "epci_code": "200034718",
    "departement_code": "51",
    "region_code": "44",
    "postal_code": "51300"
  },
  {
    "name": "Malmy",
    "code": "51341",
    "epci_code": "200042703",
    "departement_code": "51",
    "region_code": "44",
    "postal_code": "51800"
  },
  {
    "name": "Mancy",
    "code": "51342",
    "epci_code": "200067684",
    "departement_code": "51",
    "region_code": "44",
    "postal_code": "51530"
  },
  {
    "name": "Marcilly-sur-Seine",
    "code": "51343",
    "epci_code": "200066835",
    "departement_code": "51",
    "region_code": "44",
    "postal_code": "51260"
  },
  {
    "name": "Mardeuil",
    "code": "51344",
    "epci_code": "200067684",
    "departement_code": "51",
    "region_code": "44",
    "postal_code": "51530"
  },
  {
    "name": "Mareuil-en-Brie",
    "code": "51345",
    "epci_code": "200066850",
    "departement_code": "51",
    "region_code": "44",
    "postal_code": "51270"
  },
  {
    "name": "Mareuil-le-Port",
    "code": "51346",
    "epci_code": "200066850",
    "departement_code": "51",
    "region_code": "44",
    "postal_code": "51700"
  },
  {
    "name": "Marfaux",
    "code": "51348",
    "epci_code": "200067213",
    "departement_code": "51",
    "region_code": "44",
    "postal_code": "51170"
  },
  {
    "name": "Margerie-Hancourt",
    "code": "51349",
    "epci_code": "200034718",
    "departement_code": "51",
    "region_code": "44",
    "postal_code": "51290"
  },
  {
    "name": "Margny",
    "code": "51350",
    "epci_code": "245100888",
    "departement_code": "51",
    "region_code": "44",
    "postal_code": "51210"
  },
  {
    "name": "Marigny",
    "code": "51351",
    "epci_code": "245100979",
    "departement_code": "51",
    "region_code": "44",
    "postal_code": "51230"
  },
  {
    "name": "Marolles",
    "code": "51352",
    "epci_code": "200034718",
    "departement_code": "51",
    "region_code": "44",
    "postal_code": "51300"
  },
  {
    "name": "Marsangis",
    "code": "51353",
    "epci_code": "200066835",
    "departement_code": "51",
    "region_code": "44",
    "postal_code": "51260"
  },
  {
    "name": "Marson",
    "code": "51354",
    "epci_code": "200043438",
    "departement_code": "51",
    "region_code": "44",
    "postal_code": "51240"
  },
  {
    "name": "Massiges",
    "code": "51355",
    "epci_code": "200042703",
    "departement_code": "51",
    "region_code": "44",
    "postal_code": "51800"
  },
  {
    "name": "Matignicourt-Goncourt",
    "code": "51356",
    "epci_code": "200042992",
    "departement_code": "51",
    "region_code": "44",
    "postal_code": "51300"
  },
  {
    "name": "Matougues",
    "code": "51357",
    "epci_code": "200066876",
    "departement_code": "51",
    "region_code": "44",
    "postal_code": "51510"
  },
  {
    "name": "Maurupt-le-Montois",
    "code": "51358",
    "epci_code": "200068666",
    "departement_code": "51",
    "region_code": "44",
    "postal_code": "51340"
  },
  {
    "name": "Mécringes",
    "code": "51359",
    "epci_code": "245100888",
    "departement_code": "51",
    "region_code": "44",
    "postal_code": "51210"
  },
  {
    "name": "Le Meix-Saint-Epoing",
    "code": "51360",
    "epci_code": "200066835",
    "departement_code": "51",
    "region_code": "44",
    "postal_code": "51120"
  },
  {
    "name": "Le Meix-Tiercelin",
    "code": "51361",
    "epci_code": "200034718",
    "departement_code": "51",
    "region_code": "44",
    "postal_code": "51320"
  },
  {
    "name": "Merfy",
    "code": "51362",
    "epci_code": "200067213",
    "departement_code": "51",
    "region_code": "44",
    "postal_code": "51220"
  },
  {
    "name": "Merlaut",
    "code": "51363",
    "epci_code": "200067379",
    "departement_code": "51",
    "region_code": "44",
    "postal_code": "51300"
  },
  {
    "name": "Méry-Prémecy",
    "code": "51364",
    "epci_code": "200067213",
    "departement_code": "51",
    "region_code": "44",
    "postal_code": "51390"
  },
  {
    "name": "Les Mesneux",
    "code": "51365",
    "epci_code": "200067213",
    "departement_code": "51",
    "region_code": "44",
    "postal_code": "51370"
  },
  {
    "name": "Le Mesnil-sur-Oger",
    "code": "51367",
    "epci_code": "200067684",
    "departement_code": "51",
    "region_code": "44",
    "postal_code": "51190"
  },
  {
    "name": "Minaucourt-le-Mesnil-lès-Hurlus",
    "code": "51368",
    "epci_code": "200042703",
    "departement_code": "51",
    "region_code": "44",
    "postal_code": "51800"
  },
  {
    "name": "Mœurs-Verdey",
    "code": "51369",
    "epci_code": "200066835",
    "departement_code": "51",
    "region_code": "44",
    "postal_code": "51120"
  },
  {
    "name": "Moiremont",
    "code": "51370",
    "epci_code": "200042703",
    "departement_code": "51",
    "region_code": "44",
    "postal_code": "51800"
  },
  {
    "name": "Moivre",
    "code": "51371",
    "epci_code": "200043438",
    "departement_code": "51",
    "region_code": "44",
    "postal_code": "51240"
  },
  {
    "name": "Moncetz-Longevas",
    "code": "51372",
    "epci_code": "200066876",
    "departement_code": "51",
    "region_code": "44",
    "postal_code": "51470"
  },
  {
    "name": "Moncetz-l’Abbaye",
    "code": "51373",
    "epci_code": "200042992",
    "departement_code": "51",
    "region_code": "44",
    "postal_code": "51290"
  },
  {
    "name": "Mondement-Montgivroux",
    "code": "51374",
    "epci_code": "200066835",
    "departement_code": "51",
    "region_code": "44",
    "postal_code": "51120"
  },
  {
    "name": "Montbré",
    "code": "51375",
    "epci_code": "200067213",
    "departement_code": "51",
    "region_code": "44",
    "postal_code": "51500"
  },
  {
    "name": "Montgenost",
    "code": "51376",
    "epci_code": "200066835",
    "departement_code": "51",
    "region_code": "44",
    "postal_code": "51260"
  },
  {
    "name": "Montépreux",
    "code": "51377",
    "epci_code": "200066876",
    "departement_code": "51",
    "region_code": "44",
    "postal_code": "51320"
  },
  {
    "name": "Monthelon",
    "code": "51378",
    "epci_code": "200067684",
    "departement_code": "51",
    "region_code": "44",
    "postal_code": "51530"
  },
  {
    "name": "Montigny-sur-Vesle",
    "code": "51379",
    "epci_code": "200067213",
    "departement_code": "51",
    "region_code": "44",
    "postal_code": "51140"
  },
  {
    "name": "Montmirail",
    "code": "51380",
    "epci_code": "245100888",
    "departement_code": "51",
    "region_code": "44",
    "postal_code": "51210"
  },
  {
    "name": "Montmort-Lucy",
    "code": "51381",
    "epci_code": "200066850",
    "departement_code": "51",
    "region_code": "44",
    "postal_code": "51270"
  },
  {
    "name": "Mont-sur-Courville",
    "code": "51382",
    "epci_code": "200067213",
    "departement_code": "51",
    "region_code": "44",
    "postal_code": "51170"
  },
  {
    "name": "Morangis",
    "code": "51384",
    "epci_code": "200067684",
    "departement_code": "51",
    "region_code": "44",
    "postal_code": "51530"
  },
  {
    "name": "Morsains",
    "code": "51386",
    "epci_code": "245100888",
    "departement_code": "51",
    "region_code": "44",
    "postal_code": "51210"
  },
  {
    "name": "Moslins",
    "code": "51387",
    "epci_code": "200067684",
    "departement_code": "51",
    "region_code": "44",
    "postal_code": "51530"
  },
  {
    "name": "Mourmelon-le-Grand",
    "code": "51388",
    "epci_code": "200066876",
    "departement_code": "51",
    "region_code": "44",
    "postal_code": "51400"
  },
  {
    "name": "Mourmelon-le-Petit",
    "code": "51389",
    "epci_code": "200066876",
    "departement_code": "51",
    "region_code": "44",
    "postal_code": "51400"
  },
  {
    "name": "Moussy",
    "code": "51390",
    "epci_code": "200067684",
    "departement_code": "51",
    "region_code": "44",
    "postal_code": "51530"
  },
  {
    "name": "Muizon",
    "code": "51391",
    "epci_code": "200067213",
    "departement_code": "51",
    "region_code": "44",
    "postal_code": "51140"
  },
  {
    "name": "Mutigny",
    "code": "51392",
    "epci_code": "245100615",
    "departement_code": "51",
    "region_code": "44",
    "postal_code": "51160"
  },
  {
    "name": "Nanteuil-la-Forêt",
    "code": "51393",
    "epci_code": "245100615",
    "departement_code": "51",
    "region_code": "44",
    "postal_code": "51480"
  },
  {
    "name": "Nesle-la-Reposte",
    "code": "51395",
    "epci_code": "200066835",
    "departement_code": "51",
    "region_code": "44",
    "postal_code": "51120"
  },
  {
    "name": "Nesle-le-Repons",
    "code": "51396",
    "epci_code": "200066850",
    "departement_code": "51",
    "region_code": "44",
    "postal_code": "51700"
  },
  {
    "name": "La Neuville-aux-Bois",
    "code": "51397",
    "epci_code": "200042703",
    "departement_code": "51",
    "region_code": "44",
    "postal_code": "51330"
  },
  {
    "name": "La Neuville-aux-Larris",
    "code": "51398",
    "epci_code": "200066850",
    "departement_code": "51",
    "region_code": "44",
    "postal_code": "51480"
  },
  {
    "name": "La Neuville-au-Pont",
    "code": "51399",
    "epci_code": "200042703",
    "departement_code": "51",
    "region_code": "44",
    "postal_code": "51800"
  },
  {
    "name": "Neuvy",
    "code": "51402",
    "epci_code": "200066835",
    "departement_code": "51",
    "region_code": "44",
    "postal_code": "51310"
  },
  {
    "name": "Nogent-l’Abbesse",
    "code": "51403",
    "epci_code": "200067213",
    "departement_code": "51",
    "region_code": "44",
    "postal_code": "51420"
  },
  {
    "name": "Noirlieu",
    "code": "51404",
    "epci_code": "200042703",
    "departement_code": "51",
    "region_code": "44",
    "postal_code": "51330"
  },
  {
    "name": "Norrois",
    "code": "51406",
    "epci_code": "200042992",
    "departement_code": "51",
    "region_code": "44",
    "postal_code": "51300"
  },
  {
    "name": "La Noue",
    "code": "51407",
    "epci_code": "200066835",
    "departement_code": "51",
    "region_code": "44",
    "postal_code": "51310"
  },
  {
    "name": "Nuisement-sur-Coole",
    "code": "51409",
    "epci_code": "200043438",
    "departement_code": "51",
    "region_code": "44",
    "postal_code": "51240"
  },
  {
    "name": "Œuilly",
    "code": "51410",
    "epci_code": "200066850",
    "departement_code": "51",
    "region_code": "44",
    "postal_code": "51480"
  },
  {
    "name": "Ognes",
    "code": "51412",
    "epci_code": "245100979",
    "departement_code": "51",
    "region_code": "44",
    "postal_code": "51230"
  },
  {
    "name": "Oiry",
    "code": "51413",
    "epci_code": "200067684",
    "departement_code": "51",
    "region_code": "44",
    "postal_code": "51530"
  },
  {
    "name": "Olizy",
    "code": "51414",
    "epci_code": "200067213",
    "departement_code": "51",
    "region_code": "44",
    "postal_code": "51700"
  },
  {
    "name": "Omey",
    "code": "51415",
    "epci_code": "200043438",
    "departement_code": "51",
    "region_code": "44",
    "postal_code": "51240"
  },
  {
    "name": "Orbais-l’Abbaye",
    "code": "51416",
    "epci_code": "200066850",
    "departement_code": "51",
    "region_code": "44",
    "postal_code": "51270"
  },
  {
    "name": "Orconte",
    "code": "51417",
    "epci_code": "200042992",
    "departement_code": "51",
    "region_code": "44",
    "postal_code": "51300"
  },
  {
    "name": "Ormes",
    "code": "51418",
    "epci_code": "200067213",
    "departement_code": "51",
    "region_code": "44",
    "postal_code": "51370"
  },
  {
    "name": "Outines",
    "code": "51419",
    "epci_code": "200042992",
    "departement_code": "51",
    "region_code": "44",
    "postal_code": "51290"
  },
  {
    "name": "Outrepont",
    "code": "51420",
    "epci_code": "200067379",
    "departement_code": "51",
    "region_code": "44",
    "postal_code": "51300"
  },
  {
    "name": "Oyes",
    "code": "51421",
    "epci_code": "200066835",
    "departement_code": "51",
    "region_code": "44",
    "postal_code": "51120"
  },
  {
    "name": "Pargny-lès-Reims",
    "code": "51422",
    "epci_code": "200067213",
    "departement_code": "51",
    "region_code": "44",
    "postal_code": "51390"
  },
  {
    "name": "Pargny-sur-Saulx",
    "code": "51423",
    "epci_code": "200067379",
    "departement_code": "51",
    "region_code": "44",
    "postal_code": "51340"
  },
  {
    "name": "Passavant-en-Argonne",
    "code": "51424",
    "epci_code": "200042703",
    "departement_code": "51",
    "region_code": "44",
    "postal_code": "51800"
  },
  {
    "name": "Passy-Grigny",
    "code": "51425",
    "epci_code": "200066850",
    "departement_code": "51",
    "region_code": "44",
    "postal_code": "51700"
  },
  {
    "name": "Péas",
    "code": "51426",
    "epci_code": "200066835",
    "departement_code": "51",
    "region_code": "44",
    "postal_code": "51120"
  },
  {
    "name": "Les Petites-Loges",
    "code": "51428",
    "epci_code": "200067213",
    "departement_code": "51",
    "region_code": "44",
    "postal_code": "51400"
  },
  {
    "name": "Pévy",
    "code": "51429",
    "epci_code": "200067213",
    "departement_code": "51",
    "region_code": "44",
    "postal_code": "51140"
  },
  {
    "name": "Pierre-Morains",
    "code": "51430",
    "epci_code": "200067684",
    "departement_code": "51",
    "region_code": "44",
    "postal_code": "51130"
  },
  {
    "name": "Pierry",
    "code": "51431",
    "epci_code": "200067684",
    "departement_code": "51",
    "region_code": "44",
    "postal_code": "51530"
  },
  {
    "name": "Pleurs",
    "code": "51432",
    "epci_code": "245100979",
    "departement_code": "51",
    "region_code": "44",
    "postal_code": "51230"
  },
  {
    "name": "Plichancourt",
    "code": "51433",
    "epci_code": "200067379",
    "departement_code": "51",
    "region_code": "44",
    "postal_code": "51300"
  },
  {
    "name": "Plivot",
    "code": "51434",
    "epci_code": "200067684",
    "departement_code": "51",
    "region_code": "44",
    "postal_code": "51150"
  },
  {
    "name": "Pocancy",
    "code": "51435",
    "epci_code": "200067684",
    "departement_code": "51",
    "region_code": "44",
    "postal_code": "51130"
  },
  {
    "name": "Pogny",
    "code": "51436",
    "epci_code": "200043438",
    "departement_code": "51",
    "region_code": "44",
    "postal_code": "51240"
  },
  {
    "name": "Poilly",
    "code": "51437",
    "epci_code": "200067213",
    "departement_code": "51",
    "region_code": "44",
    "postal_code": "51170"
  },
  {
    "name": "Poix",
    "code": "51438",
    "epci_code": "200043438",
    "departement_code": "51",
    "region_code": "44",
    "postal_code": "51460"
  },
  {
    "name": "Pomacle",
    "code": "51439",
    "epci_code": "200067213",
    "departement_code": "51",
    "region_code": "44",
    "postal_code": "51110"
  },
  {
    "name": "Pontfaverger-Moronvilliers",
    "code": "51440",
    "epci_code": "200067213",
    "departement_code": "51",
    "region_code": "44",
    "postal_code": "51490"
  },
  {
    "name": "Ponthion",
    "code": "51441",
    "epci_code": "200067379",
    "departement_code": "51",
    "region_code": "44",
    "postal_code": "51300"
  },
  {
    "name": "Possesse",
    "code": "51442",
    "epci_code": "200067379",
    "departement_code": "51",
    "region_code": "44",
    "postal_code": "51330"
  },
  {
    "name": "Potangis",
    "code": "51443",
    "epci_code": "200066835",
    "departement_code": "51",
    "region_code": "44",
    "postal_code": "51260"
  },
  {
    "name": "Pouillon",
    "code": "51444",
    "epci_code": "200067213",
    "departement_code": "51",
    "region_code": "44",
    "postal_code": "51220"
  },
  {
    "name": "Pourcy",
    "code": "51445",
    "epci_code": "200067213",
    "departement_code": "51",
    "region_code": "44",
    "postal_code": "51480"
  },
  {
    "name": "Pringy",
    "code": "51446",
    "epci_code": "200034718",
    "departement_code": "51",
    "region_code": "44",
    "postal_code": "51300"
  },
  {
    "name": "Prosnes",
    "code": "51447",
    "epci_code": "200067213",
    "departement_code": "51",
    "region_code": "44",
    "postal_code": "51400"
  },
  {
    "name": "Prouilly",
    "code": "51448",
    "epci_code": "200067213",
    "departement_code": "51",
    "region_code": "44",
    "postal_code": "51140"
  },
  {
    "name": "Prunay",
    "code": "51449",
    "epci_code": "200067213",
    "departement_code": "51",
    "region_code": "44",
    "postal_code": "51360"
  },
  {
    "name": "Puisieulx",
    "code": "51450",
    "epci_code": "200067213",
    "departement_code": "51",
    "region_code": "44",
    "postal_code": "51500"
  },
  {
    "name": "Queudes",
    "code": "51451",
    "epci_code": "200066835",
    "departement_code": "51",
    "region_code": "44",
    "postal_code": "51120"
  },
  {
    "name": "Rapsécourt",
    "code": "51452",
    "epci_code": "200042703",
    "departement_code": "51",
    "region_code": "44",
    "postal_code": "51330"
  },
  {
    "name": "Recy",
    "code": "51453",
    "epci_code": "200066876",
    "departement_code": "51",
    "region_code": "44",
    "postal_code": "51520"
  },
  {
    "name": "Reims",
    "code": "51454",
    "epci_code": "200067213",
    "departement_code": "51",
    "region_code": "44",
    "postal_code": "51100"
  },
  {
    "name": "Reims-la-Brûlée",
    "code": "51455",
    "epci_code": "200067379",
    "departement_code": "51",
    "region_code": "44",
    "postal_code": "51300"
  },
  {
    "name": "Remicourt",
    "code": "51456",
    "epci_code": "200042703",
    "departement_code": "51",
    "region_code": "44",
    "postal_code": "51330"
  },
  {
    "name": "Cœur-de-la-Vallée",
    "code": "51457",
    "epci_code": "200066850",
    "departement_code": "51",
    "region_code": "44",
    "postal_code": "51480"
  },
  {
    "name": "Cœur-de-la-Vallée",
    "code": "51457",
    "epci_code": "200066850",
    "departement_code": "51",
    "region_code": "44",
    "postal_code": "51700"
  },
  {
    "name": "Reuves",
    "code": "51458",
    "epci_code": "200066835",
    "departement_code": "51",
    "region_code": "44",
    "postal_code": "51120"
  },
  {
    "name": "Réveillon",
    "code": "51459",
    "epci_code": "200066835",
    "departement_code": "51",
    "region_code": "44",
    "postal_code": "51310"
  },
  {
    "name": "Rieux",
    "code": "51460",
    "epci_code": "245100888",
    "departement_code": "51",
    "region_code": "44",
    "postal_code": "51210"
  },
  {
    "name": "Rilly-la-Montagne",
    "code": "51461",
    "epci_code": "200067213",
    "departement_code": "51",
    "region_code": "44",
    "postal_code": "51500"
  },
  {
    "name": "Les Rivières-Henruel",
    "code": "51463",
    "epci_code": "200034718",
    "departement_code": "51",
    "region_code": "44",
    "postal_code": "51300"
  },
  {
    "name": "Romain",
    "code": "51464",
    "epci_code": "200067213",
    "departement_code": "51",
    "region_code": "44",
    "postal_code": "51140"
  },
  {
    "name": "Romery",
    "code": "51465",
    "epci_code": "200066850",
    "departement_code": "51",
    "region_code": "44",
    "postal_code": "51480"
  },
  {
    "name": "Romigny",
    "code": "51466",
    "epci_code": "200067213",
    "departement_code": "51",
    "region_code": "44",
    "postal_code": "51170"
  },
  {
    "name": "Rosnay",
    "code": "51468",
    "epci_code": "200067213",
    "departement_code": "51",
    "region_code": "44",
    "postal_code": "51390"
  },
  {
    "name": "Rouffy",
    "code": "51469",
    "epci_code": "200067684",
    "departement_code": "51",
    "region_code": "44",
    "postal_code": "51130"
  },
  {
    "name": "Rouvroy-Ripont",
    "code": "51470",
    "epci_code": "200042703",
    "departement_code": "51",
    "region_code": "44",
    "postal_code": "51800"
  },
  {
    "name": "Sacy",
    "code": "51471",
    "epci_code": "200067213",
    "departement_code": "51",
    "region_code": "44",
    "postal_code": "51500"
  },
  {
    "name": "Saint-Amand-sur-Fion",
    "code": "51472",
    "epci_code": "200067379",
    "departement_code": "51",
    "region_code": "44",
    "postal_code": "51300"
  },
  {
    "name": "Saint-Bon",
    "code": "51473",
    "epci_code": "200066835",
    "departement_code": "51",
    "region_code": "44",
    "postal_code": "51310"
  },
  {
    "name": "Saint-Brice-Courcelles",
    "code": "51474",
    "epci_code": "200067213",
    "departement_code": "51",
    "region_code": "44",
    "postal_code": "51370"
  },
  {
    "name": "Saint-Chéron",
    "code": "51475",
    "epci_code": "200034718",
    "departement_code": "51",
    "region_code": "44",
    "postal_code": "51290"
  },
  {
    "name": "Saint-Étienne-au-Temple",
    "code": "51476",
    "epci_code": "200066876",
    "departement_code": "51",
    "region_code": "44",
    "postal_code": "51460"
  },
  {
    "name": "Saint-Étienne-sur-Suippe",
    "code": "51477",
    "epci_code": "200067213",
    "departement_code": "51",
    "region_code": "44",
    "postal_code": "51110"
  },
  {
    "name": "Saint-Eulien",
    "code": "51478",
    "epci_code": "200068666",
    "departement_code": "51",
    "region_code": "44",
    "postal_code": "52100"
  },
  {
    "name": "Saint-Euphraise-et-Clairizet",
    "code": "51479",
    "epci_code": "200067213",
    "departement_code": "51",
    "region_code": "44",
    "postal_code": "51390"
  },
  {
    "name": "Sainte-Gemme",
    "code": "51480",
    "epci_code": "200066850",
    "departement_code": "51",
    "region_code": "44",
    "postal_code": "51700"
  },
  {
    "name": "Saint-Germain-la-Ville",
    "code": "51482",
    "epci_code": "200043438",
    "departement_code": "51",
    "region_code": "44",
    "postal_code": "51240"
  },
  {
    "name": "Saint-Gibrien",
    "code": "51483",
    "epci_code": "200066876",
    "departement_code": "51",
    "region_code": "44",
    "postal_code": "51510"
  },
  {
    "name": "Saint-Gilles",
    "code": "51484",
    "epci_code": "200067213",
    "departement_code": "51",
    "region_code": "44",
    "postal_code": "51170"
  },
  {
    "name": "La Neuville-au-Temple",
    "code": "51485",
    "epci_code": "200066876",
    "departement_code": "51",
    "region_code": "44",
    "postal_code": "51400"
  },
  {
    "name": "Saint-Hilaire-le-Grand",
    "code": "51486",
    "epci_code": "200042620",
    "departement_code": "51",
    "region_code": "44",
    "postal_code": "51600"
  },
  {
    "name": "Saint-Hilaire-le-Petit",
    "code": "51487",
    "epci_code": "200067213",
    "departement_code": "51",
    "region_code": "44",
    "postal_code": "51490"
  },
  {
    "name": "Saint-Imoges",
    "code": "51488",
    "epci_code": "245100615",
    "departement_code": "51",
    "region_code": "44",
    "postal_code": "51160"
  },
  {
    "name": "Saint-Jean-devant-Possesse",
    "code": "51489",
    "epci_code": "200067379",
    "departement_code": "51",
    "region_code": "44",
    "postal_code": "51330"
  },
  {
    "name": "Saint-Jean-sur-Moivre",
    "code": "51490",
    "epci_code": "200043438",
    "departement_code": "51",
    "region_code": "44",
    "postal_code": "51240"
  },
  {
    "name": "Saint-Jean-sur-Tourbe",
    "code": "51491",
    "epci_code": "200042620",
    "departement_code": "51",
    "region_code": "44",
    "postal_code": "51600"
  },
  {
    "name": "Saint-Just-Sauvage",
    "code": "51492",
    "epci_code": "200066835",
    "departement_code": "51",
    "region_code": "44",
    "postal_code": "51260"
  },
  {
    "name": "Saint-Léonard",
    "code": "51493",
    "epci_code": "200067213",
    "departement_code": "51",
    "region_code": "44",
    "postal_code": "51500"
  },
  {
    "name": "Saint-Loup",
    "code": "51495",
    "epci_code": "200066835",
    "departement_code": "51",
    "region_code": "44",
    "postal_code": "51120"
  },
  {
    "name": "Saint-Lumier-en-Champagne",
    "code": "51496",
    "epci_code": "200067379",
    "departement_code": "51",
    "region_code": "44",
    "postal_code": "51300"
  },
  {
    "name": "Saint-Lumier-la-Populeuse",
    "code": "51497",
    "epci_code": "200067379",
    "departement_code": "51",
    "region_code": "44",
    "postal_code": "51340"
  },
  {
    "name": "Saint-Mard-sur-Auve",
    "code": "51498",
    "epci_code": "200042703",
    "departement_code": "51",
    "region_code": "44",
    "postal_code": "51800"
  },
  {
    "name": "Saint-Mard-lès-Rouffy",
    "code": "51499",
    "epci_code": "200067684",
    "departement_code": "51",
    "region_code": "44",
    "postal_code": "51130"
  },
  {
    "name": "Saint-Mard-sur-le-Mont",
    "code": "51500",
    "epci_code": "200042703",
    "departement_code": "51",
    "region_code": "44",
    "postal_code": "51330"
  },
  {
    "name": "Sainte-Marie-à-Py",
    "code": "51501",
    "epci_code": "200042620",
    "departement_code": "51",
    "region_code": "44",
    "postal_code": "51600"
  },
  {
    "name": "Saint-Martin-aux-Champs",
    "code": "51502",
    "epci_code": "200043438",
    "departement_code": "51",
    "region_code": "44",
    "postal_code": "51240"
  },
  {
    "name": "Saint-Martin-l’Heureux",
    "code": "51503",
    "epci_code": "200067213",
    "departement_code": "51",
    "region_code": "44",
    "postal_code": "51490"
  },
  {
    "name": "Saint-Martin-sur-le-Pré",
    "code": "51504",
    "epci_code": "200066876",
    "departement_code": "51",
    "region_code": "44",
    "postal_code": "51520"
  },
  {
    "name": "Saint-Masmes",
    "code": "51505",
    "epci_code": "200067213",
    "departement_code": "51",
    "region_code": "44",
    "postal_code": "51490"
  },
  {
    "name": "Saint-Memmie",
    "code": "51506",
    "epci_code": "200066876",
    "departement_code": "51",
    "region_code": "44",
    "postal_code": "51470"
  },
  {
    "name": "Sainte-Menehould",
    "code": "51507",
    "epci_code": "200042703",
    "departement_code": "51",
    "region_code": "44",
    "postal_code": "51800"
  },
  {
    "name": "Saint-Ouen-Domprot",
    "code": "51508",
    "epci_code": "200034718",
    "departement_code": "51",
    "region_code": "44",
    "postal_code": "51320"
  },
  {
    "name": "Saint-Pierre",
    "code": "51509",
    "epci_code": "200066876",
    "departement_code": "51",
    "region_code": "44",
    "postal_code": "51510"
  },
  {
    "name": "Saint-Quentin-les-Marais",
    "code": "51510",
    "epci_code": "200067379",
    "departement_code": "51",
    "region_code": "44",
    "postal_code": "51300"
  },
  {
    "name": "Saint-Quentin-le-Verger",
    "code": "51511",
    "epci_code": "200066835",
    "departement_code": "51",
    "region_code": "44",
    "postal_code": "51120"
  },
  {
    "name": "Saint-Quentin-sur-Coole",
    "code": "51512",
    "epci_code": "200043438",
    "departement_code": "51",
    "region_code": "44",
    "postal_code": "51240"
  },
  {
    "name": "Saint-Remy-en-Bouzemont-Saint-Genest-et-Isson",
    "code": "51513",
    "epci_code": "200042992",
    "departement_code": "51",
    "region_code": "44",
    "postal_code": "51290"
  },
  {
    "name": "Saint-Remy-sous-Broyes",
    "code": "51514",
    "epci_code": "200066835",
    "departement_code": "51",
    "region_code": "44",
    "postal_code": "51120"
  },
  {
    "name": "Saint-Remy-sur-Bussy",
    "code": "51515",
    "epci_code": "200042620",
    "departement_code": "51",
    "region_code": "44",
    "postal_code": "51600"
  },
  {
    "name": "Saint-Saturnin",
    "code": "51516",
    "epci_code": "200066835",
    "departement_code": "51",
    "region_code": "44",
    "postal_code": "51260"
  },
  {
    "name": "Saint-Souplet-sur-Py",
    "code": "51517",
    "epci_code": "200067213",
    "departement_code": "51",
    "region_code": "44",
    "postal_code": "51600"
  },
  {
    "name": "Saint-Thierry",
    "code": "51518",
    "epci_code": "200067213",
    "departement_code": "51",
    "region_code": "44",
    "postal_code": "51220"
  },
  {
    "name": "Saint-Thomas-en-Argonne",
    "code": "51519",
    "epci_code": "200042703",
    "departement_code": "51",
    "region_code": "44",
    "postal_code": "51800"
  },
  {
    "name": "Saint-Utin",
    "code": "51520",
    "epci_code": "200034718",
    "departement_code": "51",
    "region_code": "44",
    "postal_code": "51290"
  },
  {
    "name": "Saint-Vrain",
    "code": "51521",
    "epci_code": "200068666",
    "departement_code": "51",
    "region_code": "44",
    "postal_code": "51340"
  },
  {
    "name": "Sapignicourt",
    "code": "51522",
    "epci_code": "200068666",
    "departement_code": "51",
    "region_code": "44",
    "postal_code": "52100"
  },
  {
    "name": "Sarcy",
    "code": "51523",
    "epci_code": "200067213",
    "departement_code": "51",
    "region_code": "44",
    "postal_code": "51170"
  },
  {
    "name": "Saron-sur-Aube",
    "code": "51524",
    "epci_code": "200066835",
    "departement_code": "51",
    "region_code": "44",
    "postal_code": "51260"
  },
  {
    "name": "Sarry",
    "code": "51525",
    "epci_code": "200066876",
    "departement_code": "51",
    "region_code": "44",
    "postal_code": "51520"
  },
  {
    "name": "Saudoy",
    "code": "51526",
    "epci_code": "200066835",
    "departement_code": "51",
    "region_code": "44",
    "postal_code": "51120"
  },
  {
    "name": "Savigny-sur-Ardres",
    "code": "51527",
    "epci_code": "200067213",
    "departement_code": "51",
    "region_code": "44",
    "postal_code": "51170"
  },
  {
    "name": "Scrupt",
    "code": "51528",
    "epci_code": "200042992",
    "departement_code": "51",
    "region_code": "44",
    "postal_code": "51340"
  },
  {
    "name": "Selles",
    "code": "51529",
    "epci_code": "200067213",
    "departement_code": "51",
    "region_code": "44",
    "postal_code": "51490"
  },
  {
    "name": "Sept-Saulx",
    "code": "51530",
    "epci_code": "200067213",
    "departement_code": "51",
    "region_code": "44",
    "postal_code": "51400"
  },
  {
    "name": "Sermaize-les-Bains",
    "code": "51531",
    "epci_code": "200067379",
    "departement_code": "51",
    "region_code": "44",
    "postal_code": "51250"
  },
  {
    "name": "Sermiers",
    "code": "51532",
    "epci_code": "200067213",
    "departement_code": "51",
    "region_code": "44",
    "postal_code": "51500"
  },
  {
    "name": "Servon-Melzicourt",
    "code": "51533",
    "epci_code": "200042703",
    "departement_code": "51",
    "region_code": "44",
    "postal_code": "51800"
  },
  {
    "name": "Serzy-et-Prin",
    "code": "51534",
    "epci_code": "200067213",
    "departement_code": "51",
    "region_code": "44",
    "postal_code": "51170"
  },
  {
    "name": "Sézanne",
    "code": "51535",
    "epci_code": "200066835",
    "departement_code": "51",
    "region_code": "44",
    "postal_code": "51120"
  },
  {
    "name": "Sillery",
    "code": "51536",
    "epci_code": "200067213",
    "departement_code": "51",
    "region_code": "44",
    "postal_code": "51500"
  },
  {
    "name": "Sivry-Ante",
    "code": "51537",
    "epci_code": "200042703",
    "departement_code": "51",
    "region_code": "44",
    "postal_code": "51800"
  },
  {
    "name": "Sogny-aux-Moulins",
    "code": "51538",
    "epci_code": "200043438",
    "departement_code": "51",
    "region_code": "44",
    "postal_code": "51520"
  },
  {
    "name": "Sogny-en-l’Angle",
    "code": "51539",
    "epci_code": "200067379",
    "departement_code": "51",
    "region_code": "44",
    "postal_code": "51340"
  },
  {
    "name": "Soizy-aux-Bois",
    "code": "51542",
    "epci_code": "245100888",
    "departement_code": "51",
    "region_code": "44",
    "postal_code": "51120"
  },
  {
    "name": "Somme-Bionne",
    "code": "51543",
    "epci_code": "200042703",
    "departement_code": "51",
    "region_code": "44",
    "postal_code": "51800"
  },
  {
    "name": "Sommepy-Tahure",
    "code": "51544",
    "epci_code": "200042620",
    "departement_code": "51",
    "region_code": "44",
    "postal_code": "51600"
  },
  {
    "name": "Sommesous",
    "code": "51545",
    "epci_code": "200066876",
    "departement_code": "51",
    "region_code": "44",
    "postal_code": "51320"
  },
  {
    "name": "Somme-Suippe",
    "code": "51546",
    "epci_code": "200042620",
    "departement_code": "51",
    "region_code": "44",
    "postal_code": "51600"
  },
  {
    "name": "Somme-Tourbe",
    "code": "51547",
    "epci_code": "200042620",
    "departement_code": "51",
    "region_code": "44",
    "postal_code": "51600"
  },
  {
    "name": "Somme-Vesle",
    "code": "51548",
    "epci_code": "200043438",
    "departement_code": "51",
    "region_code": "44",
    "postal_code": "51460"
  },
  {
    "name": "Somme-Yèvre",
    "code": "51549",
    "epci_code": "200042703",
    "departement_code": "51",
    "region_code": "44",
    "postal_code": "51330"
  },
  {
    "name": "Sompuis",
    "code": "51550",
    "epci_code": "200034718",
    "departement_code": "51",
    "region_code": "44",
    "postal_code": "51320"
  },
  {
    "name": "Somsois",
    "code": "51551",
    "epci_code": "200034718",
    "departement_code": "51",
    "region_code": "44",
    "postal_code": "51290"
  },
  {
    "name": "Songy",
    "code": "51552",
    "epci_code": "200034718",
    "departement_code": "51",
    "region_code": "44",
    "postal_code": "51240"
  },
  {
    "name": "Souain-Perthes-lès-Hurlus",
    "code": "51553",
    "epci_code": "200042620",
    "departement_code": "51",
    "region_code": "44",
    "postal_code": "51600"
  },
  {
    "name": "Soudé",
    "code": "51555",
    "epci_code": "200066876",
    "departement_code": "51",
    "region_code": "44",
    "postal_code": "51320"
  },
  {
    "name": "Soudron",
    "code": "51556",
    "epci_code": "200066876",
    "departement_code": "51",
    "region_code": "44",
    "postal_code": "51320"
  },
  {
    "name": "Soulanges",
    "code": "51557",
    "epci_code": "200034718",
    "departement_code": "51",
    "region_code": "44",
    "postal_code": "51300"
  },
  {
    "name": "Soulières",
    "code": "51558",
    "epci_code": "200067684",
    "departement_code": "51",
    "region_code": "44",
    "postal_code": "51130"
  },
  {
    "name": "Suippes",
    "code": "51559",
    "epci_code": "200042620",
    "departement_code": "51",
    "region_code": "44",
    "postal_code": "51600"
  },
  {
    "name": "Suizy-le-Franc",
    "code": "51560",
    "epci_code": "200066850",
    "departement_code": "51",
    "region_code": "44",
    "postal_code": "51270"
  },
  {
    "name": "Taissy",
    "code": "51562",
    "epci_code": "200067213",
    "departement_code": "51",
    "region_code": "44",
    "postal_code": "51500"
  },
  {
    "name": "Talus-Saint-Prix",
    "code": "51563",
    "epci_code": "200066850",
    "departement_code": "51",
    "region_code": "44",
    "postal_code": "51270"
  },
  {
    "name": "Val de Livre",
    "code": "51564",
    "epci_code": "245100615",
    "departement_code": "51",
    "region_code": "44",
    "postal_code": "51150"
  },
  {
    "name": "Thaas",
    "code": "51565",
    "epci_code": "245100979",
    "departement_code": "51",
    "region_code": "44",
    "postal_code": "51230"
  },
  {
    "name": "Thibie",
    "code": "51566",
    "epci_code": "200066876",
    "departement_code": "51",
    "region_code": "44",
    "postal_code": "51510"
  },
  {
    "name": "Thiéblemont-Farémont",
    "code": "51567",
    "epci_code": "200042992",
    "departement_code": "51",
    "region_code": "44",
    "postal_code": "51300"
  },
  {
    "name": "Thil",
    "code": "51568",
    "epci_code": "200067213",
    "departement_code": "51",
    "region_code": "44",
    "postal_code": "51220"
  },
  {
    "name": "Thillois",
    "code": "51569",
    "epci_code": "200067213",
    "departement_code": "51",
    "region_code": "44",
    "postal_code": "51370"
  },
  {
    "name": "Le Thoult-Trosnay",
    "code": "51570",
    "epci_code": "245100888",
    "departement_code": "51",
    "region_code": "44",
    "postal_code": "51210"
  },
  {
    "name": "Val-de-Vesle",
    "code": "51571",
    "epci_code": "200067213",
    "departement_code": "51",
    "region_code": "44",
    "postal_code": "51360"
  },
  {
    "name": "Tilloy-et-Bellay",
    "code": "51572",
    "epci_code": "200042620",
    "departement_code": "51",
    "region_code": "44",
    "postal_code": "51460"
  },
  {
    "name": "Tinqueux",
    "code": "51573",
    "epci_code": "200067213",
    "departement_code": "51",
    "region_code": "44",
    "postal_code": "51430"
  },
  {
    "name": "Togny-aux-Bœufs",
    "code": "51574",
    "epci_code": "200043438",
    "departement_code": "51",
    "region_code": "44",
    "postal_code": "51240"
  },
  {
    "name": "Tours-sur-Marne",
    "code": "51576",
    "epci_code": "245100615",
    "departement_code": "51",
    "region_code": "44",
    "postal_code": "51150"
  },
  {
    "name": "Tramery",
    "code": "51577",
    "epci_code": "200067213",
    "departement_code": "51",
    "region_code": "44",
    "postal_code": "51170"
  },
  {
    "name": "Trécon",
    "code": "51578",
    "epci_code": "200067684",
    "departement_code": "51",
    "region_code": "44",
    "postal_code": "51130"
  },
  {
    "name": "Tréfols",
    "code": "51579",
    "epci_code": "245100888",
    "departement_code": "51",
    "region_code": "44",
    "postal_code": "51210"
  },
  {
    "name": "Trépail",
    "code": "51580",
    "epci_code": "200067213",
    "departement_code": "51",
    "region_code": "44",
    "postal_code": "51380"
  },
  {
    "name": "Treslon",
    "code": "51581",
    "epci_code": "200067213",
    "departement_code": "51",
    "region_code": "44",
    "postal_code": "51140"
  },
  {
    "name": "Trigny",
    "code": "51582",
    "epci_code": "200067213",
    "departement_code": "51",
    "region_code": "44",
    "postal_code": "51140"
  },
  {
    "name": "Trois-Fontaines-l’Abbaye",
    "code": "51583",
    "epci_code": "200068666",
    "departement_code": "51",
    "region_code": "44",
    "postal_code": "51340"
  },
  {
    "name": "Trois-Puits",
    "code": "51584",
    "epci_code": "200067213",
    "departement_code": "51",
    "region_code": "44",
    "postal_code": "51500"
  },
  {
    "name": "Troissy",
    "code": "51585",
    "epci_code": "200066850",
    "departement_code": "51",
    "region_code": "44",
    "postal_code": "51700"
  },
  {
    "name": "Unchair",
    "code": "51586",
    "epci_code": "200067213",
    "departement_code": "51",
    "region_code": "44",
    "postal_code": "51170"
  },
  {
    "name": "Vadenay",
    "code": "51587",
    "epci_code": "200066876",
    "departement_code": "51",
    "region_code": "44",
    "postal_code": "51400"
  },
  {
    "name": "Valmy",
    "code": "51588",
    "epci_code": "200042703",
    "departement_code": "51",
    "region_code": "44",
    "postal_code": "51800"
  },
  {
    "name": "Vanault-le-Châtel",
    "code": "51589",
    "epci_code": "200067379",
    "departement_code": "51",
    "region_code": "44",
    "postal_code": "51330"
  },
  {
    "name": "Vanault-les-Dames",
    "code": "51590",
    "epci_code": "200067379",
    "departement_code": "51",
    "region_code": "44",
    "postal_code": "51340"
  },
  {
    "name": "Vandeuil",
    "code": "51591",
    "epci_code": "200067213",
    "departement_code": "51",
    "region_code": "44",
    "postal_code": "51140"
  },
  {
    "name": "Vandières",
    "code": "51592",
    "epci_code": "200066850",
    "departement_code": "51",
    "region_code": "44",
    "postal_code": "51700"
  },
  {
    "name": "Vassimont-et-Chapelaine",
    "code": "51594",
    "epci_code": "200066876",
    "departement_code": "51",
    "region_code": "44",
    "postal_code": "51320"
  },
  {
    "name": "Vatry",
    "code": "51595",
    "epci_code": "200066876",
    "departement_code": "51",
    "region_code": "44",
    "postal_code": "51320"
  },
  {
    "name": "Vauchamps",
    "code": "51596",
    "epci_code": "245100888",
    "departement_code": "51",
    "region_code": "44",
    "postal_code": "51210"
  },
  {
    "name": "Vauciennes",
    "code": "51597",
    "epci_code": "200066850",
    "departement_code": "51",
    "region_code": "44",
    "postal_code": "51480"
  },
  {
    "name": "Vauclerc",
    "code": "51598",
    "epci_code": "200067379",
    "departement_code": "51",
    "region_code": "44",
    "postal_code": "51300"
  },
  {
    "name": "Vaudemange",
    "code": "51599",
    "epci_code": "200067213",
    "departement_code": "51",
    "region_code": "44",
    "postal_code": "51380"
  },
  {
    "name": "Vaudesincourt",
    "code": "51600",
    "epci_code": "200067213",
    "departement_code": "51",
    "region_code": "44",
    "postal_code": "51600"
  },
  {
    "name": "Vavray-le-Grand",
    "code": "51601",
    "epci_code": "200067379",
    "departement_code": "51",
    "region_code": "44",
    "postal_code": "51300"
  },
  {
    "name": "Vavray-le-Petit",
    "code": "51602",
    "epci_code": "200067379",
    "departement_code": "51",
    "region_code": "44",
    "postal_code": "51300"
  },
  {
    "name": "Vélye",
    "code": "51603",
    "epci_code": "200067684",
    "departement_code": "51",
    "region_code": "44",
    "postal_code": "51130"
  },
  {
    "name": "Ventelay",
    "code": "51604",
    "epci_code": "200067213",
    "departement_code": "51",
    "region_code": "44",
    "postal_code": "51140"
  },
  {
    "name": "Venteuil",
    "code": "51605",
    "epci_code": "200066850",
    "departement_code": "51",
    "region_code": "44",
    "postal_code": "51480"
  },
  {
    "name": "Verdon",
    "code": "51607",
    "epci_code": "245100888",
    "departement_code": "51",
    "region_code": "44",
    "postal_code": "51210"
  },
  {
    "name": "Vernancourt",
    "code": "51608",
    "epci_code": "200067379",
    "departement_code": "51",
    "region_code": "44",
    "postal_code": "51330"
  },
  {
    "name": "Verneuil",
    "code": "51609",
    "epci_code": "200066850",
    "departement_code": "51",
    "region_code": "44",
    "postal_code": "51700"
  },
  {
    "name": "Verrières",
    "code": "51610",
    "epci_code": "200042703",
    "departement_code": "51",
    "region_code": "44",
    "postal_code": "51800"
  },
  {
    "name": "Vert-Toulon",
    "code": "51611",
    "epci_code": "200067684",
    "departement_code": "51",
    "region_code": "44",
    "postal_code": "51130"
  },
  {
    "name": "Blancs-Coteaux",
    "code": "51612",
    "epci_code": "200067684",
    "departement_code": "51",
    "region_code": "44",
    "postal_code": "51130"
  },
  {
    "name": "Blancs-Coteaux",
    "code": "51612",
    "epci_code": "200067684",
    "departement_code": "51",
    "region_code": "44",
    "postal_code": "51190"
  },
  {
    "name": "Verzenay",
    "code": "51613",
    "epci_code": "200067213",
    "departement_code": "51",
    "region_code": "44",
    "postal_code": "51360"
  },
  {
    "name": "Verzy",
    "code": "51614",
    "epci_code": "200067213",
    "departement_code": "51",
    "region_code": "44",
    "postal_code": "51380"
  },
  {
    "name": "Vésigneul-sur-Marne",
    "code": "51616",
    "epci_code": "200043438",
    "departement_code": "51",
    "region_code": "44",
    "postal_code": "51240"
  },
  {
    "name": "La Veuve",
    "code": "51617",
    "epci_code": "200066876",
    "departement_code": "51",
    "region_code": "44",
    "postal_code": "51520"
  },
  {
    "name": "Le Vézier",
    "code": "51618",
    "epci_code": "245100888",
    "departement_code": "51",
    "region_code": "44",
    "postal_code": "51210"
  },
  {
    "name": "Le Vieil-Dampierre",
    "code": "51619",
    "epci_code": "200042703",
    "departement_code": "51",
    "region_code": "44",
    "postal_code": "51330"
  },
  {
    "name": "Vienne-la-Ville",
    "code": "51620",
    "epci_code": "200042703",
    "departement_code": "51",
    "region_code": "44",
    "postal_code": "51800"
  },
  {
    "name": "Vienne-le-Château",
    "code": "51621",
    "epci_code": "200042703",
    "departement_code": "51",
    "region_code": "44",
    "postal_code": "51800"
  },
  {
    "name": "Ville-Dommange",
    "code": "51622",
    "epci_code": "200067213",
    "departement_code": "51",
    "region_code": "44",
    "postal_code": "51390"
  },
  {
    "name": "Ville-en-Selve",
    "code": "51623",
    "epci_code": "200067213",
    "departement_code": "51",
    "region_code": "44",
    "postal_code": "51500"
  },
  {
    "name": "Ville-en-Tardenois",
    "code": "51624",
    "epci_code": "200067213",
    "departement_code": "51",
    "region_code": "44",
    "postal_code": "51170"
  },
  {
    "name": "Villeneuve-la-Lionne",
    "code": "51625",
    "epci_code": "200066835",
    "departement_code": "51",
    "region_code": "44",
    "postal_code": "51310"
  },
  {
    "name": "La Villeneuve-lès-Charleville",
    "code": "51626",
    "epci_code": "245100888",
    "departement_code": "51",
    "region_code": "44",
    "postal_code": "51120"
  },
  {
    "name": "Villeneuve-Renneville-Chevigny",
    "code": "51627",
    "epci_code": "200067684",
    "departement_code": "51",
    "region_code": "44",
    "postal_code": "51130"
  },
  {
    "name": "Villeneuve-Saint-Vistre-et-Villevotte",
    "code": "51628",
    "epci_code": "200066835",
    "departement_code": "51",
    "region_code": "44",
    "postal_code": "51120"
  },
  {
    "name": "Villers-Allerand",
    "code": "51629",
    "epci_code": "200067213",
    "departement_code": "51",
    "region_code": "44",
    "postal_code": "51500"
  },
  {
    "name": "Villers-aux-Bois",
    "code": "51630",
    "epci_code": "200067684",
    "departement_code": "51",
    "region_code": "44",
    "postal_code": "51130"
  },
  {
    "name": "Villers-aux-Nœuds",
    "code": "51631",
    "epci_code": "200067213",
    "departement_code": "51",
    "region_code": "44",
    "postal_code": "51500"
  },
  {
    "name": "Villers-en-Argonne",
    "code": "51632",
    "epci_code": "200042703",
    "departement_code": "51",
    "region_code": "44",
    "postal_code": "51800"
  },
  {
    "name": "Villers-Franqueux",
    "code": "51633",
    "epci_code": "200067213",
    "departement_code": "51",
    "region_code": "44",
    "postal_code": "51220"
  },
  {
    "name": "Villers-le-Château",
    "code": "51634",
    "epci_code": "200066876",
    "departement_code": "51",
    "region_code": "44",
    "postal_code": "51510"
  },
  {
    "name": "Villers-le-Sec",
    "code": "51635",
    "epci_code": "200067379",
    "departement_code": "51",
    "region_code": "44",
    "postal_code": "51250"
  },
  {
    "name": "Villers-Marmery",
    "code": "51636",
    "epci_code": "200067213",
    "departement_code": "51",
    "region_code": "44",
    "postal_code": "51380"
  },
  {
    "name": "Villeseneux",
    "code": "51638",
    "epci_code": "200067684",
    "departement_code": "51",
    "region_code": "44",
    "postal_code": "51130"
  },
  {
    "name": "La Ville-sous-Orbais",
    "code": "51639",
    "epci_code": "200066850",
    "departement_code": "51",
    "region_code": "44",
    "postal_code": "51270"
  },
  {
    "name": "Ville-sur-Tourbe",
    "code": "51640",
    "epci_code": "200042703",
    "departement_code": "51",
    "region_code": "44",
    "postal_code": "51800"
  },
  {
    "name": "Villevenard",
    "code": "51641",
    "epci_code": "200066850",
    "departement_code": "51",
    "region_code": "44",
    "postal_code": "51270"
  },
  {
    "name": "Villiers-aux-Corneilles",
    "code": "51642",
    "epci_code": "200066835",
    "departement_code": "51",
    "region_code": "44",
    "postal_code": "51260"
  },
  {
    "name": "Vinay",
    "code": "51643",
    "epci_code": "200067684",
    "departement_code": "51",
    "region_code": "44",
    "postal_code": "51530"
  },
  {
    "name": "Vincelles",
    "code": "51644",
    "epci_code": "200066850",
    "departement_code": "51",
    "region_code": "44",
    "postal_code": "51700"
  },
  {
    "name": "Vindey",
    "code": "51645",
    "epci_code": "200066835",
    "departement_code": "51",
    "region_code": "44",
    "postal_code": "51120"
  },
  {
    "name": "Virginy",
    "code": "51646",
    "epci_code": "200042703",
    "departement_code": "51",
    "region_code": "44",
    "postal_code": "51800"
  },
  {
    "name": "Vitry-en-Perthois",
    "code": "51647",
    "epci_code": "200067379",
    "departement_code": "51",
    "region_code": "44",
    "postal_code": "51300"
  },
  {
    "name": "Vitry-la-Ville",
    "code": "51648",
    "epci_code": "200043438",
    "departement_code": "51",
    "region_code": "44",
    "postal_code": "51240"
  },
  {
    "name": "Vitry-le-François",
    "code": "51649",
    "epci_code": "200034718",
    "departement_code": "51",
    "region_code": "44",
    "postal_code": "51300"
  },
  {
    "name": "Voilemont",
    "code": "51650",
    "epci_code": "200042703",
    "departement_code": "51",
    "region_code": "44",
    "postal_code": "51800"
  },
  {
    "name": "Vouarces",
    "code": "51652",
    "epci_code": "200066835",
    "departement_code": "51",
    "region_code": "44",
    "postal_code": "51260"
  },
  {
    "name": "Vouillers",
    "code": "51654",
    "epci_code": "200068666",
    "departement_code": "51",
    "region_code": "44",
    "postal_code": "51340"
  },
  {
    "name": "Vouzy",
    "code": "51655",
    "epci_code": "200067684",
    "departement_code": "51",
    "region_code": "44",
    "postal_code": "51130"
  },
  {
    "name": "Vraux",
    "code": "51656",
    "epci_code": "200066876",
    "departement_code": "51",
    "region_code": "44",
    "postal_code": "51150"
  },
  {
    "name": "Vrigny",
    "code": "51657",
    "epci_code": "200067213",
    "departement_code": "51",
    "region_code": "44",
    "postal_code": "51390"
  },
  {
    "name": "Vroil",
    "code": "51658",
    "epci_code": "200067379",
    "departement_code": "51",
    "region_code": "44",
    "postal_code": "51330"
  },
  {
    "name": "Wargemoulin-Hurlus",
    "code": "51659",
    "epci_code": "200042703",
    "departement_code": "51",
    "region_code": "44",
    "postal_code": "51800"
  },
  {
    "name": "Warmeriville",
    "code": "51660",
    "epci_code": "200067213",
    "departement_code": "51",
    "region_code": "44",
    "postal_code": "51110"
  },
  {
    "name": "Witry-lès-Reims",
    "code": "51662",
    "epci_code": "200067213",
    "departement_code": "51",
    "region_code": "44",
    "postal_code": "51420"
  },
  {
    "name": "Magenta",
    "code": "51663",
    "epci_code": "200067684",
    "departement_code": "51",
    "region_code": "44",
    "postal_code": "51530"
  }
]