[
  {
    "name": "Aiglun",
    "code": "06001",
    "epci_code": "200039931",
    "departement_code": "06",
    "region_code": "93",
    "postal_code": "06910"
  },
  {
    "name": "Amirat",
    "code": "06002",
    "epci_code": "200039857",
    "departement_code": "06",
    "region_code": "93",
    "postal_code": "06910"
  },
  {
    "name": "Andon",
    "code": "06003",
    "epci_code": "200039857",
    "departement_code": "06",
    "region_code": "93",
    "postal_code": "06750"
  },
  {
    "name": "Antibes",
    "code": "06004",
    "epci_code": "240600585",
    "departement_code": "06",
    "region_code": "93",
    "postal_code": "06160"
  },
  {
    "name": "Antibes",
    "code": "06004",
    "epci_code": "240600585",
    "departement_code": "06",
    "region_code": "93",
    "postal_code": "06600"
  },
  {
    "name": "Ascros",
    "code": "06005",
    "epci_code": "200039931",
    "departement_code": "06",
    "region_code": "93",
    "postal_code": "06260"
  },
  {
    "name": "Aspremont",
    "code": "06006",
    "epci_code": "200030195",
    "departement_code": "06",
    "region_code": "93",
    "postal_code": "06790"
  },
  {
    "name": "Auribeau-sur-Siagne",
    "code": "06007",
    "epci_code": "200039857",
    "departement_code": "06",
    "region_code": "93",
    "postal_code": "06810"
  },
  {
    "name": "Auvare",
    "code": "06008",
    "epci_code": "200039931",
    "departement_code": "06",
    "region_code": "93",
    "postal_code": "06260"
  },
  {
    "name": "Bairols",
    "code": "06009",
    "epci_code": "200030195",
    "departement_code": "06",
    "region_code": "93",
    "postal_code": "06420"
  },
  {
    "name": "Le Bar-sur-Loup",
    "code": "06010",
    "epci_code": "240600585",
    "departement_code": "06",
    "region_code": "93",
    "postal_code": "06620"
  },
  {
    "name": "Beaulieu-sur-Mer",
    "code": "06011",
    "epci_code": "200030195",
    "departement_code": "06",
    "region_code": "93",
    "postal_code": "06310"
  },
  {
    "name": "Beausoleil",
    "code": "06012",
    "epci_code": "240600551",
    "departement_code": "06",
    "region_code": "93",
    "postal_code": "06240"
  },
  {
    "name": "Belvédère",
    "code": "06013",
    "epci_code": "200030195",
    "departement_code": "06",
    "region_code": "93",
    "postal_code": "06450"
  },
  {
    "name": "Bendejun",
    "code": "06014",
    "epci_code": "240600593",
    "departement_code": "06",
    "region_code": "93",
    "postal_code": "06390"
  },
  {
    "name": "Berre-les-Alpes",
    "code": "06015",
    "epci_code": "240600593",
    "departement_code": "06",
    "region_code": "93",
    "postal_code": "06390"
  },
  {
    "name": "Beuil",
    "code": "06016",
    "epci_code": "200039931",
    "departement_code": "06",
    "region_code": "93",
    "postal_code": "06470"
  },
  {
    "name": "Bézaudun-les-Alpes",
    "code": "06017",
    "epci_code": "240600585",
    "departement_code": "06",
    "region_code": "93",
    "postal_code": "06510"
  },
  {
    "name": "Biot",
    "code": "06018",
    "epci_code": "240600585",
    "departement_code": "06",
    "region_code": "93",
    "postal_code": "06410"
  },
  {
    "name": "Blausasc",
    "code": "06019",
    "epci_code": "240600593",
    "departement_code": "06",
    "region_code": "93",
    "postal_code": "06440"
  },
  {
    "name": "La Bollène-Vésubie",
    "code": "06020",
    "epci_code": "200030195",
    "departement_code": "06",
    "region_code": "93",
    "postal_code": "06450"
  },
  {
    "name": "Bonson",
    "code": "06021",
    "epci_code": "200030195",
    "departement_code": "06",
    "region_code": "93",
    "postal_code": "06830"
  },
  {
    "name": "Bouyon",
    "code": "06022",
    "epci_code": "240600585",
    "departement_code": "06",
    "region_code": "93",
    "postal_code": "06510"
  },
  {
    "name": "Breil-sur-Roya",
    "code": "06023",
    "epci_code": "240600551",
    "departement_code": "06",
    "region_code": "93",
    "postal_code": "06540"
  },
  {
    "name": "Briançonnet",
    "code": "06024",
    "epci_code": "200039857",
    "departement_code": "06",
    "region_code": "93",
    "postal_code": "06850"
  },
  {
    "name": "Le Broc",
    "code": "06025",
    "epci_code": "200030195",
    "departement_code": "06",
    "region_code": "93",
    "postal_code": "06510"
  },
  {
    "name": "Cabris",
    "code": "06026",
    "epci_code": "200039857",
    "departement_code": "06",
    "region_code": "93",
    "postal_code": "06530"
  },
  {
    "name": "Cagnes-sur-Mer",
    "code": "06027",
    "epci_code": "200030195",
    "departement_code": "06",
    "region_code": "93",
    "postal_code": "06800"
  },
  {
    "name": "Caille",
    "code": "06028",
    "epci_code": "200039857",
    "departement_code": "06",
    "region_code": "93",
    "postal_code": "06750"
  },
  {
    "name": "Cannes",
    "code": "06029",
    "epci_code": "200039915",
    "departement_code": "06",
    "region_code": "93",
    "postal_code": "06150"
  },
  {
    "name": "Cannes",
    "code": "06029",
    "epci_code": "200039915",
    "departement_code": "06",
    "region_code": "93",
    "postal_code": "06400"
  },
  {
    "name": "Le Cannet",
    "code": "06030",
    "epci_code": "200039915",
    "departement_code": "06",
    "region_code": "93",
    "postal_code": "06110"
  },
  {
    "name": "Cantaron",
    "code": "06031",
    "epci_code": "240600593",
    "departement_code": "06",
    "region_code": "93",
    "postal_code": "06340"
  },
  {
    "name": "Cap-d’Ail",
    "code": "06032",
    "epci_code": "200030195",
    "departement_code": "06",
    "region_code": "93",
    "postal_code": "06320"
  },
  {
    "name": "Carros",
    "code": "06033",
    "epci_code": "200030195",
    "departement_code": "06",
    "region_code": "93",
    "postal_code": "06510"
  },
  {
    "name": "Castagniers",
    "code": "06034",
    "epci_code": "200030195",
    "departement_code": "06",
    "region_code": "93",
    "postal_code": "06670"
  },
  {
    "name": "Castellar",
    "code": "06035",
    "epci_code": "240600551",
    "departement_code": "06",
    "region_code": "93",
    "postal_code": "06500"
  },
  {
    "name": "Castillon",
    "code": "06036",
    "epci_code": "240600551",
    "departement_code": "06",
    "region_code": "93",
    "postal_code": "06500"
  },
  {
    "name": "Caussols",
    "code": "06037",
    "epci_code": "240600585",
    "departement_code": "06",
    "region_code": "93",
    "postal_code": "06460"
  },
  {
    "name": "Châteauneuf-Grasse",
    "code": "06038",
    "epci_code": "240600585",
    "departement_code": "06",
    "region_code": "93",
    "postal_code": "06740"
  },
  {
    "name": "Châteauneuf-Villevieille",
    "code": "06039",
    "epci_code": "200030195",
    "departement_code": "06",
    "region_code": "93",
    "postal_code": "06390"
  },
  {
    "name": "Châteauneuf-d’Entraunes",
    "code": "06040",
    "epci_code": "200039931",
    "departement_code": "06",
    "region_code": "93",
    "postal_code": "06470"
  },
  {
    "name": "Cipières",
    "code": "06041",
    "epci_code": "240600585",
    "departement_code": "06",
    "region_code": "93",
    "postal_code": "06620"
  },
  {
    "name": "Clans",
    "code": "06042",
    "epci_code": "200030195",
    "departement_code": "06",
    "region_code": "93",
    "postal_code": "06420"
  },
  {
    "name": "Coaraze",
    "code": "06043",
    "epci_code": "240600593",
    "departement_code": "06",
    "region_code": "93",
    "postal_code": "06390"
  },
  {
    "name": "La Colle-sur-Loup",
    "code": "06044",
    "epci_code": "240600585",
    "departement_code": "06",
    "region_code": "93",
    "postal_code": "06480"
  },
  {
    "name": "Collongues",
    "code": "06045",
    "epci_code": "200039857",
    "departement_code": "06",
    "region_code": "93",
    "postal_code": "06910"
  },
  {
    "name": "Colomars",
    "code": "06046",
    "epci_code": "200030195",
    "departement_code": "06",
    "region_code": "93",
    "postal_code": "06670"
  },
  {
    "name": "Conségudes",
    "code": "06047",
    "epci_code": "240600585",
    "departement_code": "06",
    "region_code": "93",
    "postal_code": "06510"
  },
  {
    "name": "Contes",
    "code": "06048",
    "epci_code": "240600593",
    "departement_code": "06",
    "region_code": "93",
    "postal_code": "06390"
  },
  {
    "name": "Courmes",
    "code": "06049",
    "epci_code": "240600585",
    "departement_code": "06",
    "region_code": "93",
    "postal_code": "06620"
  },
  {
    "name": "Coursegoules",
    "code": "06050",
    "epci_code": "240600585",
    "departement_code": "06",
    "region_code": "93",
    "postal_code": "06140"
  },
  {
    "name": "La Croix-sur-Roudoule",
    "code": "06051",
    "epci_code": "200039931",
    "departement_code": "06",
    "region_code": "93",
    "postal_code": "06260"
  },
  {
    "name": "Cuébris",
    "code": "06052",
    "epci_code": "200039931",
    "departement_code": "06",
    "region_code": "93",
    "postal_code": "06910"
  },
  {
    "name": "Daluis",
    "code": "06053",
    "epci_code": "200039931",
    "departement_code": "06",
    "region_code": "93",
    "postal_code": "06470"
  },
  {
    "name": "Drap",
    "code": "06054",
    "epci_code": "200030195",
    "departement_code": "06",
    "region_code": "93",
    "postal_code": "06340"
  },
  {
    "name": "Duranus",
    "code": "06055",
    "epci_code": "200030195",
    "departement_code": "06",
    "region_code": "93",
    "postal_code": "06670"
  },
  {
    "name": "Entraunes",
    "code": "06056",
    "epci_code": "200039931",
    "departement_code": "06",
    "region_code": "93",
    "postal_code": "06470"
  },
  {
    "name": "L’Escarène",
    "code": "06057",
    "epci_code": "240600593",
    "departement_code": "06",
    "region_code": "93",
    "postal_code": "06440"
  },
  {
    "name": "Escragnolles",
    "code": "06058",
    "epci_code": "200039857",
    "departement_code": "06",
    "region_code": "93",
    "postal_code": "06460"
  },
  {
    "name": "Èze",
    "code": "06059",
    "epci_code": "200030195",
    "departement_code": "06",
    "region_code": "93",
    "postal_code": "06360"
  },
  {
    "name": "Falicon",
    "code": "06060",
    "epci_code": "200030195",
    "departement_code": "06",
    "region_code": "93",
    "postal_code": "06950"
  },
  {
    "name": "Les Ferres",
    "code": "06061",
    "epci_code": "240600585",
    "departement_code": "06",
    "region_code": "93",
    "postal_code": "06510"
  },
  {
    "name": "Fontan",
    "code": "06062",
    "epci_code": "240600551",
    "departement_code": "06",
    "region_code": "93",
    "postal_code": "06540"
  },
  {
    "name": "Gars",
    "code": "06063",
    "epci_code": "200039857",
    "departement_code": "06",
    "region_code": "93",
    "postal_code": "06850"
  },
  {
    "name": "Gattières",
    "code": "06064",
    "epci_code": "200030195",
    "departement_code": "06",
    "region_code": "93",
    "postal_code": "06510"
  },
  {
    "name": "La Gaude",
    "code": "06065",
    "epci_code": "200030195",
    "departement_code": "06",
    "region_code": "93",
    "postal_code": "06610"
  },
  {
    "name": "Gilette",
    "code": "06066",
    "epci_code": "200030195",
    "departement_code": "06",
    "region_code": "93",
    "postal_code": "06830"
  },
  {
    "name": "Gorbio",
    "code": "06067",
    "epci_code": "240600551",
    "departement_code": "06",
    "region_code": "93",
    "postal_code": "06500"
  },
  {
    "name": "Gourdon",
    "code": "06068",
    "epci_code": "240600585",
    "departement_code": "06",
    "region_code": "93",
    "postal_code": "06620"
  },
  {
    "name": "Grasse",
    "code": "06069",
    "epci_code": "200039857",
    "departement_code": "06",
    "region_code": "93",
    "postal_code": "06130"
  },
  {
    "name": "Grasse",
    "code": "06069",
    "epci_code": "200039857",
    "departement_code": "06",
    "region_code": "93",
    "postal_code": "06520"
  },
  {
    "name": "Gréolières",
    "code": "06070",
    "epci_code": "240600585",
    "departement_code": "06",
    "region_code": "93",
    "postal_code": "06620"
  },
  {
    "name": "Guillaumes",
    "code": "06071",
    "epci_code": "200039931",
    "departement_code": "06",
    "region_code": "93",
    "postal_code": "06470"
  },
  {
    "name": "Ilonse",
    "code": "06072",
    "epci_code": "200030195",
    "departement_code": "06",
    "region_code": "93",
    "postal_code": "06420"
  },
  {
    "name": "Isola",
    "code": "06073",
    "epci_code": "200030195",
    "departement_code": "06",
    "region_code": "93",
    "postal_code": "06420"
  },
  {
    "name": "Lantosque",
    "code": "06074",
    "epci_code": "200030195",
    "departement_code": "06",
    "region_code": "93",
    "postal_code": "06450"
  },
  {
    "name": "Levens",
    "code": "06075",
    "epci_code": "200030195",
    "departement_code": "06",
    "region_code": "93",
    "postal_code": "06670"
  },
  {
    "name": "Lieuche",
    "code": "06076",
    "epci_code": "200039931",
    "departement_code": "06",
    "region_code": "93",
    "postal_code": "06260"
  },
  {
    "name": "Lucéram",
    "code": "06077",
    "epci_code": "240600593",
    "departement_code": "06",
    "region_code": "93",
    "postal_code": "06440"
  },
  {
    "name": "Malaussène",
    "code": "06078",
    "epci_code": "200039931",
    "departement_code": "06",
    "region_code": "93",
    "postal_code": "06710"
  },
  {
    "name": "Mandelieu-la-Napoule",
    "code": "06079",
    "epci_code": "200039915",
    "departement_code": "06",
    "region_code": "93",
    "postal_code": "06210"
  },
  {
    "name": "Marie",
    "code": "06080",
    "epci_code": "200030195",
    "departement_code": "06",
    "region_code": "93",
    "postal_code": "06420"
  },
  {
    "name": "Le Mas",
    "code": "06081",
    "epci_code": "200039857",
    "departement_code": "06",
    "region_code": "93",
    "postal_code": "06910"
  },
  {
    "name": "Massoins",
    "code": "06082",
    "epci_code": "200039931",
    "departement_code": "06",
    "region_code": "93",
    "postal_code": "06710"
  },
  {
    "name": "Menton",
    "code": "06083",
    "epci_code": "240600551",
    "departement_code": "06",
    "region_code": "93",
    "postal_code": "06500"
  },
  {
    "name": "Mouans-Sartoux",
    "code": "06084",
    "epci_code": "200039857",
    "departement_code": "06",
    "region_code": "93",
    "postal_code": "06370"
  },
  {
    "name": "Mougins",
    "code": "06085",
    "epci_code": "200039915",
    "departement_code": "06",
    "region_code": "93",
    "postal_code": "06250"
  },
  {
    "name": "Moulinet",
    "code": "06086",
    "epci_code": "240600551",
    "departement_code": "06",
    "region_code": "93",
    "postal_code": "06380"
  },
  {
    "name": "Les Mujouls",
    "code": "06087",
    "epci_code": "200039857",
    "departement_code": "06",
    "region_code": "93",
    "postal_code": "06910"
  },
  {
    "name": "Nice",
    "code": "06088",
    "epci_code": "200030195",
    "departement_code": "06",
    "region_code": "93",
    "postal_code": "06000"
  },
  {
    "name": "Nice",
    "code": "06088",
    "epci_code": "200030195",
    "departement_code": "06",
    "region_code": "93",
    "postal_code": "06100"
  },
  {
    "name": "Nice",
    "code": "06088",
    "epci_code": "200030195",
    "departement_code": "06",
    "region_code": "93",
    "postal_code": "06200"
  },
  {
    "name": "Nice",
    "code": "06088",
    "epci_code": "200030195",
    "departement_code": "06",
    "region_code": "93",
    "postal_code": "06300"
  },
  {
    "name": "Opio",
    "code": "06089",
    "epci_code": "240600585",
    "departement_code": "06",
    "region_code": "93",
    "postal_code": "06650"
  },
  {
    "name": "Pégomas",
    "code": "06090",
    "epci_code": "200039857",
    "departement_code": "06",
    "region_code": "93",
    "postal_code": "06580"
  },
  {
    "name": "Peille",
    "code": "06091",
    "epci_code": "240600593",
    "departement_code": "06",
    "region_code": "93",
    "postal_code": "06440"
  },
  {
    "name": "Peillon",
    "code": "06092",
    "epci_code": "240600593",
    "departement_code": "06",
    "region_code": "93",
    "postal_code": "06440"
  },
  {
    "name": "La Penne",
    "code": "06093",
    "epci_code": "200039931",
    "departement_code": "06",
    "region_code": "93",
    "postal_code": "06260"
  },
  {
    "name": "Péone",
    "code": "06094",
    "epci_code": "200039931",
    "departement_code": "06",
    "region_code": "93",
    "postal_code": "06470"
  },
  {
    "name": "Peymeinade",
    "code": "06095",
    "epci_code": "200039857",
    "departement_code": "06",
    "region_code": "93",
    "postal_code": "06530"
  },
  {
    "name": "Pierlas",
    "code": "06096",
    "epci_code": "200039931",
    "departement_code": "06",
    "region_code": "93",
    "postal_code": "06260"
  },
  {
    "name": "Pierrefeu",
    "code": "06097",
    "epci_code": "200039931",
    "departement_code": "06",
    "region_code": "93",
    "postal_code": "06910"
  },
  {
    "name": "Puget-Rostang",
    "code": "06098",
    "epci_code": "200039931",
    "departement_code": "06",
    "region_code": "93",
    "postal_code": "06260"
  },
  {
    "name": "Puget-Théniers",
    "code": "06099",
    "epci_code": "200039931",
    "departement_code": "06",
    "region_code": "93",
    "postal_code": "06260"
  },
  {
    "name": "Revest-les-Roches",
    "code": "06100",
    "epci_code": "200039931",
    "departement_code": "06",
    "region_code": "93",
    "postal_code": "06830"
  },
  {
    "name": "Rigaud",
    "code": "06101",
    "epci_code": "200039931",
    "departement_code": "06",
    "region_code": "93",
    "postal_code": "06260"
  },
  {
    "name": "Rimplas",
    "code": "06102",
    "epci_code": "200030195",
    "departement_code": "06",
    "region_code": "93",
    "postal_code": "06420"
  },
  {
    "name": "Roquebillière",
    "code": "06103",
    "epci_code": "200030195",
    "departement_code": "06",
    "region_code": "93",
    "postal_code": "06450"
  },
  {
    "name": "Roquebrune-Cap-Martin",
    "code": "06104",
    "epci_code": "240600551",
    "departement_code": "06",
    "region_code": "93",
    "postal_code": "06190"
  },
  {
    "name": "Roquefort-les-Pins",
    "code": "06105",
    "epci_code": "240600585",
    "departement_code": "06",
    "region_code": "93",
    "postal_code": "06330"
  },
  {
    "name": "Roquestéron",
    "code": "06106",
    "epci_code": "200039931",
    "departement_code": "06",
    "region_code": "93",
    "postal_code": "06910"
  },
  {
    "name": "La Roque-en-Provence",
    "code": "06107",
    "epci_code": "240600585",
    "departement_code": "06",
    "region_code": "93",
    "postal_code": "06910"
  },
  {
    "name": "La Roquette-sur-Siagne",
    "code": "06108",
    "epci_code": "200039857",
    "departement_code": "06",
    "region_code": "93",
    "postal_code": "06550"
  },
  {
    "name": "La Roquette-sur-Var",
    "code": "06109",
    "epci_code": "200030195",
    "departement_code": "06",
    "region_code": "93",
    "postal_code": "06670"
  },
  {
    "name": "Roubion",
    "code": "06110",
    "epci_code": "200030195",
    "departement_code": "06",
    "region_code": "93",
    "postal_code": "06420"
  },
  {
    "name": "Roure",
    "code": "06111",
    "epci_code": "200030195",
    "departement_code": "06",
    "region_code": "93",
    "postal_code": "06420"
  },
  {
    "name": "Le Rouret",
    "code": "06112",
    "epci_code": "240600585",
    "departement_code": "06",
    "region_code": "93",
    "postal_code": "06650"
  },
  {
    "name": "Sainte-Agnès",
    "code": "06113",
    "epci_code": "240600551",
    "departement_code": "06",
    "region_code": "93",
    "postal_code": "06500"
  },
  {
    "name": "Saint-André-de-la-Roche",
    "code": "06114",
    "epci_code": "200030195",
    "departement_code": "06",
    "region_code": "93",
    "postal_code": "06730"
  },
  {
    "name": "Saint-Antonin",
    "code": "06115",
    "epci_code": "200039931",
    "departement_code": "06",
    "region_code": "93",
    "postal_code": "06260"
  },
  {
    "name": "Saint-Auban",
    "code": "06116",
    "epci_code": "200039857",
    "departement_code": "06",
    "region_code": "93",
    "postal_code": "06850"
  },
  {
    "name": "Saint-Blaise",
    "code": "06117",
    "epci_code": "200030195",
    "departement_code": "06",
    "region_code": "93",
    "postal_code": "06670"
  },
  {
    "name": "Saint-Cézaire-sur-Siagne",
    "code": "06118",
    "epci_code": "200039857",
    "departement_code": "06",
    "region_code": "93",
    "postal_code": "06530"
  },
  {
    "name": "Saint-Dalmas-le-Selvage",
    "code": "06119",
    "epci_code": "200030195",
    "departement_code": "06",
    "region_code": "93",
    "postal_code": "06660"
  },
  {
    "name": "Saint-Étienne-de-Tinée",
    "code": "06120",
    "epci_code": "200030195",
    "departement_code": "06",
    "region_code": "93",
    "postal_code": "06660"
  },
  {
    "name": "Saint-Jean-Cap-Ferrat",
    "code": "06121",
    "epci_code": "200030195",
    "departement_code": "06",
    "region_code": "93",
    "postal_code": "06230"
  },
  {
    "name": "Saint-Jeannet",
    "code": "06122",
    "epci_code": "200030195",
    "departement_code": "06",
    "region_code": "93",
    "postal_code": "06640"
  },
  {
    "name": "Saint-Laurent-du-Var",
    "code": "06123",
    "epci_code": "200030195",
    "departement_code": "06",
    "region_code": "93",
    "postal_code": "06700"
  },
  {
    "name": "Saint-Léger",
    "code": "06124",
    "epci_code": "200039931",
    "departement_code": "06",
    "region_code": "93",
    "postal_code": "06260"
  },
  {
    "name": "Saint-Martin-d’Entraunes",
    "code": "06125",
    "epci_code": "200039931",
    "departement_code": "06",
    "region_code": "93",
    "postal_code": "06470"
  },
  {
    "name": "Saint-Martin-du-Var",
    "code": "06126",
    "epci_code": "200030195",
    "departement_code": "06",
    "region_code": "93",
    "postal_code": "06670"
  },
  {
    "name": "Saint-Martin-Vésubie",
    "code": "06127",
    "epci_code": "200030195",
    "departement_code": "06",
    "region_code": "93",
    "postal_code": "06450"
  },
  {
    "name": "Saint-Paul-de-Vence",
    "code": "06128",
    "epci_code": "240600585",
    "departement_code": "06",
    "region_code": "93",
    "postal_code": "06570"
  },
  {
    "name": "Saint-Sauveur-sur-Tinée",
    "code": "06129",
    "epci_code": "200030195",
    "departement_code": "06",
    "region_code": "93",
    "postal_code": "06420"
  },
  {
    "name": "Saint-Vallier-de-Thiey",
    "code": "06130",
    "epci_code": "200039857",
    "departement_code": "06",
    "region_code": "93",
    "postal_code": "06460"
  },
  {
    "name": "Sallagriffon",
    "code": "06131",
    "epci_code": "200039931",
    "departement_code": "06",
    "region_code": "93",
    "postal_code": "06910"
  },
  {
    "name": "Saorge",
    "code": "06132",
    "epci_code": "240600551",
    "departement_code": "06",
    "region_code": "93",
    "postal_code": "06540"
  },
  {
    "name": "Sauze",
    "code": "06133",
    "epci_code": "200039931",
    "departement_code": "06",
    "region_code": "93",
    "postal_code": "06470"
  },
  {
    "name": "Séranon",
    "code": "06134",
    "epci_code": "200039857",
    "departement_code": "06",
    "region_code": "93",
    "postal_code": "06750"
  },
  {
    "name": "Sigale",
    "code": "06135",
    "epci_code": "200039931",
    "departement_code": "06",
    "region_code": "93",
    "postal_code": "06910"
  },
  {
    "name": "Sospel",
    "code": "06136",
    "epci_code": "240600551",
    "departement_code": "06",
    "region_code": "93",
    "postal_code": "06380"
  },
  {
    "name": "Spéracèdes",
    "code": "06137",
    "epci_code": "200039857",
    "departement_code": "06",
    "region_code": "93",
    "postal_code": "06530"
  },
  {
    "name": "Théoule-sur-Mer",
    "code": "06138",
    "epci_code": "200039915",
    "departement_code": "06",
    "region_code": "93",
    "postal_code": "06590"
  },
  {
    "name": "Thiéry",
    "code": "06139",
    "epci_code": "200039931",
    "departement_code": "06",
    "region_code": "93",
    "postal_code": "06710"
  },
  {
    "name": "Le Tignet",
    "code": "06140",
    "epci_code": "200039857",
    "departement_code": "06",
    "region_code": "93",
    "postal_code": "06530"
  },
  {
    "name": "Toudon",
    "code": "06141",
    "epci_code": "200039931",
    "departement_code": "06",
    "region_code": "93",
    "postal_code": "06830"
  },
  {
    "name": "Touët-de-l’Escarène",
    "code": "06142",
    "epci_code": "240600593",
    "departement_code": "06",
    "region_code": "93",
    "postal_code": "06440"
  },
  {
    "name": "Touët-sur-Var",
    "code": "06143",
    "epci_code": "200039931",
    "departement_code": "06",
    "region_code": "93",
    "postal_code": "06710"
  },
  {
    "name": "La Tour",
    "code": "06144",
    "epci_code": "200030195",
    "departement_code": "06",
    "region_code": "93",
    "postal_code": "06420"
  },
  {
    "name": "Tourette-du-Château",
    "code": "06145",
    "epci_code": "200039931",
    "departement_code": "06",
    "region_code": "93",
    "postal_code": "06830"
  },
  {
    "name": "Tournefort",
    "code": "06146",
    "epci_code": "200030195",
    "departement_code": "06",
    "region_code": "93",
    "postal_code": "06420"
  },
  {
    "name": "Tourrette-Levens",
    "code": "06147",
    "epci_code": "200030195",
    "departement_code": "06",
    "region_code": "93",
    "postal_code": "06690"
  },
  {
    "name": "Tourrettes-sur-Loup",
    "code": "06148",
    "epci_code": "240600585",
    "departement_code": "06",
    "region_code": "93",
    "postal_code": "06140"
  },
  {
    "name": "La Trinité",
    "code": "06149",
    "epci_code": "200030195",
    "departement_code": "06",
    "region_code": "93",
    "postal_code": "06340"
  },
  {
    "name": "La Turbie",
    "code": "06150",
    "epci_code": "240600551",
    "departement_code": "06",
    "region_code": "93",
    "postal_code": "06320"
  },
  {
    "name": "Utelle",
    "code": "06151",
    "epci_code": "200030195",
    "departement_code": "06",
    "region_code": "93",
    "postal_code": "06450"
  },
  {
    "name": "Valbonne",
    "code": "06152",
    "epci_code": "240600585",
    "departement_code": "06",
    "region_code": "93",
    "postal_code": "06560"
  },
  {
    "name": "Valdeblore",
    "code": "06153",
    "epci_code": "200030195",
    "departement_code": "06",
    "region_code": "93",
    "postal_code": "06420"
  },
  {
    "name": "Valderoure",
    "code": "06154",
    "epci_code": "200039857",
    "departement_code": "06",
    "region_code": "93",
    "postal_code": "06750"
  },
  {
    "name": "Vallauris",
    "code": "06155",
    "epci_code": "240600585",
    "departement_code": "06",
    "region_code": "93",
    "postal_code": "06220"
  },
  {
    "name": "Venanson",
    "code": "06156",
    "epci_code": "200030195",
    "departement_code": "06",
    "region_code": "93",
    "postal_code": "06450"
  },
  {
    "name": "Vence",
    "code": "06157",
    "epci_code": "200030195",
    "departement_code": "06",
    "region_code": "93",
    "postal_code": "06140"
  },
  {
    "name": "Villars-sur-Var",
    "code": "06158",
    "epci_code": "200039931",
    "departement_code": "06",
    "region_code": "93",
    "postal_code": "06710"
  },
  {
    "name": "Villefranche-sur-Mer",
    "code": "06159",
    "epci_code": "200030195",
    "departement_code": "06",
    "region_code": "93",
    "postal_code": "06230"
  },
  {
    "name": "Villeneuve-d’Entraunes",
    "code": "06160",
    "epci_code": "200039931",
    "departement_code": "06",
    "region_code": "93",
    "postal_code": "06470"
  },
  {
    "name": "Villeneuve-Loubet",
    "code": "06161",
    "epci_code": "240600585",
    "departement_code": "06",
    "region_code": "93",
    "postal_code": "06270"
  },
  {
    "name": "La Brigue",
    "code": "06162",
    "epci_code": "240600551",
    "departement_code": "06",
    "region_code": "93",
    "postal_code": "06430"
  },
  {
    "name": "Tende",
    "code": "06163",
    "epci_code": "240600551",
    "departement_code": "06",
    "region_code": "93",
    "postal_code": "06430"
  }
]