[
  {
    "name": "Achun",
    "code": "58001",
    "epci_code": "200067882",
    "departement_code": "58",
    "region_code": "27",
    "postal_code": "58110"
  },
  {
    "name": "Alligny-Cosne",
    "code": "58002",
    "epci_code": "200067916",
    "departement_code": "58",
    "region_code": "27",
    "postal_code": "58200"
  },
  {
    "name": "Alligny-en-Morvan",
    "code": "58003",
    "epci_code": "200067890",
    "departement_code": "58",
    "region_code": "27",
    "postal_code": "58230"
  },
  {
    "name": "Alluy",
    "code": "58004",
    "epci_code": "200067882",
    "departement_code": "58",
    "region_code": "27",
    "postal_code": "58110"
  },
  {
    "name": "Amazy",
    "code": "58005",
    "epci_code": "200067692",
    "departement_code": "58",
    "region_code": "27",
    "postal_code": "58190"
  },
  {
    "name": "Anlezy",
    "code": "58006",
    "epci_code": "200067908",
    "departement_code": "58",
    "region_code": "27",
    "postal_code": "58270"
  },
  {
    "name": "Annay",
    "code": "58007",
    "epci_code": "200067916",
    "departement_code": "58",
    "region_code": "27",
    "postal_code": "58450"
  },
  {
    "name": "Anthien",
    "code": "58008",
    "epci_code": "200067692",
    "departement_code": "58",
    "region_code": "27",
    "postal_code": "58800"
  },
  {
    "name": "Arbourse",
    "code": "58009",
    "epci_code": "200068088",
    "departement_code": "58",
    "region_code": "27",
    "postal_code": "58350"
  },
  {
    "name": "Arleuf",
    "code": "58010",
    "epci_code": "200067890",
    "departement_code": "58",
    "region_code": "27",
    "postal_code": "58430"
  },
  {
    "name": "Armes",
    "code": "58011",
    "epci_code": "200067429",
    "departement_code": "58",
    "region_code": "27",
    "postal_code": "58500"
  },
  {
    "name": "Arquian",
    "code": "58012",
    "epci_code": "200067130",
    "departement_code": "58",
    "region_code": "27",
    "postal_code": "58310"
  },
  {
    "name": "Arthel",
    "code": "58013",
    "epci_code": "200068088",
    "departement_code": "58",
    "region_code": "27",
    "postal_code": "58700"
  },
  {
    "name": "Arzembouy",
    "code": "58014",
    "epci_code": "200068088",
    "departement_code": "58",
    "region_code": "27",
    "postal_code": "58700"
  },
  {
    "name": "Asnan",
    "code": "58015",
    "epci_code": "200067692",
    "departement_code": "58",
    "region_code": "27",
    "postal_code": "58420"
  },
  {
    "name": "Asnois",
    "code": "58016",
    "epci_code": "200067692",
    "departement_code": "58",
    "region_code": "27",
    "postal_code": "58190"
  },
  {
    "name": "Aunay-en-Bazois",
    "code": "58017",
    "epci_code": "200067882",
    "departement_code": "58",
    "region_code": "27",
    "postal_code": "58110"
  },
  {
    "name": "Authiou",
    "code": "58018",
    "epci_code": "200067692",
    "departement_code": "58",
    "region_code": "27",
    "postal_code": "58700"
  },
  {
    "name": "Avrée",
    "code": "58019",
    "epci_code": "200067882",
    "departement_code": "58",
    "region_code": "27",
    "postal_code": "58170"
  },
  {
    "name": "Avril-sur-Loire",
    "code": "58020",
    "epci_code": "200067700",
    "departement_code": "58",
    "region_code": "27",
    "postal_code": "58300"
  },
  {
    "name": "Azy-le-Vif",
    "code": "58021",
    "epci_code": "245804497",
    "departement_code": "58",
    "region_code": "27",
    "postal_code": "58240"
  },
  {
    "name": "Bazoches",
    "code": "58023",
    "epci_code": "200067890",
    "departement_code": "58",
    "region_code": "27",
    "postal_code": "58190"
  },
  {
    "name": "Bazolles",
    "code": "58024",
    "epci_code": "200067908",
    "departement_code": "58",
    "region_code": "27",
    "postal_code": "58110"
  },
  {
    "name": "Béard",
    "code": "58025",
    "epci_code": "200067700",
    "departement_code": "58",
    "region_code": "27",
    "postal_code": "58160"
  },
  {
    "name": "Beaulieu",
    "code": "58026",
    "epci_code": "200067692",
    "departement_code": "58",
    "region_code": "27",
    "postal_code": "58420"
  },
  {
    "name": "Beaumont-la-Ferrière",
    "code": "58027",
    "epci_code": "200068088",
    "departement_code": "58",
    "region_code": "27",
    "postal_code": "58700"
  },
  {
    "name": "Beaumont-Sardolles",
    "code": "58028",
    "epci_code": "200067908",
    "departement_code": "58",
    "region_code": "27",
    "postal_code": "58270"
  },
  {
    "name": "Beuvron",
    "code": "58029",
    "epci_code": "200067692",
    "departement_code": "58",
    "region_code": "27",
    "postal_code": "58210"
  },
  {
    "name": "Biches",
    "code": "58030",
    "epci_code": "200067882",
    "departement_code": "58",
    "region_code": "27",
    "postal_code": "58110"
  },
  {
    "name": "Billy-Chevannes",
    "code": "58031",
    "epci_code": "200067908",
    "departement_code": "58",
    "region_code": "27",
    "postal_code": "58270"
  },
  {
    "name": "Billy-sur-Oisy",
    "code": "58032",
    "epci_code": "200067429",
    "departement_code": "58",
    "region_code": "27",
    "postal_code": "58500"
  },
  {
    "name": "Bitry",
    "code": "58033",
    "epci_code": "200067130",
    "departement_code": "58",
    "region_code": "27",
    "postal_code": "58310"
  },
  {
    "name": "Blismes",
    "code": "58034",
    "epci_code": "200067890",
    "departement_code": "58",
    "region_code": "27",
    "postal_code": "58120"
  },
  {
    "name": "Bona",
    "code": "58035",
    "epci_code": "200067908",
    "departement_code": "58",
    "region_code": "27",
    "postal_code": "58330"
  },
  {
    "name": "Bouhy",
    "code": "58036",
    "epci_code": "200067130",
    "departement_code": "58",
    "region_code": "27",
    "postal_code": "58310"
  },
  {
    "name": "Brassy",
    "code": "58037",
    "epci_code": "200067890",
    "departement_code": "58",
    "region_code": "27",
    "postal_code": "58140"
  },
  {
    "name": "Breugnon",
    "code": "58038",
    "epci_code": "200067429",
    "departement_code": "58",
    "region_code": "27",
    "postal_code": "58460"
  },
  {
    "name": "Brèves",
    "code": "58039",
    "epci_code": "200067429",
    "departement_code": "58",
    "region_code": "27",
    "postal_code": "58530"
  },
  {
    "name": "Brinay",
    "code": "58040",
    "epci_code": "200067882",
    "departement_code": "58",
    "region_code": "27",
    "postal_code": "58110"
  },
  {
    "name": "Brinon-sur-Beuvron",
    "code": "58041",
    "epci_code": "200067692",
    "departement_code": "58",
    "region_code": "27",
    "postal_code": "58420"
  },
  {
    "name": "Bulcy",
    "code": "58042",
    "epci_code": "200067916",
    "departement_code": "58",
    "region_code": "27",
    "postal_code": "58400"
  },
  {
    "name": "Bussy-la-Pesle",
    "code": "58043",
    "epci_code": "200067692",
    "departement_code": "58",
    "region_code": "27",
    "postal_code": "58420"
  },
  {
    "name": "La Celle-sur-Loire",
    "code": "58044",
    "epci_code": "200067916",
    "departement_code": "58",
    "region_code": "27",
    "postal_code": "58440"
  },
  {
    "name": "La Celle-sur-Nièvre",
    "code": "58045",
    "epci_code": "200068088",
    "departement_code": "58",
    "region_code": "27",
    "postal_code": "58700"
  },
  {
    "name": "Cercy-la-Tour",
    "code": "58046",
    "epci_code": "200067882",
    "departement_code": "58",
    "region_code": "27",
    "postal_code": "58340"
  },
  {
    "name": "Cervon",
    "code": "58047",
    "epci_code": "200067692",
    "departement_code": "58",
    "region_code": "27",
    "postal_code": "58800"
  },
  {
    "name": "Cessy-les-Bois",
    "code": "58048",
    "epci_code": "200067916",
    "departement_code": "58",
    "region_code": "27",
    "postal_code": "58220"
  },
  {
    "name": "Chalaux",
    "code": "58049",
    "epci_code": "200067890",
    "departement_code": "58",
    "region_code": "27",
    "postal_code": "58140"
  },
  {
    "name": "Challement",
    "code": "58050",
    "epci_code": "200067692",
    "departement_code": "58",
    "region_code": "27",
    "postal_code": "58420"
  },
  {
    "name": "Challuy",
    "code": "58051",
    "epci_code": "245804406",
    "departement_code": "58",
    "region_code": "27",
    "postal_code": "58000"
  },
  {
    "name": "Champallement",
    "code": "58052",
    "epci_code": "200067692",
    "departement_code": "58",
    "region_code": "27",
    "postal_code": "58420"
  },
  {
    "name": "Champlemy",
    "code": "58053",
    "epci_code": "200068088",
    "departement_code": "58",
    "region_code": "27",
    "postal_code": "58210"
  },
  {
    "name": "Champlin",
    "code": "58054",
    "epci_code": "200067692",
    "departement_code": "58",
    "region_code": "27",
    "postal_code": "58700"
  },
  {
    "name": "Champvert",
    "code": "58055",
    "epci_code": "200067700",
    "departement_code": "58",
    "region_code": "27",
    "postal_code": "58300"
  },
  {
    "name": "Champvoux",
    "code": "58056",
    "epci_code": "200068088",
    "departement_code": "58",
    "region_code": "27",
    "postal_code": "58400"
  },
  {
    "name": "Chantenay-Saint-Imbert",
    "code": "58057",
    "epci_code": "245804497",
    "departement_code": "58",
    "region_code": "27",
    "postal_code": "58240"
  },
  {
    "name": "La Chapelle-Saint-André",
    "code": "58058",
    "epci_code": "200067429",
    "departement_code": "58",
    "region_code": "27",
    "postal_code": "58210"
  },
  {
    "name": "La Charité-sur-Loire",
    "code": "58059",
    "epci_code": "200068088",
    "departement_code": "58",
    "region_code": "27",
    "postal_code": "58400"
  },
  {
    "name": "Charrin",
    "code": "58060",
    "epci_code": "200067882",
    "departement_code": "58",
    "region_code": "27",
    "postal_code": "58300"
  },
  {
    "name": "Chasnay",
    "code": "58061",
    "epci_code": "200068088",
    "departement_code": "58",
    "region_code": "27",
    "postal_code": "58350"
  },
  {
    "name": "Château-Chinon (Ville)",
    "code": "58062",
    "epci_code": "200067890",
    "departement_code": "58",
    "region_code": "27",
    "postal_code": "58120"
  },
  {
    "name": "Château-Chinon (Campagne)",
    "code": "58063",
    "epci_code": "200067890",
    "departement_code": "58",
    "region_code": "27",
    "postal_code": "58120"
  },
  {
    "name": "Châteauneuf-Val-de-Bargis",
    "code": "58064",
    "epci_code": "200067916",
    "departement_code": "58",
    "region_code": "27",
    "postal_code": "58350"
  },
  {
    "name": "Châtillon-en-Bazois",
    "code": "58065",
    "epci_code": "200067882",
    "departement_code": "58",
    "region_code": "27",
    "postal_code": "58110"
  },
  {
    "name": "Châtin",
    "code": "58066",
    "epci_code": "200067890",
    "departement_code": "58",
    "region_code": "27",
    "postal_code": "58120"
  },
  {
    "name": "Chaulgnes",
    "code": "58067",
    "epci_code": "200068088",
    "departement_code": "58",
    "region_code": "27",
    "postal_code": "58400"
  },
  {
    "name": "Chaumard",
    "code": "58068",
    "epci_code": "200067890",
    "departement_code": "58",
    "region_code": "27",
    "postal_code": "58120"
  },
  {
    "name": "Chaumot",
    "code": "58069",
    "epci_code": "200067692",
    "departement_code": "58",
    "region_code": "27",
    "postal_code": "58800"
  },
  {
    "name": "Chazeuil",
    "code": "58070",
    "epci_code": "200067692",
    "departement_code": "58",
    "region_code": "27",
    "postal_code": "58700"
  },
  {
    "name": "Chevannes-Changy",
    "code": "58071",
    "epci_code": "200067692",
    "departement_code": "58",
    "region_code": "27",
    "postal_code": "58420"
  },
  {
    "name": "Chevenon",
    "code": "58072",
    "epci_code": "245801063",
    "departement_code": "58",
    "region_code": "27",
    "postal_code": "58160"
  },
  {
    "name": "Chevroches",
    "code": "58073",
    "epci_code": "200067429",
    "departement_code": "58",
    "region_code": "27",
    "postal_code": "58500"
  },
  {
    "name": "Chiddes",
    "code": "58074",
    "epci_code": "200067882",
    "departement_code": "58",
    "region_code": "27",
    "postal_code": "58170"
  },
  {
    "name": "Chitry-les-Mines",
    "code": "58075",
    "epci_code": "200067692",
    "departement_code": "58",
    "region_code": "27",
    "postal_code": "58800"
  },
  {
    "name": "Chougny",
    "code": "58076",
    "epci_code": "200067882",
    "departement_code": "58",
    "region_code": "27",
    "postal_code": "58110"
  },
  {
    "name": "Ciez",
    "code": "58077",
    "epci_code": "200067916",
    "departement_code": "58",
    "region_code": "27",
    "postal_code": "58220"
  },
  {
    "name": "Cizely",
    "code": "58078",
    "epci_code": "200067908",
    "departement_code": "58",
    "region_code": "27",
    "postal_code": "58270"
  },
  {
    "name": "Clamecy",
    "code": "58079",
    "epci_code": "200067429",
    "departement_code": "58",
    "region_code": "27",
    "postal_code": "58500"
  },
  {
    "name": "La Collancelle",
    "code": "58080",
    "epci_code": "200067692",
    "departement_code": "58",
    "region_code": "27",
    "postal_code": "58800"
  },
  {
    "name": "Colméry",
    "code": "58081",
    "epci_code": "200067916",
    "departement_code": "58",
    "region_code": "27",
    "postal_code": "58350"
  },
  {
    "name": "Corancy",
    "code": "58082",
    "epci_code": "200067890",
    "departement_code": "58",
    "region_code": "27",
    "postal_code": "58120"
  },
  {
    "name": "Corbigny",
    "code": "58083",
    "epci_code": "200067692",
    "departement_code": "58",
    "region_code": "27",
    "postal_code": "58800"
  },
  {
    "name": "Corvol-d’Embernard",
    "code": "58084",
    "epci_code": "200067692",
    "departement_code": "58",
    "region_code": "27",
    "postal_code": "58210"
  },
  {
    "name": "Corvol-l’Orgueilleux",
    "code": "58085",
    "epci_code": "200067429",
    "departement_code": "58",
    "region_code": "27",
    "postal_code": "58460"
  },
  {
    "name": "Cosne-Cours-sur-Loire",
    "code": "58086",
    "epci_code": "200067916",
    "departement_code": "58",
    "region_code": "27",
    "postal_code": "58200"
  },
  {
    "name": "Cossaye",
    "code": "58087",
    "epci_code": "200067700",
    "departement_code": "58",
    "region_code": "27",
    "postal_code": "58300"
  },
  {
    "name": "Coulanges-lès-Nevers",
    "code": "58088",
    "epci_code": "245804406",
    "departement_code": "58",
    "region_code": "27",
    "postal_code": "58660"
  },
  {
    "name": "Couloutre",
    "code": "58089",
    "epci_code": "200067916",
    "departement_code": "58",
    "region_code": "27",
    "postal_code": "58220"
  },
  {
    "name": "Courcelles",
    "code": "58090",
    "epci_code": "200067429",
    "departement_code": "58",
    "region_code": "27",
    "postal_code": "58210"
  },
  {
    "name": "Crux-la-Ville",
    "code": "58092",
    "epci_code": "200067908",
    "departement_code": "58",
    "region_code": "27",
    "postal_code": "58330"
  },
  {
    "name": "Cuncy-lès-Varzy",
    "code": "58093",
    "epci_code": "200067429",
    "departement_code": "58",
    "region_code": "27",
    "postal_code": "58210"
  },
  {
    "name": "Dampierre-sous-Bouhy",
    "code": "58094",
    "epci_code": "200067130",
    "departement_code": "58",
    "region_code": "27",
    "postal_code": "58310"
  },
  {
    "name": "Decize",
    "code": "58095",
    "epci_code": "200067700",
    "departement_code": "58",
    "region_code": "27",
    "postal_code": "58300"
  },
  {
    "name": "Devay",
    "code": "58096",
    "epci_code": "200067700",
    "departement_code": "58",
    "region_code": "27",
    "postal_code": "58300"
  },
  {
    "name": "Diennes-Aubigny",
    "code": "58097",
    "epci_code": "200067908",
    "departement_code": "58",
    "region_code": "27",
    "postal_code": "58340"
  },
  {
    "name": "Dirol",
    "code": "58098",
    "epci_code": "200067692",
    "departement_code": "58",
    "region_code": "27",
    "postal_code": "58190"
  },
  {
    "name": "Dommartin",
    "code": "58099",
    "epci_code": "200067890",
    "departement_code": "58",
    "region_code": "27",
    "postal_code": "58120"
  },
  {
    "name": "Dompierre-sur-Nièvre",
    "code": "58101",
    "epci_code": "200068088",
    "departement_code": "58",
    "region_code": "27",
    "postal_code": "58350"
  },
  {
    "name": "Donzy",
    "code": "58102",
    "epci_code": "200067916",
    "departement_code": "58",
    "region_code": "27",
    "postal_code": "58220"
  },
  {
    "name": "Dornecy",
    "code": "58103",
    "epci_code": "200067429",
    "departement_code": "58",
    "region_code": "27",
    "postal_code": "58530"
  },
  {
    "name": "Dornes",
    "code": "58104",
    "epci_code": "200071140",
    "departement_code": "58",
    "region_code": "27",
    "postal_code": "58390"
  },
  {
    "name": "Druy-Parigny",
    "code": "58105",
    "epci_code": "200067700",
    "departement_code": "58",
    "region_code": "27",
    "postal_code": "58160"
  },
  {
    "name": "Dun-les-Places",
    "code": "58106",
    "epci_code": "200067890",
    "departement_code": "58",
    "region_code": "27",
    "postal_code": "58230"
  },
  {
    "name": "Dun-sur-Grandry",
    "code": "58107",
    "epci_code": "200067882",
    "departement_code": "58",
    "region_code": "27",
    "postal_code": "58110"
  },
  {
    "name": "Empury",
    "code": "58108",
    "epci_code": "200067890",
    "departement_code": "58",
    "region_code": "27",
    "postal_code": "58140"
  },
  {
    "name": "Entrains-sur-Nohain",
    "code": "58109",
    "epci_code": "200067429",
    "departement_code": "58",
    "region_code": "27",
    "postal_code": "58410"
  },
  {
    "name": "Epiry",
    "code": "58110",
    "epci_code": "200067692",
    "departement_code": "58",
    "region_code": "27",
    "postal_code": "58800"
  },
  {
    "name": "Fâchin",
    "code": "58111",
    "epci_code": "200067890",
    "departement_code": "58",
    "region_code": "27",
    "postal_code": "58430"
  },
  {
    "name": "La Fermeté",
    "code": "58112",
    "epci_code": "200067700",
    "departement_code": "58",
    "region_code": "27",
    "postal_code": "58160"
  },
  {
    "name": "Fertrève",
    "code": "58113",
    "epci_code": "200067908",
    "departement_code": "58",
    "region_code": "27",
    "postal_code": "58270"
  },
  {
    "name": "Fléty",
    "code": "58114",
    "epci_code": "200067882",
    "departement_code": "58",
    "region_code": "27",
    "postal_code": "58170"
  },
  {
    "name": "Fleury-sur-Loire",
    "code": "58115",
    "epci_code": "200067700",
    "departement_code": "58",
    "region_code": "27",
    "postal_code": "58240"
  },
  {
    "name": "Flez-Cuzy",
    "code": "58116",
    "epci_code": "200067692",
    "departement_code": "58",
    "region_code": "27",
    "postal_code": "58190"
  },
  {
    "name": "Fourchambault",
    "code": "58117",
    "epci_code": "245804406",
    "departement_code": "58",
    "region_code": "27",
    "postal_code": "58600"
  },
  {
    "name": "Fours",
    "code": "58118",
    "epci_code": "200067882",
    "departement_code": "58",
    "region_code": "27",
    "postal_code": "58250"
  },
  {
    "name": "Frasnay-Reugny",
    "code": "58119",
    "epci_code": "200067908",
    "departement_code": "58",
    "region_code": "27",
    "postal_code": "58270"
  },
  {
    "name": "Gâcogne",
    "code": "58120",
    "epci_code": "200067692",
    "departement_code": "58",
    "region_code": "27",
    "postal_code": "58140"
  },
  {
    "name": "Garchizy",
    "code": "58121",
    "epci_code": "245804406",
    "departement_code": "58",
    "region_code": "27",
    "postal_code": "58600"
  },
  {
    "name": "Garchy",
    "code": "58122",
    "epci_code": "200067916",
    "departement_code": "58",
    "region_code": "27",
    "postal_code": "58150"
  },
  {
    "name": "Germenay",
    "code": "58123",
    "epci_code": "200067692",
    "departement_code": "58",
    "region_code": "27",
    "postal_code": "58800"
  },
  {
    "name": "Germigny-sur-Loire",
    "code": "58124",
    "epci_code": "245804406",
    "departement_code": "58",
    "region_code": "27",
    "postal_code": "58320"
  },
  {
    "name": "Gien-sur-Cure",
    "code": "58125",
    "epci_code": "200067890",
    "departement_code": "58",
    "region_code": "27",
    "postal_code": "58230"
  },
  {
    "name": "Gimouille",
    "code": "58126",
    "epci_code": "245804406",
    "departement_code": "58",
    "region_code": "27",
    "postal_code": "58470"
  },
  {
    "name": "Giry",
    "code": "58127",
    "epci_code": "200068088",
    "departement_code": "58",
    "region_code": "27",
    "postal_code": "58700"
  },
  {
    "name": "Glux-en-Glenne",
    "code": "58128",
    "epci_code": "200067890",
    "departement_code": "58",
    "region_code": "27",
    "postal_code": "58370"
  },
  {
    "name": "Gouloux",
    "code": "58129",
    "epci_code": "200067890",
    "departement_code": "58",
    "region_code": "27",
    "postal_code": "58230"
  },
  {
    "name": "Grenois",
    "code": "58130",
    "epci_code": "200067692",
    "departement_code": "58",
    "region_code": "27",
    "postal_code": "58420"
  },
  {
    "name": "Guérigny",
    "code": "58131",
    "epci_code": "200068088",
    "departement_code": "58",
    "region_code": "27",
    "postal_code": "58130"
  },
  {
    "name": "Guipy",
    "code": "58132",
    "epci_code": "200067692",
    "departement_code": "58",
    "region_code": "27",
    "postal_code": "58420"
  },
  {
    "name": "Héry",
    "code": "58133",
    "epci_code": "200067692",
    "departement_code": "58",
    "region_code": "27",
    "postal_code": "58800"
  },
  {
    "name": "Imphy",
    "code": "58134",
    "epci_code": "200067700",
    "departement_code": "58",
    "region_code": "27",
    "postal_code": "58160"
  },
  {
    "name": "Isenay",
    "code": "58135",
    "epci_code": "200067882",
    "departement_code": "58",
    "region_code": "27",
    "postal_code": "58290"
  },
  {
    "name": "Jailly",
    "code": "58136",
    "epci_code": "200067908",
    "departement_code": "58",
    "region_code": "27",
    "postal_code": "58330"
  },
  {
    "name": "Lamenay-sur-Loire",
    "code": "58137",
    "epci_code": "200067700",
    "departement_code": "58",
    "region_code": "27",
    "postal_code": "58300"
  },
  {
    "name": "Langeron",
    "code": "58138",
    "epci_code": "245804497",
    "departement_code": "58",
    "region_code": "27",
    "postal_code": "58240"
  },
  {
    "name": "Lanty",
    "code": "58139",
    "epci_code": "200067882",
    "departement_code": "58",
    "region_code": "27",
    "postal_code": "58250"
  },
  {
    "name": "Larochemillay",
    "code": "58140",
    "epci_code": "200067882",
    "departement_code": "58",
    "region_code": "27",
    "postal_code": "58370"
  },
  {
    "name": "Lavault-de-Frétoy",
    "code": "58141",
    "epci_code": "200067890",
    "departement_code": "58",
    "region_code": "27",
    "postal_code": "58230"
  },
  {
    "name": "Limanton",
    "code": "58142",
    "epci_code": "200067882",
    "departement_code": "58",
    "region_code": "27",
    "postal_code": "58290"
  },
  {
    "name": "Limon",
    "code": "58143",
    "epci_code": "200067908",
    "departement_code": "58",
    "region_code": "27",
    "postal_code": "58270"
  },
  {
    "name": "Livry",
    "code": "58144",
    "epci_code": "245804497",
    "departement_code": "58",
    "region_code": "27",
    "postal_code": "58240"
  },
  {
    "name": "Lormes",
    "code": "58145",
    "epci_code": "200067890",
    "departement_code": "58",
    "region_code": "27",
    "postal_code": "58140"
  },
  {
    "name": "Lucenay-lès-Aix",
    "code": "58146",
    "epci_code": "200067700",
    "departement_code": "58",
    "region_code": "27",
    "postal_code": "58380"
  },
  {
    "name": "Lurcy-le-Bourg",
    "code": "58147",
    "epci_code": "200068088",
    "departement_code": "58",
    "region_code": "27",
    "postal_code": "58700"
  },
  {
    "name": "Luthenay-Uxeloup",
    "code": "58148",
    "epci_code": "245804497",
    "departement_code": "58",
    "region_code": "27",
    "postal_code": "58240"
  },
  {
    "name": "Luzy",
    "code": "58149",
    "epci_code": "200067882",
    "departement_code": "58",
    "region_code": "27",
    "postal_code": "58170"
  },
  {
    "name": "Lys",
    "code": "58150",
    "epci_code": "200067692",
    "departement_code": "58",
    "region_code": "27",
    "postal_code": "58190"
  },
  {
    "name": "La Machine",
    "code": "58151",
    "epci_code": "200067700",
    "departement_code": "58",
    "region_code": "27",
    "postal_code": "58260"
  },
  {
    "name": "Magny-Cours",
    "code": "58152",
    "epci_code": "245801063",
    "departement_code": "58",
    "region_code": "27",
    "postal_code": "58470"
  },
  {
    "name": "Magny-Lormes",
    "code": "58153",
    "epci_code": "200067692",
    "departement_code": "58",
    "region_code": "27",
    "postal_code": "58800"
  },
  {
    "name": "La Maison-Dieu",
    "code": "58154",
    "epci_code": "200067692",
    "departement_code": "58",
    "region_code": "27",
    "postal_code": "58190"
  },
  {
    "name": "La Marche",
    "code": "58155",
    "epci_code": "200068088",
    "departement_code": "58",
    "region_code": "27",
    "postal_code": "58400"
  },
  {
    "name": "Marcy",
    "code": "58156",
    "epci_code": "200067429",
    "departement_code": "58",
    "region_code": "27",
    "postal_code": "58210"
  },
  {
    "name": "Marigny-l’Église",
    "code": "58157",
    "epci_code": "200067890",
    "departement_code": "58",
    "region_code": "27",
    "postal_code": "58140"
  },
  {
    "name": "Mars-sur-Allier",
    "code": "58158",
    "epci_code": "245801063",
    "departement_code": "58",
    "region_code": "27",
    "postal_code": "58240"
  },
  {
    "name": "Marigny-sur-Yonne",
    "code": "58159",
    "epci_code": "200067692",
    "departement_code": "58",
    "region_code": "27",
    "postal_code": "58800"
  },
  {
    "name": "Marzy",
    "code": "58160",
    "epci_code": "245804406",
    "departement_code": "58",
    "region_code": "27",
    "postal_code": "58180"
  },
  {
    "name": "Maux",
    "code": "58161",
    "epci_code": "200067882",
    "departement_code": "58",
    "region_code": "27",
    "postal_code": "58290"
  },
  {
    "name": "Menestreau",
    "code": "58162",
    "epci_code": "200067916",
    "departement_code": "58",
    "region_code": "27",
    "postal_code": "58410"
  },
  {
    "name": "Menou",
    "code": "58163",
    "epci_code": "200067429",
    "departement_code": "58",
    "region_code": "27",
    "postal_code": "58210"
  },
  {
    "name": "Mesves-sur-Loire",
    "code": "58164",
    "epci_code": "200067916",
    "departement_code": "58",
    "region_code": "27",
    "postal_code": "58400"
  },
  {
    "name": "Metz-le-Comte",
    "code": "58165",
    "epci_code": "200067692",
    "departement_code": "58",
    "region_code": "27",
    "postal_code": "58190"
  },
  {
    "name": "Mhère",
    "code": "58166",
    "epci_code": "200067692",
    "departement_code": "58",
    "region_code": "27",
    "postal_code": "58140"
  },
  {
    "name": "Millay",
    "code": "58168",
    "epci_code": "200067882",
    "departement_code": "58",
    "region_code": "27",
    "postal_code": "58170"
  },
  {
    "name": "Moissy-Moulinot",
    "code": "58169",
    "epci_code": "200067692",
    "departement_code": "58",
    "region_code": "27",
    "postal_code": "58190"
  },
  {
    "name": "Monceaux-le-Comte",
    "code": "58170",
    "epci_code": "200067692",
    "departement_code": "58",
    "region_code": "27",
    "postal_code": "58190"
  },
  {
    "name": "Montapas",
    "code": "58171",
    "epci_code": "200067882",
    "departement_code": "58",
    "region_code": "27",
    "postal_code": "58110"
  },
  {
    "name": "Montambert",
    "code": "58172",
    "epci_code": "200067882",
    "departement_code": "58",
    "region_code": "27",
    "postal_code": "58250"
  },
  {
    "name": "Montaron",
    "code": "58173",
    "epci_code": "200067882",
    "departement_code": "58",
    "region_code": "27",
    "postal_code": "58250"
  },
  {
    "name": "Montenoison",
    "code": "58174",
    "epci_code": "200068088",
    "departement_code": "58",
    "region_code": "27",
    "postal_code": "58700"
  },
  {
    "name": "Mont-et-Marré",
    "code": "58175",
    "epci_code": "200067882",
    "departement_code": "58",
    "region_code": "27",
    "postal_code": "58110"
  },
  {
    "name": "Montigny-aux-Amognes",
    "code": "58176",
    "epci_code": "200067908",
    "departement_code": "58",
    "region_code": "27",
    "postal_code": "58130"
  },
  {
    "name": "Montigny-en-Morvan",
    "code": "58177",
    "epci_code": "200067890",
    "departement_code": "58",
    "region_code": "27",
    "postal_code": "58120"
  },
  {
    "name": "Montigny-sur-Canne",
    "code": "58178",
    "epci_code": "200067882",
    "departement_code": "58",
    "region_code": "27",
    "postal_code": "58340"
  },
  {
    "name": "Montreuillon",
    "code": "58179",
    "epci_code": "200067692",
    "departement_code": "58",
    "region_code": "27",
    "postal_code": "58800"
  },
  {
    "name": "Montsauche-les-Settons",
    "code": "58180",
    "epci_code": "200067890",
    "departement_code": "58",
    "region_code": "27",
    "postal_code": "58230"
  },
  {
    "name": "Moraches",
    "code": "58181",
    "epci_code": "200067692",
    "departement_code": "58",
    "region_code": "27",
    "postal_code": "58420"
  },
  {
    "name": "Moulins-Engilbert",
    "code": "58182",
    "epci_code": "200067882",
    "departement_code": "58",
    "region_code": "27",
    "postal_code": "58290"
  },
  {
    "name": "Mouron-sur-Yonne",
    "code": "58183",
    "epci_code": "200067692",
    "departement_code": "58",
    "region_code": "27",
    "postal_code": "58800"
  },
  {
    "name": "Moussy",
    "code": "58184",
    "epci_code": "200068088",
    "departement_code": "58",
    "region_code": "27",
    "postal_code": "58700"
  },
  {
    "name": "Moux-en-Morvan",
    "code": "58185",
    "epci_code": "200067890",
    "departement_code": "58",
    "region_code": "27",
    "postal_code": "58230"
  },
  {
    "name": "Murlin",
    "code": "58186",
    "epci_code": "200068088",
    "departement_code": "58",
    "region_code": "27",
    "postal_code": "58700"
  },
  {
    "name": "Myennes",
    "code": "58187",
    "epci_code": "200067916",
    "departement_code": "58",
    "region_code": "27",
    "postal_code": "58440"
  },
  {
    "name": "Nannay",
    "code": "58188",
    "epci_code": "200068088",
    "departement_code": "58",
    "region_code": "27",
    "postal_code": "58350"
  },
  {
    "name": "Narcy",
    "code": "58189",
    "epci_code": "200068088",
    "departement_code": "58",
    "region_code": "27",
    "postal_code": "58400"
  },
  {
    "name": "Neuffontaines",
    "code": "58190",
    "epci_code": "200067692",
    "departement_code": "58",
    "region_code": "27",
    "postal_code": "58190"
  },
  {
    "name": "Neuilly",
    "code": "58191",
    "epci_code": "200067692",
    "departement_code": "58",
    "region_code": "27",
    "postal_code": "58420"
  },
  {
    "name": "Neuville-lès-Decize",
    "code": "58192",
    "epci_code": "245804497",
    "departement_code": "58",
    "region_code": "27",
    "postal_code": "58300"
  },
  {
    "name": "Neuvy-sur-Loire",
    "code": "58193",
    "epci_code": "200067916",
    "departement_code": "58",
    "region_code": "27",
    "postal_code": "58450"
  },
  {
    "name": "Nevers",
    "code": "58194",
    "epci_code": "245804406",
    "departement_code": "58",
    "region_code": "27",
    "postal_code": "58000"
  },
  {
    "name": "La Nocle-Maulaix",
    "code": "58195",
    "epci_code": "200067882",
    "departement_code": "58",
    "region_code": "27",
    "postal_code": "58250"
  },
  {
    "name": "Nolay",
    "code": "58196",
    "epci_code": "200067908",
    "departement_code": "58",
    "region_code": "27",
    "postal_code": "58700"
  },
  {
    "name": "Nuars",
    "code": "58197",
    "epci_code": "200067692",
    "departement_code": "58",
    "region_code": "27",
    "postal_code": "58190"
  },
  {
    "name": "Oisy",
    "code": "58198",
    "epci_code": "200067429",
    "departement_code": "58",
    "region_code": "27",
    "postal_code": "58500"
  },
  {
    "name": "Onlay",
    "code": "58199",
    "epci_code": "200067890",
    "departement_code": "58",
    "region_code": "27",
    "postal_code": "58370"
  },
  {
    "name": "Ouagne",
    "code": "58200",
    "epci_code": "200067429",
    "departement_code": "58",
    "region_code": "27",
    "postal_code": "58500"
  },
  {
    "name": "Oudan",
    "code": "58201",
    "epci_code": "200067429",
    "departement_code": "58",
    "region_code": "27",
    "postal_code": "58210"
  },
  {
    "name": "Ougny",
    "code": "58202",
    "epci_code": "200067882",
    "departement_code": "58",
    "region_code": "27",
    "postal_code": "58110"
  },
  {
    "name": "Oulon",
    "code": "58203",
    "epci_code": "200068088",
    "departement_code": "58",
    "region_code": "27",
    "postal_code": "58700"
  },
  {
    "name": "Vaux d’Amognes",
    "code": "58204",
    "epci_code": "200067908",
    "departement_code": "58",
    "region_code": "27",
    "postal_code": "58130"
  },
  {
    "name": "Ouroux-en-Morvan",
    "code": "58205",
    "epci_code": "200067890",
    "departement_code": "58",
    "region_code": "27",
    "postal_code": "58230"
  },
  {
    "name": "Parigny-la-Rose",
    "code": "58206",
    "epci_code": "200067429",
    "departement_code": "58",
    "region_code": "27",
    "postal_code": "58210"
  },
  {
    "name": "Parigny-les-Vaux",
    "code": "58207",
    "epci_code": "245804406",
    "departement_code": "58",
    "region_code": "27",
    "postal_code": "58320"
  },
  {
    "name": "Pazy",
    "code": "58208",
    "epci_code": "200067692",
    "departement_code": "58",
    "region_code": "27",
    "postal_code": "58800"
  },
  {
    "name": "Perroy",
    "code": "58209",
    "epci_code": "200067916",
    "departement_code": "58",
    "region_code": "27",
    "postal_code": "58220"
  },
  {
    "name": "Planchez",
    "code": "58210",
    "epci_code": "200067890",
    "departement_code": "58",
    "region_code": "27",
    "postal_code": "58230"
  },
  {
    "name": "Poil",
    "code": "58211",
    "epci_code": "200067882",
    "departement_code": "58",
    "region_code": "27",
    "postal_code": "58170"
  },
  {
    "name": "Poiseux",
    "code": "58212",
    "epci_code": "200068088",
    "departement_code": "58",
    "region_code": "27",
    "postal_code": "58130"
  },
  {
    "name": "Pougny",
    "code": "58213",
    "epci_code": "200067916",
    "departement_code": "58",
    "region_code": "27",
    "postal_code": "58200"
  },
  {
    "name": "Pougues-les-Eaux",
    "code": "58214",
    "epci_code": "245804406",
    "departement_code": "58",
    "region_code": "27",
    "postal_code": "58320"
  },
  {
    "name": "Pouilly-sur-Loire",
    "code": "58215",
    "epci_code": "200067916",
    "departement_code": "58",
    "region_code": "27",
    "postal_code": "58150"
  },
  {
    "name": "Pouques-Lormes",
    "code": "58216",
    "epci_code": "200067692",
    "departement_code": "58",
    "region_code": "27",
    "postal_code": "58140"
  },
  {
    "name": "Pousseaux",
    "code": "58217",
    "epci_code": "200067429",
    "departement_code": "58",
    "region_code": "27",
    "postal_code": "58500"
  },
  {
    "name": "Prémery",
    "code": "58218",
    "epci_code": "200068088",
    "departement_code": "58",
    "region_code": "27",
    "postal_code": "58700"
  },
  {
    "name": "Préporché",
    "code": "58219",
    "epci_code": "200067882",
    "departement_code": "58",
    "region_code": "27",
    "postal_code": "58360"
  },
  {
    "name": "Raveau",
    "code": "58220",
    "epci_code": "200068088",
    "departement_code": "58",
    "region_code": "27",
    "postal_code": "58400"
  },
  {
    "name": "Rémilly",
    "code": "58221",
    "epci_code": "200067882",
    "departement_code": "58",
    "region_code": "27",
    "postal_code": "58250"
  },
  {
    "name": "Rix",
    "code": "58222",
    "epci_code": "200067429",
    "departement_code": "58",
    "region_code": "27",
    "postal_code": "58500"
  },
  {
    "name": "Rouy",
    "code": "58223",
    "epci_code": "200067908",
    "departement_code": "58",
    "region_code": "27",
    "postal_code": "58110"
  },
  {
    "name": "Ruages",
    "code": "58224",
    "epci_code": "200067692",
    "departement_code": "58",
    "region_code": "27",
    "postal_code": "58190"
  },
  {
    "name": "Saincaize-Meauce",
    "code": "58225",
    "epci_code": "245804406",
    "departement_code": "58",
    "region_code": "27",
    "postal_code": "58470"
  },
  {
    "name": "Saint-Agnan",
    "code": "58226",
    "epci_code": "200067890",
    "departement_code": "58",
    "region_code": "27",
    "postal_code": "58230"
  },
  {
    "name": "Saint-Amand-en-Puisaye",
    "code": "58227",
    "epci_code": "200067130",
    "departement_code": "58",
    "region_code": "27",
    "postal_code": "58310"
  },
  {
    "name": "Saint-Andelain",
    "code": "58228",
    "epci_code": "200067916",
    "departement_code": "58",
    "region_code": "27",
    "postal_code": "58150"
  },
  {
    "name": "Saint-André-en-Morvan",
    "code": "58229",
    "epci_code": "200067890",
    "departement_code": "58",
    "region_code": "27",
    "postal_code": "58140"
  },
  {
    "name": "Saint-Aubin-des-Chaumes",
    "code": "58230",
    "epci_code": "200067692",
    "departement_code": "58",
    "region_code": "27",
    "postal_code": "58190"
  },
  {
    "name": "Saint-Aubin-les-Forges",
    "code": "58231",
    "epci_code": "200068088",
    "departement_code": "58",
    "region_code": "27",
    "postal_code": "58130"
  },
  {
    "name": "Saint-Benin-d’Azy",
    "code": "58232",
    "epci_code": "200067908",
    "departement_code": "58",
    "region_code": "27",
    "postal_code": "58270"
  },
  {
    "name": "Saint-Benin-des-Bois",
    "code": "58233",
    "epci_code": "200067908",
    "departement_code": "58",
    "region_code": "27",
    "postal_code": "58330"
  },
  {
    "name": "Saint-Bonnot",
    "code": "58234",
    "epci_code": "200068088",
    "departement_code": "58",
    "region_code": "27",
    "postal_code": "58700"
  },
  {
    "name": "Saint-Brisson",
    "code": "58235",
    "epci_code": "200067890",
    "departement_code": "58",
    "region_code": "27",
    "postal_code": "58230"
  },
  {
    "name": "Sainte-Colombe-des-Bois",
    "code": "58236",
    "epci_code": "200067916",
    "departement_code": "58",
    "region_code": "27",
    "postal_code": "58220"
  },
  {
    "name": "Saint-Didier",
    "code": "58237",
    "epci_code": "200067692",
    "departement_code": "58",
    "region_code": "27",
    "postal_code": "58190"
  },
  {
    "name": "Saint-Éloi",
    "code": "58238",
    "epci_code": "245804406",
    "departement_code": "58",
    "region_code": "27",
    "postal_code": "58000"
  },
  {
    "name": "Saint-Firmin",
    "code": "58239",
    "epci_code": "200067908",
    "departement_code": "58",
    "region_code": "27",
    "postal_code": "58270"
  },
  {
    "name": "Saint-Franchy",
    "code": "58240",
    "epci_code": "200067908",
    "departement_code": "58",
    "region_code": "27",
    "postal_code": "58330"
  },
  {
    "name": "Saint-Germain-Chassenay",
    "code": "58241",
    "epci_code": "200067700",
    "departement_code": "58",
    "region_code": "27",
    "postal_code": "58300"
  },
  {
    "name": "Saint-Germain-des-Bois",
    "code": "58242",
    "epci_code": "200067692",
    "departement_code": "58",
    "region_code": "27",
    "postal_code": "58210"
  },
  {
    "name": "Saint-Gratien-Savigny",
    "code": "58243",
    "epci_code": "200067882",
    "departement_code": "58",
    "region_code": "27",
    "postal_code": "58340"
  },
  {
    "name": "Saint-Hilaire-en-Morvan",
    "code": "58244",
    "epci_code": "200067890",
    "departement_code": "58",
    "region_code": "27",
    "postal_code": "58120"
  },
  {
    "name": "Saint-Hilaire-Fontaine",
    "code": "58245",
    "epci_code": "200067882",
    "departement_code": "58",
    "region_code": "27",
    "postal_code": "58300"
  },
  {
    "name": "Saint-Honoré-les-Bains",
    "code": "58246",
    "epci_code": "200067882",
    "departement_code": "58",
    "region_code": "27",
    "postal_code": "58360"
  },
  {
    "name": "Saint-Jean-aux-Amognes",
    "code": "58247",
    "epci_code": "200067908",
    "departement_code": "58",
    "region_code": "27",
    "postal_code": "58270"
  },
  {
    "name": "Saint-Laurent-l’Abbaye",
    "code": "58248",
    "epci_code": "200067916",
    "departement_code": "58",
    "region_code": "27",
    "postal_code": "58150"
  },
  {
    "name": "Saint-Léger-de-Fougeret",
    "code": "58249",
    "epci_code": "200067890",
    "departement_code": "58",
    "region_code": "27",
    "postal_code": "58120"
  },
  {
    "name": "Saint-Léger-des-Vignes",
    "code": "58250",
    "epci_code": "200067700",
    "departement_code": "58",
    "region_code": "27",
    "postal_code": "58300"
  },
  {
    "name": "Saint-Loup-des-Bois",
    "code": "58251",
    "epci_code": "200067916",
    "departement_code": "58",
    "region_code": "27",
    "postal_code": "58200"
  },
  {
    "name": "Saint-Malo-en-Donziois",
    "code": "58252",
    "epci_code": "200067916",
    "departement_code": "58",
    "region_code": "27",
    "postal_code": "58350"
  },
  {
    "name": "Sainte-Marie",
    "code": "58253",
    "epci_code": "200067908",
    "departement_code": "58",
    "region_code": "27",
    "postal_code": "58330"
  },
  {
    "name": "Saint-Martin-d’Heuille",
    "code": "58254",
    "epci_code": "200068088",
    "departement_code": "58",
    "region_code": "27",
    "postal_code": "58130"
  },
  {
    "name": "Saint-Martin-du-Puy",
    "code": "58255",
    "epci_code": "200067890",
    "departement_code": "58",
    "region_code": "27",
    "postal_code": "58140"
  },
  {
    "name": "Saint-Martin-sur-Nohain",
    "code": "58256",
    "epci_code": "200067916",
    "departement_code": "58",
    "region_code": "27",
    "postal_code": "58150"
  },
  {
    "name": "Saint-Maurice",
    "code": "58257",
    "epci_code": "200067908",
    "departement_code": "58",
    "region_code": "27",
    "postal_code": "58330"
  },
  {
    "name": "Saint-Ouen-sur-Loire",
    "code": "58258",
    "epci_code": "200067700",
    "departement_code": "58",
    "region_code": "27",
    "postal_code": "58160"
  },
  {
    "name": "Saint-Parize-en-Viry",
    "code": "58259",
    "epci_code": "200071140",
    "departement_code": "58",
    "region_code": "27",
    "postal_code": "58300"
  },
  {
    "name": "Saint-Parize-le-Châtel",
    "code": "58260",
    "epci_code": "245801063",
    "departement_code": "58",
    "region_code": "27",
    "postal_code": "58490"
  },
  {
    "name": "Saint-Père",
    "code": "58261",
    "epci_code": "200067916",
    "departement_code": "58",
    "region_code": "27",
    "postal_code": "58200"
  },
  {
    "name": "Saint-Péreuse",
    "code": "58262",
    "epci_code": "200067890",
    "departement_code": "58",
    "region_code": "27",
    "postal_code": "58110"
  },
  {
    "name": "Saint-Pierre-du-Mont",
    "code": "58263",
    "epci_code": "200067429",
    "departement_code": "58",
    "region_code": "27",
    "postal_code": "58210"
  },
  {
    "name": "Saint-Pierre-le-Moûtier",
    "code": "58264",
    "epci_code": "245804497",
    "departement_code": "58",
    "region_code": "27",
    "postal_code": "58240"
  },
  {
    "name": "Saint-Quentin-sur-Nohain",
    "code": "58265",
    "epci_code": "200067916",
    "departement_code": "58",
    "region_code": "27",
    "postal_code": "58150"
  },
  {
    "name": "Saint-Révérien",
    "code": "58266",
    "epci_code": "200067692",
    "departement_code": "58",
    "region_code": "27",
    "postal_code": "58420"
  },
  {
    "name": "Saint-Saulge",
    "code": "58267",
    "epci_code": "200067908",
    "departement_code": "58",
    "region_code": "27",
    "postal_code": "58330"
  },
  {
    "name": "Saint-Seine",
    "code": "58268",
    "epci_code": "200067882",
    "departement_code": "58",
    "region_code": "27",
    "postal_code": "58250"
  },
  {
    "name": "Saint-Sulpice",
    "code": "58269",
    "epci_code": "200067908",
    "departement_code": "58",
    "region_code": "27",
    "postal_code": "58270"
  },
  {
    "name": "Saint-Vérain",
    "code": "58270",
    "epci_code": "200067130",
    "departement_code": "58",
    "region_code": "27",
    "postal_code": "58310"
  },
  {
    "name": "Saizy",
    "code": "58271",
    "epci_code": "200067692",
    "departement_code": "58",
    "region_code": "27",
    "postal_code": "58190"
  },
  {
    "name": "Sardy-lès-Épiry",
    "code": "58272",
    "epci_code": "200067692",
    "departement_code": "58",
    "region_code": "27",
    "postal_code": "58800"
  },
  {
    "name": "Sauvigny-les-Bois",
    "code": "58273",
    "epci_code": "245801063",
    "departement_code": "58",
    "region_code": "27",
    "postal_code": "58160"
  },
  {
    "name": "Savigny-Poil-Fol",
    "code": "58274",
    "epci_code": "200067882",
    "departement_code": "58",
    "region_code": "27",
    "postal_code": "58170"
  },
  {
    "name": "Saxi-Bourdon",
    "code": "58275",
    "epci_code": "200067908",
    "departement_code": "58",
    "region_code": "27",
    "postal_code": "58330"
  },
  {
    "name": "Sémelay",
    "code": "58276",
    "epci_code": "200067882",
    "departement_code": "58",
    "region_code": "27",
    "postal_code": "58360"
  },
  {
    "name": "Sermages",
    "code": "58277",
    "epci_code": "200067882",
    "departement_code": "58",
    "region_code": "27",
    "postal_code": "58290"
  },
  {
    "name": "Sermoise-sur-Loire",
    "code": "58278",
    "epci_code": "245804406",
    "departement_code": "58",
    "region_code": "27",
    "postal_code": "58000"
  },
  {
    "name": "Sichamps",
    "code": "58279",
    "epci_code": "200068088",
    "departement_code": "58",
    "region_code": "27",
    "postal_code": "58700"
  },
  {
    "name": "Sougy-sur-Loire",
    "code": "58280",
    "epci_code": "200067700",
    "departement_code": "58",
    "region_code": "27",
    "postal_code": "58300"
  },
  {
    "name": "Suilly-la-Tour",
    "code": "58281",
    "epci_code": "200067916",
    "departement_code": "58",
    "region_code": "27",
    "postal_code": "58150"
  },
  {
    "name": "Surgy",
    "code": "58282",
    "epci_code": "200067429",
    "departement_code": "58",
    "region_code": "27",
    "postal_code": "58500"
  },
  {
    "name": "Taconnay",
    "code": "58283",
    "epci_code": "200067692",
    "departement_code": "58",
    "region_code": "27",
    "postal_code": "58420"
  },
  {
    "name": "Talon",
    "code": "58284",
    "epci_code": "200067692",
    "departement_code": "58",
    "region_code": "27",
    "postal_code": "58190"
  },
  {
    "name": "Tamnay-en-Bazois",
    "code": "58285",
    "epci_code": "200067882",
    "departement_code": "58",
    "region_code": "27",
    "postal_code": "58110"
  },
  {
    "name": "Tannay",
    "code": "58286",
    "epci_code": "200067692",
    "departement_code": "58",
    "region_code": "27",
    "postal_code": "58190"
  },
  {
    "name": "Tazilly",
    "code": "58287",
    "epci_code": "200067882",
    "departement_code": "58",
    "region_code": "27",
    "postal_code": "58170"
  },
  {
    "name": "Teigny",
    "code": "58288",
    "epci_code": "200067692",
    "departement_code": "58",
    "region_code": "27",
    "postal_code": "58190"
  },
  {
    "name": "Ternant",
    "code": "58289",
    "epci_code": "200067882",
    "departement_code": "58",
    "region_code": "27",
    "postal_code": "58250"
  },
  {
    "name": "Thaix",
    "code": "58290",
    "epci_code": "200067882",
    "departement_code": "58",
    "region_code": "27",
    "postal_code": "58250"
  },
  {
    "name": "Thianges",
    "code": "58291",
    "epci_code": "200067700",
    "departement_code": "58",
    "region_code": "27",
    "postal_code": "58260"
  },
  {
    "name": "Tintury",
    "code": "58292",
    "epci_code": "200067882",
    "departement_code": "58",
    "region_code": "27",
    "postal_code": "58110"
  },
  {
    "name": "Toury-Lurcy",
    "code": "58293",
    "epci_code": "200067700",
    "departement_code": "58",
    "region_code": "27",
    "postal_code": "58300"
  },
  {
    "name": "Toury-sur-Jour",
    "code": "58294",
    "epci_code": "245804497",
    "departement_code": "58",
    "region_code": "27",
    "postal_code": "58240"
  },
  {
    "name": "Tracy-sur-Loire",
    "code": "58295",
    "epci_code": "200067916",
    "departement_code": "58",
    "region_code": "27",
    "postal_code": "58150"
  },
  {
    "name": "Tresnay",
    "code": "58296",
    "epci_code": "245804497",
    "departement_code": "58",
    "region_code": "27",
    "postal_code": "58240"
  },
  {
    "name": "Trois-Vèvres",
    "code": "58297",
    "epci_code": "200067908",
    "departement_code": "58",
    "region_code": "27",
    "postal_code": "58260"
  },
  {
    "name": "Tronsanges",
    "code": "58298",
    "epci_code": "200068088",
    "departement_code": "58",
    "region_code": "27",
    "postal_code": "58400"
  },
  {
    "name": "Trucy-l’Orgueilleux",
    "code": "58299",
    "epci_code": "200067429",
    "departement_code": "58",
    "region_code": "27",
    "postal_code": "58460"
  },
  {
    "name": "Urzy",
    "code": "58300",
    "epci_code": "200068088",
    "departement_code": "58",
    "region_code": "27",
    "postal_code": "58130"
  },
  {
    "name": "Vandenesse",
    "code": "58301",
    "epci_code": "200067882",
    "departement_code": "58",
    "region_code": "27",
    "postal_code": "58290"
  },
  {
    "name": "Varennes-lès-Narcy",
    "code": "58302",
    "epci_code": "200068088",
    "departement_code": "58",
    "region_code": "27",
    "postal_code": "58400"
  },
  {
    "name": "Varennes-Vauzelles",
    "code": "58303",
    "epci_code": "245804406",
    "departement_code": "58",
    "region_code": "27",
    "postal_code": "58640"
  },
  {
    "name": "Varzy",
    "code": "58304",
    "epci_code": "200067429",
    "departement_code": "58",
    "region_code": "27",
    "postal_code": "58210"
  },
  {
    "name": "Vauclaix",
    "code": "58305",
    "epci_code": "200067692",
    "departement_code": "58",
    "region_code": "27",
    "postal_code": "58140"
  },
  {
    "name": "Verneuil",
    "code": "58306",
    "epci_code": "200067700",
    "departement_code": "58",
    "region_code": "27",
    "postal_code": "58300"
  },
  {
    "name": "Vielmanay",
    "code": "58307",
    "epci_code": "200067916",
    "departement_code": "58",
    "region_code": "27",
    "postal_code": "58150"
  },
  {
    "name": "Vignol",
    "code": "58308",
    "epci_code": "200067692",
    "departement_code": "58",
    "region_code": "27",
    "postal_code": "58190"
  },
  {
    "name": "Villapourçon",
    "code": "58309",
    "epci_code": "200067882",
    "departement_code": "58",
    "region_code": "27",
    "postal_code": "58370"
  },
  {
    "name": "Villiers-le-Sec",
    "code": "58310",
    "epci_code": "200067429",
    "departement_code": "58",
    "region_code": "27",
    "postal_code": "58210"
  },
  {
    "name": "Ville-Langy",
    "code": "58311",
    "epci_code": "200067908",
    "departement_code": "58",
    "region_code": "27",
    "postal_code": "58270"
  },
  {
    "name": "Villiers-sur-Yonne",
    "code": "58312",
    "epci_code": "200067429",
    "departement_code": "58",
    "region_code": "27",
    "postal_code": "58500"
  },
  {
    "name": "Vitry-Laché",
    "code": "58313",
    "epci_code": "200067692",
    "departement_code": "58",
    "region_code": "27",
    "postal_code": "58420"
  }
]