[
  {
    "name": "Ablis",
    "code": "78003",
    "epci_code": "200073344",
    "departement_code": "78",
    "region_code": "11",
    "postal_code": "78660"
  },
  {
    "name": "Achères",
    "code": "78005",
    "epci_code": "200059889",
    "departement_code": "78",
    "region_code": "11",
    "postal_code": "78260"
  },
  {
    "name": "Adainville",
    "code": "78006",
    "epci_code": "247800550",
    "departement_code": "78",
    "region_code": "11",
    "postal_code": "78113"
  },
  {
    "name": "Aigremont",
    "code": "78007",
    "epci_code": "200058519",
    "departement_code": "78",
    "region_code": "11",
    "postal_code": "78240"
  },
  {
    "name": "Allainville",
    "code": "78009",
    "epci_code": "200073344",
    "departement_code": "78",
    "region_code": "11",
    "postal_code": "78660"
  },
  {
    "name": "Les Alluets-le-Roi",
    "code": "78010",
    "epci_code": "200059889",
    "departement_code": "78",
    "region_code": "11",
    "postal_code": "78580"
  },
  {
    "name": "Andelu",
    "code": "78013",
    "epci_code": "200034130",
    "departement_code": "78",
    "region_code": "11",
    "postal_code": "78770"
  },
  {
    "name": "Andrésy",
    "code": "78015",
    "epci_code": "200059889",
    "departement_code": "78",
    "region_code": "11",
    "postal_code": "78570"
  },
  {
    "name": "Arnouville-lès-Mantes",
    "code": "78020",
    "epci_code": "200059889",
    "departement_code": "78",
    "region_code": "11",
    "postal_code": "78790"
  },
  {
    "name": "Aubergenville",
    "code": "78029",
    "epci_code": "200059889",
    "departement_code": "78",
    "region_code": "11",
    "postal_code": "78410"
  },
  {
    "name": "Auffargis",
    "code": "78030",
    "epci_code": "200073344",
    "departement_code": "78",
    "region_code": "11",
    "postal_code": "78610"
  },
  {
    "name": "Auffreville-Brasseuil",
    "code": "78031",
    "epci_code": "200059889",
    "departement_code": "78",
    "region_code": "11",
    "postal_code": "78930"
  },
  {
    "name": "Aulnay-sur-Mauldre",
    "code": "78033",
    "epci_code": "200059889",
    "departement_code": "78",
    "region_code": "11",
    "postal_code": "78126"
  },
  {
    "name": "Auteuil",
    "code": "78034",
    "epci_code": "247800618",
    "departement_code": "78",
    "region_code": "11",
    "postal_code": "78770"
  },
  {
    "name": "Autouillet",
    "code": "78036",
    "epci_code": "247800618",
    "departement_code": "78",
    "region_code": "11",
    "postal_code": "78770"
  },
  {
    "name": "Bailly",
    "code": "78043",
    "epci_code": "247800584",
    "departement_code": "78",
    "region_code": "11",
    "postal_code": "78870"
  },
  {
    "name": "Bazainville",
    "code": "78048",
    "epci_code": "247800550",
    "departement_code": "78",
    "region_code": "11",
    "postal_code": "78550"
  },
  {
    "name": "Bazemont",
    "code": "78049",
    "epci_code": "200034130",
    "departement_code": "78",
    "region_code": "11",
    "postal_code": "78580"
  },
  {
    "name": "Bazoches-sur-Guyonne",
    "code": "78050",
    "epci_code": "247800618",
    "departement_code": "78",
    "region_code": "11",
    "postal_code": "78490"
  },
  {
    "name": "Béhoust",
    "code": "78053",
    "epci_code": "247800618",
    "departement_code": "78",
    "region_code": "11",
    "postal_code": "78910"
  },
  {
    "name": "Bennecourt",
    "code": "78057",
    "epci_code": "200071074",
    "departement_code": "78",
    "region_code": "11",
    "postal_code": "78270"
  },
  {
    "name": "Beynes",
    "code": "78062",
    "epci_code": "247800618",
    "departement_code": "78",
    "region_code": "11",
    "postal_code": "78650"
  },
  {
    "name": "Blaru",
    "code": "78068",
    "epci_code": "200071074",
    "departement_code": "78",
    "region_code": "11",
    "postal_code": "78270"
  },
  {
    "name": "Boinville-en-Mantois",
    "code": "78070",
    "epci_code": "200059889",
    "departement_code": "78",
    "region_code": "11",
    "postal_code": "78930"
  },
  {
    "name": "Boinville-le-Gaillard",
    "code": "78071",
    "epci_code": "200073344",
    "departement_code": "78",
    "region_code": "11",
    "postal_code": "78660"
  },
  {
    "name": "Boinvilliers",
    "code": "78072",
    "epci_code": "247800550",
    "departement_code": "78",
    "region_code": "11",
    "postal_code": "78200"
  },
  {
    "name": "Bois-d’Arcy",
    "code": "78073",
    "epci_code": "247800584",
    "departement_code": "78",
    "region_code": "11",
    "postal_code": "78390"
  },
  {
    "name": "Boissets",
    "code": "78076",
    "epci_code": "247800550",
    "departement_code": "78",
    "region_code": "11",
    "postal_code": "78910"
  },
  {
    "name": "La Boissière-École",
    "code": "78077",
    "epci_code": "200073344",
    "departement_code": "78",
    "region_code": "11",
    "postal_code": "78125"
  },
  {
    "name": "Boissy-Mauvoisin",
    "code": "78082",
    "epci_code": "200071074",
    "departement_code": "78",
    "region_code": "11",
    "postal_code": "78200"
  },
  {
    "name": "Boissy-sans-Avoir",
    "code": "78084",
    "epci_code": "247800618",
    "departement_code": "78",
    "region_code": "11",
    "postal_code": "78490"
  },
  {
    "name": "Bonnelles",
    "code": "78087",
    "epci_code": "200073344",
    "departement_code": "78",
    "region_code": "11",
    "postal_code": "78830"
  },
  {
    "name": "Bonnières-sur-Seine",
    "code": "78089",
    "epci_code": "200071074",
    "departement_code": "78",
    "region_code": "11",
    "postal_code": "78270"
  },
  {
    "name": "Bouafle",
    "code": "78090",
    "epci_code": "200059889",
    "departement_code": "78",
    "region_code": "11",
    "postal_code": "78410"
  },
  {
    "name": "Bougival",
    "code": "78092",
    "epci_code": "247800584",
    "departement_code": "78",
    "region_code": "11",
    "postal_code": "78380"
  },
  {
    "name": "Bourdonné",
    "code": "78096",
    "epci_code": "247800550",
    "departement_code": "78",
    "region_code": "11",
    "postal_code": "78113"
  },
  {
    "name": "Breuil-Bois-Robert",
    "code": "78104",
    "epci_code": "200059889",
    "departement_code": "78",
    "region_code": "11",
    "postal_code": "78930"
  },
  {
    "name": "Bréval",
    "code": "78107",
    "epci_code": "200071074",
    "departement_code": "78",
    "region_code": "11",
    "postal_code": "78980"
  },
  {
    "name": "Les Bréviaires",
    "code": "78108",
    "epci_code": "200073344",
    "departement_code": "78",
    "region_code": "11",
    "postal_code": "78610"
  },
  {
    "name": "Brueil-en-Vexin",
    "code": "78113",
    "epci_code": "200059889",
    "departement_code": "78",
    "region_code": "11",
    "postal_code": "78440"
  },
  {
    "name": "Buc",
    "code": "78117",
    "epci_code": "247800584",
    "departement_code": "78",
    "region_code": "11",
    "postal_code": "78530"
  },
  {
    "name": "Buchelay",
    "code": "78118",
    "epci_code": "200059889",
    "departement_code": "78",
    "region_code": "11",
    "postal_code": "78200"
  },
  {
    "name": "Bullion",
    "code": "78120",
    "epci_code": "200073344",
    "departement_code": "78",
    "region_code": "11",
    "postal_code": "78830"
  },
  {
    "name": "Carrières-sous-Poissy",
    "code": "78123",
    "epci_code": "200059889",
    "departement_code": "78",
    "region_code": "11",
    "postal_code": "78955"
  },
  {
    "name": "Carrières-sur-Seine",
    "code": "78124",
    "epci_code": "200058519",
    "departement_code": "78",
    "region_code": "11",
    "postal_code": "78420"
  },
  {
    "name": "La Celle-les-Bordes",
    "code": "78125",
    "epci_code": "200073344",
    "departement_code": "78",
    "region_code": "11",
    "postal_code": "78720"
  },
  {
    "name": "La Celle-Saint-Cloud",
    "code": "78126",
    "epci_code": "247800584",
    "departement_code": "78",
    "region_code": "11",
    "postal_code": "78170"
  },
  {
    "name": "Cernay-la-Ville",
    "code": "78128",
    "epci_code": "200073344",
    "departement_code": "78",
    "region_code": "11",
    "postal_code": "78720"
  },
  {
    "name": "Chambourcy",
    "code": "78133",
    "epci_code": "200058519",
    "departement_code": "78",
    "region_code": "11",
    "postal_code": "78240"
  },
  {
    "name": "Chanteloup-les-Vignes",
    "code": "78138",
    "epci_code": "200059889",
    "departement_code": "78",
    "region_code": "11",
    "postal_code": "78570"
  },
  {
    "name": "Chapet",
    "code": "78140",
    "epci_code": "200059889",
    "departement_code": "78",
    "region_code": "11",
    "postal_code": "78130"
  },
  {
    "name": "Châteaufort",
    "code": "78143",
    "epci_code": "247800584",
    "departement_code": "78",
    "region_code": "11",
    "postal_code": "78117"
  },
  {
    "name": "Chatou",
    "code": "78146",
    "epci_code": "200058519",
    "departement_code": "78",
    "region_code": "11",
    "postal_code": "78400"
  },
  {
    "name": "Chaufour-lès-Bonnières",
    "code": "78147",
    "epci_code": "200071074",
    "departement_code": "78",
    "region_code": "11",
    "postal_code": "78270"
  },
  {
    "name": "Chavenay",
    "code": "78152",
    "epci_code": "200034130",
    "departement_code": "78",
    "region_code": "11",
    "postal_code": "78450"
  },
  {
    "name": "Le Chesnay-Rocquencourt",
    "code": "78158",
    "epci_code": "247800584",
    "departement_code": "78",
    "region_code": "11",
    "postal_code": "78150"
  },
  {
    "name": "Chevreuse",
    "code": "78160",
    "epci_code": "200033173",
    "departement_code": "78",
    "region_code": "11",
    "postal_code": "78460"
  },
  {
    "name": "Choisel",
    "code": "78162",
    "epci_code": "200033173",
    "departement_code": "78",
    "region_code": "11",
    "postal_code": "78460"
  },
  {
    "name": "Civry-la-Forêt",
    "code": "78163",
    "epci_code": "247800550",
    "departement_code": "78",
    "region_code": "11",
    "postal_code": "78910"
  },
  {
    "name": "Clairefontaine-en-Yvelines",
    "code": "78164",
    "epci_code": "200073344",
    "departement_code": "78",
    "region_code": "11",
    "postal_code": "78120"
  },
  {
    "name": "Les Clayes-sous-Bois",
    "code": "78165",
    "epci_code": "200058782",
    "departement_code": "78",
    "region_code": "11",
    "postal_code": "78340"
  },
  {
    "name": "Coignières",
    "code": "78168",
    "epci_code": "200058782",
    "departement_code": "78",
    "region_code": "11",
    "postal_code": "78310"
  },
  {
    "name": "Condé-sur-Vesgre",
    "code": "78171",
    "epci_code": "247800550",
    "departement_code": "78",
    "region_code": "11",
    "postal_code": "78113"
  },
  {
    "name": "Conflans-Sainte-Honorine",
    "code": "78172",
    "epci_code": "200059889",
    "departement_code": "78",
    "region_code": "11",
    "postal_code": "78700"
  },
  {
    "name": "Courgent",
    "code": "78185",
    "epci_code": "247800550",
    "departement_code": "78",
    "region_code": "11",
    "postal_code": "78790"
  },
  {
    "name": "Cravent",
    "code": "78188",
    "epci_code": "200071074",
    "departement_code": "78",
    "region_code": "11",
    "postal_code": "78270"
  },
  {
    "name": "Crespières",
    "code": "78189",
    "epci_code": "200034130",
    "departement_code": "78",
    "region_code": "11",
    "postal_code": "78121"
  },
  {
    "name": "Croissy-sur-Seine",
    "code": "78190",
    "epci_code": "200058519",
    "departement_code": "78",
    "region_code": "11",
    "postal_code": "78290"
  },
  {
    "name": "Dammartin-en-Serve",
    "code": "78192",
    "epci_code": "247800550",
    "departement_code": "78",
    "region_code": "11",
    "postal_code": "78111"
  },
  {
    "name": "Dampierre-en-Yvelines",
    "code": "78193",
    "epci_code": "200033173",
    "departement_code": "78",
    "region_code": "11",
    "postal_code": "78720"
  },
  {
    "name": "Dannemarie",
    "code": "78194",
    "epci_code": "247800550",
    "departement_code": "78",
    "region_code": "11",
    "postal_code": "78550"
  },
  {
    "name": "Davron",
    "code": "78196",
    "epci_code": "200034130",
    "departement_code": "78",
    "region_code": "11",
    "postal_code": "78810"
  },
  {
    "name": "Drocourt",
    "code": "78202",
    "epci_code": "200059889",
    "departement_code": "78",
    "region_code": "11",
    "postal_code": "78440"
  },
  {
    "name": "Ecquevilly",
    "code": "78206",
    "epci_code": "200059889",
    "departement_code": "78",
    "region_code": "11",
    "postal_code": "78920"
  },
  {
    "name": "Élancourt",
    "code": "78208",
    "epci_code": "200058782",
    "departement_code": "78",
    "region_code": "11",
    "postal_code": "78990"
  },
  {
    "name": "Émancé",
    "code": "78209",
    "epci_code": "200073344",
    "departement_code": "78",
    "region_code": "11",
    "postal_code": "78125"
  },
  {
    "name": "Épône",
    "code": "78217",
    "epci_code": "200059889",
    "departement_code": "78",
    "region_code": "11",
    "postal_code": "78680"
  },
  {
    "name": "Les Essarts-le-Roi",
    "code": "78220",
    "epci_code": "200073344",
    "departement_code": "78",
    "region_code": "11",
    "postal_code": "78690"
  },
  {
    "name": "L’Étang-la-Ville",
    "code": "78224",
    "epci_code": "200058519",
    "departement_code": "78",
    "region_code": "11",
    "postal_code": "78620"
  },
  {
    "name": "Évecquemont",
    "code": "78227",
    "epci_code": "200059889",
    "departement_code": "78",
    "region_code": "11",
    "postal_code": "78740"
  },
  {
    "name": "La Falaise",
    "code": "78230",
    "epci_code": "200059889",
    "departement_code": "78",
    "region_code": "11",
    "postal_code": "78410"
  },
  {
    "name": "Favrieux",
    "code": "78231",
    "epci_code": "200059889",
    "departement_code": "78",
    "region_code": "11",
    "postal_code": "78200"
  },
  {
    "name": "Feucherolles",
    "code": "78233",
    "epci_code": "200034130",
    "departement_code": "78",
    "region_code": "11",
    "postal_code": "78810"
  },
  {
    "name": "Flacourt",
    "code": "78234",
    "epci_code": "200059889",
    "departement_code": "78",
    "region_code": "11",
    "postal_code": "78200"
  },
  {
    "name": "Flexanville",
    "code": "78236",
    "epci_code": "247800618",
    "departement_code": "78",
    "region_code": "11",
    "postal_code": "78910"
  },
  {
    "name": "Flins-Neuve-Église",
    "code": "78237",
    "epci_code": "247800550",
    "departement_code": "78",
    "region_code": "11",
    "postal_code": "78790"
  },
  {
    "name": "Flins-sur-Seine",
    "code": "78238",
    "epci_code": "200059889",
    "departement_code": "78",
    "region_code": "11",
    "postal_code": "78410"
  },
  {
    "name": "Follainville-Dennemont",
    "code": "78239",
    "epci_code": "200059889",
    "departement_code": "78",
    "region_code": "11",
    "postal_code": "78520"
  },
  {
    "name": "Fontenay-le-Fleury",
    "code": "78242",
    "epci_code": "247800584",
    "departement_code": "78",
    "region_code": "11",
    "postal_code": "78330"
  },
  {
    "name": "Fontenay-Mauvoisin",
    "code": "78245",
    "epci_code": "200059889",
    "departement_code": "78",
    "region_code": "11",
    "postal_code": "78200"
  },
  {
    "name": "Fontenay-Saint-Père",
    "code": "78246",
    "epci_code": "200059889",
    "departement_code": "78",
    "region_code": "11",
    "postal_code": "78440"
  },
  {
    "name": "Freneuse",
    "code": "78255",
    "epci_code": "200071074",
    "departement_code": "78",
    "region_code": "11",
    "postal_code": "78840"
  },
  {
    "name": "Gaillon-sur-Montcient",
    "code": "78261",
    "epci_code": "200059889",
    "departement_code": "78",
    "region_code": "11",
    "postal_code": "78250"
  },
  {
    "name": "Galluis",
    "code": "78262",
    "epci_code": "247800618",
    "departement_code": "78",
    "region_code": "11",
    "postal_code": "78490"
  },
  {
    "name": "Gambais",
    "code": "78263",
    "epci_code": "247800618",
    "departement_code": "78",
    "region_code": "11",
    "postal_code": "78950"
  },
  {
    "name": "Gambaiseuil",
    "code": "78264",
    "epci_code": "200073344",
    "departement_code": "78",
    "region_code": "11",
    "postal_code": "78490"
  },
  {
    "name": "Garancières",
    "code": "78265",
    "epci_code": "247800618",
    "departement_code": "78",
    "region_code": "11",
    "postal_code": "78890"
  },
  {
    "name": "Gargenville",
    "code": "78267",
    "epci_code": "200059889",
    "departement_code": "78",
    "region_code": "11",
    "postal_code": "78440"
  },
  {
    "name": "Gazeran",
    "code": "78269",
    "epci_code": "200073344",
    "departement_code": "78",
    "region_code": "11",
    "postal_code": "78125"
  },
  {
    "name": "Gommecourt",
    "code": "78276",
    "epci_code": "200071074",
    "departement_code": "78",
    "region_code": "11",
    "postal_code": "78270"
  },
  {
    "name": "Goupillières",
    "code": "78278",
    "epci_code": "247800618",
    "departement_code": "78",
    "region_code": "11",
    "postal_code": "78770"
  },
  {
    "name": "Goussonville",
    "code": "78281",
    "epci_code": "200059889",
    "departement_code": "78",
    "region_code": "11",
    "postal_code": "78930"
  },
  {
    "name": "Grandchamp",
    "code": "78283",
    "epci_code": "247800550",
    "departement_code": "78",
    "region_code": "11",
    "postal_code": "78113"
  },
  {
    "name": "Gressey",
    "code": "78285",
    "epci_code": "247800550",
    "departement_code": "78",
    "region_code": "11",
    "postal_code": "78550"
  },
  {
    "name": "Grosrouvre",
    "code": "78289",
    "epci_code": "247800618",
    "departement_code": "78",
    "region_code": "11",
    "postal_code": "78490"
  },
  {
    "name": "Guernes",
    "code": "78290",
    "epci_code": "200059889",
    "departement_code": "78",
    "region_code": "11",
    "postal_code": "78520"
  },
  {
    "name": "Guerville",
    "code": "78291",
    "epci_code": "200059889",
    "departement_code": "78",
    "region_code": "11",
    "postal_code": "78930"
  },
  {
    "name": "Guitrancourt",
    "code": "78296",
    "epci_code": "200059889",
    "departement_code": "78",
    "region_code": "11",
    "postal_code": "78440"
  },
  {
    "name": "Guyancourt",
    "code": "78297",
    "epci_code": "200058782",
    "departement_code": "78",
    "region_code": "11",
    "postal_code": "78280"
  },
  {
    "name": "Hardricourt",
    "code": "78299",
    "epci_code": "200059889",
    "departement_code": "78",
    "region_code": "11",
    "postal_code": "78250"
  },
  {
    "name": "Hargeville",
    "code": "78300",
    "epci_code": "200059889",
    "departement_code": "78",
    "region_code": "11",
    "postal_code": "78790"
  },
  {
    "name": "La Hauteville",
    "code": "78302",
    "epci_code": "247800550",
    "departement_code": "78",
    "region_code": "11",
    "postal_code": "78113"
  },
  {
    "name": "Herbeville",
    "code": "78305",
    "epci_code": "200034130",
    "departement_code": "78",
    "region_code": "11",
    "postal_code": "78580"
  },
  {
    "name": "Hermeray",
    "code": "78307",
    "epci_code": "200073344",
    "departement_code": "78",
    "region_code": "11",
    "postal_code": "78125"
  },
  {
    "name": "Houdan",
    "code": "78310",
    "epci_code": "247800550",
    "departement_code": "78",
    "region_code": "11",
    "postal_code": "78550"
  },
  {
    "name": "Houilles",
    "code": "78311",
    "epci_code": "200058519",
    "departement_code": "78",
    "region_code": "11",
    "postal_code": "78800"
  },
  {
    "name": "Issou",
    "code": "78314",
    "epci_code": "200059889",
    "departement_code": "78",
    "region_code": "11",
    "postal_code": "78440"
  },
  {
    "name": "Jambville",
    "code": "78317",
    "epci_code": "200059889",
    "departement_code": "78",
    "region_code": "11",
    "postal_code": "78440"
  },
  {
    "name": "Notre-Dame-de-la-Mer",
    "code": "78320",
    "epci_code": "200071074",
    "departement_code": "78",
    "region_code": "11",
    "postal_code": "78270"
  },
  {
    "name": "Jouars-Pontchartrain",
    "code": "78321",
    "epci_code": "247800618",
    "departement_code": "78",
    "region_code": "11",
    "postal_code": "78760"
  },
  {
    "name": "Jouy-en-Josas",
    "code": "78322",
    "epci_code": "247800584",
    "departement_code": "78",
    "region_code": "11",
    "postal_code": "78350"
  },
  {
    "name": "Jouy-Mauvoisin",
    "code": "78324",
    "epci_code": "200059889",
    "departement_code": "78",
    "region_code": "11",
    "postal_code": "78200"
  },
  {
    "name": "Jumeauville",
    "code": "78325",
    "epci_code": "200059889",
    "departement_code": "78",
    "region_code": "11",
    "postal_code": "78580"
  },
  {
    "name": "Juziers",
    "code": "78327",
    "epci_code": "200059889",
    "departement_code": "78",
    "region_code": "11",
    "postal_code": "78820"
  },
  {
    "name": "Lainville-en-Vexin",
    "code": "78329",
    "epci_code": "200059889",
    "departement_code": "78",
    "region_code": "11",
    "postal_code": "78440"
  },
  {
    "name": "Lévis-Saint-Nom",
    "code": "78334",
    "epci_code": "200033173",
    "departement_code": "78",
    "region_code": "11",
    "postal_code": "78320"
  },
  {
    "name": "Limay",
    "code": "78335",
    "epci_code": "200059889",
    "departement_code": "78",
    "region_code": "11",
    "postal_code": "78520"
  },
  {
    "name": "Limetz-Villez",
    "code": "78337",
    "epci_code": "200071074",
    "departement_code": "78",
    "region_code": "11",
    "postal_code": "78270"
  },
  {
    "name": "Les Loges-en-Josas",
    "code": "78343",
    "epci_code": "247800584",
    "departement_code": "78",
    "region_code": "11",
    "postal_code": "78350"
  },
  {
    "name": "Lommoye",
    "code": "78344",
    "epci_code": "200071074",
    "departement_code": "78",
    "region_code": "11",
    "postal_code": "78270"
  },
  {
    "name": "Longnes",
    "code": "78346",
    "epci_code": "247800550",
    "departement_code": "78",
    "region_code": "11",
    "postal_code": "78980"
  },
  {
    "name": "Longvilliers",
    "code": "78349",
    "epci_code": "200073344",
    "departement_code": "78",
    "region_code": "11",
    "postal_code": "78730"
  },
  {
    "name": "Louveciennes",
    "code": "78350",
    "epci_code": "200058519",
    "departement_code": "78",
    "region_code": "11",
    "postal_code": "78430"
  },
  {
    "name": "Magnanville",
    "code": "78354",
    "epci_code": "200059889",
    "departement_code": "78",
    "region_code": "11",
    "postal_code": "78200"
  },
  {
    "name": "Magny-les-Hameaux",
    "code": "78356",
    "epci_code": "200058782",
    "departement_code": "78",
    "region_code": "11",
    "postal_code": "78114"
  },
  {
    "name": "Maisons-Laffitte",
    "code": "78358",
    "epci_code": "200058519",
    "departement_code": "78",
    "region_code": "11",
    "postal_code": "78600"
  },
  {
    "name": "Mantes-la-Jolie",
    "code": "78361",
    "epci_code": "200059889",
    "departement_code": "78",
    "region_code": "11",
    "postal_code": "78200"
  },
  {
    "name": "Mantes-la-Ville",
    "code": "78362",
    "epci_code": "200059889",
    "departement_code": "78",
    "region_code": "11",
    "postal_code": "78711"
  },
  {
    "name": "Marcq",
    "code": "78364",
    "epci_code": "247800618",
    "departement_code": "78",
    "region_code": "11",
    "postal_code": "78770"
  },
  {
    "name": "Mareil-le-Guyon",
    "code": "78366",
    "epci_code": "247800618",
    "departement_code": "78",
    "region_code": "11",
    "postal_code": "78490"
  },
  {
    "name": "Mareil-Marly",
    "code": "78367",
    "epci_code": "200058519",
    "departement_code": "78",
    "region_code": "11",
    "postal_code": "78750"
  },
  {
    "name": "Mareil-sur-Mauldre",
    "code": "78368",
    "epci_code": "200034130",
    "departement_code": "78",
    "region_code": "11",
    "postal_code": "78124"
  },
  {
    "name": "Marly-le-Roi",
    "code": "78372",
    "epci_code": "200058519",
    "departement_code": "78",
    "region_code": "11",
    "postal_code": "78160"
  },
  {
    "name": "Maule",
    "code": "78380",
    "epci_code": "200034130",
    "departement_code": "78",
    "region_code": "11",
    "postal_code": "78580"
  },
  {
    "name": "Maulette",
    "code": "78381",
    "epci_code": "247800550",
    "departement_code": "78",
    "region_code": "11",
    "postal_code": "78550"
  },
  {
    "name": "Maurecourt",
    "code": "78382",
    "epci_code": "249500109",
    "departement_code": "78",
    "region_code": "11",
    "postal_code": "78780"
  },
  {
    "name": "Maurepas",
    "code": "78383",
    "epci_code": "200058782",
    "departement_code": "78",
    "region_code": "11",
    "postal_code": "78310"
  },
  {
    "name": "Médan",
    "code": "78384",
    "epci_code": "200059889",
    "departement_code": "78",
    "region_code": "11",
    "postal_code": "78670"
  },
  {
    "name": "Ménerville",
    "code": "78385",
    "epci_code": "200071074",
    "departement_code": "78",
    "region_code": "11",
    "postal_code": "78200"
  },
  {
    "name": "Méré",
    "code": "78389",
    "epci_code": "247800618",
    "departement_code": "78",
    "region_code": "11",
    "postal_code": "78490"
  },
  {
    "name": "Méricourt",
    "code": "78391",
    "epci_code": "200059889",
    "departement_code": "78",
    "region_code": "11",
    "postal_code": "78270"
  },
  {
    "name": "Le Mesnil-le-Roi",
    "code": "78396",
    "epci_code": "200058519",
    "departement_code": "78",
    "region_code": "11",
    "postal_code": "78600"
  },
  {
    "name": "Le Mesnil-Saint-Denis",
    "code": "78397",
    "epci_code": "200033173",
    "departement_code": "78",
    "region_code": "11",
    "postal_code": "78320"
  },
  {
    "name": "Les Mesnuls",
    "code": "78398",
    "epci_code": "247800618",
    "departement_code": "78",
    "region_code": "11",
    "postal_code": "78490"
  },
  {
    "name": "Meulan-en-Yvelines",
    "code": "78401",
    "epci_code": "200059889",
    "departement_code": "78",
    "region_code": "11",
    "postal_code": "78250"
  },
  {
    "name": "Mézières-sur-Seine",
    "code": "78402",
    "epci_code": "200059889",
    "departement_code": "78",
    "region_code": "11",
    "postal_code": "78970"
  },
  {
    "name": "Mézy-sur-Seine",
    "code": "78403",
    "epci_code": "200059889",
    "departement_code": "78",
    "region_code": "11",
    "postal_code": "78250"
  },
  {
    "name": "Millemont",
    "code": "78404",
    "epci_code": "247800618",
    "departement_code": "78",
    "region_code": "11",
    "postal_code": "78940"
  },
  {
    "name": "Milon-la-Chapelle",
    "code": "78406",
    "epci_code": "200033173",
    "departement_code": "78",
    "region_code": "11",
    "postal_code": "78470"
  },
  {
    "name": "Mittainville",
    "code": "78407",
    "epci_code": "200073344",
    "departement_code": "78",
    "region_code": "11",
    "postal_code": "78125"
  },
  {
    "name": "Moisson",
    "code": "78410",
    "epci_code": "200071074",
    "departement_code": "78",
    "region_code": "11",
    "postal_code": "78840"
  },
  {
    "name": "Mondreville",
    "code": "78413",
    "epci_code": "247800550",
    "departement_code": "78",
    "region_code": "11",
    "postal_code": "78980"
  },
  {
    "name": "Montainville",
    "code": "78415",
    "epci_code": "200034130",
    "departement_code": "78",
    "region_code": "11",
    "postal_code": "78124"
  },
  {
    "name": "Montalet-le-Bois",
    "code": "78416",
    "epci_code": "200059889",
    "departement_code": "78",
    "region_code": "11",
    "postal_code": "78440"
  },
  {
    "name": "Montchauvet",
    "code": "78417",
    "epci_code": "247800550",
    "departement_code": "78",
    "region_code": "11",
    "postal_code": "78790"
  },
  {
    "name": "Montesson",
    "code": "78418",
    "epci_code": "200058519",
    "departement_code": "78",
    "region_code": "11",
    "postal_code": "78360"
  },
  {
    "name": "Montfort-l’Amaury",
    "code": "78420",
    "epci_code": "247800618",
    "departement_code": "78",
    "region_code": "11",
    "postal_code": "78490"
  },
  {
    "name": "Montigny-le-Bretonneux",
    "code": "78423",
    "epci_code": "200058782",
    "departement_code": "78",
    "region_code": "11",
    "postal_code": "78180"
  },
  {
    "name": "Morainvilliers",
    "code": "78431",
    "epci_code": "200059889",
    "departement_code": "78",
    "region_code": "11",
    "postal_code": "78630"
  },
  {
    "name": "Mousseaux-sur-Seine",
    "code": "78437",
    "epci_code": "200059889",
    "departement_code": "78",
    "region_code": "11",
    "postal_code": "78270"
  },
  {
    "name": "Mulcent",
    "code": "78439",
    "epci_code": "247800550",
    "departement_code": "78",
    "region_code": "11",
    "postal_code": "78790"
  },
  {
    "name": "Les Mureaux",
    "code": "78440",
    "epci_code": "200059889",
    "departement_code": "78",
    "region_code": "11",
    "postal_code": "78130"
  },
  {
    "name": "Neauphle-le-Château",
    "code": "78442",
    "epci_code": "247800618",
    "departement_code": "78",
    "region_code": "11",
    "postal_code": "78640"
  },
  {
    "name": "Neauphle-le-Vieux",
    "code": "78443",
    "epci_code": "247800618",
    "departement_code": "78",
    "region_code": "11",
    "postal_code": "78640"
  },
  {
    "name": "Neauphlette",
    "code": "78444",
    "epci_code": "200071074",
    "departement_code": "78",
    "region_code": "11",
    "postal_code": "78980"
  },
  {
    "name": "Nézel",
    "code": "78451",
    "epci_code": "200059889",
    "departement_code": "78",
    "region_code": "11",
    "postal_code": "78410"
  },
  {
    "name": "Noisy-le-Roi",
    "code": "78455",
    "epci_code": "247800584",
    "departement_code": "78",
    "region_code": "11",
    "postal_code": "78590"
  },
  {
    "name": "Oinville-sur-Montcient",
    "code": "78460",
    "epci_code": "200059889",
    "departement_code": "78",
    "region_code": "11",
    "postal_code": "78250"
  },
  {
    "name": "Orcemont",
    "code": "78464",
    "epci_code": "200073344",
    "departement_code": "78",
    "region_code": "11",
    "postal_code": "78125"
  },
  {
    "name": "Orgerus",
    "code": "78465",
    "epci_code": "247800550",
    "departement_code": "78",
    "region_code": "11",
    "postal_code": "78910"
  },
  {
    "name": "Orgeval",
    "code": "78466",
    "epci_code": "200059889",
    "departement_code": "78",
    "region_code": "11",
    "postal_code": "78630"
  },
  {
    "name": "Orphin",
    "code": "78470",
    "epci_code": "200073344",
    "departement_code": "78",
    "region_code": "11",
    "postal_code": "78125"
  },
  {
    "name": "Orsonville",
    "code": "78472",
    "epci_code": "200073344",
    "departement_code": "78",
    "region_code": "11",
    "postal_code": "78660"
  },
  {
    "name": "Orvilliers",
    "code": "78474",
    "epci_code": "247800550",
    "departement_code": "78",
    "region_code": "11",
    "postal_code": "78910"
  },
  {
    "name": "Osmoy",
    "code": "78475",
    "epci_code": "247800550",
    "departement_code": "78",
    "region_code": "11",
    "postal_code": "78910"
  },
  {
    "name": "Paray-Douaville",
    "code": "78478",
    "epci_code": "200073344",
    "departement_code": "78",
    "region_code": "11",
    "postal_code": "78660"
  },
  {
    "name": "Le Pecq",
    "code": "78481",
    "epci_code": "200058519",
    "departement_code": "78",
    "region_code": "11",
    "postal_code": "78230"
  },
  {
    "name": "Perdreauville",
    "code": "78484",
    "epci_code": "200059889",
    "departement_code": "78",
    "region_code": "11",
    "postal_code": "78200"
  },
  {
    "name": "Le Perray-en-Yvelines",
    "code": "78486",
    "epci_code": "200073344",
    "departement_code": "78",
    "region_code": "11",
    "postal_code": "78610"
  },
  {
    "name": "Plaisir",
    "code": "78490",
    "epci_code": "200058782",
    "departement_code": "78",
    "region_code": "11",
    "postal_code": "78370"
  },
  {
    "name": "Poigny-la-Forêt",
    "code": "78497",
    "epci_code": "200073344",
    "departement_code": "78",
    "region_code": "11",
    "postal_code": "78125"
  },
  {
    "name": "Poissy",
    "code": "78498",
    "epci_code": "200059889",
    "departement_code": "78",
    "region_code": "11",
    "postal_code": "78300"
  },
  {
    "name": "Ponthévrard",
    "code": "78499",
    "epci_code": "200073344",
    "departement_code": "78",
    "region_code": "11",
    "postal_code": "78730"
  },
  {
    "name": "Porcheville",
    "code": "78501",
    "epci_code": "200059889",
    "departement_code": "78",
    "region_code": "11",
    "postal_code": "78440"
  },
  {
    "name": "Le Port-Marly",
    "code": "78502",
    "epci_code": "200058519",
    "departement_code": "78",
    "region_code": "11",
    "postal_code": "78560"
  },
  {
    "name": "Prunay-le-Temple",
    "code": "78505",
    "epci_code": "247800550",
    "departement_code": "78",
    "region_code": "11",
    "postal_code": "78910"
  },
  {
    "name": "Prunay-en-Yvelines",
    "code": "78506",
    "epci_code": "200073344",
    "departement_code": "78",
    "region_code": "11",
    "postal_code": "78660"
  },
  {
    "name": "La Queue-les-Yvelines",
    "code": "78513",
    "epci_code": "247800618",
    "departement_code": "78",
    "region_code": "11",
    "postal_code": "78940"
  },
  {
    "name": "Raizeux",
    "code": "78516",
    "epci_code": "200073344",
    "departement_code": "78",
    "region_code": "11",
    "postal_code": "78125"
  },
  {
    "name": "Rambouillet",
    "code": "78517",
    "epci_code": "200073344",
    "departement_code": "78",
    "region_code": "11",
    "postal_code": "78120"
  },
  {
    "name": "Rennemoulin",
    "code": "78518",
    "epci_code": "247800584",
    "departement_code": "78",
    "region_code": "11",
    "postal_code": "78590"
  },
  {
    "name": "Richebourg",
    "code": "78520",
    "epci_code": "247800550",
    "departement_code": "78",
    "region_code": "11",
    "postal_code": "78550"
  },
  {
    "name": "Rochefort-en-Yvelines",
    "code": "78522",
    "epci_code": "200073344",
    "departement_code": "78",
    "region_code": "11",
    "postal_code": "78730"
  },
  {
    "name": "Rolleboise",
    "code": "78528",
    "epci_code": "200059889",
    "departement_code": "78",
    "region_code": "11",
    "postal_code": "78270"
  },
  {
    "name": "Rosay",
    "code": "78530",
    "epci_code": "247800550",
    "departement_code": "78",
    "region_code": "11",
    "postal_code": "78790"
  },
  {
    "name": "Rosny-sur-Seine",
    "code": "78531",
    "epci_code": "200059889",
    "departement_code": "78",
    "region_code": "11",
    "postal_code": "78710"
  },
  {
    "name": "Sailly",
    "code": "78536",
    "epci_code": "200059889",
    "departement_code": "78",
    "region_code": "11",
    "postal_code": "78440"
  },
  {
    "name": "Saint-Arnoult-en-Yvelines",
    "code": "78537",
    "epci_code": "200073344",
    "departement_code": "78",
    "region_code": "11",
    "postal_code": "78730"
  },
  {
    "name": "Saint-Cyr-l’École",
    "code": "78545",
    "epci_code": "247800584",
    "departement_code": "78",
    "region_code": "11",
    "postal_code": "78210"
  },
  {
    "name": "Saint-Forget",
    "code": "78548",
    "epci_code": "200033173",
    "departement_code": "78",
    "region_code": "11",
    "postal_code": "78720"
  },
  {
    "name": "Saint-Germain-de-la-Grange",
    "code": "78550",
    "epci_code": "247800618",
    "departement_code": "78",
    "region_code": "11",
    "postal_code": "78640"
  },
  {
    "name": "Saint-Germain-en-Laye",
    "code": "78551",
    "epci_code": "200058519",
    "departement_code": "78",
    "region_code": "11",
    "postal_code": "78100"
  },
  {
    "name": "Saint-Germain-en-Laye",
    "code": "78551",
    "epci_code": "200058519",
    "departement_code": "78",
    "region_code": "11",
    "postal_code": "78112"
  },
  {
    "name": "Saint-Hilarion",
    "code": "78557",
    "epci_code": "200073344",
    "departement_code": "78",
    "region_code": "11",
    "postal_code": "78125"
  },
  {
    "name": "Saint-Illiers-la-Ville",
    "code": "78558",
    "epci_code": "200071074",
    "departement_code": "78",
    "region_code": "11",
    "postal_code": "78980"
  },
  {
    "name": "Saint-Illiers-le-Bois",
    "code": "78559",
    "epci_code": "200071074",
    "departement_code": "78",
    "region_code": "11",
    "postal_code": "78980"
  },
  {
    "name": "Saint-Lambert",
    "code": "78561",
    "epci_code": "200033173",
    "departement_code": "78",
    "region_code": "11",
    "postal_code": "78470"
  },
  {
    "name": "Saint-Léger-en-Yvelines",
    "code": "78562",
    "epci_code": "200073344",
    "departement_code": "78",
    "region_code": "11",
    "postal_code": "78610"
  },
  {
    "name": "Saint-Martin-de-Bréthencourt",
    "code": "78564",
    "epci_code": "200073344",
    "departement_code": "78",
    "region_code": "11",
    "postal_code": "78660"
  },
  {
    "name": "Saint-Martin-des-Champs",
    "code": "78565",
    "epci_code": "247800550",
    "departement_code": "78",
    "region_code": "11",
    "postal_code": "78790"
  },
  {
    "name": "Saint-Martin-la-Garenne",
    "code": "78567",
    "epci_code": "200059889",
    "departement_code": "78",
    "region_code": "11",
    "postal_code": "78520"
  },
  {
    "name": "Sainte-Mesme",
    "code": "78569",
    "epci_code": "200073344",
    "departement_code": "78",
    "region_code": "11",
    "postal_code": "78730"
  },
  {
    "name": "Saint-Nom-la-Bretèche",
    "code": "78571",
    "epci_code": "200034130",
    "departement_code": "78",
    "region_code": "11",
    "postal_code": "78860"
  },
  {
    "name": "Saint-Rémy-lès-Chevreuse",
    "code": "78575",
    "epci_code": "200033173",
    "departement_code": "78",
    "region_code": "11",
    "postal_code": "78470"
  },
  {
    "name": "Saint-Rémy-l’Honoré",
    "code": "78576",
    "epci_code": "247800618",
    "departement_code": "78",
    "region_code": "11",
    "postal_code": "78690"
  },
  {
    "name": "Sartrouville",
    "code": "78586",
    "epci_code": "200058519",
    "departement_code": "78",
    "region_code": "11",
    "postal_code": "78500"
  },
  {
    "name": "Saulx-Marchais",
    "code": "78588",
    "epci_code": "247800618",
    "departement_code": "78",
    "region_code": "11",
    "postal_code": "78650"
  },
  {
    "name": "Senlisse",
    "code": "78590",
    "epci_code": "200033173",
    "departement_code": "78",
    "region_code": "11",
    "postal_code": "78720"
  },
  {
    "name": "Septeuil",
    "code": "78591",
    "epci_code": "247800550",
    "departement_code": "78",
    "region_code": "11",
    "postal_code": "78790"
  },
  {
    "name": "Soindres",
    "code": "78597",
    "epci_code": "200059889",
    "departement_code": "78",
    "region_code": "11",
    "postal_code": "78200"
  },
  {
    "name": "Sonchamp",
    "code": "78601",
    "epci_code": "200073344",
    "departement_code": "78",
    "region_code": "11",
    "postal_code": "78120"
  },
  {
    "name": "Tacoignières",
    "code": "78605",
    "epci_code": "247800550",
    "departement_code": "78",
    "region_code": "11",
    "postal_code": "78910"
  },
  {
    "name": "Le Tartre-Gaudran",
    "code": "78606",
    "epci_code": "247800550",
    "departement_code": "78",
    "region_code": "11",
    "postal_code": "78113"
  },
  {
    "name": "Le Tertre-Saint-Denis",
    "code": "78608",
    "epci_code": "200059889",
    "departement_code": "78",
    "region_code": "11",
    "postal_code": "78980"
  },
  {
    "name": "Tessancourt-sur-Aubette",
    "code": "78609",
    "epci_code": "200059889",
    "departement_code": "78",
    "region_code": "11",
    "postal_code": "78250"
  },
  {
    "name": "Thiverval-Grignon",
    "code": "78615",
    "epci_code": "247800618",
    "departement_code": "78",
    "region_code": "11",
    "postal_code": "78850"
  },
  {
    "name": "Thoiry",
    "code": "78616",
    "epci_code": "247800618",
    "departement_code": "78",
    "region_code": "11",
    "postal_code": "78770"
  },
  {
    "name": "Tilly",
    "code": "78618",
    "epci_code": "247800550",
    "departement_code": "78",
    "region_code": "11",
    "postal_code": "78790"
  },
  {
    "name": "Toussus-le-Noble",
    "code": "78620",
    "epci_code": "247800584",
    "departement_code": "78",
    "region_code": "11",
    "postal_code": "78117"
  },
  {
    "name": "Trappes",
    "code": "78621",
    "epci_code": "200058782",
    "departement_code": "78",
    "region_code": "11",
    "postal_code": "78190"
  },
  {
    "name": "Le Tremblay-sur-Mauldre",
    "code": "78623",
    "epci_code": "247800618",
    "departement_code": "78",
    "region_code": "11",
    "postal_code": "78490"
  },
  {
    "name": "Triel-sur-Seine",
    "code": "78624",
    "epci_code": "200059889",
    "departement_code": "78",
    "region_code": "11",
    "postal_code": "78510"
  },
  {
    "name": "Vaux-sur-Seine",
    "code": "78638",
    "epci_code": "200059889",
    "departement_code": "78",
    "region_code": "11",
    "postal_code": "78740"
  },
  {
    "name": "Vélizy-Villacoublay",
    "code": "78640",
    "epci_code": "247800584",
    "departement_code": "78",
    "region_code": "11",
    "postal_code": "78140"
  },
  {
    "name": "Verneuil-sur-Seine",
    "code": "78642",
    "epci_code": "200059889",
    "departement_code": "78",
    "region_code": "11",
    "postal_code": "78480"
  },
  {
    "name": "Vernouillet",
    "code": "78643",
    "epci_code": "200059889",
    "departement_code": "78",
    "region_code": "11",
    "postal_code": "78540"
  },
  {
    "name": "La Verrière",
    "code": "78644",
    "epci_code": "200058782",
    "departement_code": "78",
    "region_code": "11",
    "postal_code": "78320"
  },
  {
    "name": "Versailles",
    "code": "78646",
    "epci_code": "247800584",
    "departement_code": "78",
    "region_code": "11",
    "postal_code": "78000"
  },
  {
    "name": "Vert",
    "code": "78647",
    "epci_code": "200059889",
    "departement_code": "78",
    "region_code": "11",
    "postal_code": "78930"
  },
  {
    "name": "Le Vésinet",
    "code": "78650",
    "epci_code": "200058519",
    "departement_code": "78",
    "region_code": "11",
    "postal_code": "78110"
  },
  {
    "name": "Vicq",
    "code": "78653",
    "epci_code": "247800618",
    "departement_code": "78",
    "region_code": "11",
    "postal_code": "78490"
  },
  {
    "name": "Vieille-Église-en-Yvelines",
    "code": "78655",
    "epci_code": "200073344",
    "departement_code": "78",
    "region_code": "11",
    "postal_code": "78125"
  },
  {
    "name": "La Villeneuve-en-Chevrie",
    "code": "78668",
    "epci_code": "200071074",
    "departement_code": "78",
    "region_code": "11",
    "postal_code": "78270"
  },
  {
    "name": "Villennes-sur-Seine",
    "code": "78672",
    "epci_code": "200059889",
    "departement_code": "78",
    "region_code": "11",
    "postal_code": "78670"
  },
  {
    "name": "Villepreux",
    "code": "78674",
    "epci_code": "200058782",
    "departement_code": "78",
    "region_code": "11",
    "postal_code": "78450"
  },
  {
    "name": "Villette",
    "code": "78677",
    "epci_code": "247800550",
    "departement_code": "78",
    "region_code": "11",
    "postal_code": "78930"
  },
  {
    "name": "Villiers-le-Mahieu",
    "code": "78681",
    "epci_code": "247800618",
    "departement_code": "78",
    "region_code": "11",
    "postal_code": "78770"
  },
  {
    "name": "Villiers-Saint-Frédéric",
    "code": "78683",
    "epci_code": "247800618",
    "departement_code": "78",
    "region_code": "11",
    "postal_code": "78640"
  },
  {
    "name": "Viroflay",
    "code": "78686",
    "epci_code": "247800584",
    "departement_code": "78",
    "region_code": "11",
    "postal_code": "78220"
  },
  {
    "name": "Voisins-le-Bretonneux",
    "code": "78688",
    "epci_code": "200058782",
    "departement_code": "78",
    "region_code": "11",
    "postal_code": "78960"
  }
]