[
  {
    "name": "Albaret-le-Comtal",
    "code": "48001",
    "epci_code": "200069144",
    "departement_code": "48",
    "region_code": "76",
    "postal_code": "48310"
  },
  {
    "name": "Albaret-Sainte-Marie",
    "code": "48002",
    "epci_code": "200069185",
    "departement_code": "48",
    "region_code": "76",
    "postal_code": "48200"
  },
  {
    "name": "Allenc",
    "code": "48003",
    "epci_code": "200069128",
    "departement_code": "48",
    "region_code": "76",
    "postal_code": "48190"
  },
  {
    "name": "Altier",
    "code": "48004",
    "epci_code": "200069128",
    "departement_code": "48",
    "region_code": "76",
    "postal_code": "48800"
  },
  {
    "name": "Antrenas",
    "code": "48005",
    "epci_code": "244800470",
    "departement_code": "48",
    "region_code": "76",
    "postal_code": "48100"
  },
  {
    "name": "Arzenc-d’Apcher",
    "code": "48007",
    "epci_code": "200069144",
    "departement_code": "48",
    "region_code": "76",
    "postal_code": "48310"
  },
  {
    "name": "Arzenc-de-Randon",
    "code": "48008",
    "epci_code": "200069102",
    "departement_code": "48",
    "region_code": "76",
    "postal_code": "48170"
  },
  {
    "name": "Peyre en Aubrac",
    "code": "48009",
    "epci_code": "200069144",
    "departement_code": "48",
    "region_code": "76",
    "postal_code": "48130"
  },
  {
    "name": "Auroux",
    "code": "48010",
    "epci_code": "200006930",
    "departement_code": "48",
    "region_code": "76",
    "postal_code": "48600"
  },
  {
    "name": "Les Monts-Verts",
    "code": "48012",
    "epci_code": "200069144",
    "departement_code": "48",
    "region_code": "76",
    "postal_code": "48200"
  },
  {
    "name": "Badaroux",
    "code": "48013",
    "epci_code": "244800405",
    "departement_code": "48",
    "region_code": "76",
    "postal_code": "48000"
  },
  {
    "name": "Pied-de-Borne",
    "code": "48015",
    "epci_code": "200069128",
    "departement_code": "48",
    "region_code": "76",
    "postal_code": "48800"
  },
  {
    "name": "Balsièges",
    "code": "48016",
    "epci_code": "244800405",
    "departement_code": "48",
    "region_code": "76",
    "postal_code": "48000"
  },
  {
    "name": "Banassac-Canilhac",
    "code": "48017",
    "epci_code": "200069268",
    "departement_code": "48",
    "region_code": "76",
    "postal_code": "48500"
  },
  {
    "name": "Barjac",
    "code": "48018",
    "epci_code": "244800405",
    "departement_code": "48",
    "region_code": "76",
    "postal_code": "48000"
  },
  {
    "name": "Barre-des-Cévennes",
    "code": "48019",
    "epci_code": "200069151",
    "departement_code": "48",
    "region_code": "76",
    "postal_code": "48400"
  },
  {
    "name": "Bassurels",
    "code": "48020",
    "epci_code": "200069136",
    "departement_code": "48",
    "region_code": "76",
    "postal_code": "48400"
  },
  {
    "name": "La Bastide-Puylaurent",
    "code": "48021",
    "epci_code": "200069128",
    "departement_code": "48",
    "region_code": "76",
    "postal_code": "48250"
  },
  {
    "name": "Les Bessons",
    "code": "48025",
    "epci_code": "200069185",
    "departement_code": "48",
    "region_code": "76",
    "postal_code": "48200"
  },
  {
    "name": "Blavignac",
    "code": "48026",
    "epci_code": "200069185",
    "departement_code": "48",
    "region_code": "76",
    "postal_code": "48200"
  },
  {
    "name": "Mont Lozère et Goulet",
    "code": "48027",
    "epci_code": "200069128",
    "departement_code": "48",
    "region_code": "76",
    "postal_code": "48170"
  },
  {
    "name": "Mont Lozère et Goulet",
    "code": "48027",
    "epci_code": "200069128",
    "departement_code": "48",
    "region_code": "76",
    "postal_code": "48190"
  },
  {
    "name": "Mont Lozère et Goulet",
    "code": "48027",
    "epci_code": "200069128",
    "departement_code": "48",
    "region_code": "76",
    "postal_code": "48250"
  },
  {
    "name": "Les Bondons",
    "code": "48028",
    "epci_code": "200069151",
    "departement_code": "48",
    "region_code": "76",
    "postal_code": "48400"
  },
  {
    "name": "Le Born",
    "code": "48029",
    "epci_code": "244800405",
    "departement_code": "48",
    "region_code": "76",
    "postal_code": "48000"
  },
  {
    "name": "Brenoux",
    "code": "48030",
    "epci_code": "200069128",
    "departement_code": "48",
    "region_code": "76",
    "postal_code": "48000"
  },
  {
    "name": "Brion",
    "code": "48031",
    "epci_code": "200069144",
    "departement_code": "48",
    "region_code": "76",
    "postal_code": "48310"
  },
  {
    "name": "Le Buisson",
    "code": "48032",
    "epci_code": "244800470",
    "departement_code": "48",
    "region_code": "76",
    "postal_code": "48100"
  },
  {
    "name": "La Canourgue",
    "code": "48034",
    "epci_code": "200069268",
    "departement_code": "48",
    "region_code": "76",
    "postal_code": "48500"
  },
  {
    "name": "Cassagnas",
    "code": "48036",
    "epci_code": "200069151",
    "departement_code": "48",
    "region_code": "76",
    "postal_code": "48400"
  },
  {
    "name": "Chadenet",
    "code": "48037",
    "epci_code": "200069128",
    "departement_code": "48",
    "region_code": "76",
    "postal_code": "48190"
  },
  {
    "name": "Bel-Air-Val-d’Ance",
    "code": "48038",
    "epci_code": "200006930",
    "departement_code": "48",
    "region_code": "76",
    "postal_code": "48600"
  },
  {
    "name": "Chanac",
    "code": "48039",
    "epci_code": "200069268",
    "departement_code": "48",
    "region_code": "76",
    "postal_code": "48230"
  },
  {
    "name": "Chastanier",
    "code": "48041",
    "epci_code": "200006930",
    "departement_code": "48",
    "region_code": "76",
    "postal_code": "48300"
  },
  {
    "name": "Chastel-Nouvel",
    "code": "48042",
    "epci_code": "200069102",
    "departement_code": "48",
    "region_code": "76",
    "postal_code": "48000"
  },
  {
    "name": "Châteauneuf-de-Randon",
    "code": "48043",
    "epci_code": "200069102",
    "departement_code": "48",
    "region_code": "76",
    "postal_code": "48170"
  },
  {
    "name": "Chauchailles",
    "code": "48044",
    "epci_code": "200069144",
    "departement_code": "48",
    "region_code": "76",
    "postal_code": "48310"
  },
  {
    "name": "Chaudeyrac",
    "code": "48045",
    "epci_code": "200069102",
    "departement_code": "48",
    "region_code": "76",
    "postal_code": "48170"
  },
  {
    "name": "Chaulhac",
    "code": "48046",
    "epci_code": "200069185",
    "departement_code": "48",
    "region_code": "76",
    "postal_code": "48140"
  },
  {
    "name": "Cheylard-l’Évêque",
    "code": "48048",
    "epci_code": "200006930",
    "departement_code": "48",
    "region_code": "76",
    "postal_code": "48300"
  },
  {
    "name": "Bédouès-Cocurès",
    "code": "48050",
    "epci_code": "200069151",
    "departement_code": "48",
    "region_code": "76",
    "postal_code": "48400"
  },
  {
    "name": "Le Collet-de-Dèze",
    "code": "48051",
    "epci_code": "200069136",
    "departement_code": "48",
    "region_code": "76",
    "postal_code": "48160"
  },
  {
    "name": "Cubières",
    "code": "48053",
    "epci_code": "200069128",
    "departement_code": "48",
    "region_code": "76",
    "postal_code": "48190"
  },
  {
    "name": "Cubiérettes",
    "code": "48054",
    "epci_code": "200069128",
    "departement_code": "48",
    "region_code": "76",
    "postal_code": "48190"
  },
  {
    "name": "Cultures",
    "code": "48055",
    "epci_code": "200069268",
    "departement_code": "48",
    "region_code": "76",
    "postal_code": "48230"
  },
  {
    "name": "Esclanèdes",
    "code": "48056",
    "epci_code": "200069268",
    "departement_code": "48",
    "region_code": "76",
    "postal_code": "48230"
  },
  {
    "name": "La Fage-Montivernoux",
    "code": "48058",
    "epci_code": "200069144",
    "departement_code": "48",
    "region_code": "76",
    "postal_code": "48310"
  },
  {
    "name": "La Fage-Saint-Julien",
    "code": "48059",
    "epci_code": "200069185",
    "departement_code": "48",
    "region_code": "76",
    "postal_code": "48200"
  },
  {
    "name": "Florac Trois Rivières",
    "code": "48061",
    "epci_code": "200069151",
    "departement_code": "48",
    "region_code": "76",
    "postal_code": "48400"
  },
  {
    "name": "Fontans",
    "code": "48063",
    "epci_code": "200069185",
    "departement_code": "48",
    "region_code": "76",
    "postal_code": "48700"
  },
  {
    "name": "Fournels",
    "code": "48064",
    "epci_code": "200069144",
    "departement_code": "48",
    "region_code": "76",
    "postal_code": "48310"
  },
  {
    "name": "Fraissinet-de-Fourques",
    "code": "48065",
    "epci_code": "200069151",
    "departement_code": "48",
    "region_code": "76",
    "postal_code": "48400"
  },
  {
    "name": "Gabriac",
    "code": "48067",
    "epci_code": "200069136",
    "departement_code": "48",
    "region_code": "76",
    "postal_code": "48110"
  },
  {
    "name": "Gabrias",
    "code": "48068",
    "epci_code": "244800470",
    "departement_code": "48",
    "region_code": "76",
    "postal_code": "48100"
  },
  {
    "name": "Gatuzières",
    "code": "48069",
    "epci_code": "200069151",
    "departement_code": "48",
    "region_code": "76",
    "postal_code": "48150"
  },
  {
    "name": "Grandrieu",
    "code": "48070",
    "epci_code": "200069102",
    "departement_code": "48",
    "region_code": "76",
    "postal_code": "48600"
  },
  {
    "name": "Grandvals",
    "code": "48071",
    "epci_code": "200069144",
    "departement_code": "48",
    "region_code": "76",
    "postal_code": "48260"
  },
  {
    "name": "Grèzes",
    "code": "48072",
    "epci_code": "244800470",
    "departement_code": "48",
    "region_code": "76",
    "postal_code": "48100"
  },
  {
    "name": "Les Hermaux",
    "code": "48073",
    "epci_code": "200069268",
    "departement_code": "48",
    "region_code": "76",
    "postal_code": "48340"
  },
  {
    "name": "Hures-la-Parade",
    "code": "48074",
    "epci_code": "200069151",
    "departement_code": "48",
    "region_code": "76",
    "postal_code": "48150"
  },
  {
    "name": "Ispagnac",
    "code": "48075",
    "epci_code": "200069151",
    "departement_code": "48",
    "region_code": "76",
    "postal_code": "48320"
  },
  {
    "name": "Julianges",
    "code": "48077",
    "epci_code": "200069185",
    "departement_code": "48",
    "region_code": "76",
    "postal_code": "48140"
  },
  {
    "name": "Lajo",
    "code": "48079",
    "epci_code": "200069185",
    "departement_code": "48",
    "region_code": "76",
    "postal_code": "48120"
  },
  {
    "name": "Langogne",
    "code": "48080",
    "epci_code": "200006930",
    "departement_code": "48",
    "region_code": "76",
    "postal_code": "48300"
  },
  {
    "name": "Lanuéjols",
    "code": "48081",
    "epci_code": "200069128",
    "departement_code": "48",
    "region_code": "76",
    "postal_code": "48000"
  },
  {
    "name": "Laubert",
    "code": "48082",
    "epci_code": "200069128",
    "departement_code": "48",
    "region_code": "76",
    "postal_code": "48170"
  },
  {
    "name": "Les Laubies",
    "code": "48083",
    "epci_code": "200069102",
    "departement_code": "48",
    "region_code": "76",
    "postal_code": "48700"
  },
  {
    "name": "Laval-du-Tarn",
    "code": "48085",
    "epci_code": "200069268",
    "departement_code": "48",
    "region_code": "76",
    "postal_code": "48500"
  },
  {
    "name": "Luc",
    "code": "48086",
    "epci_code": "200006930",
    "departement_code": "48",
    "region_code": "76",
    "postal_code": "48250"
  },
  {
    "name": "Prinsuéjols-Malbouzon",
    "code": "48087",
    "epci_code": "200069144",
    "departement_code": "48",
    "region_code": "76",
    "postal_code": "48100"
  },
  {
    "name": "Prinsuéjols-Malbouzon",
    "code": "48087",
    "epci_code": "200069144",
    "departement_code": "48",
    "region_code": "76",
    "postal_code": "48270"
  },
  {
    "name": "La Malène",
    "code": "48088",
    "epci_code": "200069151",
    "departement_code": "48",
    "region_code": "76",
    "postal_code": "48210"
  },
  {
    "name": "Le Malzieu-Forain",
    "code": "48089",
    "epci_code": "200069185",
    "departement_code": "48",
    "region_code": "76",
    "postal_code": "48140"
  },
  {
    "name": "Le Malzieu-Ville",
    "code": "48090",
    "epci_code": "200069185",
    "departement_code": "48",
    "region_code": "76",
    "postal_code": "48140"
  },
  {
    "name": "Marchastel",
    "code": "48091",
    "epci_code": "200069144",
    "departement_code": "48",
    "region_code": "76",
    "postal_code": "48260"
  },
  {
    "name": "Marvejols",
    "code": "48092",
    "epci_code": "244800470",
    "departement_code": "48",
    "region_code": "76",
    "postal_code": "48100"
  },
  {
    "name": "Massegros Causses Gorges",
    "code": "48094",
    "epci_code": "200069268",
    "departement_code": "48",
    "region_code": "76",
    "postal_code": "48210"
  },
  {
    "name": "Massegros Causses Gorges",
    "code": "48094",
    "epci_code": "200069268",
    "departement_code": "48",
    "region_code": "76",
    "postal_code": "48500"
  },
  {
    "name": "Mende",
    "code": "48095",
    "epci_code": "244800405",
    "departement_code": "48",
    "region_code": "76",
    "postal_code": "48000"
  },
  {
    "name": "Meyrueis",
    "code": "48096",
    "epci_code": "200069151",
    "departement_code": "48",
    "region_code": "76",
    "postal_code": "48150"
  },
  {
    "name": "Moissac-Vallée-Française",
    "code": "48097",
    "epci_code": "200069136",
    "departement_code": "48",
    "region_code": "76",
    "postal_code": "48110"
  },
  {
    "name": "Molezon",
    "code": "48098",
    "epci_code": "200069136",
    "departement_code": "48",
    "region_code": "76",
    "postal_code": "48110"
  },
  {
    "name": "Bourgs sur Colagne",
    "code": "48099",
    "epci_code": "244800470",
    "departement_code": "48",
    "region_code": "76",
    "postal_code": "48100"
  },
  {
    "name": "Montbel",
    "code": "48100",
    "epci_code": "200069128",
    "departement_code": "48",
    "region_code": "76",
    "postal_code": "48170"
  },
  {
    "name": "Montrodat",
    "code": "48103",
    "epci_code": "244800470",
    "departement_code": "48",
    "region_code": "76",
    "postal_code": "48100"
  },
  {
    "name": "Nasbinals",
    "code": "48104",
    "epci_code": "200069144",
    "departement_code": "48",
    "region_code": "76",
    "postal_code": "48260"
  },
  {
    "name": "Naussac-Fontanes",
    "code": "48105",
    "epci_code": "200006930",
    "departement_code": "48",
    "region_code": "76",
    "postal_code": "48300"
  },
  {
    "name": "Noalhac",
    "code": "48106",
    "epci_code": "200069144",
    "departement_code": "48",
    "region_code": "76",
    "postal_code": "48310"
  },
  {
    "name": "Palhers",
    "code": "48107",
    "epci_code": "244800470",
    "departement_code": "48",
    "region_code": "76",
    "postal_code": "48100"
  },
  {
    "name": "La Panouse",
    "code": "48108",
    "epci_code": "200069102",
    "departement_code": "48",
    "region_code": "76",
    "postal_code": "48600"
  },
  {
    "name": "Paulhac-en-Margeride",
    "code": "48110",
    "epci_code": "200069185",
    "departement_code": "48",
    "region_code": "76",
    "postal_code": "48140"
  },
  {
    "name": "Pelouse",
    "code": "48111",
    "epci_code": "244800405",
    "departement_code": "48",
    "region_code": "76",
    "postal_code": "48000"
  },
  {
    "name": "Pierrefiche",
    "code": "48112",
    "epci_code": "200069102",
    "departement_code": "48",
    "region_code": "76",
    "postal_code": "48300"
  },
  {
    "name": "Le Pompidou",
    "code": "48115",
    "epci_code": "200069136",
    "departement_code": "48",
    "region_code": "76",
    "postal_code": "48110"
  },
  {
    "name": "Pont de Montvert - Sud Mont Lozère",
    "code": "48116",
    "epci_code": "200069136",
    "departement_code": "48",
    "region_code": "76",
    "postal_code": "48220"
  },
  {
    "name": "Pourcharesses",
    "code": "48117",
    "epci_code": "200069128",
    "departement_code": "48",
    "region_code": "76",
    "postal_code": "48800"
  },
  {
    "name": "Prévenchères",
    "code": "48119",
    "epci_code": "200069128",
    "departement_code": "48",
    "region_code": "76",
    "postal_code": "48800"
  },
  {
    "name": "Prunières",
    "code": "48121",
    "epci_code": "200069185",
    "departement_code": "48",
    "region_code": "76",
    "postal_code": "48200"
  },
  {
    "name": "Recoules-d’Aubrac",
    "code": "48123",
    "epci_code": "200069144",
    "departement_code": "48",
    "region_code": "76",
    "postal_code": "48260"
  },
  {
    "name": "Recoules-de-Fumas",
    "code": "48124",
    "epci_code": "244800470",
    "departement_code": "48",
    "region_code": "76",
    "postal_code": "48100"
  },
  {
    "name": "Lachamp-Ribennes",
    "code": "48126",
    "epci_code": "200069102",
    "departement_code": "48",
    "region_code": "76",
    "postal_code": "48100"
  },
  {
    "name": "Lachamp-Ribennes",
    "code": "48126",
    "epci_code": "200069102",
    "departement_code": "48",
    "region_code": "76",
    "postal_code": "48700"
  },
  {
    "name": "Monts-de-Randon",
    "code": "48127",
    "epci_code": "200069102",
    "departement_code": "48",
    "region_code": "76",
    "postal_code": "48000"
  },
  {
    "name": "Monts-de-Randon",
    "code": "48127",
    "epci_code": "200069102",
    "departement_code": "48",
    "region_code": "76",
    "postal_code": "48700"
  },
  {
    "name": "Rimeize",
    "code": "48128",
    "epci_code": "200069185",
    "departement_code": "48",
    "region_code": "76",
    "postal_code": "48200"
  },
  {
    "name": "Rocles",
    "code": "48129",
    "epci_code": "200006930",
    "departement_code": "48",
    "region_code": "76",
    "postal_code": "48300"
  },
  {
    "name": "Rousses",
    "code": "48130",
    "epci_code": "200069151",
    "departement_code": "48",
    "region_code": "76",
    "postal_code": "48400"
  },
  {
    "name": "Le Rozier",
    "code": "48131",
    "epci_code": "241200567",
    "departement_code": "48",
    "region_code": "76",
    "postal_code": "48150"
  },
  {
    "name": "Saint-Alban-sur-Limagnole",
    "code": "48132",
    "epci_code": "200069185",
    "departement_code": "48",
    "region_code": "76",
    "postal_code": "48120"
  },
  {
    "name": "Saint-André-Capcèze",
    "code": "48135",
    "epci_code": "200069128",
    "departement_code": "48",
    "region_code": "76",
    "postal_code": "48800"
  },
  {
    "name": "Saint-André-de-Lancize",
    "code": "48136",
    "epci_code": "200069136",
    "departement_code": "48",
    "region_code": "76",
    "postal_code": "48240"
  },
  {
    "name": "Saint-Bauzile",
    "code": "48137",
    "epci_code": "244800405",
    "departement_code": "48",
    "region_code": "76",
    "postal_code": "48000"
  },
  {
    "name": "Saint-Bonnet-de-Chirac",
    "code": "48138",
    "epci_code": "244800470",
    "departement_code": "48",
    "region_code": "76",
    "postal_code": "48100"
  },
  {
    "name": "Saint Bonnet-Laval",
    "code": "48139",
    "epci_code": "200006930",
    "departement_code": "48",
    "region_code": "76",
    "postal_code": "48600"
  },
  {
    "name": "Saint-Chély-d’Apcher",
    "code": "48140",
    "epci_code": "200069185",
    "departement_code": "48",
    "region_code": "76",
    "postal_code": "48200"
  },
  {
    "name": "Mas-Saint-Chély",
    "code": "48141",
    "epci_code": "200069151",
    "departement_code": "48",
    "region_code": "76",
    "postal_code": "48210"
  },
  {
    "name": "Sainte-Croix-Vallée-Française",
    "code": "48144",
    "epci_code": "200069136",
    "departement_code": "48",
    "region_code": "76",
    "postal_code": "48110"
  },
  {
    "name": "Saint-Denis-en-Margeride",
    "code": "48145",
    "epci_code": "200069102",
    "departement_code": "48",
    "region_code": "76",
    "postal_code": "48700"
  },
  {
    "name": "Gorges du Tarn Causses",
    "code": "48146",
    "epci_code": "200069151",
    "departement_code": "48",
    "region_code": "76",
    "postal_code": "48210"
  },
  {
    "name": "Gorges du Tarn Causses",
    "code": "48146",
    "epci_code": "200069151",
    "departement_code": "48",
    "region_code": "76",
    "postal_code": "48320"
  },
  {
    "name": "Saint-Étienne-du-Valdonnez",
    "code": "48147",
    "epci_code": "200069128",
    "departement_code": "48",
    "region_code": "76",
    "postal_code": "48000"
  },
  {
    "name": "Saint-Étienne-Vallée-Française",
    "code": "48148",
    "epci_code": "200069136",
    "departement_code": "48",
    "region_code": "76",
    "postal_code": "48330"
  },
  {
    "name": "Sainte-Eulalie",
    "code": "48149",
    "epci_code": "200069185",
    "departement_code": "48",
    "region_code": "76",
    "postal_code": "48120"
  },
  {
    "name": "Saint-Flour-de-Mercoire",
    "code": "48150",
    "epci_code": "200006930",
    "departement_code": "48",
    "region_code": "76",
    "postal_code": "48300"
  },
  {
    "name": "Saint-Frézal-d’Albuges",
    "code": "48151",
    "epci_code": "200069128",
    "departement_code": "48",
    "region_code": "76",
    "postal_code": "48170"
  },
  {
    "name": "Ventalon en Cévennes",
    "code": "48152",
    "epci_code": "200069136",
    "departement_code": "48",
    "region_code": "76",
    "postal_code": "48160"
  },
  {
    "name": "Ventalon en Cévennes",
    "code": "48152",
    "epci_code": "200069136",
    "departement_code": "48",
    "region_code": "76",
    "postal_code": "48240"
  },
  {
    "name": "Saint-Gal",
    "code": "48153",
    "epci_code": "200069102",
    "departement_code": "48",
    "region_code": "76",
    "postal_code": "48700"
  },
  {
    "name": "Saint-Germain-de-Calberte",
    "code": "48155",
    "epci_code": "200069136",
    "departement_code": "48",
    "region_code": "76",
    "postal_code": "48370"
  },
  {
    "name": "Saint-Germain-du-Teil",
    "code": "48156",
    "epci_code": "200069268",
    "departement_code": "48",
    "region_code": "76",
    "postal_code": "48340"
  },
  {
    "name": "Sainte-Hélène",
    "code": "48157",
    "epci_code": "200069128",
    "departement_code": "48",
    "region_code": "76",
    "postal_code": "48190"
  },
  {
    "name": "Saint-Hilaire-de-Lavit",
    "code": "48158",
    "epci_code": "200069136",
    "departement_code": "48",
    "region_code": "76",
    "postal_code": "48160"
  },
  {
    "name": "Saint-Jean-la-Fouillouse",
    "code": "48160",
    "epci_code": "200069102",
    "departement_code": "48",
    "region_code": "76",
    "postal_code": "48170"
  },
  {
    "name": "Saint-Juéry",
    "code": "48161",
    "epci_code": "200069144",
    "departement_code": "48",
    "region_code": "76",
    "postal_code": "48310"
  },
  {
    "name": "Saint-Julien-des-Points",
    "code": "48163",
    "epci_code": "200069136",
    "departement_code": "48",
    "region_code": "76",
    "postal_code": "48160"
  },
  {
    "name": "Saint-Laurent-de-Muret",
    "code": "48165",
    "epci_code": "244800470",
    "departement_code": "48",
    "region_code": "76",
    "postal_code": "48100"
  },
  {
    "name": "Cans et Cévennes",
    "code": "48166",
    "epci_code": "200069151",
    "departement_code": "48",
    "region_code": "76",
    "postal_code": "48400"
  },
  {
    "name": "Saint-Laurent-de-Veyrès",
    "code": "48167",
    "epci_code": "200069144",
    "departement_code": "48",
    "region_code": "76",
    "postal_code": "48310"
  },
  {
    "name": "Saint-Léger-de-Peyre",
    "code": "48168",
    "epci_code": "244800470",
    "departement_code": "48",
    "region_code": "76",
    "postal_code": "48100"
  },
  {
    "name": "Saint-Léger-du-Malzieu",
    "code": "48169",
    "epci_code": "200069185",
    "departement_code": "48",
    "region_code": "76",
    "postal_code": "48140"
  },
  {
    "name": "Saint-Martin-de-Boubaux",
    "code": "48170",
    "epci_code": "200069136",
    "departement_code": "48",
    "region_code": "76",
    "postal_code": "48160"
  },
  {
    "name": "Saint-Martin-de-Lansuscle",
    "code": "48171",
    "epci_code": "200069136",
    "departement_code": "48",
    "region_code": "76",
    "postal_code": "48110"
  },
  {
    "name": "Saint-Michel-de-Dèze",
    "code": "48173",
    "epci_code": "200069136",
    "departement_code": "48",
    "region_code": "76",
    "postal_code": "48160"
  },
  {
    "name": "Saint-Paul-le-Froid",
    "code": "48174",
    "epci_code": "200069102",
    "departement_code": "48",
    "region_code": "76",
    "postal_code": "48600"
  },
  {
    "name": "Saint-Pierre-de-Nogaret",
    "code": "48175",
    "epci_code": "200069268",
    "departement_code": "48",
    "region_code": "76",
    "postal_code": "48340"
  },
  {
    "name": "Saint-Pierre-des-Tripiers",
    "code": "48176",
    "epci_code": "200069151",
    "departement_code": "48",
    "region_code": "76",
    "postal_code": "48150"
  },
  {
    "name": "Saint-Pierre-le-Vieux",
    "code": "48177",
    "epci_code": "200069185",
    "departement_code": "48",
    "region_code": "76",
    "postal_code": "48200"
  },
  {
    "name": "Saint-Privat-de-Vallongue",
    "code": "48178",
    "epci_code": "200069136",
    "departement_code": "48",
    "region_code": "76",
    "postal_code": "48240"
  },
  {
    "name": "Saint-Privat-du-Fau",
    "code": "48179",
    "epci_code": "200069185",
    "departement_code": "48",
    "region_code": "76",
    "postal_code": "48140"
  },
  {
    "name": "Saint-Saturnin",
    "code": "48181",
    "epci_code": "200069268",
    "departement_code": "48",
    "region_code": "76",
    "postal_code": "48500"
  },
  {
    "name": "Saint-Sauveur-de-Ginestoux",
    "code": "48182",
    "epci_code": "200069102",
    "departement_code": "48",
    "region_code": "76",
    "postal_code": "48170"
  },
  {
    "name": "Les Salelles",
    "code": "48185",
    "epci_code": "200069268",
    "departement_code": "48",
    "region_code": "76",
    "postal_code": "48230"
  },
  {
    "name": "Les Salces",
    "code": "48187",
    "epci_code": "200069268",
    "departement_code": "48",
    "region_code": "76",
    "postal_code": "48100"
  },
  {
    "name": "Serverette",
    "code": "48188",
    "epci_code": "200069185",
    "departement_code": "48",
    "region_code": "76",
    "postal_code": "48700"
  },
  {
    "name": "Termes",
    "code": "48190",
    "epci_code": "200069144",
    "departement_code": "48",
    "region_code": "76",
    "postal_code": "48310"
  },
  {
    "name": "La Tieule",
    "code": "48191",
    "epci_code": "200069268",
    "departement_code": "48",
    "region_code": "76",
    "postal_code": "48500"
  },
  {
    "name": "Trélans",
    "code": "48192",
    "epci_code": "200069268",
    "departement_code": "48",
    "region_code": "76",
    "postal_code": "48340"
  },
  {
    "name": "Vebron",
    "code": "48193",
    "epci_code": "200069151",
    "departement_code": "48",
    "region_code": "76",
    "postal_code": "48400"
  },
  {
    "name": "Vialas",
    "code": "48194",
    "epci_code": "200069136",
    "departement_code": "48",
    "region_code": "76",
    "postal_code": "48220"
  },
  {
    "name": "Villefort",
    "code": "48198",
    "epci_code": "200069128",
    "departement_code": "48",
    "region_code": "76",
    "postal_code": "48800"
  }
]