[
  {
    "name": "Allaire",
    "code": "56001",
    "epci_code": "243500741",
    "departement_code": "56",
    "region_code": "53",
    "postal_code": "56350"
  },
  {
    "name": "Ambon",
    "code": "56002",
    "epci_code": "200027027",
    "departement_code": "56",
    "region_code": "53",
    "postal_code": "56190"
  },
  {
    "name": "Arradon",
    "code": "56003",
    "epci_code": "200067932",
    "departement_code": "56",
    "region_code": "53",
    "postal_code": "56610"
  },
  {
    "name": "Arzal",
    "code": "56004",
    "epci_code": "200027027",
    "departement_code": "56",
    "region_code": "53",
    "postal_code": "56190"
  },
  {
    "name": "Arzon",
    "code": "56005",
    "epci_code": "200067932",
    "departement_code": "56",
    "region_code": "53",
    "postal_code": "56640"
  },
  {
    "name": "Augan",
    "code": "56006",
    "epci_code": "200066785",
    "departement_code": "56",
    "region_code": "53",
    "postal_code": "56800"
  },
  {
    "name": "Auray",
    "code": "56007",
    "epci_code": "200043123",
    "departement_code": "56",
    "region_code": "53",
    "postal_code": "56400"
  },
  {
    "name": "Baden",
    "code": "56008",
    "epci_code": "200067932",
    "departement_code": "56",
    "region_code": "53",
    "postal_code": "56870"
  },
  {
    "name": "Bangor",
    "code": "56009",
    "epci_code": "245600465",
    "departement_code": "56",
    "region_code": "53",
    "postal_code": "56360"
  },
  {
    "name": "Baud",
    "code": "56010",
    "epci_code": "200096675",
    "departement_code": "56",
    "region_code": "53",
    "postal_code": "56150"
  },
  {
    "name": "Béganne",
    "code": "56011",
    "epci_code": "243500741",
    "departement_code": "56",
    "region_code": "53",
    "postal_code": "56350"
  },
  {
    "name": "Beignon",
    "code": "56012",
    "epci_code": "200066785",
    "departement_code": "56",
    "region_code": "53",
    "postal_code": "56380"
  },
  {
    "name": "Belz",
    "code": "56013",
    "epci_code": "200043123",
    "departement_code": "56",
    "region_code": "53",
    "postal_code": "56550"
  },
  {
    "name": "Berné",
    "code": "56014",
    "epci_code": "245614417",
    "departement_code": "56",
    "region_code": "53",
    "postal_code": "56240"
  },
  {
    "name": "Berric",
    "code": "56015",
    "epci_code": "245614383",
    "departement_code": "56",
    "region_code": "53",
    "postal_code": "56230"
  },
  {
    "name": "Bignan",
    "code": "56017",
    "epci_code": "200096683",
    "departement_code": "56",
    "region_code": "53",
    "postal_code": "56500"
  },
  {
    "name": "Billiers",
    "code": "56018",
    "epci_code": "200027027",
    "departement_code": "56",
    "region_code": "53",
    "postal_code": "56190"
  },
  {
    "name": "Billio",
    "code": "56019",
    "epci_code": "200096683",
    "departement_code": "56",
    "region_code": "53",
    "postal_code": "56420"
  },
  {
    "name": "Bohal",
    "code": "56020",
    "epci_code": "200066785",
    "departement_code": "56",
    "region_code": "53",
    "postal_code": "56140"
  },
  {
    "name": "Brandérion",
    "code": "56021",
    "epci_code": "200042174",
    "departement_code": "56",
    "region_code": "53",
    "postal_code": "56700"
  },
  {
    "name": "Brandivy",
    "code": "56022",
    "epci_code": "200067932",
    "departement_code": "56",
    "region_code": "53",
    "postal_code": "56390"
  },
  {
    "name": "Brech",
    "code": "56023",
    "epci_code": "200043123",
    "departement_code": "56",
    "region_code": "53",
    "postal_code": "56400"
  },
  {
    "name": "Bréhan",
    "code": "56024",
    "epci_code": "245614433",
    "departement_code": "56",
    "region_code": "53",
    "postal_code": "56580"
  },
  {
    "name": "Brignac",
    "code": "56025",
    "epci_code": "200066777",
    "departement_code": "56",
    "region_code": "53",
    "postal_code": "56430"
  },
  {
    "name": "Bubry",
    "code": "56026",
    "epci_code": "200042174",
    "departement_code": "56",
    "region_code": "53",
    "postal_code": "56310"
  },
  {
    "name": "Buléon",
    "code": "56027",
    "epci_code": "200096683",
    "departement_code": "56",
    "region_code": "53",
    "postal_code": "56420"
  },
  {
    "name": "Caden",
    "code": "56028",
    "epci_code": "245614383",
    "departement_code": "56",
    "region_code": "53",
    "postal_code": "56220"
  },
  {
    "name": "Calan",
    "code": "56029",
    "epci_code": "200042174",
    "departement_code": "56",
    "region_code": "53",
    "postal_code": "56240"
  },
  {
    "name": "Camoël",
    "code": "56030",
    "epci_code": "244400610",
    "departement_code": "56",
    "region_code": "53",
    "postal_code": "56130"
  },
  {
    "name": "Camors",
    "code": "56031",
    "epci_code": "200043123",
    "departement_code": "56",
    "region_code": "53",
    "postal_code": "56330"
  },
  {
    "name": "Campénéac",
    "code": "56032",
    "epci_code": "200066777",
    "departement_code": "56",
    "region_code": "53",
    "postal_code": "56800"
  },
  {
    "name": "Carentoir",
    "code": "56033",
    "epci_code": "200066785",
    "departement_code": "56",
    "region_code": "53",
    "postal_code": "56910"
  },
  {
    "name": "Carnac",
    "code": "56034",
    "epci_code": "200043123",
    "departement_code": "56",
    "region_code": "53",
    "postal_code": "56340"
  },
  {
    "name": "Caro",
    "code": "56035",
    "epci_code": "200066785",
    "departement_code": "56",
    "region_code": "53",
    "postal_code": "56140"
  },
  {
    "name": "Caudan",
    "code": "56036",
    "epci_code": "200042174",
    "departement_code": "56",
    "region_code": "53",
    "postal_code": "56850"
  },
  {
    "name": "La Chapelle-Neuve",
    "code": "56039",
    "epci_code": "200096675",
    "departement_code": "56",
    "region_code": "53",
    "postal_code": "56500"
  },
  {
    "name": "Cléguer",
    "code": "56040",
    "epci_code": "200042174",
    "departement_code": "56",
    "region_code": "53",
    "postal_code": "56620"
  },
  {
    "name": "Cléguérec",
    "code": "56041",
    "epci_code": "245614433",
    "departement_code": "56",
    "region_code": "53",
    "postal_code": "56480"
  },
  {
    "name": "Colpo",
    "code": "56042",
    "epci_code": "200067932",
    "departement_code": "56",
    "region_code": "53",
    "postal_code": "56390"
  },
  {
    "name": "Concoret",
    "code": "56043",
    "epci_code": "200066777",
    "departement_code": "56",
    "region_code": "53",
    "postal_code": "56430"
  },
  {
    "name": "Cournon",
    "code": "56044",
    "epci_code": "200066785",
    "departement_code": "56",
    "region_code": "53",
    "postal_code": "56200"
  },
  {
    "name": "Le Cours",
    "code": "56045",
    "epci_code": "245614383",
    "departement_code": "56",
    "region_code": "53",
    "postal_code": "56230"
  },
  {
    "name": "Crach",
    "code": "56046",
    "epci_code": "200043123",
    "departement_code": "56",
    "region_code": "53",
    "postal_code": "56950"
  },
  {
    "name": "Crédin",
    "code": "56047",
    "epci_code": "245614433",
    "departement_code": "56",
    "region_code": "53",
    "postal_code": "56580"
  },
  {
    "name": "Le Croisty",
    "code": "56048",
    "epci_code": "245614417",
    "departement_code": "56",
    "region_code": "53",
    "postal_code": "56540"
  },
  {
    "name": "La Croix-Helléan",
    "code": "56050",
    "epci_code": "200066777",
    "departement_code": "56",
    "region_code": "53",
    "postal_code": "56120"
  },
  {
    "name": "Cruguel",
    "code": "56051",
    "epci_code": "200066777",
    "departement_code": "56",
    "region_code": "53",
    "postal_code": "56420"
  },
  {
    "name": "Damgan",
    "code": "56052",
    "epci_code": "200027027",
    "departement_code": "56",
    "region_code": "53",
    "postal_code": "56750"
  },
  {
    "name": "Elven",
    "code": "56053",
    "epci_code": "200067932",
    "departement_code": "56",
    "region_code": "53",
    "postal_code": "56250"
  },
  {
    "name": "Erdeven",
    "code": "56054",
    "epci_code": "200043123",
    "departement_code": "56",
    "region_code": "53",
    "postal_code": "56410"
  },
  {
    "name": "Étel",
    "code": "56055",
    "epci_code": "200043123",
    "departement_code": "56",
    "region_code": "53",
    "postal_code": "56410"
  },
  {
    "name": "Évriguet",
    "code": "56056",
    "epci_code": "200066777",
    "departement_code": "56",
    "region_code": "53",
    "postal_code": "56490"
  },
  {
    "name": "Le Faouët",
    "code": "56057",
    "epci_code": "245614417",
    "departement_code": "56",
    "region_code": "53",
    "postal_code": "56320"
  },
  {
    "name": "Férel",
    "code": "56058",
    "epci_code": "244400610",
    "departement_code": "56",
    "region_code": "53",
    "postal_code": "56130"
  },
  {
    "name": "Les Fougerêts",
    "code": "56060",
    "epci_code": "243500741",
    "departement_code": "56",
    "region_code": "53",
    "postal_code": "56200"
  },
  {
    "name": "La Gacilly",
    "code": "56061",
    "epci_code": "200066785",
    "departement_code": "56",
    "region_code": "53",
    "postal_code": "56200"
  },
  {
    "name": "Gâvres",
    "code": "56062",
    "epci_code": "200042174",
    "departement_code": "56",
    "region_code": "53",
    "postal_code": "56680"
  },
  {
    "name": "Gestel",
    "code": "56063",
    "epci_code": "200042174",
    "departement_code": "56",
    "region_code": "53",
    "postal_code": "56530"
  },
  {
    "name": "Gourhel",
    "code": "56065",
    "epci_code": "200066777",
    "departement_code": "56",
    "region_code": "53",
    "postal_code": "56800"
  },
  {
    "name": "Gourin",
    "code": "56066",
    "epci_code": "245614417",
    "departement_code": "56",
    "region_code": "53",
    "postal_code": "56110"
  },
  {
    "name": "Grand-Champ",
    "code": "56067",
    "epci_code": "200067932",
    "departement_code": "56",
    "region_code": "53",
    "postal_code": "56390"
  },
  {
    "name": "La Grée-Saint-Laurent",
    "code": "56068",
    "epci_code": "200066777",
    "departement_code": "56",
    "region_code": "53",
    "postal_code": "56120"
  },
  {
    "name": "Groix",
    "code": "56069",
    "epci_code": "200042174",
    "departement_code": "56",
    "region_code": "53",
    "postal_code": "56590"
  },
  {
    "name": "Guégon",
    "code": "56070",
    "epci_code": "200066777",
    "departement_code": "56",
    "region_code": "53",
    "postal_code": "56120"
  },
  {
    "name": "Guéhenno",
    "code": "56071",
    "epci_code": "200096683",
    "departement_code": "56",
    "region_code": "53",
    "postal_code": "56420"
  },
  {
    "name": "Gueltas",
    "code": "56072",
    "epci_code": "245614433",
    "departement_code": "56",
    "region_code": "53",
    "postal_code": "56920"
  },
  {
    "name": "Guémené-sur-Scorff",
    "code": "56073",
    "epci_code": "245614417",
    "departement_code": "56",
    "region_code": "53",
    "postal_code": "56160"
  },
  {
    "name": "Guénin",
    "code": "56074",
    "epci_code": "200096675",
    "departement_code": "56",
    "region_code": "53",
    "postal_code": "56150"
  },
  {
    "name": "Guer",
    "code": "56075",
    "epci_code": "200066785",
    "departement_code": "56",
    "region_code": "53",
    "postal_code": "56380"
  },
  {
    "name": "Guern",
    "code": "56076",
    "epci_code": "245614433",
    "departement_code": "56",
    "region_code": "53",
    "postal_code": "56310"
  },
  {
    "name": "Le Guerno",
    "code": "56077",
    "epci_code": "200027027",
    "departement_code": "56",
    "region_code": "53",
    "postal_code": "56190"
  },
  {
    "name": "Guidel",
    "code": "56078",
    "epci_code": "200042174",
    "departement_code": "56",
    "region_code": "53",
    "postal_code": "56520"
  },
  {
    "name": "Guillac",
    "code": "56079",
    "epci_code": "200066777",
    "departement_code": "56",
    "region_code": "53",
    "postal_code": "56800"
  },
  {
    "name": "Guilliers",
    "code": "56080",
    "epci_code": "200066777",
    "departement_code": "56",
    "region_code": "53",
    "postal_code": "56490"
  },
  {
    "name": "Guiscriff",
    "code": "56081",
    "epci_code": "245614417",
    "departement_code": "56",
    "region_code": "53",
    "postal_code": "56560"
  },
  {
    "name": "Helléan",
    "code": "56082",
    "epci_code": "200066777",
    "departement_code": "56",
    "region_code": "53",
    "postal_code": "56120"
  },
  {
    "name": "Hennebont",
    "code": "56083",
    "epci_code": "200042174",
    "departement_code": "56",
    "region_code": "53",
    "postal_code": "56700"
  },
  {
    "name": "Le Hézo",
    "code": "56084",
    "epci_code": "200067932",
    "departement_code": "56",
    "region_code": "53",
    "postal_code": "56450"
  },
  {
    "name": "Hœdic",
    "code": "56085",
    "epci_code": "200043123",
    "departement_code": "56",
    "region_code": "53",
    "postal_code": "56170"
  },
  {
    "name": "Île-d’Houat",
    "code": "56086",
    "epci_code": "200043123",
    "departement_code": "56",
    "region_code": "53",
    "postal_code": "56170"
  },
  {
    "name": "Île-aux-Moines",
    "code": "56087",
    "epci_code": "200067932",
    "departement_code": "56",
    "region_code": "53",
    "postal_code": "56780"
  },
  {
    "name": "Île-d’Arz",
    "code": "56088",
    "epci_code": "200067932",
    "departement_code": "56",
    "region_code": "53",
    "postal_code": "56840"
  },
  {
    "name": "Inguiniel",
    "code": "56089",
    "epci_code": "200042174",
    "departement_code": "56",
    "region_code": "53",
    "postal_code": "56240"
  },
  {
    "name": "Inzinzac-Lochrist",
    "code": "56090",
    "epci_code": "200042174",
    "departement_code": "56",
    "region_code": "53",
    "postal_code": "56650"
  },
  {
    "name": "Josselin",
    "code": "56091",
    "epci_code": "200066777",
    "departement_code": "56",
    "region_code": "53",
    "postal_code": "56120"
  },
  {
    "name": "Kerfourn",
    "code": "56092",
    "epci_code": "245614433",
    "departement_code": "56",
    "region_code": "53",
    "postal_code": "56920"
  },
  {
    "name": "Kergrist",
    "code": "56093",
    "epci_code": "245614433",
    "departement_code": "56",
    "region_code": "53",
    "postal_code": "56300"
  },
  {
    "name": "Kervignac",
    "code": "56094",
    "epci_code": "245600440",
    "departement_code": "56",
    "region_code": "53",
    "postal_code": "56700"
  },
  {
    "name": "Landaul",
    "code": "56096",
    "epci_code": "200043123",
    "departement_code": "56",
    "region_code": "53",
    "postal_code": "56690"
  },
  {
    "name": "Landévant",
    "code": "56097",
    "epci_code": "200043123",
    "departement_code": "56",
    "region_code": "53",
    "postal_code": "56690"
  },
  {
    "name": "Lanester",
    "code": "56098",
    "epci_code": "200042174",
    "departement_code": "56",
    "region_code": "53",
    "postal_code": "56600"
  },
  {
    "name": "Langoëlan",
    "code": "56099",
    "epci_code": "245614417",
    "departement_code": "56",
    "region_code": "53",
    "postal_code": "56160"
  },
  {
    "name": "Langonnet",
    "code": "56100",
    "epci_code": "245614417",
    "departement_code": "56",
    "region_code": "53",
    "postal_code": "56630"
  },
  {
    "name": "Languidic",
    "code": "56101",
    "epci_code": "200042174",
    "departement_code": "56",
    "region_code": "53",
    "postal_code": "56440"
  },
  {
    "name": "Forges de Lanouée",
    "code": "56102",
    "epci_code": "200066777",
    "departement_code": "56",
    "region_code": "53",
    "postal_code": "56120"
  },
  {
    "name": "Lantillac",
    "code": "56103",
    "epci_code": "200066777",
    "departement_code": "56",
    "region_code": "53",
    "postal_code": "56120"
  },
  {
    "name": "Lanvaudan",
    "code": "56104",
    "epci_code": "200042174",
    "departement_code": "56",
    "region_code": "53",
    "postal_code": "56240"
  },
  {
    "name": "Lanvénégen",
    "code": "56105",
    "epci_code": "245614417",
    "departement_code": "56",
    "region_code": "53",
    "postal_code": "56320"
  },
  {
    "name": "Larmor-Baden",
    "code": "56106",
    "epci_code": "200067932",
    "departement_code": "56",
    "region_code": "53",
    "postal_code": "56870"
  },
  {
    "name": "Larmor-Plage",
    "code": "56107",
    "epci_code": "200042174",
    "departement_code": "56",
    "region_code": "53",
    "postal_code": "56260"
  },
  {
    "name": "Larré",
    "code": "56108",
    "epci_code": "245614383",
    "departement_code": "56",
    "region_code": "53",
    "postal_code": "56230"
  },
  {
    "name": "Lauzach",
    "code": "56109",
    "epci_code": "245614383",
    "departement_code": "56",
    "region_code": "53",
    "postal_code": "56190"
  },
  {
    "name": "Lignol",
    "code": "56110",
    "epci_code": "245614417",
    "departement_code": "56",
    "region_code": "53",
    "postal_code": "56160"
  },
  {
    "name": "Limerzel",
    "code": "56111",
    "epci_code": "245614383",
    "departement_code": "56",
    "region_code": "53",
    "postal_code": "56220"
  },
  {
    "name": "Lizio",
    "code": "56112",
    "epci_code": "200066785",
    "departement_code": "56",
    "region_code": "53",
    "postal_code": "56460"
  },
  {
    "name": "Locmalo",
    "code": "56113",
    "epci_code": "245614417",
    "departement_code": "56",
    "region_code": "53",
    "postal_code": "56160"
  },
  {
    "name": "Locmaria",
    "code": "56114",
    "epci_code": "245600465",
    "departement_code": "56",
    "region_code": "53",
    "postal_code": "56360"
  },
  {
    "name": "Locmaria-Grand-Champ",
    "code": "56115",
    "epci_code": "200067932",
    "departement_code": "56",
    "region_code": "53",
    "postal_code": "56390"
  },
  {
    "name": "Locmariaquer",
    "code": "56116",
    "epci_code": "200043123",
    "departement_code": "56",
    "region_code": "53",
    "postal_code": "56740"
  },
  {
    "name": "Locminé",
    "code": "56117",
    "epci_code": "200096683",
    "departement_code": "56",
    "region_code": "53",
    "postal_code": "56500"
  },
  {
    "name": "Locmiquélic",
    "code": "56118",
    "epci_code": "200042174",
    "departement_code": "56",
    "region_code": "53",
    "postal_code": "56570"
  },
  {
    "name": "Locoal-Mendon",
    "code": "56119",
    "epci_code": "200043123",
    "departement_code": "56",
    "region_code": "53",
    "postal_code": "56550"
  },
  {
    "name": "Locqueltas",
    "code": "56120",
    "epci_code": "200067932",
    "departement_code": "56",
    "region_code": "53",
    "postal_code": "56390"
  },
  {
    "name": "Lorient",
    "code": "56121",
    "epci_code": "200042174",
    "departement_code": "56",
    "region_code": "53",
    "postal_code": "56100"
  },
  {
    "name": "Loyat",
    "code": "56122",
    "epci_code": "200066777",
    "departement_code": "56",
    "region_code": "53",
    "postal_code": "56800"
  },
  {
    "name": "Malansac",
    "code": "56123",
    "epci_code": "245614383",
    "departement_code": "56",
    "region_code": "53",
    "postal_code": "56220"
  },
  {
    "name": "Malestroit",
    "code": "56124",
    "epci_code": "200066785",
    "departement_code": "56",
    "region_code": "53",
    "postal_code": "56140"
  },
  {
    "name": "Malguénac",
    "code": "56125",
    "epci_code": "245614433",
    "departement_code": "56",
    "region_code": "53",
    "postal_code": "56300"
  },
  {
    "name": "Marzan",
    "code": "56126",
    "epci_code": "200027027",
    "departement_code": "56",
    "region_code": "53",
    "postal_code": "56130"
  },
  {
    "name": "Mauron",
    "code": "56127",
    "epci_code": "200066777",
    "departement_code": "56",
    "region_code": "53",
    "postal_code": "56430"
  },
  {
    "name": "Melrand",
    "code": "56128",
    "epci_code": "200096675",
    "departement_code": "56",
    "region_code": "53",
    "postal_code": "56310"
  },
  {
    "name": "Ménéac",
    "code": "56129",
    "epci_code": "200066777",
    "departement_code": "56",
    "region_code": "53",
    "postal_code": "56490"
  },
  {
    "name": "Merlevenez",
    "code": "56130",
    "epci_code": "245600440",
    "departement_code": "56",
    "region_code": "53",
    "postal_code": "56700"
  },
  {
    "name": "Meslan",
    "code": "56131",
    "epci_code": "245614417",
    "departement_code": "56",
    "region_code": "53",
    "postal_code": "56320"
  },
  {
    "name": "Meucon",
    "code": "56132",
    "epci_code": "200067932",
    "departement_code": "56",
    "region_code": "53",
    "postal_code": "56890"
  },
  {
    "name": "Missiriac",
    "code": "56133",
    "epci_code": "200066785",
    "departement_code": "56",
    "region_code": "53",
    "postal_code": "56140"
  },
  {
    "name": "Mohon",
    "code": "56134",
    "epci_code": "200066777",
    "departement_code": "56",
    "region_code": "53",
    "postal_code": "56490"
  },
  {
    "name": "Molac",
    "code": "56135",
    "epci_code": "245614383",
    "departement_code": "56",
    "region_code": "53",
    "postal_code": "56230"
  },
  {
    "name": "Monteneuf",
    "code": "56136",
    "epci_code": "200066785",
    "departement_code": "56",
    "region_code": "53",
    "postal_code": "56380"
  },
  {
    "name": "Monterblanc",
    "code": "56137",
    "epci_code": "200067932",
    "departement_code": "56",
    "region_code": "53",
    "postal_code": "56250"
  },
  {
    "name": "Montertelot",
    "code": "56139",
    "epci_code": "200066777",
    "departement_code": "56",
    "region_code": "53",
    "postal_code": "56800"
  },
  {
    "name": "Moréac",
    "code": "56140",
    "epci_code": "200096683",
    "departement_code": "56",
    "region_code": "53",
    "postal_code": "56500"
  },
  {
    "name": "Moustoir-Ac",
    "code": "56141",
    "epci_code": "200096683",
    "departement_code": "56",
    "region_code": "53",
    "postal_code": "56500"
  },
  {
    "name": "Muzillac",
    "code": "56143",
    "epci_code": "200027027",
    "departement_code": "56",
    "region_code": "53",
    "postal_code": "56190"
  },
  {
    "name": "Évellys",
    "code": "56144",
    "epci_code": "200096683",
    "departement_code": "56",
    "region_code": "53",
    "postal_code": "56500"
  },
  {
    "name": "Néant-sur-Yvel",
    "code": "56145",
    "epci_code": "200066777",
    "departement_code": "56",
    "region_code": "53",
    "postal_code": "56430"
  },
  {
    "name": "Neulliac",
    "code": "56146",
    "epci_code": "245614433",
    "departement_code": "56",
    "region_code": "53",
    "postal_code": "56300"
  },
  {
    "name": "Nivillac",
    "code": "56147",
    "epci_code": "200027027",
    "departement_code": "56",
    "region_code": "53",
    "postal_code": "56130"
  },
  {
    "name": "Nostang",
    "code": "56148",
    "epci_code": "245600440",
    "departement_code": "56",
    "region_code": "53",
    "postal_code": "56690"
  },
  {
    "name": "Noyal-Muzillac",
    "code": "56149",
    "epci_code": "200027027",
    "departement_code": "56",
    "region_code": "53",
    "postal_code": "56190"
  },
  {
    "name": "Noyal-Pontivy",
    "code": "56151",
    "epci_code": "245614433",
    "departement_code": "56",
    "region_code": "53",
    "postal_code": "56920"
  },
  {
    "name": "Le Palais",
    "code": "56152",
    "epci_code": "245600465",
    "departement_code": "56",
    "region_code": "53",
    "postal_code": "56360"
  },
  {
    "name": "Péaule",
    "code": "56153",
    "epci_code": "200027027",
    "departement_code": "56",
    "region_code": "53",
    "postal_code": "56130"
  },
  {
    "name": "Peillac",
    "code": "56154",
    "epci_code": "243500741",
    "departement_code": "56",
    "region_code": "53",
    "postal_code": "56220"
  },
  {
    "name": "Pénestin",
    "code": "56155",
    "epci_code": "244400610",
    "departement_code": "56",
    "region_code": "53",
    "postal_code": "56760"
  },
  {
    "name": "Persquen",
    "code": "56156",
    "epci_code": "245614417",
    "departement_code": "56",
    "region_code": "53",
    "postal_code": "56160"
  },
  {
    "name": "Plaudren",
    "code": "56157",
    "epci_code": "200067932",
    "departement_code": "56",
    "region_code": "53",
    "postal_code": "56420"
  },
  {
    "name": "Plescop",
    "code": "56158",
    "epci_code": "200067932",
    "departement_code": "56",
    "region_code": "53",
    "postal_code": "56890"
  },
  {
    "name": "Pleucadeuc",
    "code": "56159",
    "epci_code": "200066785",
    "departement_code": "56",
    "region_code": "53",
    "postal_code": "56140"
  },
  {
    "name": "Pleugriffet",
    "code": "56160",
    "epci_code": "245614433",
    "departement_code": "56",
    "region_code": "53",
    "postal_code": "56120"
  },
  {
    "name": "Ploemel",
    "code": "56161",
    "epci_code": "200043123",
    "departement_code": "56",
    "region_code": "53",
    "postal_code": "56400"
  },
  {
    "name": "Ploemeur",
    "code": "56162",
    "epci_code": "200042174",
    "departement_code": "56",
    "region_code": "53",
    "postal_code": "56270"
  },
  {
    "name": "Ploërdut",
    "code": "56163",
    "epci_code": "245614417",
    "departement_code": "56",
    "region_code": "53",
    "postal_code": "56160"
  },
  {
    "name": "Ploeren",
    "code": "56164",
    "epci_code": "200067932",
    "departement_code": "56",
    "region_code": "53",
    "postal_code": "56880"
  },
  {
    "name": "Ploërmel",
    "code": "56165",
    "epci_code": "200066777",
    "departement_code": "56",
    "region_code": "53",
    "postal_code": "56800"
  },
  {
    "name": "Plouay",
    "code": "56166",
    "epci_code": "200042174",
    "departement_code": "56",
    "region_code": "53",
    "postal_code": "56240"
  },
  {
    "name": "Plougoumelen",
    "code": "56167",
    "epci_code": "200067932",
    "departement_code": "56",
    "region_code": "53",
    "postal_code": "56400"
  },
  {
    "name": "Plouharnel",
    "code": "56168",
    "epci_code": "200043123",
    "departement_code": "56",
    "region_code": "53",
    "postal_code": "56340"
  },
  {
    "name": "Plouhinec",
    "code": "56169",
    "epci_code": "245600440",
    "departement_code": "56",
    "region_code": "53",
    "postal_code": "56680"
  },
  {
    "name": "Plouray",
    "code": "56170",
    "epci_code": "245614417",
    "departement_code": "56",
    "region_code": "53",
    "postal_code": "56770"
  },
  {
    "name": "Pluherlin",
    "code": "56171",
    "epci_code": "245614383",
    "departement_code": "56",
    "region_code": "53",
    "postal_code": "56220"
  },
  {
    "name": "Plumelec",
    "code": "56172",
    "epci_code": "200096683",
    "departement_code": "56",
    "region_code": "53",
    "postal_code": "56420"
  },
  {
    "name": "Pluméliau-Bieuzy",
    "code": "56173",
    "epci_code": "200096675",
    "departement_code": "56",
    "region_code": "53",
    "postal_code": "56310"
  },
  {
    "name": "Pluméliau-Bieuzy",
    "code": "56173",
    "epci_code": "200096675",
    "departement_code": "56",
    "region_code": "53",
    "postal_code": "56930"
  },
  {
    "name": "Plumelin",
    "code": "56174",
    "epci_code": "200096683",
    "departement_code": "56",
    "region_code": "53",
    "postal_code": "56500"
  },
  {
    "name": "Plumergat",
    "code": "56175",
    "epci_code": "200043123",
    "departement_code": "56",
    "region_code": "53",
    "postal_code": "56400"
  },
  {
    "name": "Pluneret",
    "code": "56176",
    "epci_code": "200043123",
    "departement_code": "56",
    "region_code": "53",
    "postal_code": "56400"
  },
  {
    "name": "Pluvigner",
    "code": "56177",
    "epci_code": "200043123",
    "departement_code": "56",
    "region_code": "53",
    "postal_code": "56330"
  },
  {
    "name": "Pontivy",
    "code": "56178",
    "epci_code": "245614433",
    "departement_code": "56",
    "region_code": "53",
    "postal_code": "56300"
  },
  {
    "name": "Pont-Scorff",
    "code": "56179",
    "epci_code": "200042174",
    "departement_code": "56",
    "region_code": "53",
    "postal_code": "56620"
  },
  {
    "name": "Porcaro",
    "code": "56180",
    "epci_code": "200066785",
    "departement_code": "56",
    "region_code": "53",
    "postal_code": "56380"
  },
  {
    "name": "Port-Louis",
    "code": "56181",
    "epci_code": "200042174",
    "departement_code": "56",
    "region_code": "53",
    "postal_code": "56290"
  },
  {
    "name": "Priziac",
    "code": "56182",
    "epci_code": "245614417",
    "departement_code": "56",
    "region_code": "53",
    "postal_code": "56320"
  },
  {
    "name": "Questembert",
    "code": "56184",
    "epci_code": "245614383",
    "departement_code": "56",
    "region_code": "53",
    "postal_code": "56230"
  },
  {
    "name": "Quéven",
    "code": "56185",
    "epci_code": "200042174",
    "departement_code": "56",
    "region_code": "53",
    "postal_code": "56530"
  },
  {
    "name": "Quiberon",
    "code": "56186",
    "epci_code": "200043123",
    "departement_code": "56",
    "region_code": "53",
    "postal_code": "56170"
  },
  {
    "name": "Quistinic",
    "code": "56188",
    "epci_code": "200042174",
    "departement_code": "56",
    "region_code": "53",
    "postal_code": "56310"
  },
  {
    "name": "Radenac",
    "code": "56189",
    "epci_code": "245614433",
    "departement_code": "56",
    "region_code": "53",
    "postal_code": "56500"
  },
  {
    "name": "Réguiny",
    "code": "56190",
    "epci_code": "245614433",
    "departement_code": "56",
    "region_code": "53",
    "postal_code": "56500"
  },
  {
    "name": "Réminiac",
    "code": "56191",
    "epci_code": "200066785",
    "departement_code": "56",
    "region_code": "53",
    "postal_code": "56140"
  },
  {
    "name": "Riantec",
    "code": "56193",
    "epci_code": "200042174",
    "departement_code": "56",
    "region_code": "53",
    "postal_code": "56670"
  },
  {
    "name": "Rieux",
    "code": "56194",
    "epci_code": "243500741",
    "departement_code": "56",
    "region_code": "53",
    "postal_code": "56350"
  },
  {
    "name": "La Roche-Bernard",
    "code": "56195",
    "epci_code": "200027027",
    "departement_code": "56",
    "region_code": "53",
    "postal_code": "56130"
  },
  {
    "name": "Rochefort-en-Terre",
    "code": "56196",
    "epci_code": "245614383",
    "departement_code": "56",
    "region_code": "53",
    "postal_code": "56220"
  },
  {
    "name": "Val d’Oust",
    "code": "56197",
    "epci_code": "200066777",
    "departement_code": "56",
    "region_code": "53",
    "postal_code": "56460"
  },
  {
    "name": "Val d’Oust",
    "code": "56197",
    "epci_code": "200066777",
    "departement_code": "56",
    "region_code": "53",
    "postal_code": "56800"
  },
  {
    "name": "Rohan",
    "code": "56198",
    "epci_code": "245614433",
    "departement_code": "56",
    "region_code": "53",
    "postal_code": "56580"
  },
  {
    "name": "Roudouallec",
    "code": "56199",
    "epci_code": "245614417",
    "departement_code": "56",
    "region_code": "53",
    "postal_code": "56110"
  },
  {
    "name": "Ruffiac",
    "code": "56200",
    "epci_code": "200066785",
    "departement_code": "56",
    "region_code": "53",
    "postal_code": "56140"
  },
  {
    "name": "Le Saint",
    "code": "56201",
    "epci_code": "245614417",
    "departement_code": "56",
    "region_code": "53",
    "postal_code": "56110"
  },
  {
    "name": "Saint-Abraham",
    "code": "56202",
    "epci_code": "200066785",
    "departement_code": "56",
    "region_code": "53",
    "postal_code": "56140"
  },
  {
    "name": "Saint-Aignan",
    "code": "56203",
    "epci_code": "245614433",
    "departement_code": "56",
    "region_code": "53",
    "postal_code": "56480"
  },
  {
    "name": "Saint-Allouestre",
    "code": "56204",
    "epci_code": "200096683",
    "departement_code": "56",
    "region_code": "53",
    "postal_code": "56500"
  },
  {
    "name": "Saint-Armel",
    "code": "56205",
    "epci_code": "200067932",
    "departement_code": "56",
    "region_code": "53",
    "postal_code": "56450"
  },
  {
    "name": "Saint-Avé",
    "code": "56206",
    "epci_code": "200067932",
    "departement_code": "56",
    "region_code": "53",
    "postal_code": "56890"
  },
  {
    "name": "Saint-Barthélemy",
    "code": "56207",
    "epci_code": "200096675",
    "departement_code": "56",
    "region_code": "53",
    "postal_code": "56150"
  },
  {
    "name": "Saint-Brieuc-de-Mauron",
    "code": "56208",
    "epci_code": "200066777",
    "departement_code": "56",
    "region_code": "53",
    "postal_code": "56430"
  },
  {
    "name": "Sainte-Brigitte",
    "code": "56209",
    "epci_code": "245614433",
    "departement_code": "56",
    "region_code": "53",
    "postal_code": "56480"
  },
  {
    "name": "Saint-Caradec-Trégomel",
    "code": "56210",
    "epci_code": "245614417",
    "departement_code": "56",
    "region_code": "53",
    "postal_code": "56540"
  },
  {
    "name": "Saint-Congard",
    "code": "56211",
    "epci_code": "200066785",
    "departement_code": "56",
    "region_code": "53",
    "postal_code": "56140"
  },
  {
    "name": "Saint-Dolay",
    "code": "56212",
    "epci_code": "200027027",
    "departement_code": "56",
    "region_code": "53",
    "postal_code": "56130"
  },
  {
    "name": "Saint-Gérand-Croixanvec",
    "code": "56213",
    "epci_code": "245614433",
    "departement_code": "56",
    "region_code": "53",
    "postal_code": "56920"
  },
  {
    "name": "Saint-Gildas-de-Rhuys",
    "code": "56214",
    "epci_code": "200067932",
    "departement_code": "56",
    "region_code": "53",
    "postal_code": "56730"
  },
  {
    "name": "Saint-Gonnery",
    "code": "56215",
    "epci_code": "245614433",
    "departement_code": "56",
    "region_code": "53",
    "postal_code": "56920"
  },
  {
    "name": "Saint-Gorgon",
    "code": "56216",
    "epci_code": "243500741",
    "departement_code": "56",
    "region_code": "53",
    "postal_code": "56350"
  },
  {
    "name": "Saint-Gravé",
    "code": "56218",
    "epci_code": "245614383",
    "departement_code": "56",
    "region_code": "53",
    "postal_code": "56220"
  },
  {
    "name": "Saint-Guyomard",
    "code": "56219",
    "epci_code": "200066785",
    "departement_code": "56",
    "region_code": "53",
    "postal_code": "56460"
  },
  {
    "name": "Sainte-Hélène",
    "code": "56220",
    "epci_code": "245600440",
    "departement_code": "56",
    "region_code": "53",
    "postal_code": "56700"
  },
  {
    "name": "Saint-Jacut-les-Pins",
    "code": "56221",
    "epci_code": "243500741",
    "departement_code": "56",
    "region_code": "53",
    "postal_code": "56220"
  },
  {
    "name": "Saint-Jean-Brévelay",
    "code": "56222",
    "epci_code": "200096683",
    "departement_code": "56",
    "region_code": "53",
    "postal_code": "56660"
  },
  {
    "name": "Saint-Jean-la-Poterie",
    "code": "56223",
    "epci_code": "243500741",
    "departement_code": "56",
    "region_code": "53",
    "postal_code": "56350"
  },
  {
    "name": "Saint-Laurent-sur-Oust",
    "code": "56224",
    "epci_code": "200066785",
    "departement_code": "56",
    "region_code": "53",
    "postal_code": "56140"
  },
  {
    "name": "Saint-Léry",
    "code": "56225",
    "epci_code": "200066777",
    "departement_code": "56",
    "region_code": "53",
    "postal_code": "56430"
  },
  {
    "name": "Saint-Malo-de-Beignon",
    "code": "56226",
    "epci_code": "200066785",
    "departement_code": "56",
    "region_code": "53",
    "postal_code": "56380"
  },
  {
    "name": "Saint-Malo-des-Trois-Fontaines",
    "code": "56227",
    "epci_code": "200066777",
    "departement_code": "56",
    "region_code": "53",
    "postal_code": "56490"
  },
  {
    "name": "Saint-Marcel",
    "code": "56228",
    "epci_code": "200066785",
    "departement_code": "56",
    "region_code": "53",
    "postal_code": "56140"
  },
  {
    "name": "Saint-Martin-sur-Oust",
    "code": "56229",
    "epci_code": "200066785",
    "departement_code": "56",
    "region_code": "53",
    "postal_code": "56200"
  },
  {
    "name": "Saint-Nicolas-du-Tertre",
    "code": "56230",
    "epci_code": "200066785",
    "departement_code": "56",
    "region_code": "53",
    "postal_code": "56910"
  },
  {
    "name": "Saint-Nolff",
    "code": "56231",
    "epci_code": "200067932",
    "departement_code": "56",
    "region_code": "53",
    "postal_code": "56250"
  },
  {
    "name": "Saint-Perreux",
    "code": "56232",
    "epci_code": "243500741",
    "departement_code": "56",
    "region_code": "53",
    "postal_code": "56350"
  },
  {
    "name": "Saint-Philibert",
    "code": "56233",
    "epci_code": "200043123",
    "departement_code": "56",
    "region_code": "53",
    "postal_code": "56470"
  },
  {
    "name": "Saint-Pierre-Quiberon",
    "code": "56234",
    "epci_code": "200043123",
    "departement_code": "56",
    "region_code": "53",
    "postal_code": "56510"
  },
  {
    "name": "Saint-Servant",
    "code": "56236",
    "epci_code": "200066777",
    "departement_code": "56",
    "region_code": "53",
    "postal_code": "56120"
  },
  {
    "name": "Saint-Thuriau",
    "code": "56237",
    "epci_code": "245614433",
    "departement_code": "56",
    "region_code": "53",
    "postal_code": "56300"
  },
  {
    "name": "Saint-Tugdual",
    "code": "56238",
    "epci_code": "245614417",
    "departement_code": "56",
    "region_code": "53",
    "postal_code": "56540"
  },
  {
    "name": "Saint-Vincent-sur-Oust",
    "code": "56239",
    "epci_code": "243500741",
    "departement_code": "56",
    "region_code": "53",
    "postal_code": "56350"
  },
  {
    "name": "Sarzeau",
    "code": "56240",
    "epci_code": "200067932",
    "departement_code": "56",
    "region_code": "53",
    "postal_code": "56370"
  },
  {
    "name": "Sauzon",
    "code": "56241",
    "epci_code": "245600465",
    "departement_code": "56",
    "region_code": "53",
    "postal_code": "56360"
  },
  {
    "name": "Séglien",
    "code": "56242",
    "epci_code": "245614433",
    "departement_code": "56",
    "region_code": "53",
    "postal_code": "56160"
  },
  {
    "name": "Séné",
    "code": "56243",
    "epci_code": "200067932",
    "departement_code": "56",
    "region_code": "53",
    "postal_code": "56860"
  },
  {
    "name": "Sérent",
    "code": "56244",
    "epci_code": "200066785",
    "departement_code": "56",
    "region_code": "53",
    "postal_code": "56460"
  },
  {
    "name": "Silfiac",
    "code": "56245",
    "epci_code": "245614433",
    "departement_code": "56",
    "region_code": "53",
    "postal_code": "56480"
  },
  {
    "name": "Le Sourn",
    "code": "56246",
    "epci_code": "245614433",
    "departement_code": "56",
    "region_code": "53",
    "postal_code": "56300"
  },
  {
    "name": "Sulniac",
    "code": "56247",
    "epci_code": "200067932",
    "departement_code": "56",
    "region_code": "53",
    "postal_code": "56250"
  },
  {
    "name": "Surzur",
    "code": "56248",
    "epci_code": "200067932",
    "departement_code": "56",
    "region_code": "53",
    "postal_code": "56450"
  },
  {
    "name": "Taupont",
    "code": "56249",
    "epci_code": "200066777",
    "departement_code": "56",
    "region_code": "53",
    "postal_code": "56800"
  },
  {
    "name": "Théhillac",
    "code": "56250",
    "epci_code": "243500741",
    "departement_code": "56",
    "region_code": "53",
    "postal_code": "56130"
  },
  {
    "name": "Theix-Noyalo",
    "code": "56251",
    "epci_code": "200067932",
    "departement_code": "56",
    "region_code": "53",
    "postal_code": "56450"
  },
  {
    "name": "Le Tour-du-Parc",
    "code": "56252",
    "epci_code": "200067932",
    "departement_code": "56",
    "region_code": "53",
    "postal_code": "56370"
  },
  {
    "name": "Tréal",
    "code": "56253",
    "epci_code": "200066785",
    "departement_code": "56",
    "region_code": "53",
    "postal_code": "56140"
  },
  {
    "name": "Trédion",
    "code": "56254",
    "epci_code": "200067932",
    "departement_code": "56",
    "region_code": "53",
    "postal_code": "56250"
  },
  {
    "name": "Treffléan",
    "code": "56255",
    "epci_code": "200067932",
    "departement_code": "56",
    "region_code": "53",
    "postal_code": "56250"
  },
  {
    "name": "Tréhorenteuc",
    "code": "56256",
    "epci_code": "200066777",
    "departement_code": "56",
    "region_code": "53",
    "postal_code": "56430"
  },
  {
    "name": "La Trinité-Porhoët",
    "code": "56257",
    "epci_code": "200066777",
    "departement_code": "56",
    "region_code": "53",
    "postal_code": "56490"
  },
  {
    "name": "La Trinité-sur-Mer",
    "code": "56258",
    "epci_code": "200043123",
    "departement_code": "56",
    "region_code": "53",
    "postal_code": "56470"
  },
  {
    "name": "La Trinité-Surzur",
    "code": "56259",
    "epci_code": "200067932",
    "departement_code": "56",
    "region_code": "53",
    "postal_code": "56190"
  },
  {
    "name": "Vannes",
    "code": "56260",
    "epci_code": "200067932",
    "departement_code": "56",
    "region_code": "53",
    "postal_code": "56000"
  },
  {
    "name": "La Vraie-Croix",
    "code": "56261",
    "epci_code": "245614383",
    "departement_code": "56",
    "region_code": "53",
    "postal_code": "56250"
  },
  {
    "name": "Le Bono",
    "code": "56262",
    "epci_code": "200067932",
    "departement_code": "56",
    "region_code": "53",
    "postal_code": "56400"
  },
  {
    "name": "Sainte-Anne-d’Auray",
    "code": "56263",
    "epci_code": "200043123",
    "departement_code": "56",
    "region_code": "53",
    "postal_code": "56400"
  },
  {
    "name": "Kernascléden",
    "code": "56264",
    "epci_code": "245614417",
    "departement_code": "56",
    "region_code": "53",
    "postal_code": "56540"
  }
]