[
  {
    "name": "Agassac",
    "code": "31001",
    "epci_code": "200072643",
    "departement_code": "31",
    "region_code": "76",
    "postal_code": "31230"
  },
  {
    "name": "Aignes",
    "code": "31002",
    "epci_code": "200071298",
    "departement_code": "31",
    "region_code": "76",
    "postal_code": "31550"
  },
  {
    "name": "Aigrefeuille",
    "code": "31003",
    "epci_code": "243100518",
    "departement_code": "31",
    "region_code": "76",
    "postal_code": "31280"
  },
  {
    "name": "Ayguesvives",
    "code": "31004",
    "epci_code": "243100633",
    "departement_code": "31",
    "region_code": "76",
    "postal_code": "31450"
  },
  {
    "name": "Alan",
    "code": "31005",
    "epci_code": "200072643",
    "departement_code": "31",
    "region_code": "76",
    "postal_code": "31420"
  },
  {
    "name": "Albiac",
    "code": "31006",
    "epci_code": "200071298",
    "departement_code": "31",
    "region_code": "76",
    "postal_code": "31460"
  },
  {
    "name": "Ambax",
    "code": "31007",
    "epci_code": "200072643",
    "departement_code": "31",
    "region_code": "76",
    "postal_code": "31230"
  },
  {
    "name": "Anan",
    "code": "31008",
    "epci_code": "200072643",
    "departement_code": "31",
    "region_code": "76",
    "postal_code": "31230"
  },
  {
    "name": "Antichan-de-Frontignes",
    "code": "31009",
    "epci_code": "200072635",
    "departement_code": "31",
    "region_code": "76",
    "postal_code": "31510"
  },
  {
    "name": "Antignac",
    "code": "31010",
    "epci_code": "200072635",
    "departement_code": "31",
    "region_code": "76",
    "postal_code": "31110"
  },
  {
    "name": "Arbas",
    "code": "31011",
    "epci_code": "200073146",
    "departement_code": "31",
    "region_code": "76",
    "postal_code": "31160"
  },
  {
    "name": "Arbon",
    "code": "31012",
    "epci_code": "200073146",
    "departement_code": "31",
    "region_code": "76",
    "postal_code": "31160"
  },
  {
    "name": "Ardiège",
    "code": "31013",
    "epci_code": "200072635",
    "departement_code": "31",
    "region_code": "76",
    "postal_code": "31210"
  },
  {
    "name": "Arguenos",
    "code": "31014",
    "epci_code": "200073146",
    "departement_code": "31",
    "region_code": "76",
    "postal_code": "31160"
  },
  {
    "name": "Argut-Dessous",
    "code": "31015",
    "epci_code": "200072635",
    "departement_code": "31",
    "region_code": "76",
    "postal_code": "31440"
  },
  {
    "name": "Arlos",
    "code": "31017",
    "epci_code": "200072635",
    "departement_code": "31",
    "region_code": "76",
    "postal_code": "31440"
  },
  {
    "name": "Arnaud-Guilhem",
    "code": "31018",
    "epci_code": "200073146",
    "departement_code": "31",
    "region_code": "76",
    "postal_code": "31360"
  },
  {
    "name": "Artigue",
    "code": "31019",
    "epci_code": "200072635",
    "departement_code": "31",
    "region_code": "76",
    "postal_code": "31110"
  },
  {
    "name": "Aspet",
    "code": "31020",
    "epci_code": "200073146",
    "departement_code": "31",
    "region_code": "76",
    "postal_code": "31160"
  },
  {
    "name": "Aspret-Sarrat",
    "code": "31021",
    "epci_code": "200072643",
    "departement_code": "31",
    "region_code": "76",
    "postal_code": "31800"
  },
  {
    "name": "Aucamville",
    "code": "31022",
    "epci_code": "243100518",
    "departement_code": "31",
    "region_code": "76",
    "postal_code": "31140"
  },
  {
    "name": "Aulon",
    "code": "31023",
    "epci_code": "200072643",
    "departement_code": "31",
    "region_code": "76",
    "postal_code": "31420"
  },
  {
    "name": "Auragne",
    "code": "31024",
    "epci_code": "200068807",
    "departement_code": "31",
    "region_code": "76",
    "postal_code": "31190"
  },
  {
    "name": "Aureville",
    "code": "31025",
    "epci_code": "243100633",
    "departement_code": "31",
    "region_code": "76",
    "postal_code": "31320"
  },
  {
    "name": "Auriac-sur-Vendinelle",
    "code": "31026",
    "epci_code": "200071298",
    "departement_code": "31",
    "region_code": "76",
    "postal_code": "31460"
  },
  {
    "name": "Auribail",
    "code": "31027",
    "epci_code": "200068807",
    "departement_code": "31",
    "region_code": "76",
    "postal_code": "31190"
  },
  {
    "name": "Aurignac",
    "code": "31028",
    "epci_code": "200072643",
    "departement_code": "31",
    "region_code": "76",
    "postal_code": "31420"
  },
  {
    "name": "Aurin",
    "code": "31029",
    "epci_code": "200071298",
    "departement_code": "31",
    "region_code": "76",
    "postal_code": "31570"
  },
  {
    "name": "Ausseing",
    "code": "31030",
    "epci_code": "200073146",
    "departement_code": "31",
    "region_code": "76",
    "postal_code": "31260"
  },
  {
    "name": "Ausson",
    "code": "31031",
    "epci_code": "200072643",
    "departement_code": "31",
    "region_code": "76",
    "postal_code": "31210"
  },
  {
    "name": "Aussonne",
    "code": "31032",
    "epci_code": "243100518",
    "departement_code": "31",
    "region_code": "76",
    "postal_code": "31840"
  },
  {
    "name": "Auterive",
    "code": "31033",
    "epci_code": "200068807",
    "departement_code": "31",
    "region_code": "76",
    "postal_code": "31190"
  },
  {
    "name": "Auzas",
    "code": "31034",
    "epci_code": "200073146",
    "departement_code": "31",
    "region_code": "76",
    "postal_code": "31360"
  },
  {
    "name": "Auzeville-Tolosane",
    "code": "31035",
    "epci_code": "243100633",
    "departement_code": "31",
    "region_code": "76",
    "postal_code": "31320"
  },
  {
    "name": "Auzielle",
    "code": "31036",
    "epci_code": "243100633",
    "departement_code": "31",
    "region_code": "76",
    "postal_code": "31650"
  },
  {
    "name": "Avignonet-Lauragais",
    "code": "31037",
    "epci_code": "200071298",
    "departement_code": "31",
    "region_code": "76",
    "postal_code": "31290"
  },
  {
    "name": "Azas",
    "code": "31038",
    "epci_code": "200034023",
    "departement_code": "31",
    "region_code": "76",
    "postal_code": "31380"
  },
  {
    "name": "Bachas",
    "code": "31039",
    "epci_code": "200072643",
    "departement_code": "31",
    "region_code": "76",
    "postal_code": "31420"
  },
  {
    "name": "Bachos",
    "code": "31040",
    "epci_code": "200072635",
    "departement_code": "31",
    "region_code": "76",
    "postal_code": "31440"
  },
  {
    "name": "Bagiry",
    "code": "31041",
    "epci_code": "200072635",
    "departement_code": "31",
    "region_code": "76",
    "postal_code": "31510"
  },
  {
    "name": "Bagnères-de-Luchon",
    "code": "31042",
    "epci_code": "200072635",
    "departement_code": "31",
    "region_code": "76",
    "postal_code": "31110"
  },
  {
    "name": "Balesta",
    "code": "31043",
    "epci_code": "200072643",
    "departement_code": "31",
    "region_code": "76",
    "postal_code": "31580"
  },
  {
    "name": "Balma",
    "code": "31044",
    "epci_code": "243100518",
    "departement_code": "31",
    "region_code": "76",
    "postal_code": "31130"
  },
  {
    "name": "Barbazan",
    "code": "31045",
    "epci_code": "200072635",
    "departement_code": "31",
    "region_code": "76",
    "postal_code": "31510"
  },
  {
    "name": "Baren",
    "code": "31046",
    "epci_code": "200072635",
    "departement_code": "31",
    "region_code": "76",
    "postal_code": "31440"
  },
  {
    "name": "Bax",
    "code": "31047",
    "epci_code": "200066819",
    "departement_code": "31",
    "region_code": "76",
    "postal_code": "31310"
  },
  {
    "name": "Baziège",
    "code": "31048",
    "epci_code": "243100633",
    "departement_code": "31",
    "region_code": "76",
    "postal_code": "31450"
  },
  {
    "name": "Bazus",
    "code": "31049",
    "epci_code": "243100732",
    "departement_code": "31",
    "region_code": "76",
    "postal_code": "31380"
  },
  {
    "name": "Beauchalot",
    "code": "31050",
    "epci_code": "200073146",
    "departement_code": "31",
    "region_code": "76",
    "postal_code": "31360"
  },
  {
    "name": "Beaufort",
    "code": "31051",
    "epci_code": "200068815",
    "departement_code": "31",
    "region_code": "76",
    "postal_code": "31370"
  },
  {
    "name": "Beaumont-sur-Lèze",
    "code": "31052",
    "epci_code": "200068807",
    "departement_code": "31",
    "region_code": "76",
    "postal_code": "31870"
  },
  {
    "name": "Beaupuy",
    "code": "31053",
    "epci_code": "243100518",
    "departement_code": "31",
    "region_code": "76",
    "postal_code": "31850"
  },
  {
    "name": "Beauteville",
    "code": "31054",
    "epci_code": "200071298",
    "departement_code": "31",
    "region_code": "76",
    "postal_code": "31290"
  },
  {
    "name": "Beauville",
    "code": "31055",
    "epci_code": "200071298",
    "departement_code": "31",
    "region_code": "76",
    "postal_code": "31460"
  },
  {
    "name": "Beauzelle",
    "code": "31056",
    "epci_code": "243100518",
    "departement_code": "31",
    "region_code": "76",
    "postal_code": "31700"
  },
  {
    "name": "Belberaud",
    "code": "31057",
    "epci_code": "243100633",
    "departement_code": "31",
    "region_code": "76",
    "postal_code": "31450"
  },
  {
    "name": "Belbèze-de-Lauragais",
    "code": "31058",
    "epci_code": "243100633",
    "departement_code": "31",
    "region_code": "76",
    "postal_code": "31450"
  },
  {
    "name": "Belbèze-en-Comminges",
    "code": "31059",
    "epci_code": "200073146",
    "departement_code": "31",
    "region_code": "76",
    "postal_code": "31260"
  },
  {
    "name": "Bélesta-en-Lauragais",
    "code": "31060",
    "epci_code": "243100567",
    "departement_code": "31",
    "region_code": "76",
    "postal_code": "31540"
  },
  {
    "name": "Bellegarde-Sainte-Marie",
    "code": "31061",
    "epci_code": "200071314",
    "departement_code": "31",
    "region_code": "76",
    "postal_code": "31530"
  },
  {
    "name": "Bellesserre",
    "code": "31062",
    "epci_code": "200071314",
    "departement_code": "31",
    "region_code": "76",
    "postal_code": "31480"
  },
  {
    "name": "Benque",
    "code": "31063",
    "epci_code": "200072643",
    "departement_code": "31",
    "region_code": "76",
    "postal_code": "31420"
  },
  {
    "name": "Benque-Dessous-et-Dessus",
    "code": "31064",
    "epci_code": "200072635",
    "departement_code": "31",
    "region_code": "76",
    "postal_code": "31110"
  },
  {
    "name": "Bérat",
    "code": "31065",
    "epci_code": "200068815",
    "departement_code": "31",
    "region_code": "76",
    "postal_code": "31370"
  },
  {
    "name": "Bessières",
    "code": "31066",
    "epci_code": "243100773",
    "departement_code": "31",
    "region_code": "76",
    "postal_code": "31660"
  },
  {
    "name": "Bezins-Garraux",
    "code": "31067",
    "epci_code": "200072635",
    "departement_code": "31",
    "region_code": "76",
    "postal_code": "31440"
  },
  {
    "name": "Billière",
    "code": "31068",
    "epci_code": "200072635",
    "departement_code": "31",
    "region_code": "76",
    "postal_code": "31110"
  },
  {
    "name": "Blagnac",
    "code": "31069",
    "epci_code": "243100518",
    "departement_code": "31",
    "region_code": "76",
    "postal_code": "31700"
  },
  {
    "name": "Blajan",
    "code": "31070",
    "epci_code": "200072643",
    "departement_code": "31",
    "region_code": "76",
    "postal_code": "31350"
  },
  {
    "name": "Bois-de-la-Pierre",
    "code": "31071",
    "epci_code": "200066819",
    "departement_code": "31",
    "region_code": "76",
    "postal_code": "31390"
  },
  {
    "name": "Boissède",
    "code": "31072",
    "epci_code": "200072643",
    "departement_code": "31",
    "region_code": "76",
    "postal_code": "31230"
  },
  {
    "name": "Bondigoux",
    "code": "31073",
    "epci_code": "243100773",
    "departement_code": "31",
    "region_code": "76",
    "postal_code": "31340"
  },
  {
    "name": "Bonrepos-Riquet",
    "code": "31074",
    "epci_code": "243100732",
    "departement_code": "31",
    "region_code": "76",
    "postal_code": "31590"
  },
  {
    "name": "Bonrepos-sur-Aussonnelle",
    "code": "31075",
    "epci_code": "200068641",
    "departement_code": "31",
    "region_code": "76",
    "postal_code": "31470"
  },
  {
    "name": "Bordes-de-Rivière",
    "code": "31076",
    "epci_code": "200072643",
    "departement_code": "31",
    "region_code": "76",
    "postal_code": "31210"
  },
  {
    "name": "Le Born",
    "code": "31077",
    "epci_code": "243100773",
    "departement_code": "31",
    "region_code": "76",
    "postal_code": "31340"
  },
  {
    "name": "Boudrac",
    "code": "31078",
    "epci_code": "200072643",
    "departement_code": "31",
    "region_code": "76",
    "postal_code": "31580"
  },
  {
    "name": "Bouloc",
    "code": "31079",
    "epci_code": "200034957",
    "departement_code": "31",
    "region_code": "76",
    "postal_code": "31620"
  },
  {
    "name": "Boulogne-sur-Gesse",
    "code": "31080",
    "epci_code": "200072643",
    "departement_code": "31",
    "region_code": "76",
    "postal_code": "31350"
  },
  {
    "name": "Bourg-d’Oueil",
    "code": "31081",
    "epci_code": "200072635",
    "departement_code": "31",
    "region_code": "76",
    "postal_code": "31110"
  },
  {
    "name": "Bourg-Saint-Bernard",
    "code": "31082",
    "epci_code": "200071298",
    "departement_code": "31",
    "region_code": "76",
    "postal_code": "31570"
  },
  {
    "name": "Boussan",
    "code": "31083",
    "epci_code": "200072643",
    "departement_code": "31",
    "region_code": "76",
    "postal_code": "31420"
  },
  {
    "name": "Boussens",
    "code": "31084",
    "epci_code": "200068815",
    "departement_code": "31",
    "region_code": "76",
    "postal_code": "31360"
  },
  {
    "name": "Boutx",
    "code": "31085",
    "epci_code": "200072635",
    "departement_code": "31",
    "region_code": "76",
    "postal_code": "31160"
  },
  {
    "name": "Boutx",
    "code": "31085",
    "epci_code": "200072635",
    "departement_code": "31",
    "region_code": "76",
    "postal_code": "31440"
  },
  {
    "name": "Bouzin",
    "code": "31086",
    "epci_code": "200072643",
    "departement_code": "31",
    "region_code": "76",
    "postal_code": "31420"
  },
  {
    "name": "Bragayrac",
    "code": "31087",
    "epci_code": "200068641",
    "departement_code": "31",
    "region_code": "76",
    "postal_code": "31470"
  },
  {
    "name": "Brax",
    "code": "31088",
    "epci_code": "243100518",
    "departement_code": "31",
    "region_code": "76",
    "postal_code": "31490"
  },
  {
    "name": "Bretx",
    "code": "31089",
    "epci_code": "200071314",
    "departement_code": "31",
    "region_code": "76",
    "postal_code": "31530"
  },
  {
    "name": "Brignemont",
    "code": "31090",
    "epci_code": "200071314",
    "departement_code": "31",
    "region_code": "76",
    "postal_code": "31480"
  },
  {
    "name": "Bruguières",
    "code": "31091",
    "epci_code": "243100518",
    "departement_code": "31",
    "region_code": "76",
    "postal_code": "31150"
  },
  {
    "name": "Burgalays",
    "code": "31092",
    "epci_code": "200072635",
    "departement_code": "31",
    "region_code": "76",
    "postal_code": "31440"
  },
  {
    "name": "Le Burgaud",
    "code": "31093",
    "epci_code": "200071314",
    "departement_code": "31",
    "region_code": "76",
    "postal_code": "31330"
  },
  {
    "name": "Buzet-sur-Tarn",
    "code": "31094",
    "epci_code": "243100773",
    "departement_code": "31",
    "region_code": "76",
    "postal_code": "31660"
  },
  {
    "name": "Cabanac-Cazaux",
    "code": "31095",
    "epci_code": "200073146",
    "departement_code": "31",
    "region_code": "76",
    "postal_code": "31160"
  },
  {
    "name": "Cabanac-Séguenville",
    "code": "31096",
    "epci_code": "200071314",
    "departement_code": "31",
    "region_code": "76",
    "postal_code": "31480"
  },
  {
    "name": "Le Cabanial",
    "code": "31097",
    "epci_code": "200071298",
    "departement_code": "31",
    "region_code": "76",
    "postal_code": "31460"
  },
  {
    "name": "Cadours",
    "code": "31098",
    "epci_code": "200071314",
    "departement_code": "31",
    "region_code": "76",
    "postal_code": "31480"
  },
  {
    "name": "Caignac",
    "code": "31099",
    "epci_code": "200071298",
    "departement_code": "31",
    "region_code": "76",
    "postal_code": "31560"
  },
  {
    "name": "Calmont",
    "code": "31100",
    "epci_code": "200071298",
    "departement_code": "31",
    "region_code": "76",
    "postal_code": "31560"
  },
  {
    "name": "Cambernard",
    "code": "31101",
    "epci_code": "200068815",
    "departement_code": "31",
    "region_code": "76",
    "postal_code": "31470"
  },
  {
    "name": "Cambiac",
    "code": "31102",
    "epci_code": "200071298",
    "departement_code": "31",
    "region_code": "76",
    "postal_code": "31460"
  },
  {
    "name": "Canens",
    "code": "31103",
    "epci_code": "200066819",
    "departement_code": "31",
    "region_code": "76",
    "postal_code": "31310"
  },
  {
    "name": "Capens",
    "code": "31104",
    "epci_code": "200066819",
    "departement_code": "31",
    "region_code": "76",
    "postal_code": "31410"
  },
  {
    "name": "Caragoudes",
    "code": "31105",
    "epci_code": "200071298",
    "departement_code": "31",
    "region_code": "76",
    "postal_code": "31460"
  },
  {
    "name": "Caraman",
    "code": "31106",
    "epci_code": "200071298",
    "departement_code": "31",
    "region_code": "76",
    "postal_code": "31460"
  },
  {
    "name": "Carbonne",
    "code": "31107",
    "epci_code": "200066819",
    "departement_code": "31",
    "region_code": "76",
    "postal_code": "31390"
  },
  {
    "name": "Cardeilhac",
    "code": "31108",
    "epci_code": "200072643",
    "departement_code": "31",
    "region_code": "76",
    "postal_code": "31350"
  },
  {
    "name": "Cassagnabère-Tournas",
    "code": "31109",
    "epci_code": "200072643",
    "departement_code": "31",
    "region_code": "76",
    "postal_code": "31420"
  },
  {
    "name": "Cassagne",
    "code": "31110",
    "epci_code": "200073146",
    "departement_code": "31",
    "region_code": "76",
    "postal_code": "31260"
  },
  {
    "name": "Castagnac",
    "code": "31111",
    "epci_code": "200066819",
    "departement_code": "31",
    "region_code": "76",
    "postal_code": "31310"
  },
  {
    "name": "Castagnède",
    "code": "31112",
    "epci_code": "200073146",
    "departement_code": "31",
    "region_code": "76",
    "postal_code": "31260"
  },
  {
    "name": "Castanet-Tolosan",
    "code": "31113",
    "epci_code": "243100633",
    "departement_code": "31",
    "region_code": "76",
    "postal_code": "31320"
  },
  {
    "name": "Castelbiague",
    "code": "31114",
    "epci_code": "200073146",
    "departement_code": "31",
    "region_code": "76",
    "postal_code": "31160"
  },
  {
    "name": "Castelgaillard",
    "code": "31115",
    "epci_code": "200072643",
    "departement_code": "31",
    "region_code": "76",
    "postal_code": "31230"
  },
  {
    "name": "Castelginest",
    "code": "31116",
    "epci_code": "243100518",
    "departement_code": "31",
    "region_code": "76",
    "postal_code": "31780"
  },
  {
    "name": "Castelmaurou",
    "code": "31117",
    "epci_code": "243100815",
    "departement_code": "31",
    "region_code": "76",
    "postal_code": "31180"
  },
  {
    "name": "Castelnau-d’Estrétefonds",
    "code": "31118",
    "epci_code": "200034957",
    "departement_code": "31",
    "region_code": "76",
    "postal_code": "31620"
  },
  {
    "name": "Castelnau-Picampeau",
    "code": "31119",
    "epci_code": "200068815",
    "departement_code": "31",
    "region_code": "76",
    "postal_code": "31430"
  },
  {
    "name": "Le Castéra",
    "code": "31120",
    "epci_code": "200071314",
    "departement_code": "31",
    "region_code": "76",
    "postal_code": "31530"
  },
  {
    "name": "Castéra-Vignoles",
    "code": "31121",
    "epci_code": "200072643",
    "departement_code": "31",
    "region_code": "76",
    "postal_code": "31350"
  },
  {
    "name": "Casties-Labrande",
    "code": "31122",
    "epci_code": "200068815",
    "departement_code": "31",
    "region_code": "76",
    "postal_code": "31430"
  },
  {
    "name": "Castillon-de-Larboust",
    "code": "31123",
    "epci_code": "200072635",
    "departement_code": "31",
    "region_code": "76",
    "postal_code": "31110"
  },
  {
    "name": "Castillon-de-Saint-Martory",
    "code": "31124",
    "epci_code": "200073146",
    "departement_code": "31",
    "region_code": "76",
    "postal_code": "31360"
  },
  {
    "name": "Cathervielle",
    "code": "31125",
    "epci_code": "200072635",
    "departement_code": "31",
    "region_code": "76",
    "postal_code": "31110"
  },
  {
    "name": "Caubiac",
    "code": "31126",
    "epci_code": "200071314",
    "departement_code": "31",
    "region_code": "76",
    "postal_code": "31480"
  },
  {
    "name": "Caubous",
    "code": "31127",
    "epci_code": "200072635",
    "departement_code": "31",
    "region_code": "76",
    "postal_code": "31110"
  },
  {
    "name": "Caujac",
    "code": "31128",
    "epci_code": "200068807",
    "departement_code": "31",
    "region_code": "76",
    "postal_code": "31190"
  },
  {
    "name": "Cazarilh-Laspènes",
    "code": "31129",
    "epci_code": "200072635",
    "departement_code": "31",
    "region_code": "76",
    "postal_code": "31110"
  },
  {
    "name": "Cazaril-Tambourès",
    "code": "31130",
    "epci_code": "200072643",
    "departement_code": "31",
    "region_code": "76",
    "postal_code": "31580"
  },
  {
    "name": "Cazaunous",
    "code": "31131",
    "epci_code": "200073146",
    "departement_code": "31",
    "region_code": "76",
    "postal_code": "31160"
  },
  {
    "name": "Cazaux-Layrisse",
    "code": "31132",
    "epci_code": "200072635",
    "departement_code": "31",
    "region_code": "76",
    "postal_code": "31440"
  },
  {
    "name": "Cazeaux-de-Larboust",
    "code": "31133",
    "epci_code": "200072635",
    "departement_code": "31",
    "region_code": "76",
    "postal_code": "31110"
  },
  {
    "name": "Cazeneuve-Montaut",
    "code": "31134",
    "epci_code": "200072643",
    "departement_code": "31",
    "region_code": "76",
    "postal_code": "31420"
  },
  {
    "name": "Cazères",
    "code": "31135",
    "epci_code": "200068815",
    "departement_code": "31",
    "region_code": "76",
    "postal_code": "31220"
  },
  {
    "name": "Cépet",
    "code": "31136",
    "epci_code": "200034957",
    "departement_code": "31",
    "region_code": "76",
    "postal_code": "31620"
  },
  {
    "name": "Cessales",
    "code": "31137",
    "epci_code": "200071298",
    "departement_code": "31",
    "region_code": "76",
    "postal_code": "31290"
  },
  {
    "name": "Charlas",
    "code": "31138",
    "epci_code": "200072643",
    "departement_code": "31",
    "region_code": "76",
    "postal_code": "31350"
  },
  {
    "name": "Chaum",
    "code": "31139",
    "epci_code": "200072635",
    "departement_code": "31",
    "region_code": "76",
    "postal_code": "31440"
  },
  {
    "name": "Chein-Dessus",
    "code": "31140",
    "epci_code": "200073146",
    "departement_code": "31",
    "region_code": "76",
    "postal_code": "31160"
  },
  {
    "name": "Ciadoux",
    "code": "31141",
    "epci_code": "200072643",
    "departement_code": "31",
    "region_code": "76",
    "postal_code": "31350"
  },
  {
    "name": "Cier-de-Luchon",
    "code": "31142",
    "epci_code": "200072635",
    "departement_code": "31",
    "region_code": "76",
    "postal_code": "31110"
  },
  {
    "name": "Cier-de-Rivière",
    "code": "31143",
    "epci_code": "200072635",
    "departement_code": "31",
    "region_code": "76",
    "postal_code": "31510"
  },
  {
    "name": "Cierp-Gaud",
    "code": "31144",
    "epci_code": "200072635",
    "departement_code": "31",
    "region_code": "76",
    "postal_code": "31440"
  },
  {
    "name": "Cintegabelle",
    "code": "31145",
    "epci_code": "200068807",
    "departement_code": "31",
    "region_code": "76",
    "postal_code": "31550"
  },
  {
    "name": "Cirès",
    "code": "31146",
    "epci_code": "200072635",
    "departement_code": "31",
    "region_code": "76",
    "postal_code": "31110"
  },
  {
    "name": "Clarac",
    "code": "31147",
    "epci_code": "200072643",
    "departement_code": "31",
    "region_code": "76",
    "postal_code": "31210"
  },
  {
    "name": "Clermont-le-Fort",
    "code": "31148",
    "epci_code": "243100633",
    "departement_code": "31",
    "region_code": "76",
    "postal_code": "31810"
  },
  {
    "name": "Colomiers",
    "code": "31149",
    "epci_code": "243100518",
    "departement_code": "31",
    "region_code": "76",
    "postal_code": "31770"
  },
  {
    "name": "Cornebarrieu",
    "code": "31150",
    "epci_code": "243100518",
    "departement_code": "31",
    "region_code": "76",
    "postal_code": "31700"
  },
  {
    "name": "Corronsac",
    "code": "31151",
    "epci_code": "243100633",
    "departement_code": "31",
    "region_code": "76",
    "postal_code": "31450"
  },
  {
    "name": "Coueilles",
    "code": "31152",
    "epci_code": "200072643",
    "departement_code": "31",
    "region_code": "76",
    "postal_code": "31230"
  },
  {
    "name": "Couladère",
    "code": "31153",
    "epci_code": "200068815",
    "departement_code": "31",
    "region_code": "76",
    "postal_code": "31220"
  },
  {
    "name": "Couret",
    "code": "31155",
    "epci_code": "200073146",
    "departement_code": "31",
    "region_code": "76",
    "postal_code": "31160"
  },
  {
    "name": "Cox",
    "code": "31156",
    "epci_code": "200071314",
    "departement_code": "31",
    "region_code": "76",
    "postal_code": "31480"
  },
  {
    "name": "Cugnaux",
    "code": "31157",
    "epci_code": "243100518",
    "departement_code": "31",
    "region_code": "76",
    "postal_code": "31270"
  },
  {
    "name": "Cuguron",
    "code": "31158",
    "epci_code": "200072643",
    "departement_code": "31",
    "region_code": "76",
    "postal_code": "31210"
  },
  {
    "name": "Le Cuing",
    "code": "31159",
    "epci_code": "200072643",
    "departement_code": "31",
    "region_code": "76",
    "postal_code": "31210"
  },
  {
    "name": "Daux",
    "code": "31160",
    "epci_code": "200071314",
    "departement_code": "31",
    "region_code": "76",
    "postal_code": "31700"
  },
  {
    "name": "Deyme",
    "code": "31161",
    "epci_code": "243100633",
    "departement_code": "31",
    "region_code": "76",
    "postal_code": "31450"
  },
  {
    "name": "Donneville",
    "code": "31162",
    "epci_code": "243100633",
    "departement_code": "31",
    "region_code": "76",
    "postal_code": "31450"
  },
  {
    "name": "Drémil-Lafage",
    "code": "31163",
    "epci_code": "243100518",
    "departement_code": "31",
    "region_code": "76",
    "postal_code": "31280"
  },
  {
    "name": "Drudas",
    "code": "31164",
    "epci_code": "200071314",
    "departement_code": "31",
    "region_code": "76",
    "postal_code": "31480"
  },
  {
    "name": "Eaunes",
    "code": "31165",
    "epci_code": "200068641",
    "departement_code": "31",
    "region_code": "76",
    "postal_code": "31600"
  },
  {
    "name": "Empeaux",
    "code": "31166",
    "epci_code": "200068641",
    "departement_code": "31",
    "region_code": "76",
    "postal_code": "31470"
  },
  {
    "name": "Encausse-les-Thermes",
    "code": "31167",
    "epci_code": "200073146",
    "departement_code": "31",
    "region_code": "76",
    "postal_code": "31160"
  },
  {
    "name": "Eoux",
    "code": "31168",
    "epci_code": "200072643",
    "departement_code": "31",
    "region_code": "76",
    "postal_code": "31420"
  },
  {
    "name": "Escalquens",
    "code": "31169",
    "epci_code": "243100633",
    "departement_code": "31",
    "region_code": "76",
    "postal_code": "31750"
  },
  {
    "name": "Escanecrabe",
    "code": "31170",
    "epci_code": "200072643",
    "departement_code": "31",
    "region_code": "76",
    "postal_code": "31350"
  },
  {
    "name": "Espanès",
    "code": "31171",
    "epci_code": "243100633",
    "departement_code": "31",
    "region_code": "76",
    "postal_code": "31450"
  },
  {
    "name": "Esparron",
    "code": "31172",
    "epci_code": "200072643",
    "departement_code": "31",
    "region_code": "76",
    "postal_code": "31420"
  },
  {
    "name": "Esperce",
    "code": "31173",
    "epci_code": "200068807",
    "departement_code": "31",
    "region_code": "76",
    "postal_code": "31190"
  },
  {
    "name": "Estadens",
    "code": "31174",
    "epci_code": "200073146",
    "departement_code": "31",
    "region_code": "76",
    "postal_code": "31160"
  },
  {
    "name": "Estancarbon",
    "code": "31175",
    "epci_code": "200072643",
    "departement_code": "31",
    "region_code": "76",
    "postal_code": "31800"
  },
  {
    "name": "Esténos",
    "code": "31176",
    "epci_code": "200072635",
    "departement_code": "31",
    "region_code": "76",
    "postal_code": "31440"
  },
  {
    "name": "Eup",
    "code": "31177",
    "epci_code": "200072635",
    "departement_code": "31",
    "region_code": "76",
    "postal_code": "31440"
  },
  {
    "name": "Fabas",
    "code": "31178",
    "epci_code": "200072643",
    "departement_code": "31",
    "region_code": "76",
    "postal_code": "31230"
  },
  {
    "name": "Le Faget",
    "code": "31179",
    "epci_code": "200071298",
    "departement_code": "31",
    "region_code": "76",
    "postal_code": "31460"
  },
  {
    "name": "Falga",
    "code": "31180",
    "epci_code": "243100567",
    "departement_code": "31",
    "region_code": "76",
    "postal_code": "31540"
  },
  {
    "name": "Le Fauga",
    "code": "31181",
    "epci_code": "200068641",
    "departement_code": "31",
    "region_code": "76",
    "postal_code": "31410"
  },
  {
    "name": "Fenouillet",
    "code": "31182",
    "epci_code": "243100518",
    "departement_code": "31",
    "region_code": "76",
    "postal_code": "31150"
  },
  {
    "name": "Figarol",
    "code": "31183",
    "epci_code": "200073146",
    "departement_code": "31",
    "region_code": "76",
    "postal_code": "31260"
  },
  {
    "name": "Flourens",
    "code": "31184",
    "epci_code": "243100518",
    "departement_code": "31",
    "region_code": "76",
    "postal_code": "31130"
  },
  {
    "name": "Folcarde",
    "code": "31185",
    "epci_code": "200071298",
    "departement_code": "31",
    "region_code": "76",
    "postal_code": "31290"
  },
  {
    "name": "Fonbeauzard",
    "code": "31186",
    "epci_code": "243100518",
    "departement_code": "31",
    "region_code": "76",
    "postal_code": "31140"
  },
  {
    "name": "Fonsorbes",
    "code": "31187",
    "epci_code": "200068641",
    "departement_code": "31",
    "region_code": "76",
    "postal_code": "31470"
  },
  {
    "name": "Fontenilles",
    "code": "31188",
    "epci_code": "243100781",
    "departement_code": "31",
    "region_code": "76",
    "postal_code": "31470"
  },
  {
    "name": "Forgues",
    "code": "31189",
    "epci_code": "200068815",
    "departement_code": "31",
    "region_code": "76",
    "postal_code": "31370"
  },
  {
    "name": "Fos",
    "code": "31190",
    "epci_code": "200072635",
    "departement_code": "31",
    "region_code": "76",
    "postal_code": "31440"
  },
  {
    "name": "Fougaron",
    "code": "31191",
    "epci_code": "200073146",
    "departement_code": "31",
    "region_code": "76",
    "postal_code": "31160"
  },
  {
    "name": "Fourquevaux",
    "code": "31192",
    "epci_code": "243100633",
    "departement_code": "31",
    "region_code": "76",
    "postal_code": "31450"
  },
  {
    "name": "Le Fousseret",
    "code": "31193",
    "epci_code": "200068815",
    "departement_code": "31",
    "region_code": "76",
    "postal_code": "31430"
  },
  {
    "name": "Francarville",
    "code": "31194",
    "epci_code": "200071298",
    "departement_code": "31",
    "region_code": "76",
    "postal_code": "31460"
  },
  {
    "name": "Francazal",
    "code": "31195",
    "epci_code": "200073146",
    "departement_code": "31",
    "region_code": "76",
    "postal_code": "31260"
  },
  {
    "name": "Francon",
    "code": "31196",
    "epci_code": "200068815",
    "departement_code": "31",
    "region_code": "76",
    "postal_code": "31420"
  },
  {
    "name": "Franquevielle",
    "code": "31197",
    "epci_code": "200072643",
    "departement_code": "31",
    "region_code": "76",
    "postal_code": "31210"
  },
  {
    "name": "Le Fréchet",
    "code": "31198",
    "epci_code": "200073146",
    "departement_code": "31",
    "region_code": "76",
    "postal_code": "31360"
  },
  {
    "name": "Fronsac",
    "code": "31199",
    "epci_code": "200072635",
    "departement_code": "31",
    "region_code": "76",
    "postal_code": "31440"
  },
  {
    "name": "Frontignan-de-Comminges",
    "code": "31200",
    "epci_code": "200072635",
    "departement_code": "31",
    "region_code": "76",
    "postal_code": "31510"
  },
  {
    "name": "Frontignan-Savès",
    "code": "31201",
    "epci_code": "200072643",
    "departement_code": "31",
    "region_code": "76",
    "postal_code": "31230"
  },
  {
    "name": "Fronton",
    "code": "31202",
    "epci_code": "200034957",
    "departement_code": "31",
    "region_code": "76",
    "postal_code": "31620"
  },
  {
    "name": "Frouzins",
    "code": "31203",
    "epci_code": "200068641",
    "departement_code": "31",
    "region_code": "76",
    "postal_code": "31270"
  },
  {
    "name": "Fustignac",
    "code": "31204",
    "epci_code": "200068815",
    "departement_code": "31",
    "region_code": "76",
    "postal_code": "31430"
  },
  {
    "name": "Gagnac-sur-Garonne",
    "code": "31205",
    "epci_code": "243100518",
    "departement_code": "31",
    "region_code": "76",
    "postal_code": "31150"
  },
  {
    "name": "Gaillac-Toulza",
    "code": "31206",
    "epci_code": "200068807",
    "departement_code": "31",
    "region_code": "76",
    "postal_code": "31550"
  },
  {
    "name": "Galié",
    "code": "31207",
    "epci_code": "200072635",
    "departement_code": "31",
    "region_code": "76",
    "postal_code": "31510"
  },
  {
    "name": "Ganties",
    "code": "31208",
    "epci_code": "200073146",
    "departement_code": "31",
    "region_code": "76",
    "postal_code": "31160"
  },
  {
    "name": "Garac",
    "code": "31209",
    "epci_code": "200071314",
    "departement_code": "31",
    "region_code": "76",
    "postal_code": "31480"
  },
  {
    "name": "Gardouch",
    "code": "31210",
    "epci_code": "200071298",
    "departement_code": "31",
    "region_code": "76",
    "postal_code": "31290"
  },
  {
    "name": "Gargas",
    "code": "31211",
    "epci_code": "200034957",
    "departement_code": "31",
    "region_code": "76",
    "postal_code": "31620"
  },
  {
    "name": "Garidech",
    "code": "31212",
    "epci_code": "243100732",
    "departement_code": "31",
    "region_code": "76",
    "postal_code": "31380"
  },
  {
    "name": "Garin",
    "code": "31213",
    "epci_code": "200072635",
    "departement_code": "31",
    "region_code": "76",
    "postal_code": "31110"
  },
  {
    "name": "Gauré",
    "code": "31215",
    "epci_code": "243100732",
    "departement_code": "31",
    "region_code": "76",
    "postal_code": "31590"
  },
  {
    "name": "Gémil",
    "code": "31216",
    "epci_code": "243100732",
    "departement_code": "31",
    "region_code": "76",
    "postal_code": "31380"
  },
  {
    "name": "Génos",
    "code": "31217",
    "epci_code": "200072635",
    "departement_code": "31",
    "region_code": "76",
    "postal_code": "31510"
  },
  {
    "name": "Gensac-de-Boulogne",
    "code": "31218",
    "epci_code": "200072643",
    "departement_code": "31",
    "region_code": "76",
    "postal_code": "31350"
  },
  {
    "name": "Gensac-sur-Garonne",
    "code": "31219",
    "epci_code": "200066819",
    "departement_code": "31",
    "region_code": "76",
    "postal_code": "31310"
  },
  {
    "name": "Gibel",
    "code": "31220",
    "epci_code": "200071298",
    "departement_code": "31",
    "region_code": "76",
    "postal_code": "31560"
  },
  {
    "name": "Gouaux-de-Larboust",
    "code": "31221",
    "epci_code": "200072635",
    "departement_code": "31",
    "region_code": "76",
    "postal_code": "31110"
  },
  {
    "name": "Gouaux-de-Luchon",
    "code": "31222",
    "epci_code": "200072635",
    "departement_code": "31",
    "region_code": "76",
    "postal_code": "31110"
  },
  {
    "name": "Goudex",
    "code": "31223",
    "epci_code": "200072643",
    "departement_code": "31",
    "region_code": "76",
    "postal_code": "31230"
  },
  {
    "name": "Gourdan-Polignan",
    "code": "31224",
    "epci_code": "200072635",
    "departement_code": "31",
    "region_code": "76",
    "postal_code": "31210"
  },
  {
    "name": "Goutevernisse",
    "code": "31225",
    "epci_code": "200066819",
    "departement_code": "31",
    "region_code": "76",
    "postal_code": "31310"
  },
  {
    "name": "Gouzens",
    "code": "31226",
    "epci_code": "200066819",
    "departement_code": "31",
    "region_code": "76",
    "postal_code": "31310"
  },
  {
    "name": "Goyrans",
    "code": "31227",
    "epci_code": "243100633",
    "departement_code": "31",
    "region_code": "76",
    "postal_code": "31120"
  },
  {
    "name": "Gragnague",
    "code": "31228",
    "epci_code": "243100732",
    "departement_code": "31",
    "region_code": "76",
    "postal_code": "31380"
  },
  {
    "name": "Gratens",
    "code": "31229",
    "epci_code": "200068815",
    "departement_code": "31",
    "region_code": "76",
    "postal_code": "31430"
  },
  {
    "name": "Gratentour",
    "code": "31230",
    "epci_code": "243100518",
    "departement_code": "31",
    "region_code": "76",
    "postal_code": "31150"
  },
  {
    "name": "Grazac",
    "code": "31231",
    "epci_code": "200068807",
    "departement_code": "31",
    "region_code": "76",
    "postal_code": "31190"
  },
  {
    "name": "Grenade",
    "code": "31232",
    "epci_code": "200071314",
    "departement_code": "31",
    "region_code": "76",
    "postal_code": "31330"
  },
  {
    "name": "Grépiac",
    "code": "31233",
    "epci_code": "200068807",
    "departement_code": "31",
    "region_code": "76",
    "postal_code": "31190"
  },
  {
    "name": "Le Grès",
    "code": "31234",
    "epci_code": "200071314",
    "departement_code": "31",
    "region_code": "76",
    "postal_code": "31480"
  },
  {
    "name": "Guran",
    "code": "31235",
    "epci_code": "200072635",
    "departement_code": "31",
    "region_code": "76",
    "postal_code": "31440"
  },
  {
    "name": "Herran",
    "code": "31236",
    "epci_code": "200073146",
    "departement_code": "31",
    "region_code": "76",
    "postal_code": "31160"
  },
  {
    "name": "His",
    "code": "31237",
    "epci_code": "200073146",
    "departement_code": "31",
    "region_code": "76",
    "postal_code": "31260"
  },
  {
    "name": "Huos",
    "code": "31238",
    "epci_code": "200072635",
    "departement_code": "31",
    "region_code": "76",
    "postal_code": "31210"
  },
  {
    "name": "L’Isle-en-Dodon",
    "code": "31239",
    "epci_code": "200072643",
    "departement_code": "31",
    "region_code": "76",
    "postal_code": "31230"
  },
  {
    "name": "Issus",
    "code": "31240",
    "epci_code": "243100633",
    "departement_code": "31",
    "region_code": "76",
    "postal_code": "31450"
  },
  {
    "name": "Izaut-de-l’Hôtel",
    "code": "31241",
    "epci_code": "200073146",
    "departement_code": "31",
    "region_code": "76",
    "postal_code": "31160"
  },
  {
    "name": "Jurvielle",
    "code": "31242",
    "epci_code": "200072635",
    "departement_code": "31",
    "region_code": "76",
    "postal_code": "31110"
  },
  {
    "name": "Juzes",
    "code": "31243",
    "epci_code": "243100567",
    "departement_code": "31",
    "region_code": "76",
    "postal_code": "31540"
  },
  {
    "name": "Juzet-de-Luchon",
    "code": "31244",
    "epci_code": "200072635",
    "departement_code": "31",
    "region_code": "76",
    "postal_code": "31110"
  },
  {
    "name": "Juzet-d’Izaut",
    "code": "31245",
    "epci_code": "200073146",
    "departement_code": "31",
    "region_code": "76",
    "postal_code": "31160"
  },
  {
    "name": "Labarthe-Inard",
    "code": "31246",
    "epci_code": "200072643",
    "departement_code": "31",
    "region_code": "76",
    "postal_code": "31800"
  },
  {
    "name": "Labarthe-Rivière",
    "code": "31247",
    "epci_code": "200072643",
    "departement_code": "31",
    "region_code": "76",
    "postal_code": "31800"
  },
  {
    "name": "Labarthe-sur-Lèze",
    "code": "31248",
    "epci_code": "200068641",
    "departement_code": "31",
    "region_code": "76",
    "postal_code": "31860"
  },
  {
    "name": "Labastide-Beauvoir",
    "code": "31249",
    "epci_code": "243100633",
    "departement_code": "31",
    "region_code": "76",
    "postal_code": "31450"
  },
  {
    "name": "Labastide-Clermont",
    "code": "31250",
    "epci_code": "200068815",
    "departement_code": "31",
    "region_code": "76",
    "postal_code": "31370"
  },
  {
    "name": "Labastide-Paumès",
    "code": "31251",
    "epci_code": "200072643",
    "departement_code": "31",
    "region_code": "76",
    "postal_code": "31230"
  },
  {
    "name": "Labastide-Saint-Sernin",
    "code": "31252",
    "epci_code": "243100815",
    "departement_code": "31",
    "region_code": "76",
    "postal_code": "31620"
  },
  {
    "name": "Labastidette",
    "code": "31253",
    "epci_code": "200068641",
    "departement_code": "31",
    "region_code": "76",
    "postal_code": "31600"
  },
  {
    "name": "Labège",
    "code": "31254",
    "epci_code": "243100633",
    "departement_code": "31",
    "region_code": "76",
    "postal_code": "31670"
  },
  {
    "name": "Labroquère",
    "code": "31255",
    "epci_code": "200072635",
    "departement_code": "31",
    "region_code": "76",
    "postal_code": "31510"
  },
  {
    "name": "Labruyère-Dorsa",
    "code": "31256",
    "epci_code": "200068807",
    "departement_code": "31",
    "region_code": "76",
    "postal_code": "31190"
  },
  {
    "name": "Lacaugne",
    "code": "31258",
    "epci_code": "200066819",
    "departement_code": "31",
    "region_code": "76",
    "postal_code": "31390"
  },
  {
    "name": "Lacroix-Falgarde",
    "code": "31259",
    "epci_code": "243100633",
    "departement_code": "31",
    "region_code": "76",
    "postal_code": "31120"
  },
  {
    "name": "Laffite-Toupière",
    "code": "31260",
    "epci_code": "200073146",
    "departement_code": "31",
    "region_code": "76",
    "postal_code": "31360"
  },
  {
    "name": "Lafitte-Vigordane",
    "code": "31261",
    "epci_code": "200066819",
    "departement_code": "31",
    "region_code": "76",
    "postal_code": "31390"
  },
  {
    "name": "Lagarde",
    "code": "31262",
    "epci_code": "200071298",
    "departement_code": "31",
    "region_code": "76",
    "postal_code": "31290"
  },
  {
    "name": "Lagardelle-sur-Lèze",
    "code": "31263",
    "epci_code": "200068807",
    "departement_code": "31",
    "region_code": "76",
    "postal_code": "31870"
  },
  {
    "name": "Lagrâce-Dieu",
    "code": "31264",
    "epci_code": "200068807",
    "departement_code": "31",
    "region_code": "76",
    "postal_code": "31190"
  },
  {
    "name": "Lagraulet-Saint-Nicolas",
    "code": "31265",
    "epci_code": "200071314",
    "departement_code": "31",
    "region_code": "76",
    "postal_code": "31480"
  },
  {
    "name": "Lahage",
    "code": "31266",
    "epci_code": "200068815",
    "departement_code": "31",
    "region_code": "76",
    "postal_code": "31370"
  },
  {
    "name": "Lahitère",
    "code": "31267",
    "epci_code": "200066819",
    "departement_code": "31",
    "region_code": "76",
    "postal_code": "31310"
  },
  {
    "name": "Lalouret-Laffiteau",
    "code": "31268",
    "epci_code": "200072643",
    "departement_code": "31",
    "region_code": "76",
    "postal_code": "31800"
  },
  {
    "name": "Lamasquère",
    "code": "31269",
    "epci_code": "200068641",
    "departement_code": "31",
    "region_code": "76",
    "postal_code": "31600"
  },
  {
    "name": "Landorthe",
    "code": "31270",
    "epci_code": "200072643",
    "departement_code": "31",
    "region_code": "76",
    "postal_code": "31800"
  },
  {
    "name": "Lanta",
    "code": "31271",
    "epci_code": "200071298",
    "departement_code": "31",
    "region_code": "76",
    "postal_code": "31570"
  },
  {
    "name": "Lapeyrère",
    "code": "31272",
    "epci_code": "200066819",
    "departement_code": "31",
    "region_code": "76",
    "postal_code": "31310"
  },
  {
    "name": "Lapeyrouse-Fossat",
    "code": "31273",
    "epci_code": "243100732",
    "departement_code": "31",
    "region_code": "76",
    "postal_code": "31180"
  },
  {
    "name": "Larcan",
    "code": "31274",
    "epci_code": "200072643",
    "departement_code": "31",
    "region_code": "76",
    "postal_code": "31800"
  },
  {
    "name": "Laréole",
    "code": "31275",
    "epci_code": "200071314",
    "departement_code": "31",
    "region_code": "76",
    "postal_code": "31480"
  },
  {
    "name": "Larroque",
    "code": "31276",
    "epci_code": "200072643",
    "departement_code": "31",
    "region_code": "76",
    "postal_code": "31580"
  },
  {
    "name": "Lasserre-Pradère",
    "code": "31277",
    "epci_code": "243100781",
    "departement_code": "31",
    "region_code": "76",
    "postal_code": "31530"
  },
  {
    "name": "Latoue",
    "code": "31278",
    "epci_code": "200072643",
    "departement_code": "31",
    "region_code": "76",
    "postal_code": "31800"
  },
  {
    "name": "Latour",
    "code": "31279",
    "epci_code": "200066819",
    "departement_code": "31",
    "region_code": "76",
    "postal_code": "31310"
  },
  {
    "name": "Latrape",
    "code": "31280",
    "epci_code": "200066819",
    "departement_code": "31",
    "region_code": "76",
    "postal_code": "31310"
  },
  {
    "name": "Launac",
    "code": "31281",
    "epci_code": "200071314",
    "departement_code": "31",
    "region_code": "76",
    "postal_code": "31330"
  },
  {
    "name": "Launaguet",
    "code": "31282",
    "epci_code": "243100518",
    "departement_code": "31",
    "region_code": "76",
    "postal_code": "31140"
  },
  {
    "name": "Lautignac",
    "code": "31283",
    "epci_code": "200068815",
    "departement_code": "31",
    "region_code": "76",
    "postal_code": "31370"
  },
  {
    "name": "Lauzerville",
    "code": "31284",
    "epci_code": "243100633",
    "departement_code": "31",
    "region_code": "76",
    "postal_code": "31650"
  },
  {
    "name": "Lavalette",
    "code": "31285",
    "epci_code": "243100732",
    "departement_code": "31",
    "region_code": "76",
    "postal_code": "31590"
  },
  {
    "name": "Lavelanet-de-Comminges",
    "code": "31286",
    "epci_code": "200066819",
    "departement_code": "31",
    "region_code": "76",
    "postal_code": "31220"
  },
  {
    "name": "Lavernose-Lacasse",
    "code": "31287",
    "epci_code": "200068641",
    "departement_code": "31",
    "region_code": "76",
    "postal_code": "31410"
  },
  {
    "name": "Layrac-sur-Tarn",
    "code": "31288",
    "epci_code": "243100773",
    "departement_code": "31",
    "region_code": "76",
    "postal_code": "31340"
  },
  {
    "name": "Lécussan",
    "code": "31289",
    "epci_code": "200072643",
    "departement_code": "31",
    "region_code": "76",
    "postal_code": "31580"
  },
  {
    "name": "Lège",
    "code": "31290",
    "epci_code": "200072635",
    "departement_code": "31",
    "region_code": "76",
    "postal_code": "31440"
  },
  {
    "name": "Léguevin",
    "code": "31291",
    "epci_code": "243100781",
    "departement_code": "31",
    "region_code": "76",
    "postal_code": "31490"
  },
  {
    "name": "Lescuns",
    "code": "31292",
    "epci_code": "200068815",
    "departement_code": "31",
    "region_code": "76",
    "postal_code": "31220"
  },
  {
    "name": "Lespinasse",
    "code": "31293",
    "epci_code": "243100518",
    "departement_code": "31",
    "region_code": "76",
    "postal_code": "31150"
  },
  {
    "name": "Lespiteau",
    "code": "31294",
    "epci_code": "200072643",
    "departement_code": "31",
    "region_code": "76",
    "postal_code": "31160"
  },
  {
    "name": "Lespugue",
    "code": "31295",
    "epci_code": "200072643",
    "departement_code": "31",
    "region_code": "76",
    "postal_code": "31350"
  },
  {
    "name": "Lestelle-de-Saint-Martory",
    "code": "31296",
    "epci_code": "200073146",
    "departement_code": "31",
    "region_code": "76",
    "postal_code": "31360"
  },
  {
    "name": "Lévignac",
    "code": "31297",
    "epci_code": "243100781",
    "departement_code": "31",
    "region_code": "76",
    "postal_code": "31530"
  },
  {
    "name": "Lherm",
    "code": "31299",
    "epci_code": "200068815",
    "departement_code": "31",
    "region_code": "76",
    "postal_code": "31600"
  },
  {
    "name": "Lieoux",
    "code": "31300",
    "epci_code": "200072643",
    "departement_code": "31",
    "region_code": "76",
    "postal_code": "31800"
  },
  {
    "name": "Lilhac",
    "code": "31301",
    "epci_code": "200072643",
    "departement_code": "31",
    "region_code": "76",
    "postal_code": "31230"
  },
  {
    "name": "Lodes",
    "code": "31302",
    "epci_code": "200072643",
    "departement_code": "31",
    "region_code": "76",
    "postal_code": "31800"
  },
  {
    "name": "Longages",
    "code": "31303",
    "epci_code": "200066819",
    "departement_code": "31",
    "region_code": "76",
    "postal_code": "31410"
  },
  {
    "name": "Loubens-Lauragais",
    "code": "31304",
    "epci_code": "200071298",
    "departement_code": "31",
    "region_code": "76",
    "postal_code": "31460"
  },
  {
    "name": "Loudet",
    "code": "31305",
    "epci_code": "200072643",
    "departement_code": "31",
    "region_code": "76",
    "postal_code": "31580"
  },
  {
    "name": "Lourde",
    "code": "31306",
    "epci_code": "200072635",
    "departement_code": "31",
    "region_code": "76",
    "postal_code": "31510"
  },
  {
    "name": "Luscan",
    "code": "31308",
    "epci_code": "200072635",
    "departement_code": "31",
    "region_code": "76",
    "postal_code": "31510"
  },
  {
    "name": "Lussan-Adeilhac",
    "code": "31309",
    "epci_code": "200068815",
    "departement_code": "31",
    "region_code": "76",
    "postal_code": "31430"
  },
  {
    "name": "Lux",
    "code": "31310",
    "epci_code": "200071298",
    "departement_code": "31",
    "region_code": "76",
    "postal_code": "31290"
  },
  {
    "name": "La Magdelaine-sur-Tarn",
    "code": "31311",
    "epci_code": "243100773",
    "departement_code": "31",
    "region_code": "76",
    "postal_code": "31340"
  },
  {
    "name": "Mailholas",
    "code": "31312",
    "epci_code": "200066819",
    "departement_code": "31",
    "region_code": "76",
    "postal_code": "31310"
  },
  {
    "name": "Malvezie",
    "code": "31313",
    "epci_code": "200072635",
    "departement_code": "31",
    "region_code": "76",
    "postal_code": "31510"
  },
  {
    "name": "Mancioux",
    "code": "31314",
    "epci_code": "200073146",
    "departement_code": "31",
    "region_code": "76",
    "postal_code": "31360"
  },
  {
    "name": "Mane",
    "code": "31315",
    "epci_code": "200073146",
    "departement_code": "31",
    "region_code": "76",
    "postal_code": "31260"
  },
  {
    "name": "Marignac",
    "code": "31316",
    "epci_code": "200072635",
    "departement_code": "31",
    "region_code": "76",
    "postal_code": "31440"
  },
  {
    "name": "Marignac-Lasclares",
    "code": "31317",
    "epci_code": "200068815",
    "departement_code": "31",
    "region_code": "76",
    "postal_code": "31430"
  },
  {
    "name": "Marignac-Laspeyres",
    "code": "31318",
    "epci_code": "200068815",
    "departement_code": "31",
    "region_code": "76",
    "postal_code": "31220"
  },
  {
    "name": "Marliac",
    "code": "31319",
    "epci_code": "200068807",
    "departement_code": "31",
    "region_code": "76",
    "postal_code": "31550"
  },
  {
    "name": "Marquefave",
    "code": "31320",
    "epci_code": "200066819",
    "departement_code": "31",
    "region_code": "76",
    "postal_code": "31390"
  },
  {
    "name": "Marsoulas",
    "code": "31321",
    "epci_code": "200073146",
    "departement_code": "31",
    "region_code": "76",
    "postal_code": "31260"
  },
  {
    "name": "Martisserre",
    "code": "31322",
    "epci_code": "200072643",
    "departement_code": "31",
    "region_code": "76",
    "postal_code": "31230"
  },
  {
    "name": "Martres-de-Rivière",
    "code": "31323",
    "epci_code": "200072635",
    "departement_code": "31",
    "region_code": "76",
    "postal_code": "31210"
  },
  {
    "name": "Martres-Tolosane",
    "code": "31324",
    "epci_code": "200068815",
    "departement_code": "31",
    "region_code": "76",
    "postal_code": "31220"
  },
  {
    "name": "Mascarville",
    "code": "31325",
    "epci_code": "200071298",
    "departement_code": "31",
    "region_code": "76",
    "postal_code": "31460"
  },
  {
    "name": "Massabrac",
    "code": "31326",
    "epci_code": "200066819",
    "departement_code": "31",
    "region_code": "76",
    "postal_code": "31310"
  },
  {
    "name": "Mauran",
    "code": "31327",
    "epci_code": "200068815",
    "departement_code": "31",
    "region_code": "76",
    "postal_code": "31220"
  },
  {
    "name": "Mauremont",
    "code": "31328",
    "epci_code": "200071298",
    "departement_code": "31",
    "region_code": "76",
    "postal_code": "31290"
  },
  {
    "name": "Maurens",
    "code": "31329",
    "epci_code": "243100567",
    "departement_code": "31",
    "region_code": "76",
    "postal_code": "31540"
  },
  {
    "name": "Mauressac",
    "code": "31330",
    "epci_code": "200068807",
    "departement_code": "31",
    "region_code": "76",
    "postal_code": "31190"
  },
  {
    "name": "Maureville",
    "code": "31331",
    "epci_code": "200071298",
    "departement_code": "31",
    "region_code": "76",
    "postal_code": "31460"
  },
  {
    "name": "Mauvaisin",
    "code": "31332",
    "epci_code": "200071298",
    "departement_code": "31",
    "region_code": "76",
    "postal_code": "31190"
  },
  {
    "name": "Mauvezin",
    "code": "31333",
    "epci_code": "200072643",
    "departement_code": "31",
    "region_code": "76",
    "postal_code": "31230"
  },
  {
    "name": "Mauzac",
    "code": "31334",
    "epci_code": "200066819",
    "departement_code": "31",
    "region_code": "76",
    "postal_code": "31410"
  },
  {
    "name": "Mayrègne",
    "code": "31335",
    "epci_code": "200072635",
    "departement_code": "31",
    "region_code": "76",
    "postal_code": "31110"
  },
  {
    "name": "Mazères-sur-Salat",
    "code": "31336",
    "epci_code": "200073146",
    "departement_code": "31",
    "region_code": "76",
    "postal_code": "31260"
  },
  {
    "name": "Melles",
    "code": "31337",
    "epci_code": "200072635",
    "departement_code": "31",
    "region_code": "76",
    "postal_code": "31440"
  },
  {
    "name": "Menville",
    "code": "31338",
    "epci_code": "200071314",
    "departement_code": "31",
    "region_code": "76",
    "postal_code": "31530"
  },
  {
    "name": "Mérenvielle",
    "code": "31339",
    "epci_code": "243100781",
    "departement_code": "31",
    "region_code": "76",
    "postal_code": "31530"
  },
  {
    "name": "Mervilla",
    "code": "31340",
    "epci_code": "243100633",
    "departement_code": "31",
    "region_code": "76",
    "postal_code": "31320"
  },
  {
    "name": "Merville",
    "code": "31341",
    "epci_code": "200071314",
    "departement_code": "31",
    "region_code": "76",
    "postal_code": "31330"
  },
  {
    "name": "Milhas",
    "code": "31342",
    "epci_code": "200073146",
    "departement_code": "31",
    "region_code": "76",
    "postal_code": "31160"
  },
  {
    "name": "Mirambeau",
    "code": "31343",
    "epci_code": "200072643",
    "departement_code": "31",
    "region_code": "76",
    "postal_code": "31230"
  },
  {
    "name": "Miramont-de-Comminges",
    "code": "31344",
    "epci_code": "200072643",
    "departement_code": "31",
    "region_code": "76",
    "postal_code": "31800"
  },
  {
    "name": "Miremont",
    "code": "31345",
    "epci_code": "200068807",
    "departement_code": "31",
    "region_code": "76",
    "postal_code": "31190"
  },
  {
    "name": "Mirepoix-sur-Tarn",
    "code": "31346",
    "epci_code": "243100773",
    "departement_code": "31",
    "region_code": "76",
    "postal_code": "31340"
  },
  {
    "name": "Molas",
    "code": "31347",
    "epci_code": "200072643",
    "departement_code": "31",
    "region_code": "76",
    "postal_code": "31230"
  },
  {
    "name": "Moncaup",
    "code": "31348",
    "epci_code": "200073146",
    "departement_code": "31",
    "region_code": "76",
    "postal_code": "31160"
  },
  {
    "name": "Mondavezan",
    "code": "31349",
    "epci_code": "200068815",
    "departement_code": "31",
    "region_code": "76",
    "postal_code": "31220"
  },
  {
    "name": "Mondilhan",
    "code": "31350",
    "epci_code": "200072643",
    "departement_code": "31",
    "region_code": "76",
    "postal_code": "31350"
  },
  {
    "name": "Mondonville",
    "code": "31351",
    "epci_code": "243100518",
    "departement_code": "31",
    "region_code": "76",
    "postal_code": "31700"
  },
  {
    "name": "Mondouzil",
    "code": "31352",
    "epci_code": "243100518",
    "departement_code": "31",
    "region_code": "76",
    "postal_code": "31850"
  },
  {
    "name": "Monès",
    "code": "31353",
    "epci_code": "200068815",
    "departement_code": "31",
    "region_code": "76",
    "postal_code": "31370"
  },
  {
    "name": "Monestrol",
    "code": "31354",
    "epci_code": "200071298",
    "departement_code": "31",
    "region_code": "76",
    "postal_code": "31560"
  },
  {
    "name": "Mons",
    "code": "31355",
    "epci_code": "243100518",
    "departement_code": "31",
    "region_code": "76",
    "postal_code": "31280"
  },
  {
    "name": "Montaigut-sur-Save",
    "code": "31356",
    "epci_code": "200071314",
    "departement_code": "31",
    "region_code": "76",
    "postal_code": "31530"
  },
  {
    "name": "Montastruc-de-Salies",
    "code": "31357",
    "epci_code": "200073146",
    "departement_code": "31",
    "region_code": "76",
    "postal_code": "31160"
  },
  {
    "name": "Montastruc-la-Conseillère",
    "code": "31358",
    "epci_code": "243100732",
    "departement_code": "31",
    "region_code": "76",
    "postal_code": "31380"
  },
  {
    "name": "Montastruc-Savès",
    "code": "31359",
    "epci_code": "200068815",
    "departement_code": "31",
    "region_code": "76",
    "postal_code": "31370"
  },
  {
    "name": "Montauban-de-Luchon",
    "code": "31360",
    "epci_code": "200072635",
    "departement_code": "31",
    "region_code": "76",
    "postal_code": "31110"
  },
  {
    "name": "Montaut",
    "code": "31361",
    "epci_code": "200066819",
    "departement_code": "31",
    "region_code": "76",
    "postal_code": "31410"
  },
  {
    "name": "Montberaud",
    "code": "31362",
    "epci_code": "200068815",
    "departement_code": "31",
    "region_code": "76",
    "postal_code": "31220"
  },
  {
    "name": "Montbernard",
    "code": "31363",
    "epci_code": "200072643",
    "departement_code": "31",
    "region_code": "76",
    "postal_code": "31230"
  },
  {
    "name": "Montberon",
    "code": "31364",
    "epci_code": "243100815",
    "departement_code": "31",
    "region_code": "76",
    "postal_code": "31140"
  },
  {
    "name": "Montbrun-Bocage",
    "code": "31365",
    "epci_code": "200066819",
    "departement_code": "31",
    "region_code": "76",
    "postal_code": "31310"
  },
  {
    "name": "Montbrun-Lauragais",
    "code": "31366",
    "epci_code": "243100633",
    "departement_code": "31",
    "region_code": "76",
    "postal_code": "31450"
  },
  {
    "name": "Montclar-de-Comminges",
    "code": "31367",
    "epci_code": "200068815",
    "departement_code": "31",
    "region_code": "76",
    "postal_code": "31220"
  },
  {
    "name": "Montclar-Lauragais",
    "code": "31368",
    "epci_code": "200071298",
    "departement_code": "31",
    "region_code": "76",
    "postal_code": "31290"
  },
  {
    "name": "Mont-de-Galié",
    "code": "31369",
    "epci_code": "200072635",
    "departement_code": "31",
    "region_code": "76",
    "postal_code": "31510"
  },
  {
    "name": "Montégut-Bourjac",
    "code": "31370",
    "epci_code": "200068815",
    "departement_code": "31",
    "region_code": "76",
    "postal_code": "31430"
  },
  {
    "name": "Montégut-Lauragais",
    "code": "31371",
    "epci_code": "243100567",
    "departement_code": "31",
    "region_code": "76",
    "postal_code": "31540"
  },
  {
    "name": "Montespan",
    "code": "31372",
    "epci_code": "200073146",
    "departement_code": "31",
    "region_code": "76",
    "postal_code": "31260"
  },
  {
    "name": "Montesquieu-Guittaut",
    "code": "31373",
    "epci_code": "200072643",
    "departement_code": "31",
    "region_code": "76",
    "postal_code": "31230"
  },
  {
    "name": "Montesquieu-Lauragais",
    "code": "31374",
    "epci_code": "200071298",
    "departement_code": "31",
    "region_code": "76",
    "postal_code": "31450"
  },
  {
    "name": "Montesquieu-Volvestre",
    "code": "31375",
    "epci_code": "200066819",
    "departement_code": "31",
    "region_code": "76",
    "postal_code": "31310"
  },
  {
    "name": "Montgaillard-de-Salies",
    "code": "31376",
    "epci_code": "200073146",
    "departement_code": "31",
    "region_code": "76",
    "postal_code": "31260"
  },
  {
    "name": "Montgaillard-Lauragais",
    "code": "31377",
    "epci_code": "200071298",
    "departement_code": "31",
    "region_code": "76",
    "postal_code": "31290"
  },
  {
    "name": "Montgaillard-sur-Save",
    "code": "31378",
    "epci_code": "200072643",
    "departement_code": "31",
    "region_code": "76",
    "postal_code": "31350"
  },
  {
    "name": "Montgazin",
    "code": "31379",
    "epci_code": "200066819",
    "departement_code": "31",
    "region_code": "76",
    "postal_code": "31410"
  },
  {
    "name": "Montgeard",
    "code": "31380",
    "epci_code": "200071298",
    "departement_code": "31",
    "region_code": "76",
    "postal_code": "31560"
  },
  {
    "name": "Montgiscard",
    "code": "31381",
    "epci_code": "243100633",
    "departement_code": "31",
    "region_code": "76",
    "postal_code": "31450"
  },
  {
    "name": "Montgras",
    "code": "31382",
    "epci_code": "200068815",
    "departement_code": "31",
    "region_code": "76",
    "postal_code": "31370"
  },
  {
    "name": "Montjoire",
    "code": "31383",
    "epci_code": "243100732",
    "departement_code": "31",
    "region_code": "76",
    "postal_code": "31380"
  },
  {
    "name": "Montlaur",
    "code": "31384",
    "epci_code": "243100633",
    "departement_code": "31",
    "region_code": "76",
    "postal_code": "31450"
  },
  {
    "name": "Montmaurin",
    "code": "31385",
    "epci_code": "200072643",
    "departement_code": "31",
    "region_code": "76",
    "postal_code": "31350"
  },
  {
    "name": "Montoulieu-Saint-Bernard",
    "code": "31386",
    "epci_code": "200072643",
    "departement_code": "31",
    "region_code": "76",
    "postal_code": "31420"
  },
  {
    "name": "Montoussin",
    "code": "31387",
    "epci_code": "200068815",
    "departement_code": "31",
    "region_code": "76",
    "postal_code": "31430"
  },
  {
    "name": "Montpitol",
    "code": "31388",
    "epci_code": "243100732",
    "departement_code": "31",
    "region_code": "76",
    "postal_code": "31380"
  },
  {
    "name": "Montrabé",
    "code": "31389",
    "epci_code": "243100518",
    "departement_code": "31",
    "region_code": "76",
    "postal_code": "31850"
  },
  {
    "name": "Montréjeau",
    "code": "31390",
    "epci_code": "200072643",
    "departement_code": "31",
    "region_code": "76",
    "postal_code": "31210"
  },
  {
    "name": "Montsaunès",
    "code": "31391",
    "epci_code": "200073146",
    "departement_code": "31",
    "region_code": "76",
    "postal_code": "31260"
  },
  {
    "name": "Mourvilles-Basses",
    "code": "31392",
    "epci_code": "200071298",
    "departement_code": "31",
    "region_code": "76",
    "postal_code": "31460"
  },
  {
    "name": "Mourvilles-Hautes",
    "code": "31393",
    "epci_code": "243100567",
    "departement_code": "31",
    "region_code": "76",
    "postal_code": "31540"
  },
  {
    "name": "Moustajon",
    "code": "31394",
    "epci_code": "200072635",
    "departement_code": "31",
    "region_code": "76",
    "postal_code": "31110"
  },
  {
    "name": "Muret",
    "code": "31395",
    "epci_code": "200068641",
    "departement_code": "31",
    "region_code": "76",
    "postal_code": "31600"
  },
  {
    "name": "Nailloux",
    "code": "31396",
    "epci_code": "200071298",
    "departement_code": "31",
    "region_code": "76",
    "postal_code": "31560"
  },
  {
    "name": "Nénigan",
    "code": "31397",
    "epci_code": "200072643",
    "departement_code": "31",
    "region_code": "76",
    "postal_code": "31350"
  },
  {
    "name": "Nizan-Gesse",
    "code": "31398",
    "epci_code": "200072643",
    "departement_code": "31",
    "region_code": "76",
    "postal_code": "31350"
  },
  {
    "name": "Noé",
    "code": "31399",
    "epci_code": "200066819",
    "departement_code": "31",
    "region_code": "76",
    "postal_code": "31410"
  },
  {
    "name": "Nogaret",
    "code": "31400",
    "epci_code": "243100567",
    "departement_code": "31",
    "region_code": "76",
    "postal_code": "31540"
  },
  {
    "name": "Noueilles",
    "code": "31401",
    "epci_code": "243100633",
    "departement_code": "31",
    "region_code": "76",
    "postal_code": "31450"
  },
  {
    "name": "Odars",
    "code": "31402",
    "epci_code": "243100633",
    "departement_code": "31",
    "region_code": "76",
    "postal_code": "31450"
  },
  {
    "name": "Ondes",
    "code": "31403",
    "epci_code": "200071314",
    "departement_code": "31",
    "region_code": "76",
    "postal_code": "31330"
  },
  {
    "name": "Oô",
    "code": "31404",
    "epci_code": "200072635",
    "departement_code": "31",
    "region_code": "76",
    "postal_code": "31110"
  },
  {
    "name": "Ore",
    "code": "31405",
    "epci_code": "200072635",
    "departement_code": "31",
    "region_code": "76",
    "postal_code": "31510"
  },
  {
    "name": "Palaminy",
    "code": "31406",
    "epci_code": "200068815",
    "departement_code": "31",
    "region_code": "76",
    "postal_code": "31220"
  },
  {
    "name": "Paulhac",
    "code": "31407",
    "epci_code": "243100732",
    "departement_code": "31",
    "region_code": "76",
    "postal_code": "31380"
  },
  {
    "name": "Payssous",
    "code": "31408",
    "epci_code": "200072635",
    "departement_code": "31",
    "region_code": "76",
    "postal_code": "31510"
  },
  {
    "name": "Péchabou",
    "code": "31409",
    "epci_code": "243100633",
    "departement_code": "31",
    "region_code": "76",
    "postal_code": "31320"
  },
  {
    "name": "Pechbonnieu",
    "code": "31410",
    "epci_code": "243100815",
    "departement_code": "31",
    "region_code": "76",
    "postal_code": "31140"
  },
  {
    "name": "Pechbusque",
    "code": "31411",
    "epci_code": "243100633",
    "departement_code": "31",
    "region_code": "76",
    "postal_code": "31320"
  },
  {
    "name": "Péguilhan",
    "code": "31412",
    "epci_code": "200072643",
    "departement_code": "31",
    "region_code": "76",
    "postal_code": "31350"
  },
  {
    "name": "Pelleport",
    "code": "31413",
    "epci_code": "200071314",
    "departement_code": "31",
    "region_code": "76",
    "postal_code": "31480"
  },
  {
    "name": "Peyrissas",
    "code": "31414",
    "epci_code": "200072643",
    "departement_code": "31",
    "region_code": "76",
    "postal_code": "31420"
  },
  {
    "name": "Peyrouzet",
    "code": "31415",
    "epci_code": "200072643",
    "departement_code": "31",
    "region_code": "76",
    "postal_code": "31420"
  },
  {
    "name": "Peyssies",
    "code": "31416",
    "epci_code": "200066819",
    "departement_code": "31",
    "region_code": "76",
    "postal_code": "31390"
  },
  {
    "name": "Pibrac",
    "code": "31417",
    "epci_code": "243100518",
    "departement_code": "31",
    "region_code": "76",
    "postal_code": "31820"
  },
  {
    "name": "Pin-Balma",
    "code": "31418",
    "epci_code": "243100518",
    "departement_code": "31",
    "region_code": "76",
    "postal_code": "31130"
  },
  {
    "name": "Le Pin-Murelet",
    "code": "31419",
    "epci_code": "200068815",
    "departement_code": "31",
    "region_code": "76",
    "postal_code": "31370"
  },
  {
    "name": "Pinsaguel",
    "code": "31420",
    "epci_code": "200068641",
    "departement_code": "31",
    "region_code": "76",
    "postal_code": "31120"
  },
  {
    "name": "Pins-Justaret",
    "code": "31421",
    "epci_code": "200068641",
    "departement_code": "31",
    "region_code": "76",
    "postal_code": "31860"
  },
  {
    "name": "Plagne",
    "code": "31422",
    "epci_code": "200068815",
    "departement_code": "31",
    "region_code": "76",
    "postal_code": "31220"
  },
  {
    "name": "Plagnole",
    "code": "31423",
    "epci_code": "200068815",
    "departement_code": "31",
    "region_code": "76",
    "postal_code": "31370"
  },
  {
    "name": "Plaisance-du-Touch",
    "code": "31424",
    "epci_code": "243100781",
    "departement_code": "31",
    "region_code": "76",
    "postal_code": "31830"
  },
  {
    "name": "Le Plan",
    "code": "31425",
    "epci_code": "200068815",
    "departement_code": "31",
    "region_code": "76",
    "postal_code": "31220"
  },
  {
    "name": "Pointis-de-Rivière",
    "code": "31426",
    "epci_code": "200072635",
    "departement_code": "31",
    "region_code": "76",
    "postal_code": "31210"
  },
  {
    "name": "Pointis-Inard",
    "code": "31427",
    "epci_code": "200072643",
    "departement_code": "31",
    "region_code": "76",
    "postal_code": "31800"
  },
  {
    "name": "Polastron",
    "code": "31428",
    "epci_code": "200068815",
    "departement_code": "31",
    "region_code": "76",
    "postal_code": "31430"
  },
  {
    "name": "Pompertuzat",
    "code": "31429",
    "epci_code": "243100633",
    "departement_code": "31",
    "region_code": "76",
    "postal_code": "31450"
  },
  {
    "name": "Ponlat-Taillebourg",
    "code": "31430",
    "epci_code": "200072643",
    "departement_code": "31",
    "region_code": "76",
    "postal_code": "31210"
  },
  {
    "name": "Portet-d’Aspet",
    "code": "31431",
    "epci_code": "200073146",
    "departement_code": "31",
    "region_code": "76",
    "postal_code": "31160"
  },
  {
    "name": "Portet-de-Luchon",
    "code": "31432",
    "epci_code": "200072635",
    "departement_code": "31",
    "region_code": "76",
    "postal_code": "31110"
  },
  {
    "name": "Portet-sur-Garonne",
    "code": "31433",
    "epci_code": "200068641",
    "departement_code": "31",
    "region_code": "76",
    "postal_code": "31120"
  },
  {
    "name": "Poubeau",
    "code": "31434",
    "epci_code": "200072635",
    "departement_code": "31",
    "region_code": "76",
    "postal_code": "31110"
  },
  {
    "name": "Poucharramet",
    "code": "31435",
    "epci_code": "200068815",
    "departement_code": "31",
    "region_code": "76",
    "postal_code": "31370"
  },
  {
    "name": "Pouy-de-Touges",
    "code": "31436",
    "epci_code": "200068815",
    "departement_code": "31",
    "region_code": "76",
    "postal_code": "31430"
  },
  {
    "name": "Pouze",
    "code": "31437",
    "epci_code": "243100633",
    "departement_code": "31",
    "region_code": "76",
    "postal_code": "31450"
  },
  {
    "name": "Préserville",
    "code": "31439",
    "epci_code": "200071298",
    "departement_code": "31",
    "region_code": "76",
    "postal_code": "31570"
  },
  {
    "name": "Proupiary",
    "code": "31440",
    "epci_code": "200073146",
    "departement_code": "31",
    "region_code": "76",
    "postal_code": "31360"
  },
  {
    "name": "Prunet",
    "code": "31441",
    "epci_code": "200071298",
    "departement_code": "31",
    "region_code": "76",
    "postal_code": "31460"
  },
  {
    "name": "Puydaniel",
    "code": "31442",
    "epci_code": "200068807",
    "departement_code": "31",
    "region_code": "76",
    "postal_code": "31190"
  },
  {
    "name": "Puymaurin",
    "code": "31443",
    "epci_code": "200072643",
    "departement_code": "31",
    "region_code": "76",
    "postal_code": "31230"
  },
  {
    "name": "Puysségur",
    "code": "31444",
    "epci_code": "200071314",
    "departement_code": "31",
    "region_code": "76",
    "postal_code": "31480"
  },
  {
    "name": "Quint-Fonsegrives",
    "code": "31445",
    "epci_code": "243100518",
    "departement_code": "31",
    "region_code": "76",
    "postal_code": "31130"
  },
  {
    "name": "Ramonville-Saint-Agne",
    "code": "31446",
    "epci_code": "243100633",
    "departement_code": "31",
    "region_code": "76",
    "postal_code": "31520"
  },
  {
    "name": "Razecueillé",
    "code": "31447",
    "epci_code": "200073146",
    "departement_code": "31",
    "region_code": "76",
    "postal_code": "31160"
  },
  {
    "name": "Rebigue",
    "code": "31448",
    "epci_code": "243100633",
    "departement_code": "31",
    "region_code": "76",
    "postal_code": "31320"
  },
  {
    "name": "Régades",
    "code": "31449",
    "epci_code": "200072643",
    "departement_code": "31",
    "region_code": "76",
    "postal_code": "31800"
  },
  {
    "name": "Renneville",
    "code": "31450",
    "epci_code": "200071298",
    "departement_code": "31",
    "region_code": "76",
    "postal_code": "31290"
  },
  {
    "name": "Revel",
    "code": "31451",
    "epci_code": "243100567",
    "departement_code": "31",
    "region_code": "76",
    "postal_code": "31250"
  },
  {
    "name": "Rieucazé",
    "code": "31452",
    "epci_code": "200072643",
    "departement_code": "31",
    "region_code": "76",
    "postal_code": "31800"
  },
  {
    "name": "Rieumajou",
    "code": "31453",
    "epci_code": "200071298",
    "departement_code": "31",
    "region_code": "76",
    "postal_code": "31290"
  },
  {
    "name": "Rieumes",
    "code": "31454",
    "epci_code": "200068815",
    "departement_code": "31",
    "region_code": "76",
    "postal_code": "31370"
  },
  {
    "name": "Rieux-Volvestre",
    "code": "31455",
    "epci_code": "200066819",
    "departement_code": "31",
    "region_code": "76",
    "postal_code": "31310"
  },
  {
    "name": "Riolas",
    "code": "31456",
    "epci_code": "200072643",
    "departement_code": "31",
    "region_code": "76",
    "postal_code": "31230"
  },
  {
    "name": "Roquefort-sur-Garonne",
    "code": "31457",
    "epci_code": "200073146",
    "departement_code": "31",
    "region_code": "76",
    "postal_code": "31360"
  },
  {
    "name": "Roques",
    "code": "31458",
    "epci_code": "200068641",
    "departement_code": "31",
    "region_code": "76",
    "postal_code": "31120"
  },
  {
    "name": "Roquesérière",
    "code": "31459",
    "epci_code": "243100732",
    "departement_code": "31",
    "region_code": "76",
    "postal_code": "31380"
  },
  {
    "name": "Roquettes",
    "code": "31460",
    "epci_code": "200068641",
    "departement_code": "31",
    "region_code": "76",
    "postal_code": "31120"
  },
  {
    "name": "Rouède",
    "code": "31461",
    "epci_code": "200073146",
    "departement_code": "31",
    "region_code": "76",
    "postal_code": "31160"
  },
  {
    "name": "Rouffiac-Tolosan",
    "code": "31462",
    "epci_code": "243100815",
    "departement_code": "31",
    "region_code": "76",
    "postal_code": "31180"
  },
  {
    "name": "Roumens",
    "code": "31463",
    "epci_code": "243100567",
    "departement_code": "31",
    "region_code": "76",
    "postal_code": "31540"
  },
  {
    "name": "Sabonnères",
    "code": "31464",
    "epci_code": "200068641",
    "departement_code": "31",
    "region_code": "76",
    "postal_code": "31370"
  },
  {
    "name": "Saccourvielle",
    "code": "31465",
    "epci_code": "200072635",
    "departement_code": "31",
    "region_code": "76",
    "postal_code": "31110"
  },
  {
    "name": "Saiguède",
    "code": "31466",
    "epci_code": "200068641",
    "departement_code": "31",
    "region_code": "76",
    "postal_code": "31470"
  },
  {
    "name": "Saint-Alban",
    "code": "31467",
    "epci_code": "243100518",
    "departement_code": "31",
    "region_code": "76",
    "postal_code": "31140"
  },
  {
    "name": "Saint-André",
    "code": "31468",
    "epci_code": "200072643",
    "departement_code": "31",
    "region_code": "76",
    "postal_code": "31420"
  },
  {
    "name": "Saint-Araille",
    "code": "31469",
    "epci_code": "200068815",
    "departement_code": "31",
    "region_code": "76",
    "postal_code": "31430"
  },
  {
    "name": "Saint-Aventin",
    "code": "31470",
    "epci_code": "200072635",
    "departement_code": "31",
    "region_code": "76",
    "postal_code": "31110"
  },
  {
    "name": "Saint-Béat-Lez",
    "code": "31471",
    "epci_code": "200072635",
    "departement_code": "31",
    "region_code": "76",
    "postal_code": "31440"
  },
  {
    "name": "Saint-Bertrand-de-Comminges",
    "code": "31472",
    "epci_code": "200072635",
    "departement_code": "31",
    "region_code": "76",
    "postal_code": "31510"
  },
  {
    "name": "Saint-Cézert",
    "code": "31473",
    "epci_code": "200071314",
    "departement_code": "31",
    "region_code": "76",
    "postal_code": "31330"
  },
  {
    "name": "Saint-Christaud",
    "code": "31474",
    "epci_code": "200066819",
    "departement_code": "31",
    "region_code": "76",
    "postal_code": "31310"
  },
  {
    "name": "Saint-Clar-de-Rivière",
    "code": "31475",
    "epci_code": "200068641",
    "departement_code": "31",
    "region_code": "76",
    "postal_code": "31600"
  },
  {
    "name": "Saint-Élix-le-Château",
    "code": "31476",
    "epci_code": "200068815",
    "departement_code": "31",
    "region_code": "76",
    "postal_code": "31430"
  },
  {
    "name": "Saint-Élix-Séglan",
    "code": "31477",
    "epci_code": "200072643",
    "departement_code": "31",
    "region_code": "76",
    "postal_code": "31420"
  },
  {
    "name": "Saint-Félix-Lauragais",
    "code": "31478",
    "epci_code": "243100567",
    "departement_code": "31",
    "region_code": "76",
    "postal_code": "31540"
  },
  {
    "name": "Saint-Ferréol-de-Comminges",
    "code": "31479",
    "epci_code": "200072643",
    "departement_code": "31",
    "region_code": "76",
    "postal_code": "31350"
  },
  {
    "name": "Sainte-Foy-d’Aigrefeuille",
    "code": "31480",
    "epci_code": "200071298",
    "departement_code": "31",
    "region_code": "76",
    "postal_code": "31570"
  },
  {
    "name": "Sainte-Foy-de-Peyrolières",
    "code": "31481",
    "epci_code": "200068815",
    "departement_code": "31",
    "region_code": "76",
    "postal_code": "31470"
  },
  {
    "name": "Saint-Frajou",
    "code": "31482",
    "epci_code": "200072643",
    "departement_code": "31",
    "region_code": "76",
    "postal_code": "31230"
  },
  {
    "name": "Saint-Gaudens",
    "code": "31483",
    "epci_code": "200072643",
    "departement_code": "31",
    "region_code": "76",
    "postal_code": "31800"
  },
  {
    "name": "Saint-Geniès-Bellevue",
    "code": "31484",
    "epci_code": "243100815",
    "departement_code": "31",
    "region_code": "76",
    "postal_code": "31180"
  },
  {
    "name": "Saint-Germier",
    "code": "31485",
    "epci_code": "200071298",
    "departement_code": "31",
    "region_code": "76",
    "postal_code": "31290"
  },
  {
    "name": "Saint-Hilaire",
    "code": "31486",
    "epci_code": "200068641",
    "departement_code": "31",
    "region_code": "76",
    "postal_code": "31410"
  },
  {
    "name": "Saint-Ignan",
    "code": "31487",
    "epci_code": "200072643",
    "departement_code": "31",
    "region_code": "76",
    "postal_code": "31800"
  },
  {
    "name": "Saint-Jean",
    "code": "31488",
    "epci_code": "243100518",
    "departement_code": "31",
    "region_code": "76",
    "postal_code": "31240"
  },
  {
    "name": "Saint-Jean-Lherm",
    "code": "31489",
    "epci_code": "243100732",
    "departement_code": "31",
    "region_code": "76",
    "postal_code": "31380"
  },
  {
    "name": "Saint-Jory",
    "code": "31490",
    "epci_code": "243100518",
    "departement_code": "31",
    "region_code": "76",
    "postal_code": "31790"
  },
  {
    "name": "Saint-Julia",
    "code": "31491",
    "epci_code": "243100567",
    "departement_code": "31",
    "region_code": "76",
    "postal_code": "31540"
  },
  {
    "name": "Saint-Julien-sur-Garonne",
    "code": "31492",
    "epci_code": "200066819",
    "departement_code": "31",
    "region_code": "76",
    "postal_code": "31220"
  },
  {
    "name": "Saint-Lary-Boujean",
    "code": "31493",
    "epci_code": "200072643",
    "departement_code": "31",
    "region_code": "76",
    "postal_code": "31350"
  },
  {
    "name": "Saint-Laurent",
    "code": "31494",
    "epci_code": "200072643",
    "departement_code": "31",
    "region_code": "76",
    "postal_code": "31230"
  },
  {
    "name": "Saint-Léon",
    "code": "31495",
    "epci_code": "200071298",
    "departement_code": "31",
    "region_code": "76",
    "postal_code": "31560"
  },
  {
    "name": "Sainte-Livrade",
    "code": "31496",
    "epci_code": "243100781",
    "departement_code": "31",
    "region_code": "76",
    "postal_code": "31530"
  },
  {
    "name": "Saint-Loup-Cammas",
    "code": "31497",
    "epci_code": "243100815",
    "departement_code": "31",
    "region_code": "76",
    "postal_code": "31140"
  },
  {
    "name": "Saint-Loup-en-Comminges",
    "code": "31498",
    "epci_code": "200072643",
    "departement_code": "31",
    "region_code": "76",
    "postal_code": "31350"
  },
  {
    "name": "Saint-Lys",
    "code": "31499",
    "epci_code": "200068641",
    "departement_code": "31",
    "region_code": "76",
    "postal_code": "31470"
  },
  {
    "name": "Saint-Mamet",
    "code": "31500",
    "epci_code": "200072635",
    "departement_code": "31",
    "region_code": "76",
    "postal_code": "31110"
  },
  {
    "name": "Saint-Marcel-Paulel",
    "code": "31501",
    "epci_code": "243100732",
    "departement_code": "31",
    "region_code": "76",
    "postal_code": "31590"
  },
  {
    "name": "Saint-Marcet",
    "code": "31502",
    "epci_code": "200072643",
    "departement_code": "31",
    "region_code": "76",
    "postal_code": "31800"
  },
  {
    "name": "Saint-Martory",
    "code": "31503",
    "epci_code": "200073146",
    "departement_code": "31",
    "region_code": "76",
    "postal_code": "31360"
  },
  {
    "name": "Saint-Médard",
    "code": "31504",
    "epci_code": "200073146",
    "departement_code": "31",
    "region_code": "76",
    "postal_code": "31360"
  },
  {
    "name": "Saint-Michel",
    "code": "31505",
    "epci_code": "200068815",
    "departement_code": "31",
    "region_code": "76",
    "postal_code": "31220"
  },
  {
    "name": "Saint-Orens-de-Gameville",
    "code": "31506",
    "epci_code": "243100518",
    "departement_code": "31",
    "region_code": "76",
    "postal_code": "31650"
  },
  {
    "name": "Saint-Paul-sur-Save",
    "code": "31507",
    "epci_code": "200071314",
    "departement_code": "31",
    "region_code": "76",
    "postal_code": "31530"
  },
  {
    "name": "Saint-Paul-d’Oueil",
    "code": "31508",
    "epci_code": "200072635",
    "departement_code": "31",
    "region_code": "76",
    "postal_code": "31110"
  },
  {
    "name": "Saint-Pé-d’Ardet",
    "code": "31509",
    "epci_code": "200072635",
    "departement_code": "31",
    "region_code": "76",
    "postal_code": "31510"
  },
  {
    "name": "Saint-Pé-Delbosc",
    "code": "31510",
    "epci_code": "200072643",
    "departement_code": "31",
    "region_code": "76",
    "postal_code": "31350"
  },
  {
    "name": "Saint-Pierre",
    "code": "31511",
    "epci_code": "243100732",
    "departement_code": "31",
    "region_code": "76",
    "postal_code": "31590"
  },
  {
    "name": "Saint-Pierre-de-Lages",
    "code": "31512",
    "epci_code": "200071298",
    "departement_code": "31",
    "region_code": "76",
    "postal_code": "31570"
  },
  {
    "name": "Saint-Plancard",
    "code": "31513",
    "epci_code": "200072643",
    "departement_code": "31",
    "region_code": "76",
    "postal_code": "31580"
  },
  {
    "name": "Saint-Rome",
    "code": "31514",
    "epci_code": "200071298",
    "departement_code": "31",
    "region_code": "76",
    "postal_code": "31290"
  },
  {
    "name": "Saint-Rustice",
    "code": "31515",
    "epci_code": "200034957",
    "departement_code": "31",
    "region_code": "76",
    "postal_code": "31620"
  },
  {
    "name": "Saint-Sauveur",
    "code": "31516",
    "epci_code": "200034957",
    "departement_code": "31",
    "region_code": "76",
    "postal_code": "31790"
  },
  {
    "name": "Saint-Sulpice-sur-Lèze",
    "code": "31517",
    "epci_code": "200066819",
    "departement_code": "31",
    "region_code": "76",
    "postal_code": "31410"
  },
  {
    "name": "Saint-Thomas",
    "code": "31518",
    "epci_code": "200068641",
    "departement_code": "31",
    "region_code": "76",
    "postal_code": "31470"
  },
  {
    "name": "Saint-Vincent",
    "code": "31519",
    "epci_code": "200071298",
    "departement_code": "31",
    "region_code": "76",
    "postal_code": "31290"
  },
  {
    "name": "Sajas",
    "code": "31520",
    "epci_code": "200068815",
    "departement_code": "31",
    "region_code": "76",
    "postal_code": "31370"
  },
  {
    "name": "Saleich",
    "code": "31521",
    "epci_code": "200073146",
    "departement_code": "31",
    "region_code": "76",
    "postal_code": "31260"
  },
  {
    "name": "Salerm",
    "code": "31522",
    "epci_code": "200072643",
    "departement_code": "31",
    "region_code": "76",
    "postal_code": "31230"
  },
  {
    "name": "Salies-du-Salat",
    "code": "31523",
    "epci_code": "200073146",
    "departement_code": "31",
    "region_code": "76",
    "postal_code": "31260"
  },
  {
    "name": "Salles-et-Pratviel",
    "code": "31524",
    "epci_code": "200072635",
    "departement_code": "31",
    "region_code": "76",
    "postal_code": "31110"
  },
  {
    "name": "Salles-sur-Garonne",
    "code": "31525",
    "epci_code": "200066819",
    "departement_code": "31",
    "region_code": "76",
    "postal_code": "31390"
  },
  {
    "name": "La Salvetat-Saint-Gilles",
    "code": "31526",
    "epci_code": "243100781",
    "departement_code": "31",
    "region_code": "76",
    "postal_code": "31880"
  },
  {
    "name": "La Salvetat-Lauragais",
    "code": "31527",
    "epci_code": "200071298",
    "departement_code": "31",
    "region_code": "76",
    "postal_code": "31460"
  },
  {
    "name": "Saman",
    "code": "31528",
    "epci_code": "200072643",
    "departement_code": "31",
    "region_code": "76",
    "postal_code": "31350"
  },
  {
    "name": "Samouillan",
    "code": "31529",
    "epci_code": "200072643",
    "departement_code": "31",
    "region_code": "76",
    "postal_code": "31420"
  },
  {
    "name": "Sana",
    "code": "31530",
    "epci_code": "200068815",
    "departement_code": "31",
    "region_code": "76",
    "postal_code": "31220"
  },
  {
    "name": "Sarrecave",
    "code": "31531",
    "epci_code": "200072643",
    "departement_code": "31",
    "region_code": "76",
    "postal_code": "31350"
  },
  {
    "name": "Sarremezan",
    "code": "31532",
    "epci_code": "200072643",
    "departement_code": "31",
    "region_code": "76",
    "postal_code": "31350"
  },
  {
    "name": "Saubens",
    "code": "31533",
    "epci_code": "200068641",
    "departement_code": "31",
    "region_code": "76",
    "postal_code": "31600"
  },
  {
    "name": "Saussens",
    "code": "31534",
    "epci_code": "200071298",
    "departement_code": "31",
    "region_code": "76",
    "postal_code": "31460"
  },
  {
    "name": "Sauveterre-de-Comminges",
    "code": "31535",
    "epci_code": "200072635",
    "departement_code": "31",
    "region_code": "76",
    "postal_code": "31510"
  },
  {
    "name": "Saux-et-Pomarède",
    "code": "31536",
    "epci_code": "200072643",
    "departement_code": "31",
    "region_code": "76",
    "postal_code": "31800"
  },
  {
    "name": "Savarthès",
    "code": "31537",
    "epci_code": "200072643",
    "departement_code": "31",
    "region_code": "76",
    "postal_code": "31800"
  },
  {
    "name": "Savères",
    "code": "31538",
    "epci_code": "200068815",
    "departement_code": "31",
    "region_code": "76",
    "postal_code": "31370"
  },
  {
    "name": "Sédeilhac",
    "code": "31539",
    "epci_code": "200072643",
    "departement_code": "31",
    "region_code": "76",
    "postal_code": "31580"
  },
  {
    "name": "Ségreville",
    "code": "31540",
    "epci_code": "200071298",
    "departement_code": "31",
    "region_code": "76",
    "postal_code": "31460"
  },
  {
    "name": "Seilh",
    "code": "31541",
    "epci_code": "243100518",
    "departement_code": "31",
    "region_code": "76",
    "postal_code": "31840"
  },
  {
    "name": "Seilhan",
    "code": "31542",
    "epci_code": "200072635",
    "departement_code": "31",
    "region_code": "76",
    "postal_code": "31510"
  },
  {
    "name": "Sénarens",
    "code": "31543",
    "epci_code": "200068815",
    "departement_code": "31",
    "region_code": "76",
    "postal_code": "31430"
  },
  {
    "name": "Sengouagnet",
    "code": "31544",
    "epci_code": "200073146",
    "departement_code": "31",
    "region_code": "76",
    "postal_code": "31160"
  },
  {
    "name": "Sepx",
    "code": "31545",
    "epci_code": "200073146",
    "departement_code": "31",
    "region_code": "76",
    "postal_code": "31360"
  },
  {
    "name": "Seyre",
    "code": "31546",
    "epci_code": "200071298",
    "departement_code": "31",
    "region_code": "76",
    "postal_code": "31560"
  },
  {
    "name": "Seysses",
    "code": "31547",
    "epci_code": "200068641",
    "departement_code": "31",
    "region_code": "76",
    "postal_code": "31600"
  },
  {
    "name": "Signac",
    "code": "31548",
    "epci_code": "200072635",
    "departement_code": "31",
    "region_code": "76",
    "postal_code": "31440"
  },
  {
    "name": "Sode",
    "code": "31549",
    "epci_code": "200072635",
    "departement_code": "31",
    "region_code": "76",
    "postal_code": "31110"
  },
  {
    "name": "Soueich",
    "code": "31550",
    "epci_code": "200073146",
    "departement_code": "31",
    "region_code": "76",
    "postal_code": "31160"
  },
  {
    "name": "Tarabel",
    "code": "31551",
    "epci_code": "200071298",
    "departement_code": "31",
    "region_code": "76",
    "postal_code": "31570"
  },
  {
    "name": "Terrebasse",
    "code": "31552",
    "epci_code": "200072643",
    "departement_code": "31",
    "region_code": "76",
    "postal_code": "31420"
  },
  {
    "name": "Thil",
    "code": "31553",
    "epci_code": "200071314",
    "departement_code": "31",
    "region_code": "76",
    "postal_code": "31530"
  },
  {
    "name": "Touille",
    "code": "31554",
    "epci_code": "200073146",
    "departement_code": "31",
    "region_code": "76",
    "postal_code": "31260"
  },
  {
    "name": "Toulouse",
    "code": "31555",
    "epci_code": "243100518",
    "departement_code": "31",
    "region_code": "76",
    "postal_code": "31000"
  },
  {
    "name": "Toulouse",
    "code": "31555",
    "epci_code": "243100518",
    "departement_code": "31",
    "region_code": "76",
    "postal_code": "31100"
  },
  {
    "name": "Toulouse",
    "code": "31555",
    "epci_code": "243100518",
    "departement_code": "31",
    "region_code": "76",
    "postal_code": "31200"
  },
  {
    "name": "Toulouse",
    "code": "31555",
    "epci_code": "243100518",
    "departement_code": "31",
    "region_code": "76",
    "postal_code": "31300"
  },
  {
    "name": "Toulouse",
    "code": "31555",
    "epci_code": "243100518",
    "departement_code": "31",
    "region_code": "76",
    "postal_code": "31400"
  },
  {
    "name": "Toulouse",
    "code": "31555",
    "epci_code": "243100518",
    "departement_code": "31",
    "region_code": "76",
    "postal_code": "31500"
  },
  {
    "name": "Les Tourreilles",
    "code": "31556",
    "epci_code": "200072643",
    "departement_code": "31",
    "region_code": "76",
    "postal_code": "31210"
  },
  {
    "name": "Tournefeuille",
    "code": "31557",
    "epci_code": "243100518",
    "departement_code": "31",
    "region_code": "76",
    "postal_code": "31170"
  },
  {
    "name": "Toutens",
    "code": "31558",
    "epci_code": "200071298",
    "departement_code": "31",
    "region_code": "76",
    "postal_code": "31460"
  },
  {
    "name": "Trébons-de-Luchon",
    "code": "31559",
    "epci_code": "200072635",
    "departement_code": "31",
    "region_code": "76",
    "postal_code": "31110"
  },
  {
    "name": "Trébons-sur-la-Grasse",
    "code": "31560",
    "epci_code": "200071298",
    "departement_code": "31",
    "region_code": "76",
    "postal_code": "31290"
  },
  {
    "name": "L’Union",
    "code": "31561",
    "epci_code": "243100518",
    "departement_code": "31",
    "region_code": "76",
    "postal_code": "31240"
  },
  {
    "name": "Urau",
    "code": "31562",
    "epci_code": "200073146",
    "departement_code": "31",
    "region_code": "76",
    "postal_code": "31260"
  },
  {
    "name": "Vacquiers",
    "code": "31563",
    "epci_code": "200034957",
    "departement_code": "31",
    "region_code": "76",
    "postal_code": "31340"
  },
  {
    "name": "Valcabrère",
    "code": "31564",
    "epci_code": "200072635",
    "departement_code": "31",
    "region_code": "76",
    "postal_code": "31510"
  },
  {
    "name": "Valentine",
    "code": "31565",
    "epci_code": "200072643",
    "departement_code": "31",
    "region_code": "76",
    "postal_code": "31800"
  },
  {
    "name": "Vallègue",
    "code": "31566",
    "epci_code": "200071298",
    "departement_code": "31",
    "region_code": "76",
    "postal_code": "31290"
  },
  {
    "name": "Vallesvilles",
    "code": "31567",
    "epci_code": "200071298",
    "departement_code": "31",
    "region_code": "76",
    "postal_code": "31570"
  },
  {
    "name": "Varennes",
    "code": "31568",
    "epci_code": "243100633",
    "departement_code": "31",
    "region_code": "76",
    "postal_code": "31450"
  },
  {
    "name": "Vaudreuille",
    "code": "31569",
    "epci_code": "243100567",
    "departement_code": "31",
    "region_code": "76",
    "postal_code": "31250"
  },
  {
    "name": "Vaux",
    "code": "31570",
    "epci_code": "243100567",
    "departement_code": "31",
    "region_code": "76",
    "postal_code": "31540"
  },
  {
    "name": "Vendine",
    "code": "31571",
    "epci_code": "200071298",
    "departement_code": "31",
    "region_code": "76",
    "postal_code": "31460"
  },
  {
    "name": "Venerque",
    "code": "31572",
    "epci_code": "200068807",
    "departement_code": "31",
    "region_code": "76",
    "postal_code": "31810"
  },
  {
    "name": "Verfeil",
    "code": "31573",
    "epci_code": "243100732",
    "departement_code": "31",
    "region_code": "76",
    "postal_code": "31590"
  },
  {
    "name": "Vernet",
    "code": "31574",
    "epci_code": "200068807",
    "departement_code": "31",
    "region_code": "76",
    "postal_code": "31810"
  },
  {
    "name": "Vieille-Toulouse",
    "code": "31575",
    "epci_code": "243100633",
    "departement_code": "31",
    "region_code": "76",
    "postal_code": "31320"
  },
  {
    "name": "Vieillevigne",
    "code": "31576",
    "epci_code": "200071298",
    "departement_code": "31",
    "region_code": "76",
    "postal_code": "31290"
  },
  {
    "name": "Vignaux",
    "code": "31577",
    "epci_code": "200071314",
    "departement_code": "31",
    "region_code": "76",
    "postal_code": "31480"
  },
  {
    "name": "Vigoulet-Auzil",
    "code": "31578",
    "epci_code": "243100633",
    "departement_code": "31",
    "region_code": "76",
    "postal_code": "31320"
  },
  {
    "name": "Villariès",
    "code": "31579",
    "epci_code": "243100732",
    "departement_code": "31",
    "region_code": "76",
    "postal_code": "31380"
  },
  {
    "name": "Villate",
    "code": "31580",
    "epci_code": "200068641",
    "departement_code": "31",
    "region_code": "76",
    "postal_code": "31860"
  },
  {
    "name": "Villaudric",
    "code": "31581",
    "epci_code": "200034957",
    "departement_code": "31",
    "region_code": "76",
    "postal_code": "31620"
  },
  {
    "name": "Villefranche-de-Lauragais",
    "code": "31582",
    "epci_code": "200071298",
    "departement_code": "31",
    "region_code": "76",
    "postal_code": "31290"
  },
  {
    "name": "Villematier",
    "code": "31583",
    "epci_code": "243100773",
    "departement_code": "31",
    "region_code": "76",
    "postal_code": "31340"
  },
  {
    "name": "Villemur-sur-Tarn",
    "code": "31584",
    "epci_code": "243100773",
    "departement_code": "31",
    "region_code": "76",
    "postal_code": "31340"
  },
  {
    "name": "Villeneuve-de-Rivière",
    "code": "31585",
    "epci_code": "200072643",
    "departement_code": "31",
    "region_code": "76",
    "postal_code": "31800"
  },
  {
    "name": "Villeneuve-Lécussan",
    "code": "31586",
    "epci_code": "200072643",
    "departement_code": "31",
    "region_code": "76",
    "postal_code": "31580"
  },
  {
    "name": "Villeneuve-lès-Bouloc",
    "code": "31587",
    "epci_code": "200034957",
    "departement_code": "31",
    "region_code": "76",
    "postal_code": "31620"
  },
  {
    "name": "Villeneuve-Tolosane",
    "code": "31588",
    "epci_code": "243100518",
    "departement_code": "31",
    "region_code": "76",
    "postal_code": "31270"
  },
  {
    "name": "Villenouvelle",
    "code": "31589",
    "epci_code": "200071298",
    "departement_code": "31",
    "region_code": "76",
    "postal_code": "31290"
  },
  {
    "name": "Binos",
    "code": "31590",
    "epci_code": "200072635",
    "departement_code": "31",
    "region_code": "76",
    "postal_code": "31440"
  },
  {
    "name": "Escoulis",
    "code": "31591",
    "epci_code": "200073146",
    "departement_code": "31",
    "region_code": "76",
    "postal_code": "31260"
  },
  {
    "name": "Larra",
    "code": "31592",
    "epci_code": "200071314",
    "departement_code": "31",
    "region_code": "76",
    "postal_code": "31330"
  },
  {
    "name": "Cazac",
    "code": "31593",
    "epci_code": "200072643",
    "departement_code": "31",
    "region_code": "76",
    "postal_code": "31230"
  }
]