[
  {
    "name": "Abbaretz",
    "code": "44001",
    "epci_code": "244400537",
    "departement_code": "44",
    "region_code": "52",
    "postal_code": "44170"
  },
  {
    "name": "Aigrefeuille-sur-Maine",
    "code": "44002",
    "epci_code": "200067635",
    "departement_code": "44",
    "region_code": "52",
    "postal_code": "44140"
  },
  {
    "name": "Ancenis-Saint-Géréon",
    "code": "44003",
    "epci_code": "244400552",
    "departement_code": "44",
    "region_code": "52",
    "postal_code": "44150"
  },
  {
    "name": "Chaumes-en-Retz",
    "code": "44005",
    "epci_code": "200067346",
    "departement_code": "44",
    "region_code": "52",
    "postal_code": "44320"
  },
  {
    "name": "Chaumes-en-Retz",
    "code": "44005",
    "epci_code": "200067346",
    "departement_code": "44",
    "region_code": "52",
    "postal_code": "44680"
  },
  {
    "name": "Assérac",
    "code": "44006",
    "epci_code": "244400610",
    "departement_code": "44",
    "region_code": "52",
    "postal_code": "44410"
  },
  {
    "name": "Avessac",
    "code": "44007",
    "epci_code": "243500741",
    "departement_code": "44",
    "region_code": "52",
    "postal_code": "44460"
  },
  {
    "name": "Basse-Goulaine",
    "code": "44009",
    "epci_code": "244400404",
    "departement_code": "44",
    "region_code": "52",
    "postal_code": "44115"
  },
  {
    "name": "Batz-sur-Mer",
    "code": "44010",
    "epci_code": "244400610",
    "departement_code": "44",
    "region_code": "52",
    "postal_code": "44740"
  },
  {
    "name": "La Bernerie-en-Retz",
    "code": "44012",
    "epci_code": "200067346",
    "departement_code": "44",
    "region_code": "52",
    "postal_code": "44760"
  },
  {
    "name": "Besné",
    "code": "44013",
    "epci_code": "244400644",
    "departement_code": "44",
    "region_code": "52",
    "postal_code": "44160"
  },
  {
    "name": "Le Bignon",
    "code": "44014",
    "epci_code": "244400438",
    "departement_code": "44",
    "region_code": "52",
    "postal_code": "44140"
  },
  {
    "name": "Blain",
    "code": "44015",
    "epci_code": "244400453",
    "departement_code": "44",
    "region_code": "52",
    "postal_code": "44130"
  },
  {
    "name": "La Boissière-du-Doré",
    "code": "44016",
    "epci_code": "200067866",
    "departement_code": "44",
    "region_code": "52",
    "postal_code": "44430"
  },
  {
    "name": "Bouaye",
    "code": "44018",
    "epci_code": "244400404",
    "departement_code": "44",
    "region_code": "52",
    "postal_code": "44830"
  },
  {
    "name": "Bouée",
    "code": "44019",
    "epci_code": "200072734",
    "departement_code": "44",
    "region_code": "52",
    "postal_code": "44260"
  },
  {
    "name": "Bouguenais",
    "code": "44020",
    "epci_code": "244400404",
    "departement_code": "44",
    "region_code": "52",
    "postal_code": "44340"
  },
  {
    "name": "Villeneuve-en-Retz",
    "code": "44021",
    "epci_code": "200067346",
    "departement_code": "44",
    "region_code": "52",
    "postal_code": "44580"
  },
  {
    "name": "Boussay",
    "code": "44022",
    "epci_code": "200067635",
    "departement_code": "44",
    "region_code": "52",
    "postal_code": "44190"
  },
  {
    "name": "Bouvron",
    "code": "44023",
    "epci_code": "244400453",
    "departement_code": "44",
    "region_code": "52",
    "postal_code": "44130"
  },
  {
    "name": "Brains",
    "code": "44024",
    "epci_code": "244400404",
    "departement_code": "44",
    "region_code": "52",
    "postal_code": "44830"
  },
  {
    "name": "Campbon",
    "code": "44025",
    "epci_code": "200072734",
    "departement_code": "44",
    "region_code": "52",
    "postal_code": "44750"
  },
  {
    "name": "Carquefou",
    "code": "44026",
    "epci_code": "244400404",
    "departement_code": "44",
    "region_code": "52",
    "postal_code": "44470"
  },
  {
    "name": "Casson",
    "code": "44027",
    "epci_code": "244400503",
    "departement_code": "44",
    "region_code": "52",
    "postal_code": "44390"
  },
  {
    "name": "Le Cellier",
    "code": "44028",
    "epci_code": "244400552",
    "departement_code": "44",
    "region_code": "52",
    "postal_code": "44850"
  },
  {
    "name": "Divatte-sur-Loire",
    "code": "44029",
    "epci_code": "200067866",
    "departement_code": "44",
    "region_code": "52",
    "postal_code": "44450"
  },
  {
    "name": "La Chapelle-des-Marais",
    "code": "44030",
    "epci_code": "244400644",
    "departement_code": "44",
    "region_code": "52",
    "postal_code": "44410"
  },
  {
    "name": "La Chapelle-Glain",
    "code": "44031",
    "epci_code": "200072726",
    "departement_code": "44",
    "region_code": "52",
    "postal_code": "44670"
  },
  {
    "name": "La Chapelle-Heulin",
    "code": "44032",
    "epci_code": "200067866",
    "departement_code": "44",
    "region_code": "52",
    "postal_code": "44330"
  },
  {
    "name": "La Chapelle-Launay",
    "code": "44033",
    "epci_code": "200072734",
    "departement_code": "44",
    "region_code": "52",
    "postal_code": "44260"
  },
  {
    "name": "La Chapelle-sur-Erdre",
    "code": "44035",
    "epci_code": "244400404",
    "departement_code": "44",
    "region_code": "52",
    "postal_code": "44240"
  },
  {
    "name": "Châteaubriant",
    "code": "44036",
    "epci_code": "200072726",
    "departement_code": "44",
    "region_code": "52",
    "postal_code": "44110"
  },
  {
    "name": "Château-Thébaud",
    "code": "44037",
    "epci_code": "200067635",
    "departement_code": "44",
    "region_code": "52",
    "postal_code": "44690"
  },
  {
    "name": "Chauvé",
    "code": "44038",
    "epci_code": "200067346",
    "departement_code": "44",
    "region_code": "52",
    "postal_code": "44320"
  },
  {
    "name": "Cheix-en-Retz",
    "code": "44039",
    "epci_code": "200067346",
    "departement_code": "44",
    "region_code": "52",
    "postal_code": "44640"
  },
  {
    "name": "La Chevrolière",
    "code": "44041",
    "epci_code": "244400438",
    "departement_code": "44",
    "region_code": "52",
    "postal_code": "44118"
  },
  {
    "name": "Clisson",
    "code": "44043",
    "epci_code": "200067635",
    "departement_code": "44",
    "region_code": "52",
    "postal_code": "44190"
  },
  {
    "name": "Conquereuil",
    "code": "44044",
    "epci_code": "243500741",
    "departement_code": "44",
    "region_code": "52",
    "postal_code": "44290"
  },
  {
    "name": "Cordemais",
    "code": "44045",
    "epci_code": "200072734",
    "departement_code": "44",
    "region_code": "52",
    "postal_code": "44360"
  },
  {
    "name": "Corsept",
    "code": "44046",
    "epci_code": "244400586",
    "departement_code": "44",
    "region_code": "52",
    "postal_code": "44560"
  },
  {
    "name": "Couëron",
    "code": "44047",
    "epci_code": "244400404",
    "departement_code": "44",
    "region_code": "52",
    "postal_code": "44220"
  },
  {
    "name": "Couffé",
    "code": "44048",
    "epci_code": "244400552",
    "departement_code": "44",
    "region_code": "52",
    "postal_code": "44521"
  },
  {
    "name": "Le Croisic",
    "code": "44049",
    "epci_code": "244400610",
    "departement_code": "44",
    "region_code": "52",
    "postal_code": "44490"
  },
  {
    "name": "Crossac",
    "code": "44050",
    "epci_code": "200000438",
    "departement_code": "44",
    "region_code": "52",
    "postal_code": "44160"
  },
  {
    "name": "Derval",
    "code": "44051",
    "epci_code": "200072726",
    "departement_code": "44",
    "region_code": "52",
    "postal_code": "44590"
  },
  {
    "name": "Donges",
    "code": "44052",
    "epci_code": "244400644",
    "departement_code": "44",
    "region_code": "52",
    "postal_code": "44480"
  },
  {
    "name": "Drefféac",
    "code": "44053",
    "epci_code": "200000438",
    "departement_code": "44",
    "region_code": "52",
    "postal_code": "44530"
  },
  {
    "name": "Erbray",
    "code": "44054",
    "epci_code": "200072726",
    "departement_code": "44",
    "region_code": "52",
    "postal_code": "44110"
  },
  {
    "name": "La Baule-Escoublac",
    "code": "44055",
    "epci_code": "244400610",
    "departement_code": "44",
    "region_code": "52",
    "postal_code": "44500"
  },
  {
    "name": "Fay-de-Bretagne",
    "code": "44056",
    "epci_code": "244400503",
    "departement_code": "44",
    "region_code": "52",
    "postal_code": "44130"
  },
  {
    "name": "Fégréac",
    "code": "44057",
    "epci_code": "243500741",
    "departement_code": "44",
    "region_code": "52",
    "postal_code": "44460"
  },
  {
    "name": "Fercé",
    "code": "44058",
    "epci_code": "200072726",
    "departement_code": "44",
    "region_code": "52",
    "postal_code": "44660"
  },
  {
    "name": "Frossay",
    "code": "44061",
    "epci_code": "244400586",
    "departement_code": "44",
    "region_code": "52",
    "postal_code": "44320"
  },
  {
    "name": "Le Gâvre",
    "code": "44062",
    "epci_code": "244400453",
    "departement_code": "44",
    "region_code": "52",
    "postal_code": "44130"
  },
  {
    "name": "Gétigné",
    "code": "44063",
    "epci_code": "200067635",
    "departement_code": "44",
    "region_code": "52",
    "postal_code": "44190"
  },
  {
    "name": "Gorges",
    "code": "44064",
    "epci_code": "200067635",
    "departement_code": "44",
    "region_code": "52",
    "postal_code": "44190"
  },
  {
    "name": "Grand-Auverné",
    "code": "44065",
    "epci_code": "200072726",
    "departement_code": "44",
    "region_code": "52",
    "postal_code": "44520"
  },
  {
    "name": "Grandchamp-des-Fontaines",
    "code": "44066",
    "epci_code": "244400503",
    "departement_code": "44",
    "region_code": "52",
    "postal_code": "44119"
  },
  {
    "name": "Guémené-Penfao",
    "code": "44067",
    "epci_code": "243500741",
    "departement_code": "44",
    "region_code": "52",
    "postal_code": "44290"
  },
  {
    "name": "Guenrouet",
    "code": "44068",
    "epci_code": "200000438",
    "departement_code": "44",
    "region_code": "52",
    "postal_code": "44530"
  },
  {
    "name": "Guérande",
    "code": "44069",
    "epci_code": "244400610",
    "departement_code": "44",
    "region_code": "52",
    "postal_code": "44350"
  },
  {
    "name": "La Haie-Fouassière",
    "code": "44070",
    "epci_code": "200067635",
    "departement_code": "44",
    "region_code": "52",
    "postal_code": "44690"
  },
  {
    "name": "Haute-Goulaine",
    "code": "44071",
    "epci_code": "200067635",
    "departement_code": "44",
    "region_code": "52",
    "postal_code": "44115"
  },
  {
    "name": "Herbignac",
    "code": "44072",
    "epci_code": "244400610",
    "departement_code": "44",
    "region_code": "52",
    "postal_code": "44410"
  },
  {
    "name": "Héric",
    "code": "44073",
    "epci_code": "244400503",
    "departement_code": "44",
    "region_code": "52",
    "postal_code": "44810"
  },
  {
    "name": "Indre",
    "code": "44074",
    "epci_code": "244400404",
    "departement_code": "44",
    "region_code": "52",
    "postal_code": "44610"
  },
  {
    "name": "Issé",
    "code": "44075",
    "epci_code": "200072726",
    "departement_code": "44",
    "region_code": "52",
    "postal_code": "44520"
  },
  {
    "name": "Jans",
    "code": "44076",
    "epci_code": "200072726",
    "departement_code": "44",
    "region_code": "52",
    "postal_code": "44170"
  },
  {
    "name": "Joué-sur-Erdre",
    "code": "44077",
    "epci_code": "244400552",
    "departement_code": "44",
    "region_code": "52",
    "postal_code": "44440"
  },
  {
    "name": "Juigné-des-Moutiers",
    "code": "44078",
    "epci_code": "200072726",
    "departement_code": "44",
    "region_code": "52",
    "postal_code": "44670"
  },
  {
    "name": "Le Landreau",
    "code": "44079",
    "epci_code": "200067866",
    "departement_code": "44",
    "region_code": "52",
    "postal_code": "44430"
  },
  {
    "name": "Lavau-sur-Loire",
    "code": "44080",
    "epci_code": "200072734",
    "departement_code": "44",
    "region_code": "52",
    "postal_code": "44260"
  },
  {
    "name": "Legé",
    "code": "44081",
    "epci_code": "200071546",
    "departement_code": "44",
    "region_code": "52",
    "postal_code": "44650"
  },
  {
    "name": "Ligné",
    "code": "44082",
    "epci_code": "244400552",
    "departement_code": "44",
    "region_code": "52",
    "postal_code": "44850"
  },
  {
    "name": "La Limouzinière",
    "code": "44083",
    "epci_code": "244400438",
    "departement_code": "44",
    "region_code": "52",
    "postal_code": "44310"
  },
  {
    "name": "Le Loroux-Bottereau",
    "code": "44084",
    "epci_code": "200067866",
    "departement_code": "44",
    "region_code": "52",
    "postal_code": "44430"
  },
  {
    "name": "Louisfert",
    "code": "44085",
    "epci_code": "200072726",
    "departement_code": "44",
    "region_code": "52",
    "postal_code": "44110"
  },
  {
    "name": "Lusanger",
    "code": "44086",
    "epci_code": "200072726",
    "departement_code": "44",
    "region_code": "52",
    "postal_code": "44590"
  },
  {
    "name": "Machecoul-Saint-Même",
    "code": "44087",
    "epci_code": "200071546",
    "departement_code": "44",
    "region_code": "52",
    "postal_code": "44270"
  },
  {
    "name": "Maisdon-sur-Sèvre",
    "code": "44088",
    "epci_code": "200067635",
    "departement_code": "44",
    "region_code": "52",
    "postal_code": "44690"
  },
  {
    "name": "Malville",
    "code": "44089",
    "epci_code": "200072734",
    "departement_code": "44",
    "region_code": "52",
    "postal_code": "44260"
  },
  {
    "name": "La Marne",
    "code": "44090",
    "epci_code": "200071546",
    "departement_code": "44",
    "region_code": "52",
    "postal_code": "44270"
  },
  {
    "name": "Marsac-sur-Don",
    "code": "44091",
    "epci_code": "200072726",
    "departement_code": "44",
    "region_code": "52",
    "postal_code": "44170"
  },
  {
    "name": "Massérac",
    "code": "44092",
    "epci_code": "243500741",
    "departement_code": "44",
    "region_code": "52",
    "postal_code": "44290"
  },
  {
    "name": "Mauves-sur-Loire",
    "code": "44094",
    "epci_code": "244400404",
    "departement_code": "44",
    "region_code": "52",
    "postal_code": "44470"
  },
  {
    "name": "La Meilleraye-de-Bretagne",
    "code": "44095",
    "epci_code": "200072726",
    "departement_code": "44",
    "region_code": "52",
    "postal_code": "44520"
  },
  {
    "name": "Mésanger",
    "code": "44096",
    "epci_code": "244400552",
    "departement_code": "44",
    "region_code": "52",
    "postal_code": "44522"
  },
  {
    "name": "Mesquer",
    "code": "44097",
    "epci_code": "244400610",
    "departement_code": "44",
    "region_code": "52",
    "postal_code": "44420"
  },
  {
    "name": "Missillac",
    "code": "44098",
    "epci_code": "200000438",
    "departement_code": "44",
    "region_code": "52",
    "postal_code": "44780"
  },
  {
    "name": "Moisdon-la-Rivière",
    "code": "44099",
    "epci_code": "200072726",
    "departement_code": "44",
    "region_code": "52",
    "postal_code": "44520"
  },
  {
    "name": "Monnières",
    "code": "44100",
    "epci_code": "200067635",
    "departement_code": "44",
    "region_code": "52",
    "postal_code": "44690"
  },
  {
    "name": "La Montagne",
    "code": "44101",
    "epci_code": "244400404",
    "departement_code": "44",
    "region_code": "52",
    "postal_code": "44620"
  },
  {
    "name": "Montbert",
    "code": "44102",
    "epci_code": "244400438",
    "departement_code": "44",
    "region_code": "52",
    "postal_code": "44140"
  },
  {
    "name": "Montoir-de-Bretagne",
    "code": "44103",
    "epci_code": "244400644",
    "departement_code": "44",
    "region_code": "52",
    "postal_code": "44550"
  },
  {
    "name": "Montrelais",
    "code": "44104",
    "epci_code": "244400552",
    "departement_code": "44",
    "region_code": "52",
    "postal_code": "44370"
  },
  {
    "name": "Mouais",
    "code": "44105",
    "epci_code": "200072726",
    "departement_code": "44",
    "region_code": "52",
    "postal_code": "44590"
  },
  {
    "name": "Les Moutiers-en-Retz",
    "code": "44106",
    "epci_code": "200067346",
    "departement_code": "44",
    "region_code": "52",
    "postal_code": "44760"
  },
  {
    "name": "Mouzeil",
    "code": "44107",
    "epci_code": "244400552",
    "departement_code": "44",
    "region_code": "52",
    "postal_code": "44850"
  },
  {
    "name": "Mouzillon",
    "code": "44108",
    "epci_code": "200067866",
    "departement_code": "44",
    "region_code": "52",
    "postal_code": "44330"
  },
  {
    "name": "Nantes",
    "code": "44109",
    "epci_code": "244400404",
    "departement_code": "44",
    "region_code": "52",
    "postal_code": "44000"
  },
  {
    "name": "Nantes",
    "code": "44109",
    "epci_code": "244400404",
    "departement_code": "44",
    "region_code": "52",
    "postal_code": "44100"
  },
  {
    "name": "Nantes",
    "code": "44109",
    "epci_code": "244400404",
    "departement_code": "44",
    "region_code": "52",
    "postal_code": "44200"
  },
  {
    "name": "Nantes",
    "code": "44109",
    "epci_code": "244400404",
    "departement_code": "44",
    "region_code": "52",
    "postal_code": "44300"
  },
  {
    "name": "Nort-sur-Erdre",
    "code": "44110",
    "epci_code": "244400503",
    "departement_code": "44",
    "region_code": "52",
    "postal_code": "44390"
  },
  {
    "name": "Notre-Dame-des-Landes",
    "code": "44111",
    "epci_code": "244400503",
    "departement_code": "44",
    "region_code": "52",
    "postal_code": "44130"
  },
  {
    "name": "Noyal-sur-Brutz",
    "code": "44112",
    "epci_code": "200072726",
    "departement_code": "44",
    "region_code": "52",
    "postal_code": "44110"
  },
  {
    "name": "Nozay",
    "code": "44113",
    "epci_code": "244400537",
    "departement_code": "44",
    "region_code": "52",
    "postal_code": "44170"
  },
  {
    "name": "Orvault",
    "code": "44114",
    "epci_code": "244400404",
    "departement_code": "44",
    "region_code": "52",
    "postal_code": "44700"
  },
  {
    "name": "Oudon",
    "code": "44115",
    "epci_code": "244400552",
    "departement_code": "44",
    "region_code": "52",
    "postal_code": "44521"
  },
  {
    "name": "Paimbœuf",
    "code": "44116",
    "epci_code": "244400586",
    "departement_code": "44",
    "region_code": "52",
    "postal_code": "44560"
  },
  {
    "name": "Le Pallet",
    "code": "44117",
    "epci_code": "200067866",
    "departement_code": "44",
    "region_code": "52",
    "postal_code": "44330"
  },
  {
    "name": "Pannecé",
    "code": "44118",
    "epci_code": "244400552",
    "departement_code": "44",
    "region_code": "52",
    "postal_code": "44440"
  },
  {
    "name": "Paulx",
    "code": "44119",
    "epci_code": "200071546",
    "departement_code": "44",
    "region_code": "52",
    "postal_code": "44270"
  },
  {
    "name": "Le Pellerin",
    "code": "44120",
    "epci_code": "244400404",
    "departement_code": "44",
    "region_code": "52",
    "postal_code": "44640"
  },
  {
    "name": "Petit-Auverné",
    "code": "44121",
    "epci_code": "200072726",
    "departement_code": "44",
    "region_code": "52",
    "postal_code": "44670"
  },
  {
    "name": "Petit-Mars",
    "code": "44122",
    "epci_code": "244400503",
    "departement_code": "44",
    "region_code": "52",
    "postal_code": "44390"
  },
  {
    "name": "Pierric",
    "code": "44123",
    "epci_code": "243500741",
    "departement_code": "44",
    "region_code": "52",
    "postal_code": "44290"
  },
  {
    "name": "Le Pin",
    "code": "44124",
    "epci_code": "244400552",
    "departement_code": "44",
    "region_code": "52",
    "postal_code": "44540"
  },
  {
    "name": "Piriac-sur-Mer",
    "code": "44125",
    "epci_code": "244400610",
    "departement_code": "44",
    "region_code": "52",
    "postal_code": "44420"
  },
  {
    "name": "La Plaine-sur-Mer",
    "code": "44126",
    "epci_code": "200067346",
    "departement_code": "44",
    "region_code": "52",
    "postal_code": "44770"
  },
  {
    "name": "La Planche",
    "code": "44127",
    "epci_code": "200067635",
    "departement_code": "44",
    "region_code": "52",
    "postal_code": "44140"
  },
  {
    "name": "Plessé",
    "code": "44128",
    "epci_code": "243500741",
    "departement_code": "44",
    "region_code": "52",
    "postal_code": "44630"
  },
  {
    "name": "Pontchâteau",
    "code": "44129",
    "epci_code": "200000438",
    "departement_code": "44",
    "region_code": "52",
    "postal_code": "44160"
  },
  {
    "name": "Pont-Saint-Martin",
    "code": "44130",
    "epci_code": "244400438",
    "departement_code": "44",
    "region_code": "52",
    "postal_code": "44860"
  },
  {
    "name": "Pornic",
    "code": "44131",
    "epci_code": "200067346",
    "departement_code": "44",
    "region_code": "52",
    "postal_code": "44210"
  },
  {
    "name": "Pornichet",
    "code": "44132",
    "epci_code": "244400644",
    "departement_code": "44",
    "region_code": "52",
    "postal_code": "44380"
  },
  {
    "name": "Port-Saint-Père",
    "code": "44133",
    "epci_code": "200067346",
    "departement_code": "44",
    "region_code": "52",
    "postal_code": "44710"
  },
  {
    "name": "Pouillé-les-Côteaux",
    "code": "44134",
    "epci_code": "244400552",
    "departement_code": "44",
    "region_code": "52",
    "postal_code": "44522"
  },
  {
    "name": "Le Pouliguen",
    "code": "44135",
    "epci_code": "244400610",
    "departement_code": "44",
    "region_code": "52",
    "postal_code": "44510"
  },
  {
    "name": "Préfailles",
    "code": "44136",
    "epci_code": "200067346",
    "departement_code": "44",
    "region_code": "52",
    "postal_code": "44770"
  },
  {
    "name": "Prinquiau",
    "code": "44137",
    "epci_code": "200072734",
    "departement_code": "44",
    "region_code": "52",
    "postal_code": "44260"
  },
  {
    "name": "Puceul",
    "code": "44138",
    "epci_code": "244400537",
    "departement_code": "44",
    "region_code": "52",
    "postal_code": "44390"
  },
  {
    "name": "Quilly",
    "code": "44139",
    "epci_code": "200072734",
    "departement_code": "44",
    "region_code": "52",
    "postal_code": "44750"
  },
  {
    "name": "La Regrippière",
    "code": "44140",
    "epci_code": "200067866",
    "departement_code": "44",
    "region_code": "52",
    "postal_code": "44330"
  },
  {
    "name": "La Remaudière",
    "code": "44141",
    "epci_code": "200067866",
    "departement_code": "44",
    "region_code": "52",
    "postal_code": "44430"
  },
  {
    "name": "Remouillé",
    "code": "44142",
    "epci_code": "200067635",
    "departement_code": "44",
    "region_code": "52",
    "postal_code": "44140"
  },
  {
    "name": "Rezé",
    "code": "44143",
    "epci_code": "244400404",
    "departement_code": "44",
    "region_code": "52",
    "postal_code": "44400"
  },
  {
    "name": "Riaillé",
    "code": "44144",
    "epci_code": "244400552",
    "departement_code": "44",
    "region_code": "52",
    "postal_code": "44440"
  },
  {
    "name": "Rouans",
    "code": "44145",
    "epci_code": "200067346",
    "departement_code": "44",
    "region_code": "52",
    "postal_code": "44640"
  },
  {
    "name": "Rougé",
    "code": "44146",
    "epci_code": "200072726",
    "departement_code": "44",
    "region_code": "52",
    "postal_code": "44660"
  },
  {
    "name": "Ruffigné",
    "code": "44148",
    "epci_code": "200072726",
    "departement_code": "44",
    "region_code": "52",
    "postal_code": "44660"
  },
  {
    "name": "Saffré",
    "code": "44149",
    "epci_code": "244400537",
    "departement_code": "44",
    "region_code": "52",
    "postal_code": "44390"
  },
  {
    "name": "Saint-Aignan-Grandlieu",
    "code": "44150",
    "epci_code": "244400404",
    "departement_code": "44",
    "region_code": "52",
    "postal_code": "44860"
  },
  {
    "name": "Saint-André-des-Eaux",
    "code": "44151",
    "epci_code": "244400644",
    "departement_code": "44",
    "region_code": "52",
    "postal_code": "44117"
  },
  {
    "name": "Sainte-Anne-sur-Brivet",
    "code": "44152",
    "epci_code": "200000438",
    "departement_code": "44",
    "region_code": "52",
    "postal_code": "44160"
  },
  {
    "name": "Saint-Aubin-des-Châteaux",
    "code": "44153",
    "epci_code": "200072726",
    "departement_code": "44",
    "region_code": "52",
    "postal_code": "44110"
  },
  {
    "name": "Saint-Brevin-les-Pins",
    "code": "44154",
    "epci_code": "244400586",
    "departement_code": "44",
    "region_code": "52",
    "postal_code": "44250"
  },
  {
    "name": "Saint-Colomban",
    "code": "44155",
    "epci_code": "244400438",
    "departement_code": "44",
    "region_code": "52",
    "postal_code": "44310"
  },
  {
    "name": "Corcoué-sur-Logne",
    "code": "44156",
    "epci_code": "200071546",
    "departement_code": "44",
    "region_code": "52",
    "postal_code": "44650"
  },
  {
    "name": "Saint-Étienne-de-Mer-Morte",
    "code": "44157",
    "epci_code": "200071546",
    "departement_code": "44",
    "region_code": "52",
    "postal_code": "44270"
  },
  {
    "name": "Saint-Étienne-de-Montluc",
    "code": "44158",
    "epci_code": "200072734",
    "departement_code": "44",
    "region_code": "52",
    "postal_code": "44360"
  },
  {
    "name": "Saint-Fiacre-sur-Maine",
    "code": "44159",
    "epci_code": "200067635",
    "departement_code": "44",
    "region_code": "52",
    "postal_code": "44690"
  },
  {
    "name": "Saint-Gildas-des-Bois",
    "code": "44161",
    "epci_code": "200000438",
    "departement_code": "44",
    "region_code": "52",
    "postal_code": "44530"
  },
  {
    "name": "Saint-Herblain",
    "code": "44162",
    "epci_code": "244400404",
    "departement_code": "44",
    "region_code": "52",
    "postal_code": "44800"
  },
  {
    "name": "Vair-sur-Loire",
    "code": "44163",
    "epci_code": "244400552",
    "departement_code": "44",
    "region_code": "52",
    "postal_code": "44150"
  },
  {
    "name": "Saint-Hilaire-de-Chaléons",
    "code": "44164",
    "epci_code": "200067346",
    "departement_code": "44",
    "region_code": "52",
    "postal_code": "44680"
  },
  {
    "name": "Saint-Hilaire-de-Clisson",
    "code": "44165",
    "epci_code": "200067635",
    "departement_code": "44",
    "region_code": "52",
    "postal_code": "44190"
  },
  {
    "name": "Saint-Jean-de-Boiseau",
    "code": "44166",
    "epci_code": "244400404",
    "departement_code": "44",
    "region_code": "52",
    "postal_code": "44640"
  },
  {
    "name": "Saint-Joachim",
    "code": "44168",
    "epci_code": "244400644",
    "departement_code": "44",
    "region_code": "52",
    "postal_code": "44720"
  },
  {
    "name": "Saint-Julien-de-Concelles",
    "code": "44169",
    "epci_code": "200067866",
    "departement_code": "44",
    "region_code": "52",
    "postal_code": "44450"
  },
  {
    "name": "Saint-Julien-de-Vouvantes",
    "code": "44170",
    "epci_code": "200072726",
    "departement_code": "44",
    "region_code": "52",
    "postal_code": "44670"
  },
  {
    "name": "Saint-Léger-les-Vignes",
    "code": "44171",
    "epci_code": "244400404",
    "departement_code": "44",
    "region_code": "52",
    "postal_code": "44710"
  },
  {
    "name": "Sainte-Luce-sur-Loire",
    "code": "44172",
    "epci_code": "244400404",
    "departement_code": "44",
    "region_code": "52",
    "postal_code": "44980"
  },
  {
    "name": "Saint-Lumine-de-Clisson",
    "code": "44173",
    "epci_code": "200067635",
    "departement_code": "44",
    "region_code": "52",
    "postal_code": "44190"
  },
  {
    "name": "Saint-Lumine-de-Coutais",
    "code": "44174",
    "epci_code": "244400438",
    "departement_code": "44",
    "region_code": "52",
    "postal_code": "44310"
  },
  {
    "name": "Saint-Lyphard",
    "code": "44175",
    "epci_code": "244400610",
    "departement_code": "44",
    "region_code": "52",
    "postal_code": "44410"
  },
  {
    "name": "Saint-Malo-de-Guersac",
    "code": "44176",
    "epci_code": "244400644",
    "departement_code": "44",
    "region_code": "52",
    "postal_code": "44550"
  },
  {
    "name": "Saint-Mars-de-Coutais",
    "code": "44178",
    "epci_code": "200071546",
    "departement_code": "44",
    "region_code": "52",
    "postal_code": "44680"
  },
  {
    "name": "Saint-Mars-du-Désert",
    "code": "44179",
    "epci_code": "244400503",
    "departement_code": "44",
    "region_code": "52",
    "postal_code": "44850"
  },
  {
    "name": "Vallons-de-l’Erdre",
    "code": "44180",
    "epci_code": "244400552",
    "departement_code": "44",
    "region_code": "52",
    "postal_code": "44540"
  },
  {
    "name": "Saint-Michel-Chef-Chef",
    "code": "44182",
    "epci_code": "200067346",
    "departement_code": "44",
    "region_code": "52",
    "postal_code": "44730"
  },
  {
    "name": "Saint-Molf",
    "code": "44183",
    "epci_code": "244400610",
    "departement_code": "44",
    "region_code": "52",
    "postal_code": "44350"
  },
  {
    "name": "Saint-Nazaire",
    "code": "44184",
    "epci_code": "244400644",
    "departement_code": "44",
    "region_code": "52",
    "postal_code": "44600"
  },
  {
    "name": "Saint-Nicolas-de-Redon",
    "code": "44185",
    "epci_code": "243500741",
    "departement_code": "44",
    "region_code": "52",
    "postal_code": "44460"
  },
  {
    "name": "Sainte-Pazanne",
    "code": "44186",
    "epci_code": "200067346",
    "departement_code": "44",
    "region_code": "52",
    "postal_code": "44680"
  },
  {
    "name": "Saint-Père-en-Retz",
    "code": "44187",
    "epci_code": "244400586",
    "departement_code": "44",
    "region_code": "52",
    "postal_code": "44320"
  },
  {
    "name": "Saint-Philbert-de-Grand-Lieu",
    "code": "44188",
    "epci_code": "244400438",
    "departement_code": "44",
    "region_code": "52",
    "postal_code": "44310"
  },
  {
    "name": "Sainte-Reine-de-Bretagne",
    "code": "44189",
    "epci_code": "200000438",
    "departement_code": "44",
    "region_code": "52",
    "postal_code": "44160"
  },
  {
    "name": "Saint-Sébastien-sur-Loire",
    "code": "44190",
    "epci_code": "244400404",
    "departement_code": "44",
    "region_code": "52",
    "postal_code": "44230"
  },
  {
    "name": "Saint-Viaud",
    "code": "44192",
    "epci_code": "244400586",
    "departement_code": "44",
    "region_code": "52",
    "postal_code": "44320"
  },
  {
    "name": "Saint-Vincent-des-Landes",
    "code": "44193",
    "epci_code": "200072726",
    "departement_code": "44",
    "region_code": "52",
    "postal_code": "44590"
  },
  {
    "name": "Sautron",
    "code": "44194",
    "epci_code": "244400404",
    "departement_code": "44",
    "region_code": "52",
    "postal_code": "44880"
  },
  {
    "name": "Savenay",
    "code": "44195",
    "epci_code": "200072734",
    "departement_code": "44",
    "region_code": "52",
    "postal_code": "44260"
  },
  {
    "name": "Sévérac",
    "code": "44196",
    "epci_code": "200000438",
    "departement_code": "44",
    "region_code": "52",
    "postal_code": "44530"
  },
  {
    "name": "Sion-les-Mines",
    "code": "44197",
    "epci_code": "200072726",
    "departement_code": "44",
    "region_code": "52",
    "postal_code": "44590"
  },
  {
    "name": "Les Sorinières",
    "code": "44198",
    "epci_code": "244400404",
    "departement_code": "44",
    "region_code": "52",
    "postal_code": "44840"
  },
  {
    "name": "Soudan",
    "code": "44199",
    "epci_code": "200072726",
    "departement_code": "44",
    "region_code": "52",
    "postal_code": "44110"
  },
  {
    "name": "Soulvache",
    "code": "44200",
    "epci_code": "200072726",
    "departement_code": "44",
    "region_code": "52",
    "postal_code": "44660"
  },
  {
    "name": "Sucé-sur-Erdre",
    "code": "44201",
    "epci_code": "244400503",
    "departement_code": "44",
    "region_code": "52",
    "postal_code": "44240"
  },
  {
    "name": "Teillé",
    "code": "44202",
    "epci_code": "244400552",
    "departement_code": "44",
    "region_code": "52",
    "postal_code": "44440"
  },
  {
    "name": "Le Temple-de-Bretagne",
    "code": "44203",
    "epci_code": "200072734",
    "departement_code": "44",
    "region_code": "52",
    "postal_code": "44360"
  },
  {
    "name": "Thouaré-sur-Loire",
    "code": "44204",
    "epci_code": "244400404",
    "departement_code": "44",
    "region_code": "52",
    "postal_code": "44470"
  },
  {
    "name": "Les Touches",
    "code": "44205",
    "epci_code": "244400503",
    "departement_code": "44",
    "region_code": "52",
    "postal_code": "44390"
  },
  {
    "name": "Touvois",
    "code": "44206",
    "epci_code": "200071546",
    "departement_code": "44",
    "region_code": "52",
    "postal_code": "44650"
  },
  {
    "name": "Trans-sur-Erdre",
    "code": "44207",
    "epci_code": "244400552",
    "departement_code": "44",
    "region_code": "52",
    "postal_code": "44440"
  },
  {
    "name": "Treffieux",
    "code": "44208",
    "epci_code": "244400537",
    "departement_code": "44",
    "region_code": "52",
    "postal_code": "44170"
  },
  {
    "name": "Treillières",
    "code": "44209",
    "epci_code": "244400503",
    "departement_code": "44",
    "region_code": "52",
    "postal_code": "44119"
  },
  {
    "name": "Trignac",
    "code": "44210",
    "epci_code": "244400644",
    "departement_code": "44",
    "region_code": "52",
    "postal_code": "44570"
  },
  {
    "name": "La Turballe",
    "code": "44211",
    "epci_code": "244400610",
    "departement_code": "44",
    "region_code": "52",
    "postal_code": "44420"
  },
  {
    "name": "Vallet",
    "code": "44212",
    "epci_code": "200067866",
    "departement_code": "44",
    "region_code": "52",
    "postal_code": "44330"
  },
  {
    "name": "Loireauxence",
    "code": "44213",
    "epci_code": "244400552",
    "departement_code": "44",
    "region_code": "52",
    "postal_code": "44370"
  },
  {
    "name": "Vay",
    "code": "44214",
    "epci_code": "244400537",
    "departement_code": "44",
    "region_code": "52",
    "postal_code": "44170"
  },
  {
    "name": "Vertou",
    "code": "44215",
    "epci_code": "244400404",
    "departement_code": "44",
    "region_code": "52",
    "postal_code": "44120"
  },
  {
    "name": "Vieillevigne",
    "code": "44216",
    "epci_code": "200067635",
    "departement_code": "44",
    "region_code": "52",
    "postal_code": "44116"
  },
  {
    "name": "Vigneux-de-Bretagne",
    "code": "44217",
    "epci_code": "244400503",
    "departement_code": "44",
    "region_code": "52",
    "postal_code": "44360"
  },
  {
    "name": "Villepot",
    "code": "44218",
    "epci_code": "200072726",
    "departement_code": "44",
    "region_code": "52",
    "postal_code": "44110"
  },
  {
    "name": "Vue",
    "code": "44220",
    "epci_code": "200067346",
    "departement_code": "44",
    "region_code": "52",
    "postal_code": "44640"
  },
  {
    "name": "La Chevallerais",
    "code": "44221",
    "epci_code": "244400453",
    "departement_code": "44",
    "region_code": "52",
    "postal_code": "44810"
  },
  {
    "name": "La Roche-Blanche",
    "code": "44222",
    "epci_code": "244400552",
    "departement_code": "44",
    "region_code": "52",
    "postal_code": "44522"
  },
  {
    "name": "Geneston",
    "code": "44223",
    "epci_code": "244400438",
    "departement_code": "44",
    "region_code": "52",
    "postal_code": "44140"
  },
  {
    "name": "La Grigonnais",
    "code": "44224",
    "epci_code": "244400537",
    "departement_code": "44",
    "region_code": "52",
    "postal_code": "44170"
  }
]