[
  {
    "name": "Aix-en-Provence",
    "code": "13001",
    "epci_code": "200054807",
    "departement_code": "13",
    "region_code": "93",
    "postal_code": "13090"
  },
  {
    "name": "Aix-en-Provence",
    "code": "13001",
    "epci_code": "200054807",
    "departement_code": "13",
    "region_code": "93",
    "postal_code": "13080"
  },
  {
    "name": "Aix-en-Provence",
    "code": "13001",
    "epci_code": "200054807",
    "departement_code": "13",
    "region_code": "93",
    "postal_code": "13100"
  },
  {
    "name": "Aix-en-Provence",
    "code": "13001",
    "epci_code": "200054807",
    "departement_code": "13",
    "region_code": "93",
    "postal_code": "13290"
  },
  {
    "name": "Aix-en-Provence",
    "code": "13001",
    "epci_code": "200054807",
    "departement_code": "13",
    "region_code": "93",
    "postal_code": "13540"
  },
  {
    "name": "Allauch",
    "code": "13002",
    "epci_code": "200054807",
    "departement_code": "13",
    "region_code": "93",
    "postal_code": "13190"
  },
  {
    "name": "Alleins",
    "code": "13003",
    "epci_code": "200054807",
    "departement_code": "13",
    "region_code": "93",
    "postal_code": "13980"
  },
  {
    "name": "Arles",
    "code": "13004",
    "epci_code": "241300417",
    "departement_code": "13",
    "region_code": "93",
    "postal_code": "13104"
  },
  {
    "name": "Arles",
    "code": "13004",
    "epci_code": "241300417",
    "departement_code": "13",
    "region_code": "93",
    "postal_code": "13123"
  },
  {
    "name": "Arles",
    "code": "13004",
    "epci_code": "241300417",
    "departement_code": "13",
    "region_code": "93",
    "postal_code": "13129"
  },
  {
    "name": "Arles",
    "code": "13004",
    "epci_code": "241300417",
    "departement_code": "13",
    "region_code": "93",
    "postal_code": "13200"
  },
  {
    "name": "Arles",
    "code": "13004",
    "epci_code": "241300417",
    "departement_code": "13",
    "region_code": "93",
    "postal_code": "13280"
  },
  {
    "name": "Aubagne",
    "code": "13005",
    "epci_code": "200054807",
    "departement_code": "13",
    "region_code": "93",
    "postal_code": "13400"
  },
  {
    "name": "Aureille",
    "code": "13006",
    "epci_code": "241300375",
    "departement_code": "13",
    "region_code": "93",
    "postal_code": "13930"
  },
  {
    "name": "Auriol",
    "code": "13007",
    "epci_code": "200054807",
    "departement_code": "13",
    "region_code": "93",
    "postal_code": "13390"
  },
  {
    "name": "Aurons",
    "code": "13008",
    "epci_code": "200054807",
    "departement_code": "13",
    "region_code": "93",
    "postal_code": "13121"
  },
  {
    "name": "La Barben",
    "code": "13009",
    "epci_code": "200054807",
    "departement_code": "13",
    "region_code": "93",
    "postal_code": "13330"
  },
  {
    "name": "Barbentane",
    "code": "13010",
    "epci_code": "200035087",
    "departement_code": "13",
    "region_code": "93",
    "postal_code": "13570"
  },
  {
    "name": "Les Baux-de-Provence",
    "code": "13011",
    "epci_code": "241300375",
    "departement_code": "13",
    "region_code": "93",
    "postal_code": "13520"
  },
  {
    "name": "Beaurecueil",
    "code": "13012",
    "epci_code": "200054807",
    "departement_code": "13",
    "region_code": "93",
    "postal_code": "13100"
  },
  {
    "name": "Belcodène",
    "code": "13013",
    "epci_code": "200054807",
    "departement_code": "13",
    "region_code": "93",
    "postal_code": "13720"
  },
  {
    "name": "Berre-l’Étang",
    "code": "13014",
    "epci_code": "200054807",
    "departement_code": "13",
    "region_code": "93",
    "postal_code": "13130"
  },
  {
    "name": "Bouc-Bel-Air",
    "code": "13015",
    "epci_code": "200054807",
    "departement_code": "13",
    "region_code": "93",
    "postal_code": "13320"
  },
  {
    "name": "La Bouilladisse",
    "code": "13016",
    "epci_code": "200054807",
    "departement_code": "13",
    "region_code": "93",
    "postal_code": "13720"
  },
  {
    "name": "Boulbon",
    "code": "13017",
    "epci_code": "241300417",
    "departement_code": "13",
    "region_code": "93",
    "postal_code": "13150"
  },
  {
    "name": "Cabannes",
    "code": "13018",
    "epci_code": "200035087",
    "departement_code": "13",
    "region_code": "93",
    "postal_code": "13440"
  },
  {
    "name": "Cabriès",
    "code": "13019",
    "epci_code": "200054807",
    "departement_code": "13",
    "region_code": "93",
    "postal_code": "13480"
  },
  {
    "name": "Cadolive",
    "code": "13020",
    "epci_code": "200054807",
    "departement_code": "13",
    "region_code": "93",
    "postal_code": "13950"
  },
  {
    "name": "Carry-le-Rouet",
    "code": "13021",
    "epci_code": "200054807",
    "departement_code": "13",
    "region_code": "93",
    "postal_code": "13620"
  },
  {
    "name": "Cassis",
    "code": "13022",
    "epci_code": "200054807",
    "departement_code": "13",
    "region_code": "93",
    "postal_code": "13260"
  },
  {
    "name": "Ceyreste",
    "code": "13023",
    "epci_code": "200054807",
    "departement_code": "13",
    "region_code": "93",
    "postal_code": "13600"
  },
  {
    "name": "Charleval",
    "code": "13024",
    "epci_code": "200054807",
    "departement_code": "13",
    "region_code": "93",
    "postal_code": "13350"
  },
  {
    "name": "Châteauneuf-le-Rouge",
    "code": "13025",
    "epci_code": "200054807",
    "departement_code": "13",
    "region_code": "93",
    "postal_code": "13790"
  },
  {
    "name": "Châteauneuf-les-Martigues",
    "code": "13026",
    "epci_code": "200054807",
    "departement_code": "13",
    "region_code": "93",
    "postal_code": "13220"
  },
  {
    "name": "Châteaurenard",
    "code": "13027",
    "epci_code": "200035087",
    "departement_code": "13",
    "region_code": "93",
    "postal_code": "13160"
  },
  {
    "name": "La Ciotat",
    "code": "13028",
    "epci_code": "200054807",
    "departement_code": "13",
    "region_code": "93",
    "postal_code": "13600"
  },
  {
    "name": "Cornillon-Confoux",
    "code": "13029",
    "epci_code": "200054807",
    "departement_code": "13",
    "region_code": "93",
    "postal_code": "13250"
  },
  {
    "name": "Cuges-les-Pins",
    "code": "13030",
    "epci_code": "200054807",
    "departement_code": "13",
    "region_code": "93",
    "postal_code": "13780"
  },
  {
    "name": "La Destrousse",
    "code": "13031",
    "epci_code": "200054807",
    "departement_code": "13",
    "region_code": "93",
    "postal_code": "13112"
  },
  {
    "name": "Éguilles",
    "code": "13032",
    "epci_code": "200054807",
    "departement_code": "13",
    "region_code": "93",
    "postal_code": "13510"
  },
  {
    "name": "Ensuès-la-Redonne",
    "code": "13033",
    "epci_code": "200054807",
    "departement_code": "13",
    "region_code": "93",
    "postal_code": "13820"
  },
  {
    "name": "Eygalières",
    "code": "13034",
    "epci_code": "241300375",
    "departement_code": "13",
    "region_code": "93",
    "postal_code": "13810"
  },
  {
    "name": "Eyguières",
    "code": "13035",
    "epci_code": "200054807",
    "departement_code": "13",
    "region_code": "93",
    "postal_code": "13430"
  },
  {
    "name": "Eyragues",
    "code": "13036",
    "epci_code": "200035087",
    "departement_code": "13",
    "region_code": "93",
    "postal_code": "13630"
  },
  {
    "name": "La Fare-les-Oliviers",
    "code": "13037",
    "epci_code": "200054807",
    "departement_code": "13",
    "region_code": "93",
    "postal_code": "13580"
  },
  {
    "name": "Fontvieille",
    "code": "13038",
    "epci_code": "241300375",
    "departement_code": "13",
    "region_code": "93",
    "postal_code": "13990"
  },
  {
    "name": "Fos-sur-Mer",
    "code": "13039",
    "epci_code": "200054807",
    "departement_code": "13",
    "region_code": "93",
    "postal_code": "13270"
  },
  {
    "name": "Fuveau",
    "code": "13040",
    "epci_code": "200054807",
    "departement_code": "13",
    "region_code": "93",
    "postal_code": "13710"
  },
  {
    "name": "Gardanne",
    "code": "13041",
    "epci_code": "200054807",
    "departement_code": "13",
    "region_code": "93",
    "postal_code": "13120"
  },
  {
    "name": "Gémenos",
    "code": "13042",
    "epci_code": "200054807",
    "departement_code": "13",
    "region_code": "93",
    "postal_code": "13420"
  },
  {
    "name": "Gignac-la-Nerthe",
    "code": "13043",
    "epci_code": "200054807",
    "departement_code": "13",
    "region_code": "93",
    "postal_code": "13180"
  },
  {
    "name": "Grans",
    "code": "13044",
    "epci_code": "200054807",
    "departement_code": "13",
    "region_code": "93",
    "postal_code": "13450"
  },
  {
    "name": "Graveson",
    "code": "13045",
    "epci_code": "200035087",
    "departement_code": "13",
    "region_code": "93",
    "postal_code": "13690"
  },
  {
    "name": "Gréasque",
    "code": "13046",
    "epci_code": "200054807",
    "departement_code": "13",
    "region_code": "93",
    "postal_code": "13850"
  },
  {
    "name": "Istres",
    "code": "13047",
    "epci_code": "200054807",
    "departement_code": "13",
    "region_code": "93",
    "postal_code": "13118"
  },
  {
    "name": "Istres",
    "code": "13047",
    "epci_code": "200054807",
    "departement_code": "13",
    "region_code": "93",
    "postal_code": "13800"
  },
  {
    "name": "Jouques",
    "code": "13048",
    "epci_code": "200054807",
    "departement_code": "13",
    "region_code": "93",
    "postal_code": "13490"
  },
  {
    "name": "Lamanon",
    "code": "13049",
    "epci_code": "200054807",
    "departement_code": "13",
    "region_code": "93",
    "postal_code": "13113"
  },
  {
    "name": "Lambesc",
    "code": "13050",
    "epci_code": "200054807",
    "departement_code": "13",
    "region_code": "93",
    "postal_code": "13410"
  },
  {
    "name": "Lançon-Provence",
    "code": "13051",
    "epci_code": "200054807",
    "departement_code": "13",
    "region_code": "93",
    "postal_code": "13680"
  },
  {
    "name": "Maillane",
    "code": "13052",
    "epci_code": "200035087",
    "departement_code": "13",
    "region_code": "93",
    "postal_code": "13910"
  },
  {
    "name": "Mallemort",
    "code": "13053",
    "epci_code": "200054807",
    "departement_code": "13",
    "region_code": "93",
    "postal_code": "13370"
  },
  {
    "name": "Marignane",
    "code": "13054",
    "epci_code": "200054807",
    "departement_code": "13",
    "region_code": "93",
    "postal_code": "13700"
  },
  {
    "name": "Marseille",
    "code": "13055",
    "epci_code": "200054807",
    "departement_code": "13",
    "region_code": "93",
    "postal_code": "13001"
  },
  {
    "name": "Marseille",
    "code": "13055",
    "epci_code": "200054807",
    "departement_code": "13",
    "region_code": "93",
    "postal_code": "13002"
  },
  {
    "name": "Marseille",
    "code": "13055",
    "epci_code": "200054807",
    "departement_code": "13",
    "region_code": "93",
    "postal_code": "13003"
  },
  {
    "name": "Marseille",
    "code": "13055",
    "epci_code": "200054807",
    "departement_code": "13",
    "region_code": "93",
    "postal_code": "13004"
  },
  {
    "name": "Marseille",
    "code": "13055",
    "epci_code": "200054807",
    "departement_code": "13",
    "region_code": "93",
    "postal_code": "13005"
  },
  {
    "name": "Marseille",
    "code": "13055",
    "epci_code": "200054807",
    "departement_code": "13",
    "region_code": "93",
    "postal_code": "13006"
  },
  {
    "name": "Marseille",
    "code": "13055",
    "epci_code": "200054807",
    "departement_code": "13",
    "region_code": "93",
    "postal_code": "13007"
  },
  {
    "name": "Marseille",
    "code": "13055",
    "epci_code": "200054807",
    "departement_code": "13",
    "region_code": "93",
    "postal_code": "13008"
  },
  {
    "name": "Marseille",
    "code": "13055",
    "epci_code": "200054807",
    "departement_code": "13",
    "region_code": "93",
    "postal_code": "13009"
  },
  {
    "name": "Marseille",
    "code": "13055",
    "epci_code": "200054807",
    "departement_code": "13",
    "region_code": "93",
    "postal_code": "13010"
  },
  {
    "name": "Marseille",
    "code": "13055",
    "epci_code": "200054807",
    "departement_code": "13",
    "region_code": "93",
    "postal_code": "13011"
  },
  {
    "name": "Marseille",
    "code": "13055",
    "epci_code": "200054807",
    "departement_code": "13",
    "region_code": "93",
    "postal_code": "13012"
  },
  {
    "name": "Marseille",
    "code": "13055",
    "epci_code": "200054807",
    "departement_code": "13",
    "region_code": "93",
    "postal_code": "13013"
  },
  {
    "name": "Marseille",
    "code": "13055",
    "epci_code": "200054807",
    "departement_code": "13",
    "region_code": "93",
    "postal_code": "13014"
  },
  {
    "name": "Marseille",
    "code": "13055",
    "epci_code": "200054807",
    "departement_code": "13",
    "region_code": "93",
    "postal_code": "13015"
  },
  {
    "name": "Marseille",
    "code": "13055",
    "epci_code": "200054807",
    "departement_code": "13",
    "region_code": "93",
    "postal_code": "13016"
  },
  {
    "name": "Martigues",
    "code": "13056",
    "epci_code": "200054807",
    "departement_code": "13",
    "region_code": "93",
    "postal_code": "13500"
  },
  {
    "name": "Martigues",
    "code": "13056",
    "epci_code": "200054807",
    "departement_code": "13",
    "region_code": "93",
    "postal_code": "13117"
  },
  {
    "name": "Mas-Blanc-des-Alpilles",
    "code": "13057",
    "epci_code": "241300375",
    "departement_code": "13",
    "region_code": "93",
    "postal_code": "13103"
  },
  {
    "name": "Maussane-les-Alpilles",
    "code": "13058",
    "epci_code": "241300375",
    "departement_code": "13",
    "region_code": "93",
    "postal_code": "13520"
  },
  {
    "name": "Meyrargues",
    "code": "13059",
    "epci_code": "200054807",
    "departement_code": "13",
    "region_code": "93",
    "postal_code": "13650"
  },
  {
    "name": "Meyreuil",
    "code": "13060",
    "epci_code": "200054807",
    "departement_code": "13",
    "region_code": "93",
    "postal_code": "13590"
  },
  {
    "name": "Saint-Pierre-de-Mézoargues",
    "code": "13061",
    "epci_code": "241300417",
    "departement_code": "13",
    "region_code": "93",
    "postal_code": "13150"
  },
  {
    "name": "Mimet",
    "code": "13062",
    "epci_code": "200054807",
    "departement_code": "13",
    "region_code": "93",
    "postal_code": "13105"
  },
  {
    "name": "Miramas",
    "code": "13063",
    "epci_code": "200054807",
    "departement_code": "13",
    "region_code": "93",
    "postal_code": "13140"
  },
  {
    "name": "Mollégès",
    "code": "13064",
    "epci_code": "200035087",
    "departement_code": "13",
    "region_code": "93",
    "postal_code": "13940"
  },
  {
    "name": "Mouriès",
    "code": "13065",
    "epci_code": "241300375",
    "departement_code": "13",
    "region_code": "93",
    "postal_code": "13890"
  },
  {
    "name": "Noves",
    "code": "13066",
    "epci_code": "200035087",
    "departement_code": "13",
    "region_code": "93",
    "postal_code": "13550"
  },
  {
    "name": "Orgon",
    "code": "13067",
    "epci_code": "200035087",
    "departement_code": "13",
    "region_code": "93",
    "postal_code": "13660"
  },
  {
    "name": "Paradou",
    "code": "13068",
    "epci_code": "241300375",
    "departement_code": "13",
    "region_code": "93",
    "postal_code": "13520"
  },
  {
    "name": "Pélissanne",
    "code": "13069",
    "epci_code": "200054807",
    "departement_code": "13",
    "region_code": "93",
    "postal_code": "13330"
  },
  {
    "name": "La Penne-sur-Huveaune",
    "code": "13070",
    "epci_code": "200054807",
    "departement_code": "13",
    "region_code": "93",
    "postal_code": "13821"
  },
  {
    "name": "Les Pennes-Mirabeau",
    "code": "13071",
    "epci_code": "200054807",
    "departement_code": "13",
    "region_code": "93",
    "postal_code": "13170"
  },
  {
    "name": "Peynier",
    "code": "13072",
    "epci_code": "200054807",
    "departement_code": "13",
    "region_code": "93",
    "postal_code": "13790"
  },
  {
    "name": "Peypin",
    "code": "13073",
    "epci_code": "200054807",
    "departement_code": "13",
    "region_code": "93",
    "postal_code": "13124"
  },
  {
    "name": "Peyrolles-en-Provence",
    "code": "13074",
    "epci_code": "200054807",
    "departement_code": "13",
    "region_code": "93",
    "postal_code": "13860"
  },
  {
    "name": "Plan-de-Cuques",
    "code": "13075",
    "epci_code": "200054807",
    "departement_code": "13",
    "region_code": "93",
    "postal_code": "13380"
  },
  {
    "name": "Plan-d’Orgon",
    "code": "13076",
    "epci_code": "200035087",
    "departement_code": "13",
    "region_code": "93",
    "postal_code": "13750"
  },
  {
    "name": "Port-de-Bouc",
    "code": "13077",
    "epci_code": "200054807",
    "departement_code": "13",
    "region_code": "93",
    "postal_code": "13110"
  },
  {
    "name": "Port-Saint-Louis-du-Rhône",
    "code": "13078",
    "epci_code": "200054807",
    "departement_code": "13",
    "region_code": "93",
    "postal_code": "13230"
  },
  {
    "name": "Puyloubier",
    "code": "13079",
    "epci_code": "200054807",
    "departement_code": "13",
    "region_code": "93",
    "postal_code": "13114"
  },
  {
    "name": "Le Puy-Sainte-Réparade",
    "code": "13080",
    "epci_code": "200054807",
    "departement_code": "13",
    "region_code": "93",
    "postal_code": "13610"
  },
  {
    "name": "Rognac",
    "code": "13081",
    "epci_code": "200054807",
    "departement_code": "13",
    "region_code": "93",
    "postal_code": "13340"
  },
  {
    "name": "Rognes",
    "code": "13082",
    "epci_code": "200054807",
    "departement_code": "13",
    "region_code": "93",
    "postal_code": "13840"
  },
  {
    "name": "Rognonas",
    "code": "13083",
    "epci_code": "200035087",
    "departement_code": "13",
    "region_code": "93",
    "postal_code": "13870"
  },
  {
    "name": "La Roque-d’Anthéron",
    "code": "13084",
    "epci_code": "200054807",
    "departement_code": "13",
    "region_code": "93",
    "postal_code": "13640"
  },
  {
    "name": "Roquefort-la-Bédoule",
    "code": "13085",
    "epci_code": "200054807",
    "departement_code": "13",
    "region_code": "93",
    "postal_code": "13830"
  },
  {
    "name": "Roquevaire",
    "code": "13086",
    "epci_code": "200054807",
    "departement_code": "13",
    "region_code": "93",
    "postal_code": "13360"
  },
  {
    "name": "Rousset",
    "code": "13087",
    "epci_code": "200054807",
    "departement_code": "13",
    "region_code": "93",
    "postal_code": "13790"
  },
  {
    "name": "Le Rove",
    "code": "13088",
    "epci_code": "200054807",
    "departement_code": "13",
    "region_code": "93",
    "postal_code": "13740"
  },
  {
    "name": "Saint-Andiol",
    "code": "13089",
    "epci_code": "200035087",
    "departement_code": "13",
    "region_code": "93",
    "postal_code": "13670"
  },
  {
    "name": "Saint-Antonin-sur-Bayon",
    "code": "13090",
    "epci_code": "200054807",
    "departement_code": "13",
    "region_code": "93",
    "postal_code": "13100"
  },
  {
    "name": "Saint-Cannat",
    "code": "13091",
    "epci_code": "200054807",
    "departement_code": "13",
    "region_code": "93",
    "postal_code": "13760"
  },
  {
    "name": "Saint-Chamas",
    "code": "13092",
    "epci_code": "200054807",
    "departement_code": "13",
    "region_code": "93",
    "postal_code": "13250"
  },
  {
    "name": "Saint-Estève-Janson",
    "code": "13093",
    "epci_code": "200054807",
    "departement_code": "13",
    "region_code": "93",
    "postal_code": "13610"
  },
  {
    "name": "Saint-Étienne-du-Grès",
    "code": "13094",
    "epci_code": "241300375",
    "departement_code": "13",
    "region_code": "93",
    "postal_code": "13103"
  },
  {
    "name": "Saint-Marc-Jaumegarde",
    "code": "13095",
    "epci_code": "200054807",
    "departement_code": "13",
    "region_code": "93",
    "postal_code": "13100"
  },
  {
    "name": "Saintes-Maries-de-la-Mer",
    "code": "13096",
    "epci_code": "241300417",
    "departement_code": "13",
    "region_code": "93",
    "postal_code": "13460"
  },
  {
    "name": "Saint-Martin-de-Crau",
    "code": "13097",
    "epci_code": "241300417",
    "departement_code": "13",
    "region_code": "93",
    "postal_code": "13310"
  },
  {
    "name": "Saint-Mitre-les-Remparts",
    "code": "13098",
    "epci_code": "200054807",
    "departement_code": "13",
    "region_code": "93",
    "postal_code": "13920"
  },
  {
    "name": "Saint-Paul-lès-Durance",
    "code": "13099",
    "epci_code": "200054807",
    "departement_code": "13",
    "region_code": "93",
    "postal_code": "13115"
  },
  {
    "name": "Saint-Rémy-de-Provence",
    "code": "13100",
    "epci_code": "241300375",
    "departement_code": "13",
    "region_code": "93",
    "postal_code": "13210"
  },
  {
    "name": "Saint-Savournin",
    "code": "13101",
    "epci_code": "200054807",
    "departement_code": "13",
    "region_code": "93",
    "postal_code": "13119"
  },
  {
    "name": "Saint-Victoret",
    "code": "13102",
    "epci_code": "200054807",
    "departement_code": "13",
    "region_code": "93",
    "postal_code": "13730"
  },
  {
    "name": "Salon-de-Provence",
    "code": "13103",
    "epci_code": "200054807",
    "departement_code": "13",
    "region_code": "93",
    "postal_code": "13300"
  },
  {
    "name": "Sausset-les-Pins",
    "code": "13104",
    "epci_code": "200054807",
    "departement_code": "13",
    "region_code": "93",
    "postal_code": "13960"
  },
  {
    "name": "Sénas",
    "code": "13105",
    "epci_code": "200054807",
    "departement_code": "13",
    "region_code": "93",
    "postal_code": "13560"
  },
  {
    "name": "Septèmes-les-Vallons",
    "code": "13106",
    "epci_code": "200054807",
    "departement_code": "13",
    "region_code": "93",
    "postal_code": "13240"
  },
  {
    "name": "Simiane-Collongue",
    "code": "13107",
    "epci_code": "200054807",
    "departement_code": "13",
    "region_code": "93",
    "postal_code": "13109"
  },
  {
    "name": "Tarascon",
    "code": "13108",
    "epci_code": "241300417",
    "departement_code": "13",
    "region_code": "93",
    "postal_code": "13150"
  },
  {
    "name": "Le Tholonet",
    "code": "13109",
    "epci_code": "200054807",
    "departement_code": "13",
    "region_code": "93",
    "postal_code": "13100"
  },
  {
    "name": "Trets",
    "code": "13110",
    "epci_code": "200054807",
    "departement_code": "13",
    "region_code": "93",
    "postal_code": "13530"
  },
  {
    "name": "Vauvenargues",
    "code": "13111",
    "epci_code": "200054807",
    "departement_code": "13",
    "region_code": "93",
    "postal_code": "13126"
  },
  {
    "name": "Velaux",
    "code": "13112",
    "epci_code": "200054807",
    "departement_code": "13",
    "region_code": "93",
    "postal_code": "13880"
  },
  {
    "name": "Venelles",
    "code": "13113",
    "epci_code": "200054807",
    "departement_code": "13",
    "region_code": "93",
    "postal_code": "13770"
  },
  {
    "name": "Ventabren",
    "code": "13114",
    "epci_code": "200054807",
    "departement_code": "13",
    "region_code": "93",
    "postal_code": "13122"
  },
  {
    "name": "Vernègues",
    "code": "13115",
    "epci_code": "200054807",
    "departement_code": "13",
    "region_code": "93",
    "postal_code": "13116"
  },
  {
    "name": "Verquières",
    "code": "13116",
    "epci_code": "200035087",
    "departement_code": "13",
    "region_code": "93",
    "postal_code": "13670"
  },
  {
    "name": "Vitrolles",
    "code": "13117",
    "epci_code": "200054807",
    "departement_code": "13",
    "region_code": "93",
    "postal_code": "13127"
  },
  {
    "name": "Coudoux",
    "code": "13118",
    "epci_code": "200054807",
    "departement_code": "13",
    "region_code": "93",
    "postal_code": "13111"
  },
  {
    "name": "Carnoux-en-Provence",
    "code": "13119",
    "epci_code": "200054807",
    "departement_code": "13",
    "region_code": "93",
    "postal_code": "13470"
  },
  {
    "name": "Marseille 1er Arrondissement",
    "code": "13201",
    "departement_code": "13",
    "region_code": "93",
    "postal_code": "13001"
  },
  {
    "name": "Marseille 2e Arrondissement",
    "code": "13202",
    "departement_code": "13",
    "region_code": "93",
    "postal_code": "13002"
  },
  {
    "name": "Marseille 3e Arrondissement",
    "code": "13203",
    "departement_code": "13",
    "region_code": "93",
    "postal_code": "13003"
  },
  {
    "name": "Marseille 4e Arrondissement",
    "code": "13204",
    "departement_code": "13",
    "region_code": "93",
    "postal_code": "13004"
  },
  {
    "name": "Marseille 5e Arrondissement",
    "code": "13205",
    "departement_code": "13",
    "region_code": "93",
    "postal_code": "13005"
  },
  {
    "name": "Marseille 6e Arrondissement",
    "code": "13206",
    "departement_code": "13",
    "region_code": "93",
    "postal_code": "13006"
  },
  {
    "name": "Marseille 7e Arrondissement",
    "code": "13207",
    "departement_code": "13",
    "region_code": "93",
    "postal_code": "13007"
  },
  {
    "name": "Marseille 8e Arrondissement",
    "code": "13208",
    "departement_code": "13",
    "region_code": "93",
    "postal_code": "13008"
  },
  {
    "name": "Marseille 9e Arrondissement",
    "code": "13209",
    "departement_code": "13",
    "region_code": "93",
    "postal_code": "13009"
  },
  {
    "name": "Marseille 10e Arrondissement",
    "code": "13210",
    "departement_code": "13",
    "region_code": "93",
    "postal_code": "13010"
  },
  {
    "name": "Marseille 11e Arrondissement",
    "code": "13211",
    "departement_code": "13",
    "region_code": "93",
    "postal_code": "13011"
  },
  {
    "name": "Marseille 12e Arrondissement",
    "code": "13212",
    "departement_code": "13",
    "region_code": "93",
    "postal_code": "13012"
  },
  {
    "name": "Marseille 13e Arrondissement",
    "code": "13213",
    "departement_code": "13",
    "region_code": "93",
    "postal_code": "13013"
  },
  {
    "name": "Marseille 14e Arrondissement",
    "code": "13214",
    "departement_code": "13",
    "region_code": "93",
    "postal_code": "13014"
  },
  {
    "name": "Marseille 15e Arrondissement",
    "code": "13215",
    "departement_code": "13",
    "region_code": "93",
    "postal_code": "13015"
  },
  {
    "name": "Marseille 16e Arrondissement",
    "code": "13216",
    "departement_code": "13",
    "region_code": "93",
    "postal_code": "13016"
  }
]