[
  {
    "name": "Aigues-Vives",
    "code": "11001",
    "epci_code": "200035715",
    "departement_code": "11",
    "region_code": "76",
    "postal_code": "11800"
  },
  {
    "name": "Airoux",
    "code": "11002",
    "epci_code": "200035855",
    "departement_code": "11",
    "region_code": "76",
    "postal_code": "11320"
  },
  {
    "name": "Ajac",
    "code": "11003",
    "epci_code": "200071926",
    "departement_code": "11",
    "region_code": "76",
    "postal_code": "11300"
  },
  {
    "name": "Alaigne",
    "code": "11004",
    "epci_code": "200071926",
    "departement_code": "11",
    "region_code": "76",
    "postal_code": "11240"
  },
  {
    "name": "Alairac",
    "code": "11005",
    "epci_code": "200035715",
    "departement_code": "11",
    "region_code": "76",
    "postal_code": "11290"
  },
  {
    "name": "Albas",
    "code": "11006",
    "epci_code": "200035863",
    "departement_code": "11",
    "region_code": "76",
    "postal_code": "11360"
  },
  {
    "name": "Albières",
    "code": "11007",
    "epci_code": "200035863",
    "departement_code": "11",
    "region_code": "76",
    "postal_code": "11330"
  },
  {
    "name": "Alet-les-Bains",
    "code": "11008",
    "epci_code": "200071926",
    "departement_code": "11",
    "region_code": "76",
    "postal_code": "11580"
  },
  {
    "name": "Alzonne",
    "code": "11009",
    "epci_code": "200035715",
    "departement_code": "11",
    "region_code": "76",
    "postal_code": "11170"
  },
  {
    "name": "Antugnac",
    "code": "11010",
    "epci_code": "200071926",
    "departement_code": "11",
    "region_code": "76",
    "postal_code": "11190"
  },
  {
    "name": "Aragon",
    "code": "11011",
    "epci_code": "200035715",
    "departement_code": "11",
    "region_code": "76",
    "postal_code": "11600"
  },
  {
    "name": "Argeliers",
    "code": "11012",
    "epci_code": "241100593",
    "departement_code": "11",
    "region_code": "76",
    "postal_code": "11120"
  },
  {
    "name": "Argens-Minervois",
    "code": "11013",
    "epci_code": "200035863",
    "departement_code": "11",
    "region_code": "76",
    "postal_code": "11200"
  },
  {
    "name": "Armissan",
    "code": "11014",
    "epci_code": "241100593",
    "departement_code": "11",
    "region_code": "76",
    "postal_code": "11110"
  },
  {
    "name": "Arques",
    "code": "11015",
    "epci_code": "200071926",
    "departement_code": "11",
    "region_code": "76",
    "postal_code": "11190"
  },
  {
    "name": "Arquettes-en-Val",
    "code": "11016",
    "epci_code": "200035715",
    "departement_code": "11",
    "region_code": "76",
    "postal_code": "11220"
  },
  {
    "name": "Artigues",
    "code": "11017",
    "epci_code": "200043776",
    "departement_code": "11",
    "region_code": "76",
    "postal_code": "11140"
  },
  {
    "name": "Arzens",
    "code": "11018",
    "epci_code": "200035715",
    "departement_code": "11",
    "region_code": "76",
    "postal_code": "11290"
  },
  {
    "name": "Aunat",
    "code": "11019",
    "epci_code": "200043776",
    "departement_code": "11",
    "region_code": "76",
    "postal_code": "11140"
  },
  {
    "name": "Auriac",
    "code": "11020",
    "epci_code": "200035863",
    "departement_code": "11",
    "region_code": "76",
    "postal_code": "11330"
  },
  {
    "name": "Axat",
    "code": "11021",
    "epci_code": "200043776",
    "departement_code": "11",
    "region_code": "76",
    "postal_code": "11140"
  },
  {
    "name": "Azille",
    "code": "11022",
    "epci_code": "200035715",
    "departement_code": "11",
    "region_code": "76",
    "postal_code": "11700"
  },
  {
    "name": "Badens",
    "code": "11023",
    "epci_code": "200035715",
    "departement_code": "11",
    "region_code": "76",
    "postal_code": "11800"
  },
  {
    "name": "Bages",
    "code": "11024",
    "epci_code": "241100593",
    "departement_code": "11",
    "region_code": "76",
    "postal_code": "11100"
  },
  {
    "name": "Bagnoles",
    "code": "11025",
    "epci_code": "200035715",
    "departement_code": "11",
    "region_code": "76",
    "postal_code": "11600"
  },
  {
    "name": "Baraigne",
    "code": "11026",
    "epci_code": "200035855",
    "departement_code": "11",
    "region_code": "76",
    "postal_code": "11410"
  },
  {
    "name": "Barbaira",
    "code": "11027",
    "epci_code": "200035715",
    "departement_code": "11",
    "region_code": "76",
    "postal_code": "11800"
  },
  {
    "name": "Belcaire",
    "code": "11028",
    "epci_code": "200043776",
    "departement_code": "11",
    "region_code": "76",
    "postal_code": "11340"
  },
  {
    "name": "Belcastel-et-Buc",
    "code": "11029",
    "epci_code": "200071926",
    "departement_code": "11",
    "region_code": "76",
    "postal_code": "11580"
  },
  {
    "name": "Belflou",
    "code": "11030",
    "epci_code": "200035855",
    "departement_code": "11",
    "region_code": "76",
    "postal_code": "11410"
  },
  {
    "name": "Belfort-sur-Rebenty",
    "code": "11031",
    "epci_code": "200043776",
    "departement_code": "11",
    "region_code": "76",
    "postal_code": "11140"
  },
  {
    "name": "Bellegarde-du-Razès",
    "code": "11032",
    "epci_code": "200071926",
    "departement_code": "11",
    "region_code": "76",
    "postal_code": "11240"
  },
  {
    "name": "Belpech",
    "code": "11033",
    "epci_code": "200035707",
    "departement_code": "11",
    "region_code": "76",
    "postal_code": "11420"
  },
  {
    "name": "Belvèze-du-Razès",
    "code": "11034",
    "epci_code": "200071926",
    "departement_code": "11",
    "region_code": "76",
    "postal_code": "11240"
  },
  {
    "name": "Belvianes-et-Cavirac",
    "code": "11035",
    "epci_code": "200043776",
    "departement_code": "11",
    "region_code": "76",
    "postal_code": "11500"
  },
  {
    "name": "Belvis",
    "code": "11036",
    "epci_code": "200043776",
    "departement_code": "11",
    "region_code": "76",
    "postal_code": "11340"
  },
  {
    "name": "Berriac",
    "code": "11037",
    "epci_code": "200035715",
    "departement_code": "11",
    "region_code": "76",
    "postal_code": "11000"
  },
  {
    "name": "Bessède-de-Sault",
    "code": "11038",
    "epci_code": "200043776",
    "departement_code": "11",
    "region_code": "76",
    "postal_code": "11140"
  },
  {
    "name": "La Bezole",
    "code": "11039",
    "epci_code": "200071926",
    "departement_code": "11",
    "region_code": "76",
    "postal_code": "11300"
  },
  {
    "name": "Bizanet",
    "code": "11040",
    "epci_code": "241100593",
    "departement_code": "11",
    "region_code": "76",
    "postal_code": "11200"
  },
  {
    "name": "Bize-Minervois",
    "code": "11041",
    "epci_code": "241100593",
    "departement_code": "11",
    "region_code": "76",
    "postal_code": "11120"
  },
  {
    "name": "Blomac",
    "code": "11042",
    "epci_code": "200035715",
    "departement_code": "11",
    "region_code": "76",
    "postal_code": "11700"
  },
  {
    "name": "Bouilhonnac",
    "code": "11043",
    "epci_code": "200035715",
    "departement_code": "11",
    "region_code": "76",
    "postal_code": "11800"
  },
  {
    "name": "Bouisse",
    "code": "11044",
    "epci_code": "200035863",
    "departement_code": "11",
    "region_code": "76",
    "postal_code": "11330"
  },
  {
    "name": "Bouriège",
    "code": "11045",
    "epci_code": "200071926",
    "departement_code": "11",
    "region_code": "76",
    "postal_code": "11300"
  },
  {
    "name": "Bourigeole",
    "code": "11046",
    "epci_code": "200071926",
    "departement_code": "11",
    "region_code": "76",
    "postal_code": "11300"
  },
  {
    "name": "Le Bousquet",
    "code": "11047",
    "epci_code": "200043776",
    "departement_code": "11",
    "region_code": "76",
    "postal_code": "11140"
  },
  {
    "name": "Boutenac",
    "code": "11048",
    "epci_code": "200035863",
    "departement_code": "11",
    "region_code": "76",
    "postal_code": "11200"
  },
  {
    "name": "Bram",
    "code": "11049",
    "epci_code": "200035707",
    "departement_code": "11",
    "region_code": "76",
    "postal_code": "11150"
  },
  {
    "name": "Brézilhac",
    "code": "11051",
    "epci_code": "200035707",
    "departement_code": "11",
    "region_code": "76",
    "postal_code": "11270"
  },
  {
    "name": "Brousses-et-Villaret",
    "code": "11052",
    "epci_code": "200042463",
    "departement_code": "11",
    "region_code": "76",
    "postal_code": "11390"
  },
  {
    "name": "Brugairolles",
    "code": "11053",
    "epci_code": "200071926",
    "departement_code": "11",
    "region_code": "76",
    "postal_code": "11300"
  },
  {
    "name": "Les Brunels",
    "code": "11054",
    "epci_code": "243100567",
    "departement_code": "11",
    "region_code": "76",
    "postal_code": "11400"
  },
  {
    "name": "Bugarach",
    "code": "11055",
    "epci_code": "200071926",
    "departement_code": "11",
    "region_code": "76",
    "postal_code": "11190"
  },
  {
    "name": "Cabrespine",
    "code": "11056",
    "epci_code": "200035715",
    "departement_code": "11",
    "region_code": "76",
    "postal_code": "11160"
  },
  {
    "name": "Cahuzac",
    "code": "11057",
    "epci_code": "200035707",
    "departement_code": "11",
    "region_code": "76",
    "postal_code": "11420"
  },
  {
    "name": "Cailhau",
    "code": "11058",
    "epci_code": "200071926",
    "departement_code": "11",
    "region_code": "76",
    "postal_code": "11240"
  },
  {
    "name": "Cailhavel",
    "code": "11059",
    "epci_code": "200071926",
    "departement_code": "11",
    "region_code": "76",
    "postal_code": "11240"
  },
  {
    "name": "Cailla",
    "code": "11060",
    "epci_code": "200043776",
    "departement_code": "11",
    "region_code": "76",
    "postal_code": "11140"
  },
  {
    "name": "Cambieure",
    "code": "11061",
    "epci_code": "200071926",
    "departement_code": "11",
    "region_code": "76",
    "postal_code": "11240"
  },
  {
    "name": "Campagna-de-Sault",
    "code": "11062",
    "epci_code": "200043776",
    "departement_code": "11",
    "region_code": "76",
    "postal_code": "11140"
  },
  {
    "name": "Campagne-sur-Aude",
    "code": "11063",
    "epci_code": "200043776",
    "departement_code": "11",
    "region_code": "76",
    "postal_code": "11260"
  },
  {
    "name": "Camplong-d’Aude",
    "code": "11064",
    "epci_code": "200035863",
    "departement_code": "11",
    "region_code": "76",
    "postal_code": "11200"
  },
  {
    "name": "Camps-sur-l’Agly",
    "code": "11065",
    "epci_code": "200071926",
    "departement_code": "11",
    "region_code": "76",
    "postal_code": "11190"
  },
  {
    "name": "Camurac",
    "code": "11066",
    "epci_code": "200043776",
    "departement_code": "11",
    "region_code": "76",
    "postal_code": "11340"
  },
  {
    "name": "Canet",
    "code": "11067",
    "epci_code": "200035863",
    "departement_code": "11",
    "region_code": "76",
    "postal_code": "11200"
  },
  {
    "name": "Capendu",
    "code": "11068",
    "epci_code": "200035715",
    "departement_code": "11",
    "region_code": "76",
    "postal_code": "11700"
  },
  {
    "name": "Carcassonne",
    "code": "11069",
    "epci_code": "200035715",
    "departement_code": "11",
    "region_code": "76",
    "postal_code": "11000"
  },
  {
    "name": "Carlipa",
    "code": "11070",
    "epci_code": "200035707",
    "departement_code": "11",
    "region_code": "76",
    "postal_code": "11170"
  },
  {
    "name": "Cascastel-des-Corbières",
    "code": "11071",
    "epci_code": "200035863",
    "departement_code": "11",
    "region_code": "76",
    "postal_code": "11360"
  },
  {
    "name": "La Cassaigne",
    "code": "11072",
    "epci_code": "200035707",
    "departement_code": "11",
    "region_code": "76",
    "postal_code": "11270"
  },
  {
    "name": "Cassaignes",
    "code": "11073",
    "epci_code": "200071926",
    "departement_code": "11",
    "region_code": "76",
    "postal_code": "11190"
  },
  {
    "name": "Les Cassés",
    "code": "11074",
    "epci_code": "200035855",
    "departement_code": "11",
    "region_code": "76",
    "postal_code": "11320"
  },
  {
    "name": "Castans",
    "code": "11075",
    "epci_code": "200035715",
    "departement_code": "11",
    "region_code": "76",
    "postal_code": "11160"
  },
  {
    "name": "Castelnaudary",
    "code": "11076",
    "epci_code": "200035855",
    "departement_code": "11",
    "region_code": "76",
    "postal_code": "11400"
  },
  {
    "name": "Castelnau-d’Aude",
    "code": "11077",
    "epci_code": "200035863",
    "departement_code": "11",
    "region_code": "76",
    "postal_code": "11700"
  },
  {
    "name": "Castelreng",
    "code": "11078",
    "epci_code": "200071926",
    "departement_code": "11",
    "region_code": "76",
    "postal_code": "11300"
  },
  {
    "name": "Caudebronde",
    "code": "11079",
    "epci_code": "200042463",
    "departement_code": "11",
    "region_code": "76",
    "postal_code": "11390"
  },
  {
    "name": "Val de Lambronne",
    "code": "11080",
    "epci_code": "200043776",
    "departement_code": "11",
    "region_code": "76",
    "postal_code": "11230"
  },
  {
    "name": "Caunes-Minervois",
    "code": "11081",
    "epci_code": "200035715",
    "departement_code": "11",
    "region_code": "76",
    "postal_code": "11160"
  },
  {
    "name": "Caunette-sur-Lauquet",
    "code": "11082",
    "epci_code": "200071926",
    "departement_code": "11",
    "region_code": "76",
    "postal_code": "11250"
  },
  {
    "name": "Caunettes-en-Val",
    "code": "11083",
    "epci_code": "200035715",
    "departement_code": "11",
    "region_code": "76",
    "postal_code": "11220"
  },
  {
    "name": "Caux-et-Sauzens",
    "code": "11084",
    "epci_code": "200035715",
    "departement_code": "11",
    "region_code": "76",
    "postal_code": "11170"
  },
  {
    "name": "Cavanac",
    "code": "11085",
    "epci_code": "200035715",
    "departement_code": "11",
    "region_code": "76",
    "postal_code": "11570"
  },
  {
    "name": "Caves",
    "code": "11086",
    "epci_code": "241100593",
    "departement_code": "11",
    "region_code": "76",
    "postal_code": "11510"
  },
  {
    "name": "Cazalrenoux",
    "code": "11087",
    "epci_code": "200035707",
    "departement_code": "11",
    "region_code": "76",
    "postal_code": "11270"
  },
  {
    "name": "Cazilhac",
    "code": "11088",
    "epci_code": "200035715",
    "departement_code": "11",
    "region_code": "76",
    "postal_code": "11570"
  },
  {
    "name": "Cenne-Monestiés",
    "code": "11089",
    "epci_code": "200035707",
    "departement_code": "11",
    "region_code": "76",
    "postal_code": "11170"
  },
  {
    "name": "Cépie",
    "code": "11090",
    "epci_code": "200071926",
    "departement_code": "11",
    "region_code": "76",
    "postal_code": "11300"
  },
  {
    "name": "Chalabre",
    "code": "11091",
    "epci_code": "200043776",
    "departement_code": "11",
    "region_code": "76",
    "postal_code": "11230"
  },
  {
    "name": "Citou",
    "code": "11092",
    "epci_code": "200035715",
    "departement_code": "11",
    "region_code": "76",
    "postal_code": "11160"
  },
  {
    "name": "Le Clat",
    "code": "11093",
    "epci_code": "200043776",
    "departement_code": "11",
    "region_code": "76",
    "postal_code": "11140"
  },
  {
    "name": "Clermont-sur-Lauquet",
    "code": "11094",
    "epci_code": "200071926",
    "departement_code": "11",
    "region_code": "76",
    "postal_code": "11250"
  },
  {
    "name": "Comigne",
    "code": "11095",
    "epci_code": "200035715",
    "departement_code": "11",
    "region_code": "76",
    "postal_code": "11700"
  },
  {
    "name": "Comus",
    "code": "11096",
    "epci_code": "200043776",
    "departement_code": "11",
    "region_code": "76",
    "postal_code": "11340"
  },
  {
    "name": "Conilhac-Corbières",
    "code": "11098",
    "epci_code": "200035863",
    "departement_code": "11",
    "region_code": "76",
    "postal_code": "11200"
  },
  {
    "name": "Conques-sur-Orbiel",
    "code": "11099",
    "epci_code": "200035715",
    "departement_code": "11",
    "region_code": "76",
    "postal_code": "11600"
  },
  {
    "name": "Corbières",
    "code": "11100",
    "epci_code": "200043776",
    "departement_code": "11",
    "region_code": "76",
    "postal_code": "11230"
  },
  {
    "name": "Coudons",
    "code": "11101",
    "epci_code": "200043776",
    "departement_code": "11",
    "region_code": "76",
    "postal_code": "11500"
  },
  {
    "name": "Couffoulens",
    "code": "11102",
    "epci_code": "200035715",
    "departement_code": "11",
    "region_code": "76",
    "postal_code": "11250"
  },
  {
    "name": "Couiza",
    "code": "11103",
    "epci_code": "200071926",
    "departement_code": "11",
    "region_code": "76",
    "postal_code": "11190"
  },
  {
    "name": "Counozouls",
    "code": "11104",
    "epci_code": "200043776",
    "departement_code": "11",
    "region_code": "76",
    "postal_code": "11140"
  },
  {
    "name": "Cournanel",
    "code": "11105",
    "epci_code": "200071926",
    "departement_code": "11",
    "region_code": "76",
    "postal_code": "11300"
  },
  {
    "name": "Coursan",
    "code": "11106",
    "epci_code": "241100593",
    "departement_code": "11",
    "region_code": "76",
    "postal_code": "11110"
  },
  {
    "name": "Courtauly",
    "code": "11107",
    "epci_code": "200043776",
    "departement_code": "11",
    "region_code": "76",
    "postal_code": "11230"
  },
  {
    "name": "La Courtète",
    "code": "11108",
    "epci_code": "200071926",
    "departement_code": "11",
    "region_code": "76",
    "postal_code": "11240"
  },
  {
    "name": "Coustaussa",
    "code": "11109",
    "epci_code": "200071926",
    "departement_code": "11",
    "region_code": "76",
    "postal_code": "11190"
  },
  {
    "name": "Coustouge",
    "code": "11110",
    "epci_code": "200035863",
    "departement_code": "11",
    "region_code": "76",
    "postal_code": "11220"
  },
  {
    "name": "Cruscades",
    "code": "11111",
    "epci_code": "200035863",
    "departement_code": "11",
    "region_code": "76",
    "postal_code": "11200"
  },
  {
    "name": "Cubières-sur-Cinoble",
    "code": "11112",
    "epci_code": "200071926",
    "departement_code": "11",
    "region_code": "76",
    "postal_code": "11190"
  },
  {
    "name": "Cucugnan",
    "code": "11113",
    "epci_code": "200070365",
    "departement_code": "11",
    "region_code": "76",
    "postal_code": "11350"
  },
  {
    "name": "Cumiès",
    "code": "11114",
    "epci_code": "200035855",
    "departement_code": "11",
    "region_code": "76",
    "postal_code": "11410"
  },
  {
    "name": "Cuxac-Cabardès",
    "code": "11115",
    "epci_code": "200042463",
    "departement_code": "11",
    "region_code": "76",
    "postal_code": "11390"
  },
  {
    "name": "Cuxac-d’Aude",
    "code": "11116",
    "epci_code": "241100593",
    "departement_code": "11",
    "region_code": "76",
    "postal_code": "11590"
  },
  {
    "name": "Davejean",
    "code": "11117",
    "epci_code": "200035863",
    "departement_code": "11",
    "region_code": "76",
    "postal_code": "11330"
  },
  {
    "name": "Dernacueillette",
    "code": "11118",
    "epci_code": "200035863",
    "departement_code": "11",
    "region_code": "76",
    "postal_code": "11330"
  },
  {
    "name": "La Digne-d’Amont",
    "code": "11119",
    "epci_code": "200071926",
    "departement_code": "11",
    "region_code": "76",
    "postal_code": "11300"
  },
  {
    "name": "La Digne-d’Aval",
    "code": "11120",
    "epci_code": "200071926",
    "departement_code": "11",
    "region_code": "76",
    "postal_code": "11300"
  },
  {
    "name": "Donazac",
    "code": "11121",
    "epci_code": "200071926",
    "departement_code": "11",
    "region_code": "76",
    "postal_code": "11240"
  },
  {
    "name": "Douzens",
    "code": "11122",
    "epci_code": "200035715",
    "departement_code": "11",
    "region_code": "76",
    "postal_code": "11700"
  },
  {
    "name": "Duilhac-sous-Peyrepertuse",
    "code": "11123",
    "epci_code": "200070365",
    "departement_code": "11",
    "region_code": "76",
    "postal_code": "11350"
  },
  {
    "name": "Durban-Corbières",
    "code": "11124",
    "epci_code": "200070365",
    "departement_code": "11",
    "region_code": "76",
    "postal_code": "11360"
  },
  {
    "name": "Embres-et-Castelmaure",
    "code": "11125",
    "epci_code": "200070365",
    "departement_code": "11",
    "region_code": "76",
    "postal_code": "11360"
  },
  {
    "name": "Escales",
    "code": "11126",
    "epci_code": "200035863",
    "departement_code": "11",
    "region_code": "76",
    "postal_code": "11200"
  },
  {
    "name": "Escouloubre",
    "code": "11127",
    "epci_code": "200043776",
    "departement_code": "11",
    "region_code": "76",
    "postal_code": "11140"
  },
  {
    "name": "Escueillens-et-Saint-Just-de-Bélengard",
    "code": "11128",
    "epci_code": "200071926",
    "departement_code": "11",
    "region_code": "76",
    "postal_code": "11240"
  },
  {
    "name": "Espéraza",
    "code": "11129",
    "epci_code": "200043776",
    "departement_code": "11",
    "region_code": "76",
    "postal_code": "11260"
  },
  {
    "name": "Espezel",
    "code": "11130",
    "epci_code": "200043776",
    "departement_code": "11",
    "region_code": "76",
    "postal_code": "11340"
  },
  {
    "name": "Val-du-Faby",
    "code": "11131",
    "epci_code": "200043776",
    "departement_code": "11",
    "region_code": "76",
    "postal_code": "11260"
  },
  {
    "name": "Fabrezan",
    "code": "11132",
    "epci_code": "200035863",
    "departement_code": "11",
    "region_code": "76",
    "postal_code": "11200"
  },
  {
    "name": "Fajac-en-Val",
    "code": "11133",
    "epci_code": "200035715",
    "departement_code": "11",
    "region_code": "76",
    "postal_code": "11220"
  },
  {
    "name": "Fajac-la-Relenque",
    "code": "11134",
    "epci_code": "200035855",
    "departement_code": "11",
    "region_code": "76",
    "postal_code": "11410"
  },
  {
    "name": "La Fajolle",
    "code": "11135",
    "epci_code": "200043776",
    "departement_code": "11",
    "region_code": "76",
    "postal_code": "11140"
  },
  {
    "name": "Fanjeaux",
    "code": "11136",
    "epci_code": "200035707",
    "departement_code": "11",
    "region_code": "76",
    "postal_code": "11270"
  },
  {
    "name": "Félines-Termenès",
    "code": "11137",
    "epci_code": "200035863",
    "departement_code": "11",
    "region_code": "76",
    "postal_code": "11330"
  },
  {
    "name": "Fendeille",
    "code": "11138",
    "epci_code": "200035855",
    "departement_code": "11",
    "region_code": "76",
    "postal_code": "11400"
  },
  {
    "name": "Fenouillet-du-Razès",
    "code": "11139",
    "epci_code": "200035707",
    "departement_code": "11",
    "region_code": "76",
    "postal_code": "11240"
  },
  {
    "name": "Ferrals-les-Corbières",
    "code": "11140",
    "epci_code": "200035863",
    "departement_code": "11",
    "region_code": "76",
    "postal_code": "11200"
  },
  {
    "name": "Ferran",
    "code": "11141",
    "epci_code": "200035707",
    "departement_code": "11",
    "region_code": "76",
    "postal_code": "11240"
  },
  {
    "name": "Festes-et-Saint-André",
    "code": "11142",
    "epci_code": "200071926",
    "departement_code": "11",
    "region_code": "76",
    "postal_code": "11300"
  },
  {
    "name": "Feuilla",
    "code": "11143",
    "epci_code": "200070365",
    "departement_code": "11",
    "region_code": "76",
    "postal_code": "11510"
  },
  {
    "name": "Fitou",
    "code": "11144",
    "epci_code": "200070365",
    "departement_code": "11",
    "region_code": "76",
    "postal_code": "11510"
  },
  {
    "name": "Fleury",
    "code": "11145",
    "epci_code": "241100593",
    "departement_code": "11",
    "region_code": "76",
    "postal_code": "11560"
  },
  {
    "name": "Floure",
    "code": "11146",
    "epci_code": "200035715",
    "departement_code": "11",
    "region_code": "76",
    "postal_code": "11800"
  },
  {
    "name": "Fontanès-de-Sault",
    "code": "11147",
    "epci_code": "200043776",
    "departement_code": "11",
    "region_code": "76",
    "postal_code": "11140"
  },
  {
    "name": "Fontcouverte",
    "code": "11148",
    "epci_code": "200035863",
    "departement_code": "11",
    "region_code": "76",
    "postal_code": "11700"
  },
  {
    "name": "Fonters-du-Razès",
    "code": "11149",
    "epci_code": "200035707",
    "departement_code": "11",
    "region_code": "76",
    "postal_code": "11400"
  },
  {
    "name": "Fontiers-Cabardès",
    "code": "11150",
    "epci_code": "200042463",
    "departement_code": "11",
    "region_code": "76",
    "postal_code": "11390"
  },
  {
    "name": "Fontiès-d’Aude",
    "code": "11151",
    "epci_code": "200035715",
    "departement_code": "11",
    "region_code": "76",
    "postal_code": "11800"
  },
  {
    "name": "Fontjoncouse",
    "code": "11152",
    "epci_code": "200070365",
    "departement_code": "11",
    "region_code": "76",
    "postal_code": "11360"
  },
  {
    "name": "La Force",
    "code": "11153",
    "epci_code": "200035707",
    "departement_code": "11",
    "region_code": "76",
    "postal_code": "11270"
  },
  {
    "name": "Fournes-Cabardès",
    "code": "11154",
    "epci_code": "200042463",
    "departement_code": "11",
    "region_code": "76",
    "postal_code": "11600"
  },
  {
    "name": "Fourtou",
    "code": "11155",
    "epci_code": "200071926",
    "departement_code": "11",
    "region_code": "76",
    "postal_code": "11190"
  },
  {
    "name": "Fraisse-Cabardès",
    "code": "11156",
    "epci_code": "200042463",
    "departement_code": "11",
    "region_code": "76",
    "postal_code": "11600"
  },
  {
    "name": "Fraissé-des-Corbières",
    "code": "11157",
    "epci_code": "200070365",
    "departement_code": "11",
    "region_code": "76",
    "postal_code": "11360"
  },
  {
    "name": "Gaja-et-Villedieu",
    "code": "11158",
    "epci_code": "200071926",
    "departement_code": "11",
    "region_code": "76",
    "postal_code": "11300"
  },
  {
    "name": "Gaja-la-Selve",
    "code": "11159",
    "epci_code": "200035707",
    "departement_code": "11",
    "region_code": "76",
    "postal_code": "11270"
  },
  {
    "name": "Galinagues",
    "code": "11160",
    "epci_code": "200043776",
    "departement_code": "11",
    "region_code": "76",
    "postal_code": "11140"
  },
  {
    "name": "Gardie",
    "code": "11161",
    "epci_code": "200071926",
    "departement_code": "11",
    "region_code": "76",
    "postal_code": "11250"
  },
  {
    "name": "Generville",
    "code": "11162",
    "epci_code": "200035707",
    "departement_code": "11",
    "region_code": "76",
    "postal_code": "11270"
  },
  {
    "name": "Gincla",
    "code": "11163",
    "epci_code": "200043776",
    "departement_code": "11",
    "region_code": "76",
    "postal_code": "11140"
  },
  {
    "name": "Ginestas",
    "code": "11164",
    "epci_code": "241100593",
    "departement_code": "11",
    "region_code": "76",
    "postal_code": "11120"
  },
  {
    "name": "Ginoles",
    "code": "11165",
    "epci_code": "200043776",
    "departement_code": "11",
    "region_code": "76",
    "postal_code": "11500"
  },
  {
    "name": "Gourvieille",
    "code": "11166",
    "epci_code": "200035855",
    "departement_code": "11",
    "region_code": "76",
    "postal_code": "11410"
  },
  {
    "name": "Gramazie",
    "code": "11167",
    "epci_code": "200071926",
    "departement_code": "11",
    "region_code": "76",
    "postal_code": "11240"
  },
  {
    "name": "Granès",
    "code": "11168",
    "epci_code": "200043776",
    "departement_code": "11",
    "region_code": "76",
    "postal_code": "11500"
  },
  {
    "name": "Greffeil",
    "code": "11169",
    "epci_code": "200071926",
    "departement_code": "11",
    "region_code": "76",
    "postal_code": "11250"
  },
  {
    "name": "Gruissan",
    "code": "11170",
    "epci_code": "241100593",
    "departement_code": "11",
    "region_code": "76",
    "postal_code": "11430"
  },
  {
    "name": "Homps",
    "code": "11172",
    "epci_code": "200035863",
    "departement_code": "11",
    "region_code": "76",
    "postal_code": "11200"
  },
  {
    "name": "Hounoux",
    "code": "11173",
    "epci_code": "200035707",
    "departement_code": "11",
    "region_code": "76",
    "postal_code": "11240"
  },
  {
    "name": "Les Ilhes",
    "code": "11174",
    "epci_code": "200042463",
    "departement_code": "11",
    "region_code": "76",
    "postal_code": "11380"
  },
  {
    "name": "Issel",
    "code": "11175",
    "epci_code": "200035855",
    "departement_code": "11",
    "region_code": "76",
    "postal_code": "11400"
  },
  {
    "name": "Jonquières",
    "code": "11176",
    "epci_code": "200035863",
    "departement_code": "11",
    "region_code": "76",
    "postal_code": "11220"
  },
  {
    "name": "Joucou",
    "code": "11177",
    "epci_code": "200043776",
    "departement_code": "11",
    "region_code": "76",
    "postal_code": "11140"
  },
  {
    "name": "Labastide-d’Anjou",
    "code": "11178",
    "epci_code": "200035855",
    "departement_code": "11",
    "region_code": "76",
    "postal_code": "11320"
  },
  {
    "name": "Labastide-en-Val",
    "code": "11179",
    "epci_code": "200035715",
    "departement_code": "11",
    "region_code": "76",
    "postal_code": "11220"
  },
  {
    "name": "Labastide-Esparbairenque",
    "code": "11180",
    "epci_code": "200042463",
    "departement_code": "11",
    "region_code": "76",
    "postal_code": "11380"
  },
  {
    "name": "Labécède-Lauragais",
    "code": "11181",
    "epci_code": "200035855",
    "departement_code": "11",
    "region_code": "76",
    "postal_code": "11400"
  },
  {
    "name": "Lacombe",
    "code": "11182",
    "epci_code": "200042463",
    "departement_code": "11",
    "region_code": "76",
    "postal_code": "11310"
  },
  {
    "name": "Ladern-sur-Lauquet",
    "code": "11183",
    "epci_code": "200071926",
    "departement_code": "11",
    "region_code": "76",
    "postal_code": "11250"
  },
  {
    "name": "Lafage",
    "code": "11184",
    "epci_code": "200035707",
    "departement_code": "11",
    "region_code": "76",
    "postal_code": "11420"
  },
  {
    "name": "Lagrasse",
    "code": "11185",
    "epci_code": "200035863",
    "departement_code": "11",
    "region_code": "76",
    "postal_code": "11220"
  },
  {
    "name": "Lairière",
    "code": "11186",
    "epci_code": "200035863",
    "departement_code": "11",
    "region_code": "76",
    "postal_code": "11330"
  },
  {
    "name": "Lanet",
    "code": "11187",
    "epci_code": "200035863",
    "departement_code": "11",
    "region_code": "76",
    "postal_code": "11330"
  },
  {
    "name": "La Palme",
    "code": "11188",
    "epci_code": "241100593",
    "departement_code": "11",
    "region_code": "76",
    "postal_code": "11480"
  },
  {
    "name": "Laprade",
    "code": "11189",
    "epci_code": "200042463",
    "departement_code": "11",
    "region_code": "76",
    "postal_code": "11390"
  },
  {
    "name": "La Redorte",
    "code": "11190",
    "epci_code": "200035715",
    "departement_code": "11",
    "region_code": "76",
    "postal_code": "11700"
  },
  {
    "name": "Laroque-de-Fa",
    "code": "11191",
    "epci_code": "200035863",
    "departement_code": "11",
    "region_code": "76",
    "postal_code": "11330"
  },
  {
    "name": "Lasbordes",
    "code": "11192",
    "epci_code": "200035855",
    "departement_code": "11",
    "region_code": "76",
    "postal_code": "11400"
  },
  {
    "name": "Lasserre-de-Prouille",
    "code": "11193",
    "epci_code": "200035707",
    "departement_code": "11",
    "region_code": "76",
    "postal_code": "11270"
  },
  {
    "name": "Lastours",
    "code": "11194",
    "epci_code": "200042463",
    "departement_code": "11",
    "region_code": "76",
    "postal_code": "11600"
  },
  {
    "name": "Laurabuc",
    "code": "11195",
    "epci_code": "200035855",
    "departement_code": "11",
    "region_code": "76",
    "postal_code": "11400"
  },
  {
    "name": "Laurac",
    "code": "11196",
    "epci_code": "200035707",
    "departement_code": "11",
    "region_code": "76",
    "postal_code": "11270"
  },
  {
    "name": "Lauraguel",
    "code": "11197",
    "epci_code": "200071926",
    "departement_code": "11",
    "region_code": "76",
    "postal_code": "11300"
  },
  {
    "name": "Laure-Minervois",
    "code": "11198",
    "epci_code": "200035715",
    "departement_code": "11",
    "region_code": "76",
    "postal_code": "11800"
  },
  {
    "name": "Lavalette",
    "code": "11199",
    "epci_code": "200035715",
    "departement_code": "11",
    "region_code": "76",
    "postal_code": "11290"
  },
  {
    "name": "Lespinassière",
    "code": "11200",
    "epci_code": "200035715",
    "departement_code": "11",
    "region_code": "76",
    "postal_code": "11160"
  },
  {
    "name": "Leuc",
    "code": "11201",
    "epci_code": "200035715",
    "departement_code": "11",
    "region_code": "76",
    "postal_code": "11250"
  },
  {
    "name": "Leucate",
    "code": "11202",
    "epci_code": "241100593",
    "departement_code": "11",
    "region_code": "76",
    "postal_code": "11370"
  },
  {
    "name": "Lézignan-Corbières",
    "code": "11203",
    "epci_code": "200035863",
    "departement_code": "11",
    "region_code": "76",
    "postal_code": "11200"
  },
  {
    "name": "Lignairolles",
    "code": "11204",
    "epci_code": "200071926",
    "departement_code": "11",
    "region_code": "76",
    "postal_code": "11240"
  },
  {
    "name": "Limousis",
    "code": "11205",
    "epci_code": "200035715",
    "departement_code": "11",
    "region_code": "76",
    "postal_code": "11600"
  },
  {
    "name": "Limoux",
    "code": "11206",
    "epci_code": "200071926",
    "departement_code": "11",
    "region_code": "76",
    "postal_code": "11300"
  },
  {
    "name": "Loupia",
    "code": "11207",
    "epci_code": "200071926",
    "departement_code": "11",
    "region_code": "76",
    "postal_code": "11300"
  },
  {
    "name": "La Louvière-Lauragais",
    "code": "11208",
    "epci_code": "200035855",
    "departement_code": "11",
    "region_code": "76",
    "postal_code": "11410"
  },
  {
    "name": "Luc-sur-Aude",
    "code": "11209",
    "epci_code": "200071926",
    "departement_code": "11",
    "region_code": "76",
    "postal_code": "11190"
  },
  {
    "name": "Luc-sur-Orbieu",
    "code": "11210",
    "epci_code": "200035863",
    "departement_code": "11",
    "region_code": "76",
    "postal_code": "11200"
  },
  {
    "name": "Magrie",
    "code": "11211",
    "epci_code": "200071926",
    "departement_code": "11",
    "region_code": "76",
    "postal_code": "11300"
  },
  {
    "name": "Mailhac",
    "code": "11212",
    "epci_code": "241100593",
    "departement_code": "11",
    "region_code": "76",
    "postal_code": "11120"
  },
  {
    "name": "Maisons",
    "code": "11213",
    "epci_code": "200070365",
    "departement_code": "11",
    "region_code": "76",
    "postal_code": "11330"
  },
  {
    "name": "Malras",
    "code": "11214",
    "epci_code": "200071926",
    "departement_code": "11",
    "region_code": "76",
    "postal_code": "11300"
  },
  {
    "name": "Malves-en-Minervois",
    "code": "11215",
    "epci_code": "200035715",
    "departement_code": "11",
    "region_code": "76",
    "postal_code": "11600"
  },
  {
    "name": "Malviès",
    "code": "11216",
    "epci_code": "200071926",
    "departement_code": "11",
    "region_code": "76",
    "postal_code": "11300"
  },
  {
    "name": "Marcorignan",
    "code": "11217",
    "epci_code": "241100593",
    "departement_code": "11",
    "region_code": "76",
    "postal_code": "11120"
  },
  {
    "name": "Marquein",
    "code": "11218",
    "epci_code": "200035855",
    "departement_code": "11",
    "region_code": "76",
    "postal_code": "11410"
  },
  {
    "name": "Marsa",
    "code": "11219",
    "epci_code": "200043776",
    "departement_code": "11",
    "region_code": "76",
    "postal_code": "11140"
  },
  {
    "name": "Marseillette",
    "code": "11220",
    "epci_code": "200035715",
    "departement_code": "11",
    "region_code": "76",
    "postal_code": "11800"
  },
  {
    "name": "Les Martys",
    "code": "11221",
    "epci_code": "200042463",
    "departement_code": "11",
    "region_code": "76",
    "postal_code": "11390"
  },
  {
    "name": "Mas-Cabardès",
    "code": "11222",
    "epci_code": "200042463",
    "departement_code": "11",
    "region_code": "76",
    "postal_code": "11380"
  },
  {
    "name": "Mas-des-Cours",
    "code": "11223",
    "epci_code": "200035715",
    "departement_code": "11",
    "region_code": "76",
    "postal_code": "11570"
  },
  {
    "name": "Massac",
    "code": "11224",
    "epci_code": "200035863",
    "departement_code": "11",
    "region_code": "76",
    "postal_code": "11330"
  },
  {
    "name": "Mas-Saintes-Puelles",
    "code": "11225",
    "epci_code": "200035855",
    "departement_code": "11",
    "region_code": "76",
    "postal_code": "11400"
  },
  {
    "name": "Mayreville",
    "code": "11226",
    "epci_code": "200035855",
    "departement_code": "11",
    "region_code": "76",
    "postal_code": "11420"
  },
  {
    "name": "Mayronnes",
    "code": "11227",
    "epci_code": "200035715",
    "departement_code": "11",
    "region_code": "76",
    "postal_code": "11220"
  },
  {
    "name": "Mazerolles-du-Razès",
    "code": "11228",
    "epci_code": "200071926",
    "departement_code": "11",
    "region_code": "76",
    "postal_code": "11240"
  },
  {
    "name": "Mazuby",
    "code": "11229",
    "epci_code": "200043776",
    "departement_code": "11",
    "region_code": "76",
    "postal_code": "11140"
  },
  {
    "name": "Mérial",
    "code": "11230",
    "epci_code": "200043776",
    "departement_code": "11",
    "region_code": "76",
    "postal_code": "11140"
  },
  {
    "name": "Mézerville",
    "code": "11231",
    "epci_code": "200035855",
    "departement_code": "11",
    "region_code": "76",
    "postal_code": "11410"
  },
  {
    "name": "Miraval-Cabardès",
    "code": "11232",
    "epci_code": "200042463",
    "departement_code": "11",
    "region_code": "76",
    "postal_code": "11380"
  },
  {
    "name": "Mirepeisset",
    "code": "11233",
    "epci_code": "241100593",
    "departement_code": "11",
    "region_code": "76",
    "postal_code": "11120"
  },
  {
    "name": "Mireval-Lauragais",
    "code": "11234",
    "epci_code": "200035855",
    "departement_code": "11",
    "region_code": "76",
    "postal_code": "11400"
  },
  {
    "name": "Missègre",
    "code": "11235",
    "epci_code": "200071926",
    "departement_code": "11",
    "region_code": "76",
    "postal_code": "11580"
  },
  {
    "name": "Molandier",
    "code": "11236",
    "epci_code": "200035707",
    "departement_code": "11",
    "region_code": "76",
    "postal_code": "11420"
  },
  {
    "name": "Molleville",
    "code": "11238",
    "epci_code": "200035855",
    "departement_code": "11",
    "region_code": "76",
    "postal_code": "11410"
  },
  {
    "name": "Montauriol",
    "code": "11239",
    "epci_code": "200035855",
    "departement_code": "11",
    "region_code": "76",
    "postal_code": "11410"
  },
  {
    "name": "Montazels",
    "code": "11240",
    "epci_code": "200071926",
    "departement_code": "11",
    "region_code": "76",
    "postal_code": "11190"
  },
  {
    "name": "Montbrun-des-Corbières",
    "code": "11241",
    "epci_code": "200035863",
    "departement_code": "11",
    "region_code": "76",
    "postal_code": "11700"
  },
  {
    "name": "Montclar",
    "code": "11242",
    "epci_code": "200035715",
    "departement_code": "11",
    "region_code": "76",
    "postal_code": "11250"
  },
  {
    "name": "Montferrand",
    "code": "11243",
    "epci_code": "200035855",
    "departement_code": "11",
    "region_code": "76",
    "postal_code": "11320"
  },
  {
    "name": "Montfort-sur-Boulzane",
    "code": "11244",
    "epci_code": "200043776",
    "departement_code": "11",
    "region_code": "76",
    "postal_code": "11140"
  },
  {
    "name": "Montgaillard",
    "code": "11245",
    "epci_code": "200070365",
    "departement_code": "11",
    "region_code": "76",
    "postal_code": "11330"
  },
  {
    "name": "Montgradail",
    "code": "11246",
    "epci_code": "200071926",
    "departement_code": "11",
    "region_code": "76",
    "postal_code": "11240"
  },
  {
    "name": "Monthaut",
    "code": "11247",
    "epci_code": "200071926",
    "departement_code": "11",
    "region_code": "76",
    "postal_code": "11240"
  },
  {
    "name": "Montirat",
    "code": "11248",
    "epci_code": "200035715",
    "departement_code": "11",
    "region_code": "76",
    "postal_code": "11800"
  },
  {
    "name": "Montjardin",
    "code": "11249",
    "epci_code": "200043776",
    "departement_code": "11",
    "region_code": "76",
    "postal_code": "11230"
  },
  {
    "name": "Montjoi",
    "code": "11250",
    "epci_code": "200035863",
    "departement_code": "11",
    "region_code": "76",
    "postal_code": "11330"
  },
  {
    "name": "Val-de-Dagne",
    "code": "11251",
    "epci_code": "200035715",
    "departement_code": "11",
    "region_code": "76",
    "postal_code": "11220"
  },
  {
    "name": "Montmaur",
    "code": "11252",
    "epci_code": "200035855",
    "departement_code": "11",
    "region_code": "76",
    "postal_code": "11320"
  },
  {
    "name": "Montolieu",
    "code": "11253",
    "epci_code": "200035715",
    "departement_code": "11",
    "region_code": "76",
    "postal_code": "11170"
  },
  {
    "name": "Montréal",
    "code": "11254",
    "epci_code": "200035707",
    "departement_code": "11",
    "region_code": "76",
    "postal_code": "11290"
  },
  {
    "name": "Montredon-des-Corbières",
    "code": "11255",
    "epci_code": "241100593",
    "departement_code": "11",
    "region_code": "76",
    "postal_code": "11100"
  },
  {
    "name": "Montséret",
    "code": "11256",
    "epci_code": "200035863",
    "departement_code": "11",
    "region_code": "76",
    "postal_code": "11200"
  },
  {
    "name": "Monze",
    "code": "11257",
    "epci_code": "200035715",
    "departement_code": "11",
    "region_code": "76",
    "postal_code": "11800"
  },
  {
    "name": "Moussan",
    "code": "11258",
    "epci_code": "241100593",
    "departement_code": "11",
    "region_code": "76",
    "postal_code": "11120"
  },
  {
    "name": "Moussoulens",
    "code": "11259",
    "epci_code": "200035715",
    "departement_code": "11",
    "region_code": "76",
    "postal_code": "11170"
  },
  {
    "name": "Mouthoumet",
    "code": "11260",
    "epci_code": "200035863",
    "departement_code": "11",
    "region_code": "76",
    "postal_code": "11330"
  },
  {
    "name": "Moux",
    "code": "11261",
    "epci_code": "200035863",
    "departement_code": "11",
    "region_code": "76",
    "postal_code": "11700"
  },
  {
    "name": "Narbonne",
    "code": "11262",
    "epci_code": "241100593",
    "departement_code": "11",
    "region_code": "76",
    "postal_code": "11100"
  },
  {
    "name": "Nébias",
    "code": "11263",
    "epci_code": "200043776",
    "departement_code": "11",
    "region_code": "76",
    "postal_code": "11500"
  },
  {
    "name": "Névian",
    "code": "11264",
    "epci_code": "241100593",
    "departement_code": "11",
    "region_code": "76",
    "postal_code": "11200"
  },
  {
    "name": "Niort-de-Sault",
    "code": "11265",
    "epci_code": "200043776",
    "departement_code": "11",
    "region_code": "76",
    "postal_code": "11140"
  },
  {
    "name": "Port-la-Nouvelle",
    "code": "11266",
    "epci_code": "241100593",
    "departement_code": "11",
    "region_code": "76",
    "postal_code": "11210"
  },
  {
    "name": "Ornaisons",
    "code": "11267",
    "epci_code": "200035863",
    "departement_code": "11",
    "region_code": "76",
    "postal_code": "11200"
  },
  {
    "name": "Orsans",
    "code": "11268",
    "epci_code": "200035707",
    "departement_code": "11",
    "region_code": "76",
    "postal_code": "11270"
  },
  {
    "name": "Ouveillan",
    "code": "11269",
    "epci_code": "241100593",
    "departement_code": "11",
    "region_code": "76",
    "postal_code": "11590"
  },
  {
    "name": "Padern",
    "code": "11270",
    "epci_code": "200070365",
    "departement_code": "11",
    "region_code": "76",
    "postal_code": "11350"
  },
  {
    "name": "Palairac",
    "code": "11271",
    "epci_code": "200035863",
    "departement_code": "11",
    "region_code": "76",
    "postal_code": "11330"
  },
  {
    "name": "Palaja",
    "code": "11272",
    "epci_code": "200035715",
    "departement_code": "11",
    "region_code": "76",
    "postal_code": "11570"
  },
  {
    "name": "Paraza",
    "code": "11273",
    "epci_code": "200035863",
    "departement_code": "11",
    "region_code": "76",
    "postal_code": "11200"
  },
  {
    "name": "Pauligne",
    "code": "11274",
    "epci_code": "200071926",
    "departement_code": "11",
    "region_code": "76",
    "postal_code": "11300"
  },
  {
    "name": "Payra-sur-l’Hers",
    "code": "11275",
    "epci_code": "200035855",
    "departement_code": "11",
    "region_code": "76",
    "postal_code": "11410"
  },
  {
    "name": "Paziols",
    "code": "11276",
    "epci_code": "200070365",
    "departement_code": "11",
    "region_code": "76",
    "postal_code": "11350"
  },
  {
    "name": "Pécharic-et-le-Py",
    "code": "11277",
    "epci_code": "200035707",
    "departement_code": "11",
    "region_code": "76",
    "postal_code": "11420"
  },
  {
    "name": "Pech-Luna",
    "code": "11278",
    "epci_code": "200035707",
    "departement_code": "11",
    "region_code": "76",
    "postal_code": "11420"
  },
  {
    "name": "Pennautier",
    "code": "11279",
    "epci_code": "200035715",
    "departement_code": "11",
    "region_code": "76",
    "postal_code": "11610"
  },
  {
    "name": "Pépieux",
    "code": "11280",
    "epci_code": "200035715",
    "departement_code": "11",
    "region_code": "76",
    "postal_code": "11700"
  },
  {
    "name": "Pexiora",
    "code": "11281",
    "epci_code": "200035707",
    "departement_code": "11",
    "region_code": "76",
    "postal_code": "11150"
  },
  {
    "name": "Peyrefitte-du-Razès",
    "code": "11282",
    "epci_code": "200043776",
    "departement_code": "11",
    "region_code": "76",
    "postal_code": "11230"
  },
  {
    "name": "Peyrefitte-sur-l’Hers",
    "code": "11283",
    "epci_code": "200035855",
    "departement_code": "11",
    "region_code": "76",
    "postal_code": "11420"
  },
  {
    "name": "Peyrens",
    "code": "11284",
    "epci_code": "200035855",
    "departement_code": "11",
    "region_code": "76",
    "postal_code": "11400"
  },
  {
    "name": "Peyriac-de-Mer",
    "code": "11285",
    "epci_code": "241100593",
    "departement_code": "11",
    "region_code": "76",
    "postal_code": "11440"
  },
  {
    "name": "Peyriac-Minervois",
    "code": "11286",
    "epci_code": "200035715",
    "departement_code": "11",
    "region_code": "76",
    "postal_code": "11160"
  },
  {
    "name": "Peyrolles",
    "code": "11287",
    "epci_code": "200071926",
    "departement_code": "11",
    "region_code": "76",
    "postal_code": "11190"
  },
  {
    "name": "Pezens",
    "code": "11288",
    "epci_code": "200035715",
    "departement_code": "11",
    "region_code": "76",
    "postal_code": "11170"
  },
  {
    "name": "Pieusse",
    "code": "11289",
    "epci_code": "200071926",
    "departement_code": "11",
    "region_code": "76",
    "postal_code": "11300"
  },
  {
    "name": "Plaigne",
    "code": "11290",
    "epci_code": "200035707",
    "departement_code": "11",
    "region_code": "76",
    "postal_code": "11420"
  },
  {
    "name": "Plavilla",
    "code": "11291",
    "epci_code": "200035707",
    "departement_code": "11",
    "region_code": "76",
    "postal_code": "11270"
  },
  {
    "name": "La Pomarède",
    "code": "11292",
    "epci_code": "200035855",
    "departement_code": "11",
    "region_code": "76",
    "postal_code": "11400"
  },
  {
    "name": "Pomas",
    "code": "11293",
    "epci_code": "200035715",
    "departement_code": "11",
    "region_code": "76",
    "postal_code": "11250"
  },
  {
    "name": "Pomy",
    "code": "11294",
    "epci_code": "200071926",
    "departement_code": "11",
    "region_code": "76",
    "postal_code": "11300"
  },
  {
    "name": "Portel-des-Corbières",
    "code": "11295",
    "epci_code": "241100593",
    "departement_code": "11",
    "region_code": "76",
    "postal_code": "11490"
  },
  {
    "name": "Pouzols-Minervois",
    "code": "11296",
    "epci_code": "241100593",
    "departement_code": "11",
    "region_code": "76",
    "postal_code": "11120"
  },
  {
    "name": "Pradelles-Cabardès",
    "code": "11297",
    "epci_code": "200042463",
    "departement_code": "11",
    "region_code": "76",
    "postal_code": "11380"
  },
  {
    "name": "Preixan",
    "code": "11299",
    "epci_code": "200035715",
    "departement_code": "11",
    "region_code": "76",
    "postal_code": "11250"
  },
  {
    "name": "Puginier",
    "code": "11300",
    "epci_code": "200035855",
    "departement_code": "11",
    "region_code": "76",
    "postal_code": "11400"
  },
  {
    "name": "Puichéric",
    "code": "11301",
    "epci_code": "200035715",
    "departement_code": "11",
    "region_code": "76",
    "postal_code": "11700"
  },
  {
    "name": "Puilaurens",
    "code": "11302",
    "epci_code": "200043776",
    "departement_code": "11",
    "region_code": "76",
    "postal_code": "11140"
  },
  {
    "name": "Puivert",
    "code": "11303",
    "epci_code": "200043776",
    "departement_code": "11",
    "region_code": "76",
    "postal_code": "11230"
  },
  {
    "name": "Quillan",
    "code": "11304",
    "epci_code": "200043776",
    "departement_code": "11",
    "region_code": "76",
    "postal_code": "11500"
  },
  {
    "name": "Quintillan",
    "code": "11305",
    "epci_code": "200035863",
    "departement_code": "11",
    "region_code": "76",
    "postal_code": "11360"
  },
  {
    "name": "Quirbajou",
    "code": "11306",
    "epci_code": "200043776",
    "departement_code": "11",
    "region_code": "76",
    "postal_code": "11500"
  },
  {
    "name": "Raissac-d’Aude",
    "code": "11307",
    "epci_code": "241100593",
    "departement_code": "11",
    "region_code": "76",
    "postal_code": "11200"
  },
  {
    "name": "Raissac-sur-Lampy",
    "code": "11308",
    "epci_code": "200035715",
    "departement_code": "11",
    "region_code": "76",
    "postal_code": "11170"
  },
  {
    "name": "Rennes-le-Château",
    "code": "11309",
    "epci_code": "200071926",
    "departement_code": "11",
    "region_code": "76",
    "postal_code": "11190"
  },
  {
    "name": "Rennes-les-Bains",
    "code": "11310",
    "epci_code": "200071926",
    "departement_code": "11",
    "region_code": "76",
    "postal_code": "11190"
  },
  {
    "name": "Ribaute",
    "code": "11311",
    "epci_code": "200035863",
    "departement_code": "11",
    "region_code": "76",
    "postal_code": "11220"
  },
  {
    "name": "Ribouisse",
    "code": "11312",
    "epci_code": "200035707",
    "departement_code": "11",
    "region_code": "76",
    "postal_code": "11270"
  },
  {
    "name": "Ricaud",
    "code": "11313",
    "epci_code": "200035855",
    "departement_code": "11",
    "region_code": "76",
    "postal_code": "11400"
  },
  {
    "name": "Rieux-en-Val",
    "code": "11314",
    "epci_code": "200035715",
    "departement_code": "11",
    "region_code": "76",
    "postal_code": "11220"
  },
  {
    "name": "Rieux-Minervois",
    "code": "11315",
    "epci_code": "200035715",
    "departement_code": "11",
    "region_code": "76",
    "postal_code": "11160"
  },
  {
    "name": "Rivel",
    "code": "11316",
    "epci_code": "200043776",
    "departement_code": "11",
    "region_code": "76",
    "postal_code": "11230"
  },
  {
    "name": "Rodome",
    "code": "11317",
    "epci_code": "200043776",
    "departement_code": "11",
    "region_code": "76",
    "postal_code": "11140"
  },
  {
    "name": "Roquecourbe-Minervois",
    "code": "11318",
    "epci_code": "200035863",
    "departement_code": "11",
    "region_code": "76",
    "postal_code": "11700"
  },
  {
    "name": "Roquefère",
    "code": "11319",
    "epci_code": "200042463",
    "departement_code": "11",
    "region_code": "76",
    "postal_code": "11380"
  },
  {
    "name": "Roquefeuil",
    "code": "11320",
    "epci_code": "200043776",
    "departement_code": "11",
    "region_code": "76",
    "postal_code": "11340"
  },
  {
    "name": "Roquefort-de-Sault",
    "code": "11321",
    "epci_code": "200043776",
    "departement_code": "11",
    "region_code": "76",
    "postal_code": "11140"
  },
  {
    "name": "Roquefort-des-Corbières",
    "code": "11322",
    "epci_code": "241100593",
    "departement_code": "11",
    "region_code": "76",
    "postal_code": "11540"
  },
  {
    "name": "Roquetaillade-et-Conilhac",
    "code": "11323",
    "epci_code": "200071926",
    "departement_code": "11",
    "region_code": "76",
    "postal_code": "11190"
  },
  {
    "name": "Roquetaillade-et-Conilhac",
    "code": "11323",
    "epci_code": "200071926",
    "departement_code": "11",
    "region_code": "76",
    "postal_code": "11300"
  },
  {
    "name": "Roubia",
    "code": "11324",
    "epci_code": "200035863",
    "departement_code": "11",
    "region_code": "76",
    "postal_code": "11200"
  },
  {
    "name": "Rouffiac-d’Aude",
    "code": "11325",
    "epci_code": "200035715",
    "departement_code": "11",
    "region_code": "76",
    "postal_code": "11250"
  },
  {
    "name": "Rouffiac-des-Corbières",
    "code": "11326",
    "epci_code": "200070365",
    "departement_code": "11",
    "region_code": "76",
    "postal_code": "11350"
  },
  {
    "name": "Roullens",
    "code": "11327",
    "epci_code": "200035715",
    "departement_code": "11",
    "region_code": "76",
    "postal_code": "11290"
  },
  {
    "name": "Routier",
    "code": "11328",
    "epci_code": "200071926",
    "departement_code": "11",
    "region_code": "76",
    "postal_code": "11240"
  },
  {
    "name": "Rustiques",
    "code": "11330",
    "epci_code": "200035715",
    "departement_code": "11",
    "region_code": "76",
    "postal_code": "11800"
  },
  {
    "name": "Saint-Amans",
    "code": "11331",
    "epci_code": "200035707",
    "departement_code": "11",
    "region_code": "76",
    "postal_code": "11270"
  },
  {
    "name": "Saint-André-de-Roquelongue",
    "code": "11332",
    "epci_code": "200035863",
    "departement_code": "11",
    "region_code": "76",
    "postal_code": "11200"
  },
  {
    "name": "Saint-Benoît",
    "code": "11333",
    "epci_code": "200043776",
    "departement_code": "11",
    "region_code": "76",
    "postal_code": "11230"
  },
  {
    "name": "Sainte-Camelle",
    "code": "11334",
    "epci_code": "200035855",
    "departement_code": "11",
    "region_code": "76",
    "postal_code": "11410"
  },
  {
    "name": "Sainte-Colombe-sur-Guette",
    "code": "11335",
    "epci_code": "200043776",
    "departement_code": "11",
    "region_code": "76",
    "postal_code": "11140"
  },
  {
    "name": "Sainte-Colombe-sur-l’Hers",
    "code": "11336",
    "epci_code": "200043776",
    "departement_code": "11",
    "region_code": "76",
    "postal_code": "11230"
  },
  {
    "name": "Saint-Couat-d’Aude",
    "code": "11337",
    "epci_code": "200035863",
    "departement_code": "11",
    "region_code": "76",
    "postal_code": "11700"
  },
  {
    "name": "Saint-Couat-du-Razès",
    "code": "11338",
    "epci_code": "200071926",
    "departement_code": "11",
    "region_code": "76",
    "postal_code": "11300"
  },
  {
    "name": "Saint-Denis",
    "code": "11339",
    "epci_code": "200042463",
    "departement_code": "11",
    "region_code": "76",
    "postal_code": "11310"
  },
  {
    "name": "Sainte-Eulalie",
    "code": "11340",
    "epci_code": "200035715",
    "departement_code": "11",
    "region_code": "76",
    "postal_code": "11170"
  },
  {
    "name": "Saint-Ferriol",
    "code": "11341",
    "epci_code": "200043776",
    "departement_code": "11",
    "region_code": "76",
    "postal_code": "11500"
  },
  {
    "name": "Saint-Frichoux",
    "code": "11342",
    "epci_code": "200035715",
    "departement_code": "11",
    "region_code": "76",
    "postal_code": "11800"
  },
  {
    "name": "Saint-Gaudéric",
    "code": "11343",
    "epci_code": "200035707",
    "departement_code": "11",
    "region_code": "76",
    "postal_code": "11270"
  },
  {
    "name": "Saint-Hilaire",
    "code": "11344",
    "epci_code": "200071926",
    "departement_code": "11",
    "region_code": "76",
    "postal_code": "11250"
  },
  {
    "name": "Saint-Jean-de-Barrou",
    "code": "11345",
    "epci_code": "200070365",
    "departement_code": "11",
    "region_code": "76",
    "postal_code": "11360"
  },
  {
    "name": "Saint-Jean-de-Paracol",
    "code": "11346",
    "epci_code": "200043776",
    "departement_code": "11",
    "region_code": "76",
    "postal_code": "11260"
  },
  {
    "name": "Saint-Julia-de-Bec",
    "code": "11347",
    "epci_code": "200043776",
    "departement_code": "11",
    "region_code": "76",
    "postal_code": "11500"
  },
  {
    "name": "Saint-Julien-de-Briola",
    "code": "11348",
    "epci_code": "200035707",
    "departement_code": "11",
    "region_code": "76",
    "postal_code": "11270"
  },
  {
    "name": "Saint-Just-et-le-Bézu",
    "code": "11350",
    "epci_code": "200043776",
    "departement_code": "11",
    "region_code": "76",
    "postal_code": "11500"
  },
  {
    "name": "Saint-Laurent-de-la-Cabrerisse",
    "code": "11351",
    "epci_code": "200035863",
    "departement_code": "11",
    "region_code": "76",
    "postal_code": "11220"
  },
  {
    "name": "Saint-Louis-et-Parahou",
    "code": "11352",
    "epci_code": "200043776",
    "departement_code": "11",
    "region_code": "76",
    "postal_code": "11500"
  },
  {
    "name": "Saint-Marcel-sur-Aude",
    "code": "11353",
    "epci_code": "241100593",
    "departement_code": "11",
    "region_code": "76",
    "postal_code": "11120"
  },
  {
    "name": "Saint-Martin-des-Puits",
    "code": "11354",
    "epci_code": "200035863",
    "departement_code": "11",
    "region_code": "76",
    "postal_code": "11220"
  },
  {
    "name": "Saint-Martin-de-Villereglan",
    "code": "11355",
    "epci_code": "200071926",
    "departement_code": "11",
    "region_code": "76",
    "postal_code": "11300"
  },
  {
    "name": "Saint-Martin-Lalande",
    "code": "11356",
    "epci_code": "200035855",
    "departement_code": "11",
    "region_code": "76",
    "postal_code": "11400"
  },
  {
    "name": "Saint-Martin-le-Vieil",
    "code": "11357",
    "epci_code": "200035715",
    "departement_code": "11",
    "region_code": "76",
    "postal_code": "11170"
  },
  {
    "name": "Saint-Martin-Lys",
    "code": "11358",
    "epci_code": "200043776",
    "departement_code": "11",
    "region_code": "76",
    "postal_code": "11500"
  },
  {
    "name": "Saint-Michel-de-Lanès",
    "code": "11359",
    "epci_code": "200035855",
    "departement_code": "11",
    "region_code": "76",
    "postal_code": "11410"
  },
  {
    "name": "Saint-Nazaire-d’Aude",
    "code": "11360",
    "epci_code": "241100593",
    "departement_code": "11",
    "region_code": "76",
    "postal_code": "11120"
  },
  {
    "name": "Saint-Papoul",
    "code": "11361",
    "epci_code": "200035855",
    "departement_code": "11",
    "region_code": "76",
    "postal_code": "11400"
  },
  {
    "name": "Saint-Paulet",
    "code": "11362",
    "epci_code": "200035855",
    "departement_code": "11",
    "region_code": "76",
    "postal_code": "11320"
  },
  {
    "name": "Saint-Pierre-des-Champs",
    "code": "11363",
    "epci_code": "200035863",
    "departement_code": "11",
    "region_code": "76",
    "postal_code": "11220"
  },
  {
    "name": "Saint-Polycarpe",
    "code": "11364",
    "epci_code": "200071926",
    "departement_code": "11",
    "region_code": "76",
    "postal_code": "11300"
  },
  {
    "name": "Saint-Sernin",
    "code": "11365",
    "epci_code": "200035707",
    "departement_code": "11",
    "region_code": "76",
    "postal_code": "11420"
  },
  {
    "name": "Sainte-Valière",
    "code": "11366",
    "epci_code": "241100593",
    "departement_code": "11",
    "region_code": "76",
    "postal_code": "11120"
  },
  {
    "name": "Saissac",
    "code": "11367",
    "epci_code": "200042463",
    "departement_code": "11",
    "region_code": "76",
    "postal_code": "11310"
  },
  {
    "name": "Sallèles-Cabardès",
    "code": "11368",
    "epci_code": "200035715",
    "departement_code": "11",
    "region_code": "76",
    "postal_code": "11600"
  },
  {
    "name": "Sallèles-d’Aude",
    "code": "11369",
    "epci_code": "241100593",
    "departement_code": "11",
    "region_code": "76",
    "postal_code": "11590"
  },
  {
    "name": "Salles-d’Aude",
    "code": "11370",
    "epci_code": "241100593",
    "departement_code": "11",
    "region_code": "76",
    "postal_code": "11110"
  },
  {
    "name": "Salles-sur-l’Hers",
    "code": "11371",
    "epci_code": "200035855",
    "departement_code": "11",
    "region_code": "76",
    "postal_code": "11410"
  },
  {
    "name": "Salsigne",
    "code": "11372",
    "epci_code": "200042463",
    "departement_code": "11",
    "region_code": "76",
    "postal_code": "11600"
  },
  {
    "name": "Salvezines",
    "code": "11373",
    "epci_code": "200043776",
    "departement_code": "11",
    "region_code": "76",
    "postal_code": "11140"
  },
  {
    "name": "Salza",
    "code": "11374",
    "epci_code": "200035863",
    "departement_code": "11",
    "region_code": "76",
    "postal_code": "11330"
  },
  {
    "name": "Seignalens",
    "code": "11375",
    "epci_code": "200071926",
    "departement_code": "11",
    "region_code": "76",
    "postal_code": "11240"
  },
  {
    "name": "La Serpent",
    "code": "11376",
    "epci_code": "200071926",
    "departement_code": "11",
    "region_code": "76",
    "postal_code": "11190"
  },
  {
    "name": "Serres",
    "code": "11377",
    "epci_code": "200071926",
    "departement_code": "11",
    "region_code": "76",
    "postal_code": "11190"
  },
  {
    "name": "Serviès-en-Val",
    "code": "11378",
    "epci_code": "200035715",
    "departement_code": "11",
    "region_code": "76",
    "postal_code": "11220"
  },
  {
    "name": "Sigean",
    "code": "11379",
    "epci_code": "241100593",
    "departement_code": "11",
    "region_code": "76",
    "postal_code": "11130"
  },
  {
    "name": "Sonnac-sur-l’Hers",
    "code": "11380",
    "epci_code": "200043776",
    "departement_code": "11",
    "region_code": "76",
    "postal_code": "11230"
  },
  {
    "name": "Sougraigne",
    "code": "11381",
    "epci_code": "200071926",
    "departement_code": "11",
    "region_code": "76",
    "postal_code": "11190"
  },
  {
    "name": "Souilhanels",
    "code": "11382",
    "epci_code": "200035855",
    "departement_code": "11",
    "region_code": "76",
    "postal_code": "11400"
  },
  {
    "name": "Souilhe",
    "code": "11383",
    "epci_code": "200035855",
    "departement_code": "11",
    "region_code": "76",
    "postal_code": "11400"
  },
  {
    "name": "Soulatgé",
    "code": "11384",
    "epci_code": "200070365",
    "departement_code": "11",
    "region_code": "76",
    "postal_code": "11330"
  },
  {
    "name": "Soupex",
    "code": "11385",
    "epci_code": "200035855",
    "departement_code": "11",
    "region_code": "76",
    "postal_code": "11320"
  },
  {
    "name": "Talairan",
    "code": "11386",
    "epci_code": "200035863",
    "departement_code": "11",
    "region_code": "76",
    "postal_code": "11220"
  },
  {
    "name": "Taurize",
    "code": "11387",
    "epci_code": "200035715",
    "departement_code": "11",
    "region_code": "76",
    "postal_code": "11220"
  },
  {
    "name": "Termes",
    "code": "11388",
    "epci_code": "200035863",
    "departement_code": "11",
    "region_code": "76",
    "postal_code": "11330"
  },
  {
    "name": "Terroles",
    "code": "11389",
    "epci_code": "200071926",
    "departement_code": "11",
    "region_code": "76",
    "postal_code": "11580"
  },
  {
    "name": "Thézan-des-Corbières",
    "code": "11390",
    "epci_code": "200035863",
    "departement_code": "11",
    "region_code": "76",
    "postal_code": "11200"
  },
  {
    "name": "La Tourette-Cabardès",
    "code": "11391",
    "epci_code": "200042463",
    "departement_code": "11",
    "region_code": "76",
    "postal_code": "11380"
  },
  {
    "name": "Tournissan",
    "code": "11392",
    "epci_code": "200035863",
    "departement_code": "11",
    "region_code": "76",
    "postal_code": "11220"
  },
  {
    "name": "Tourouzelle",
    "code": "11393",
    "epci_code": "200035863",
    "departement_code": "11",
    "region_code": "76",
    "postal_code": "11200"
  },
  {
    "name": "Tourreilles",
    "code": "11394",
    "epci_code": "200071926",
    "departement_code": "11",
    "region_code": "76",
    "postal_code": "11300"
  },
  {
    "name": "Trassanel",
    "code": "11395",
    "epci_code": "200035715",
    "departement_code": "11",
    "region_code": "76",
    "postal_code": "11160"
  },
  {
    "name": "Trausse",
    "code": "11396",
    "epci_code": "200035715",
    "departement_code": "11",
    "region_code": "76",
    "postal_code": "11160"
  },
  {
    "name": "Trèbes",
    "code": "11397",
    "epci_code": "200035715",
    "departement_code": "11",
    "region_code": "76",
    "postal_code": "11800"
  },
  {
    "name": "Treilles",
    "code": "11398",
    "epci_code": "241100593",
    "departement_code": "11",
    "region_code": "76",
    "postal_code": "11510"
  },
  {
    "name": "Tréville",
    "code": "11399",
    "epci_code": "200035855",
    "departement_code": "11",
    "region_code": "76",
    "postal_code": "11400"
  },
  {
    "name": "Tréziers",
    "code": "11400",
    "epci_code": "200043776",
    "departement_code": "11",
    "region_code": "76",
    "postal_code": "11230"
  },
  {
    "name": "Tuchan",
    "code": "11401",
    "epci_code": "200070365",
    "departement_code": "11",
    "region_code": "76",
    "postal_code": "11350"
  },
  {
    "name": "Valmigère",
    "code": "11402",
    "epci_code": "200071926",
    "departement_code": "11",
    "region_code": "76",
    "postal_code": "11580"
  },
  {
    "name": "Ventenac-Cabardès",
    "code": "11404",
    "epci_code": "200035715",
    "departement_code": "11",
    "region_code": "76",
    "postal_code": "11610"
  },
  {
    "name": "Ventenac-en-Minervois",
    "code": "11405",
    "epci_code": "241100593",
    "departement_code": "11",
    "region_code": "76",
    "postal_code": "11120"
  },
  {
    "name": "Véraza",
    "code": "11406",
    "epci_code": "200071926",
    "departement_code": "11",
    "region_code": "76",
    "postal_code": "11580"
  },
  {
    "name": "Verdun-en-Lauragais",
    "code": "11407",
    "epci_code": "200035855",
    "departement_code": "11",
    "region_code": "76",
    "postal_code": "11400"
  },
  {
    "name": "Verzeille",
    "code": "11408",
    "epci_code": "200035715",
    "departement_code": "11",
    "region_code": "76",
    "postal_code": "11250"
  },
  {
    "name": "Vignevieille",
    "code": "11409",
    "epci_code": "200035863",
    "departement_code": "11",
    "region_code": "76",
    "postal_code": "11330"
  },
  {
    "name": "Villalier",
    "code": "11410",
    "epci_code": "200035715",
    "departement_code": "11",
    "region_code": "76",
    "postal_code": "11600"
  },
  {
    "name": "Villanière",
    "code": "11411",
    "epci_code": "200042463",
    "departement_code": "11",
    "region_code": "76",
    "postal_code": "11600"
  },
  {
    "name": "Villardebelle",
    "code": "11412",
    "epci_code": "200071926",
    "departement_code": "11",
    "region_code": "76",
    "postal_code": "11580"
  },
  {
    "name": "Villardonnel",
    "code": "11413",
    "epci_code": "200042463",
    "departement_code": "11",
    "region_code": "76",
    "postal_code": "11600"
  },
  {
    "name": "Villar-en-Val",
    "code": "11414",
    "epci_code": "200035715",
    "departement_code": "11",
    "region_code": "76",
    "postal_code": "11220"
  },
  {
    "name": "Villar-Saint-Anselme",
    "code": "11415",
    "epci_code": "200071926",
    "departement_code": "11",
    "region_code": "76",
    "postal_code": "11250"
  },
  {
    "name": "Villarzel-Cabardès",
    "code": "11416",
    "epci_code": "200035715",
    "departement_code": "11",
    "region_code": "76",
    "postal_code": "11600"
  },
  {
    "name": "Villarzel-du-Razès",
    "code": "11417",
    "epci_code": "200071926",
    "departement_code": "11",
    "region_code": "76",
    "postal_code": "11300"
  },
  {
    "name": "Villasavary",
    "code": "11418",
    "epci_code": "200035707",
    "departement_code": "11",
    "region_code": "76",
    "postal_code": "11150"
  },
  {
    "name": "Villautou",
    "code": "11419",
    "epci_code": "200035707",
    "departement_code": "11",
    "region_code": "76",
    "postal_code": "11420"
  },
  {
    "name": "Villebazy",
    "code": "11420",
    "epci_code": "200071926",
    "departement_code": "11",
    "region_code": "76",
    "postal_code": "11250"
  },
  {
    "name": "Villedaigne",
    "code": "11421",
    "epci_code": "241100593",
    "departement_code": "11",
    "region_code": "76",
    "postal_code": "11200"
  },
  {
    "name": "Villedubert",
    "code": "11422",
    "epci_code": "200035715",
    "departement_code": "11",
    "region_code": "76",
    "postal_code": "11800"
  },
  {
    "name": "Villefloure",
    "code": "11423",
    "epci_code": "200035715",
    "departement_code": "11",
    "region_code": "76",
    "postal_code": "11570"
  },
  {
    "name": "Villefort",
    "code": "11424",
    "epci_code": "200043776",
    "departement_code": "11",
    "region_code": "76",
    "postal_code": "11230"
  },
  {
    "name": "Villegailhenc",
    "code": "11425",
    "epci_code": "200035715",
    "departement_code": "11",
    "region_code": "76",
    "postal_code": "11600"
  },
  {
    "name": "Villegly",
    "code": "11426",
    "epci_code": "200035715",
    "departement_code": "11",
    "region_code": "76",
    "postal_code": "11600"
  },
  {
    "name": "Villelongue-d’Aude",
    "code": "11427",
    "epci_code": "200071926",
    "departement_code": "11",
    "region_code": "76",
    "postal_code": "11300"
  },
  {
    "name": "Villemagne",
    "code": "11428",
    "epci_code": "200035855",
    "departement_code": "11",
    "region_code": "76",
    "postal_code": "11310"
  },
  {
    "name": "Villemoustaussou",
    "code": "11429",
    "epci_code": "200035715",
    "departement_code": "11",
    "region_code": "76",
    "postal_code": "11620"
  },
  {
    "name": "Villeneuve-la-Comptal",
    "code": "11430",
    "epci_code": "200035855",
    "departement_code": "11",
    "region_code": "76",
    "postal_code": "11400"
  },
  {
    "name": "Villeneuve-les-Corbières",
    "code": "11431",
    "epci_code": "200070365",
    "departement_code": "11",
    "region_code": "76",
    "postal_code": "11360"
  },
  {
    "name": "Villeneuve-lès-Montréal",
    "code": "11432",
    "epci_code": "200035707",
    "departement_code": "11",
    "region_code": "76",
    "postal_code": "11290"
  },
  {
    "name": "Villeneuve-Minervois",
    "code": "11433",
    "epci_code": "200035715",
    "departement_code": "11",
    "region_code": "76",
    "postal_code": "11160"
  },
  {
    "name": "Villepinte",
    "code": "11434",
    "epci_code": "200035707",
    "departement_code": "11",
    "region_code": "76",
    "postal_code": "11150"
  },
  {
    "name": "Villerouge-Termenès",
    "code": "11435",
    "epci_code": "200035863",
    "departement_code": "11",
    "region_code": "76",
    "postal_code": "11330"
  },
  {
    "name": "Villesèque-des-Corbières",
    "code": "11436",
    "epci_code": "200070365",
    "departement_code": "11",
    "region_code": "76",
    "postal_code": "11360"
  },
  {
    "name": "Villesèquelande",
    "code": "11437",
    "epci_code": "200035715",
    "departement_code": "11",
    "region_code": "76",
    "postal_code": "11170"
  },
  {
    "name": "Villesiscle",
    "code": "11438",
    "epci_code": "200035707",
    "departement_code": "11",
    "region_code": "76",
    "postal_code": "11150"
  },
  {
    "name": "Villespy",
    "code": "11439",
    "epci_code": "200035707",
    "departement_code": "11",
    "region_code": "76",
    "postal_code": "11170"
  },
  {
    "name": "Villetritouls",
    "code": "11440",
    "epci_code": "200035715",
    "departement_code": "11",
    "region_code": "76",
    "postal_code": "11220"
  },
  {
    "name": "Vinassan",
    "code": "11441",
    "epci_code": "241100593",
    "departement_code": "11",
    "region_code": "76",
    "postal_code": "11110"
  }
]