[
  {
    "name": "Aboncourt",
    "code": "57001",
    "epci_code": "245701354",
    "departement_code": "57",
    "region_code": "44",
    "postal_code": "57920"
  },
  {
    "name": "Aboncourt-sur-Seille",
    "code": "57002",
    "epci_code": "245701206",
    "departement_code": "57",
    "region_code": "44",
    "postal_code": "57590"
  },
  {
    "name": "Abreschviller",
    "code": "57003",
    "epci_code": "200068146",
    "departement_code": "57",
    "region_code": "44",
    "postal_code": "57560"
  },
  {
    "name": "Achain",
    "code": "57004",
    "epci_code": "245701206",
    "departement_code": "57",
    "region_code": "44",
    "postal_code": "57340"
  },
  {
    "name": "Achen",
    "code": "57006",
    "epci_code": "200069441",
    "departement_code": "57",
    "region_code": "44",
    "postal_code": "57412"
  },
  {
    "name": "Adaincourt",
    "code": "57007",
    "epci_code": "245700133",
    "departement_code": "57",
    "region_code": "44",
    "postal_code": "57580"
  },
  {
    "name": "Adelange",
    "code": "57008",
    "epci_code": "245700133",
    "departement_code": "57",
    "region_code": "44",
    "postal_code": "57380"
  },
  {
    "name": "Ajoncourt",
    "code": "57009",
    "epci_code": "245701206",
    "departement_code": "57",
    "region_code": "44",
    "postal_code": "57590"
  },
  {
    "name": "Alaincourt-la-Côte",
    "code": "57010",
    "epci_code": "245701206",
    "departement_code": "57",
    "region_code": "44",
    "postal_code": "57590"
  },
  {
    "name": "Albestroff",
    "code": "57011",
    "epci_code": "245701206",
    "departement_code": "57",
    "region_code": "44",
    "postal_code": "57670"
  },
  {
    "name": "Algrange",
    "code": "57012",
    "epci_code": "245701222",
    "departement_code": "57",
    "region_code": "44",
    "postal_code": "57440"
  },
  {
    "name": "Alsting",
    "code": "57013",
    "epci_code": "245700372",
    "departement_code": "57",
    "region_code": "44",
    "postal_code": "57515"
  },
  {
    "name": "Altrippe",
    "code": "57014",
    "epci_code": "200067502",
    "departement_code": "57",
    "region_code": "44",
    "postal_code": "57660"
  },
  {
    "name": "Altviller",
    "code": "57015",
    "epci_code": "200067502",
    "departement_code": "57",
    "region_code": "44",
    "postal_code": "57730"
  },
  {
    "name": "Alzing",
    "code": "57016",
    "epci_code": "200067486",
    "departement_code": "57",
    "region_code": "44",
    "postal_code": "57320"
  },
  {
    "name": "Amanvillers",
    "code": "57017",
    "epci_code": "200039865",
    "departement_code": "57",
    "region_code": "44",
    "postal_code": "57865"
  },
  {
    "name": "Amelécourt",
    "code": "57018",
    "epci_code": "245701206",
    "departement_code": "57",
    "region_code": "44",
    "postal_code": "57170"
  },
  {
    "name": "Amnéville",
    "code": "57019",
    "epci_code": "245701271",
    "departement_code": "57",
    "region_code": "44",
    "postal_code": "57360"
  },
  {
    "name": "Ancerville",
    "code": "57020",
    "epci_code": "200039907",
    "departement_code": "57",
    "region_code": "44",
    "postal_code": "57580"
  },
  {
    "name": "Ancy-Dornot",
    "code": "57021",
    "epci_code": "200070738",
    "departement_code": "57",
    "region_code": "44",
    "postal_code": "57130"
  },
  {
    "name": "Angevillers",
    "code": "57022",
    "epci_code": "245701362",
    "departement_code": "57",
    "region_code": "44",
    "postal_code": "57440"
  },
  {
    "name": "Antilly",
    "code": "57024",
    "epci_code": "200039949",
    "departement_code": "57",
    "region_code": "44",
    "postal_code": "57640"
  },
  {
    "name": "Anzeling",
    "code": "57025",
    "epci_code": "200067486",
    "departement_code": "57",
    "region_code": "44",
    "postal_code": "57320"
  },
  {
    "name": "Apach",
    "code": "57026",
    "epci_code": "200067486",
    "departement_code": "57",
    "region_code": "44",
    "postal_code": "57480"
  },
  {
    "name": "Arraincourt",
    "code": "57027",
    "epci_code": "245700133",
    "departement_code": "57",
    "region_code": "44",
    "postal_code": "57380"
  },
  {
    "name": "Argancy",
    "code": "57028",
    "epci_code": "200039949",
    "departement_code": "57",
    "region_code": "44",
    "postal_code": "57640"
  },
  {
    "name": "Arriance",
    "code": "57029",
    "epci_code": "245700133",
    "departement_code": "57",
    "region_code": "44",
    "postal_code": "57580"
  },
  {
    "name": "Arry",
    "code": "57030",
    "epci_code": "200070738",
    "departement_code": "57",
    "region_code": "44",
    "postal_code": "57680"
  },
  {
    "name": "Ars-Laquenexy",
    "code": "57031",
    "epci_code": "200039865",
    "departement_code": "57",
    "region_code": "44",
    "postal_code": "57530"
  },
  {
    "name": "Ars-sur-Moselle",
    "code": "57032",
    "epci_code": "200039865",
    "departement_code": "57",
    "region_code": "44",
    "postal_code": "57130"
  },
  {
    "name": "Arzviller",
    "code": "57033",
    "epci_code": "245700950",
    "departement_code": "57",
    "region_code": "44",
    "postal_code": "57405"
  },
  {
    "name": "Aspach",
    "code": "57034",
    "epci_code": "200068146",
    "departement_code": "57",
    "region_code": "44",
    "postal_code": "57790"
  },
  {
    "name": "Assenoncourt",
    "code": "57035",
    "epci_code": "200068146",
    "departement_code": "57",
    "region_code": "44",
    "postal_code": "57260"
  },
  {
    "name": "Attilloncourt",
    "code": "57036",
    "epci_code": "245701206",
    "departement_code": "57",
    "region_code": "44",
    "postal_code": "57170"
  },
  {
    "name": "Aube",
    "code": "57037",
    "epci_code": "200039907",
    "departement_code": "57",
    "region_code": "44",
    "postal_code": "57580"
  },
  {
    "name": "Audun-le-Tiche",
    "code": "57038",
    "epci_code": "245701404",
    "departement_code": "57",
    "region_code": "44",
    "postal_code": "57390"
  },
  {
    "name": "Augny",
    "code": "57039",
    "epci_code": "200039865",
    "departement_code": "57",
    "region_code": "44",
    "postal_code": "57685"
  },
  {
    "name": "Aulnois-sur-Seille",
    "code": "57040",
    "epci_code": "245701206",
    "departement_code": "57",
    "region_code": "44",
    "postal_code": "57590"
  },
  {
    "name": "Aumetz",
    "code": "57041",
    "epci_code": "245701404",
    "departement_code": "57",
    "region_code": "44",
    "postal_code": "57710"
  },
  {
    "name": "Avricourt",
    "code": "57042",
    "epci_code": "200068146",
    "departement_code": "57",
    "region_code": "44",
    "postal_code": "57810"
  },
  {
    "name": "Ay-sur-Moselle",
    "code": "57043",
    "epci_code": "200039949",
    "departement_code": "57",
    "region_code": "44",
    "postal_code": "57300"
  },
  {
    "name": "Azoudange",
    "code": "57044",
    "epci_code": "200068146",
    "departement_code": "57",
    "region_code": "44",
    "postal_code": "57810"
  },
  {
    "name": "Bacourt",
    "code": "57045",
    "epci_code": "245701206",
    "departement_code": "57",
    "region_code": "44",
    "postal_code": "57590"
  },
  {
    "name": "Baerenthal",
    "code": "57046",
    "epci_code": "200069441",
    "departement_code": "57",
    "region_code": "44",
    "postal_code": "57230"
  },
  {
    "name": "Bambiderstroff",
    "code": "57047",
    "epci_code": "245700133",
    "departement_code": "57",
    "region_code": "44",
    "postal_code": "57690"
  },
  {
    "name": "Bannay",
    "code": "57048",
    "epci_code": "200067650",
    "departement_code": "57",
    "region_code": "44",
    "postal_code": "57220"
  },
  {
    "name": "Le Ban-Saint-Martin",
    "code": "57049",
    "epci_code": "200039865",
    "departement_code": "57",
    "region_code": "44",
    "postal_code": "57050"
  },
  {
    "name": "Barchain",
    "code": "57050",
    "epci_code": "200068146",
    "departement_code": "57",
    "region_code": "44",
    "postal_code": "57830"
  },
  {
    "name": "Baronville",
    "code": "57051",
    "epci_code": "200067502",
    "departement_code": "57",
    "region_code": "44",
    "postal_code": "57340"
  },
  {
    "name": "Barst",
    "code": "57052",
    "epci_code": "245700398",
    "departement_code": "57",
    "region_code": "44",
    "postal_code": "57450"
  },
  {
    "name": "Bassing",
    "code": "57053",
    "epci_code": "245701206",
    "departement_code": "57",
    "region_code": "44",
    "postal_code": "57260"
  },
  {
    "name": "Baudrecourt",
    "code": "57054",
    "epci_code": "245701206",
    "departement_code": "57",
    "region_code": "44",
    "postal_code": "57580"
  },
  {
    "name": "Bazoncourt",
    "code": "57055",
    "epci_code": "200067957",
    "departement_code": "57",
    "region_code": "44",
    "postal_code": "57530"
  },
  {
    "name": "Bébing",
    "code": "57056",
    "epci_code": "200068146",
    "departement_code": "57",
    "region_code": "44",
    "postal_code": "57830"
  },
  {
    "name": "Béchy",
    "code": "57057",
    "epci_code": "200039907",
    "departement_code": "57",
    "region_code": "44",
    "postal_code": "57580"
  },
  {
    "name": "Behren-lès-Forbach",
    "code": "57058",
    "epci_code": "245700372",
    "departement_code": "57",
    "region_code": "44",
    "postal_code": "57460"
  },
  {
    "name": "Bellange",
    "code": "57059",
    "epci_code": "245701206",
    "departement_code": "57",
    "region_code": "44",
    "postal_code": "57340"
  },
  {
    "name": "Bénestroff",
    "code": "57060",
    "epci_code": "245701206",
    "departement_code": "57",
    "region_code": "44",
    "postal_code": "57670"
  },
  {
    "name": "Béning-lès-Saint-Avold",
    "code": "57061",
    "epci_code": "245700398",
    "departement_code": "57",
    "region_code": "44",
    "postal_code": "57800"
  },
  {
    "name": "Berg-sur-Moselle",
    "code": "57062",
    "epci_code": "245700695",
    "departement_code": "57",
    "region_code": "44",
    "postal_code": "57570"
  },
  {
    "name": "Bérig-Vintrange",
    "code": "57063",
    "epci_code": "200067502",
    "departement_code": "57",
    "region_code": "44",
    "postal_code": "57660"
  },
  {
    "name": "Berling",
    "code": "57064",
    "epci_code": "245700950",
    "departement_code": "57",
    "region_code": "44",
    "postal_code": "57370"
  },
  {
    "name": "Bermering",
    "code": "57065",
    "epci_code": "245701206",
    "departement_code": "57",
    "region_code": "44",
    "postal_code": "57340"
  },
  {
    "name": "Berthelming",
    "code": "57066",
    "epci_code": "200068146",
    "departement_code": "57",
    "region_code": "44",
    "postal_code": "57930"
  },
  {
    "name": "Bertrange",
    "code": "57067",
    "epci_code": "245701354",
    "departement_code": "57",
    "region_code": "44",
    "postal_code": "57310"
  },
  {
    "name": "Berviller-en-Moselle",
    "code": "57069",
    "epci_code": "200067650",
    "departement_code": "57",
    "region_code": "44",
    "postal_code": "57550"
  },
  {
    "name": "Bettange",
    "code": "57070",
    "epci_code": "200067650",
    "departement_code": "57",
    "region_code": "44",
    "postal_code": "57220"
  },
  {
    "name": "Bettborn",
    "code": "57071",
    "epci_code": "200068146",
    "departement_code": "57",
    "region_code": "44",
    "postal_code": "57930"
  },
  {
    "name": "Bettelainville",
    "code": "57072",
    "epci_code": "245701354",
    "departement_code": "57",
    "region_code": "44",
    "postal_code": "57640"
  },
  {
    "name": "Betting",
    "code": "57073",
    "epci_code": "245700398",
    "departement_code": "57",
    "region_code": "44",
    "postal_code": "57800"
  },
  {
    "name": "Bettviller",
    "code": "57074",
    "epci_code": "200069441",
    "departement_code": "57",
    "region_code": "44",
    "postal_code": "57410"
  },
  {
    "name": "Beux",
    "code": "57075",
    "epci_code": "200039907",
    "departement_code": "57",
    "region_code": "44",
    "postal_code": "57580"
  },
  {
    "name": "Beyren-lès-Sierck",
    "code": "57076",
    "epci_code": "245700695",
    "departement_code": "57",
    "region_code": "44",
    "postal_code": "57570"
  },
  {
    "name": "Bezange-la-Petite",
    "code": "57077",
    "epci_code": "245701206",
    "departement_code": "57",
    "region_code": "44",
    "postal_code": "57630"
  },
  {
    "name": "Bibiche",
    "code": "57079",
    "epci_code": "200067486",
    "departement_code": "57",
    "region_code": "44",
    "postal_code": "57320"
  },
  {
    "name": "Bickenholtz",
    "code": "57080",
    "epci_code": "200068146",
    "departement_code": "57",
    "region_code": "44",
    "postal_code": "57635"
  },
  {
    "name": "Bidestroff",
    "code": "57081",
    "epci_code": "245701206",
    "departement_code": "57",
    "region_code": "44",
    "postal_code": "57260"
  },
  {
    "name": "Biding",
    "code": "57082",
    "epci_code": "200067502",
    "departement_code": "57",
    "region_code": "44",
    "postal_code": "57660"
  },
  {
    "name": "Bining",
    "code": "57083",
    "epci_code": "200069441",
    "departement_code": "57",
    "region_code": "44",
    "postal_code": "57410"
  },
  {
    "name": "Bioncourt",
    "code": "57084",
    "epci_code": "245701206",
    "departement_code": "57",
    "region_code": "44",
    "postal_code": "57170"
  },
  {
    "name": "Bionville-sur-Nied",
    "code": "57085",
    "epci_code": "200067650",
    "departement_code": "57",
    "region_code": "44",
    "postal_code": "57220"
  },
  {
    "name": "Belles-Forêts",
    "code": "57086",
    "epci_code": "200068146",
    "departement_code": "57",
    "region_code": "44",
    "postal_code": "57930"
  },
  {
    "name": "Bisten-en-Lorraine",
    "code": "57087",
    "epci_code": "245701164",
    "departement_code": "57",
    "region_code": "44",
    "postal_code": "57220"
  },
  {
    "name": "Bistroff",
    "code": "57088",
    "epci_code": "200067502",
    "departement_code": "57",
    "region_code": "44",
    "postal_code": "57660"
  },
  {
    "name": "Bitche",
    "code": "57089",
    "epci_code": "200069441",
    "departement_code": "57",
    "region_code": "44",
    "postal_code": "57230"
  },
  {
    "name": "Blanche-Église",
    "code": "57090",
    "epci_code": "245701206",
    "departement_code": "57",
    "region_code": "44",
    "postal_code": "57260"
  },
  {
    "name": "Bliesbruck",
    "code": "57091",
    "epci_code": "200070746",
    "departement_code": "57",
    "region_code": "44",
    "postal_code": "57200"
  },
  {
    "name": "Blies-Ébersing",
    "code": "57092",
    "epci_code": "200070746",
    "departement_code": "57",
    "region_code": "44",
    "postal_code": "57200"
  },
  {
    "name": "Blies-Guersviller",
    "code": "57093",
    "epci_code": "200070746",
    "departement_code": "57",
    "region_code": "44",
    "postal_code": "57200"
  },
  {
    "name": "Boucheporn",
    "code": "57095",
    "epci_code": "245700133",
    "departement_code": "57",
    "region_code": "44",
    "postal_code": "57220"
  },
  {
    "name": "Boulange",
    "code": "57096",
    "epci_code": "245701404",
    "departement_code": "57",
    "region_code": "44",
    "postal_code": "57655"
  },
  {
    "name": "Boulay-Moselle",
    "code": "57097",
    "epci_code": "200067650",
    "departement_code": "57",
    "region_code": "44",
    "postal_code": "57220"
  },
  {
    "name": "Bourgaltroff",
    "code": "57098",
    "epci_code": "245701206",
    "departement_code": "57",
    "region_code": "44",
    "postal_code": "57260"
  },
  {
    "name": "Bourdonnay",
    "code": "57099",
    "epci_code": "245701206",
    "departement_code": "57",
    "region_code": "44",
    "postal_code": "57810"
  },
  {
    "name": "Bourscheid",
    "code": "57100",
    "epci_code": "245700950",
    "departement_code": "57",
    "region_code": "44",
    "postal_code": "57370"
  },
  {
    "name": "Bousbach",
    "code": "57101",
    "epci_code": "245700372",
    "departement_code": "57",
    "region_code": "44",
    "postal_code": "57460"
  },
  {
    "name": "Bousse",
    "code": "57102",
    "epci_code": "245701354",
    "departement_code": "57",
    "region_code": "44",
    "postal_code": "57310"
  },
  {
    "name": "Bousseviller",
    "code": "57103",
    "epci_code": "200069441",
    "departement_code": "57",
    "region_code": "44",
    "postal_code": "57230"
  },
  {
    "name": "Boust",
    "code": "57104",
    "epci_code": "245700695",
    "departement_code": "57",
    "region_code": "44",
    "postal_code": "57570"
  },
  {
    "name": "Boustroff",
    "code": "57105",
    "epci_code": "200067502",
    "departement_code": "57",
    "region_code": "44",
    "postal_code": "57380"
  },
  {
    "name": "Bouzonville",
    "code": "57106",
    "epci_code": "200067486",
    "departement_code": "57",
    "region_code": "44",
    "postal_code": "57320"
  },
  {
    "name": "Bréhain",
    "code": "57107",
    "epci_code": "245701206",
    "departement_code": "57",
    "region_code": "44",
    "postal_code": "57340"
  },
  {
    "name": "Breidenbach",
    "code": "57108",
    "epci_code": "200069441",
    "departement_code": "57",
    "region_code": "44",
    "postal_code": "57720"
  },
  {
    "name": "Breistroff-la-Grande",
    "code": "57109",
    "epci_code": "245700695",
    "departement_code": "57",
    "region_code": "44",
    "postal_code": "57570"
  },
  {
    "name": "Brettnach",
    "code": "57110",
    "epci_code": "200067486",
    "departement_code": "57",
    "region_code": "44",
    "postal_code": "57320"
  },
  {
    "name": "Bronvaux",
    "code": "57111",
    "epci_code": "245701271",
    "departement_code": "57",
    "region_code": "44",
    "postal_code": "57535"
  },
  {
    "name": "Brouck",
    "code": "57112",
    "epci_code": "200067650",
    "departement_code": "57",
    "region_code": "44",
    "postal_code": "57220"
  },
  {
    "name": "Brouderdorff",
    "code": "57113",
    "epci_code": "200068146",
    "departement_code": "57",
    "region_code": "44",
    "postal_code": "57565"
  },
  {
    "name": "Brouviller",
    "code": "57114",
    "epci_code": "245700950",
    "departement_code": "57",
    "region_code": "44",
    "postal_code": "57635"
  },
  {
    "name": "Brulange",
    "code": "57115",
    "epci_code": "200067502",
    "departement_code": "57",
    "region_code": "44",
    "postal_code": "57340"
  },
  {
    "name": "Buchy",
    "code": "57116",
    "epci_code": "200039907",
    "departement_code": "57",
    "region_code": "44",
    "postal_code": "57420"
  },
  {
    "name": "Buding",
    "code": "57117",
    "epci_code": "245701354",
    "departement_code": "57",
    "region_code": "44",
    "postal_code": "57920"
  },
  {
    "name": "Budling",
    "code": "57118",
    "epci_code": "245701354",
    "departement_code": "57",
    "region_code": "44",
    "postal_code": "57970"
  },
  {
    "name": "Buhl-Lorraine",
    "code": "57119",
    "epci_code": "200068146",
    "departement_code": "57",
    "region_code": "44",
    "postal_code": "57400"
  },
  {
    "name": "Burlioncourt",
    "code": "57120",
    "epci_code": "245701206",
    "departement_code": "57",
    "region_code": "44",
    "postal_code": "57170"
  },
  {
    "name": "Burtoncourt",
    "code": "57121",
    "epci_code": "200067957",
    "departement_code": "57",
    "region_code": "44",
    "postal_code": "57220"
  },
  {
    "name": "Cappel",
    "code": "57122",
    "epci_code": "245700398",
    "departement_code": "57",
    "region_code": "44",
    "postal_code": "57450"
  },
  {
    "name": "Carling",
    "code": "57123",
    "epci_code": "200067502",
    "departement_code": "57",
    "region_code": "44",
    "postal_code": "57490"
  },
  {
    "name": "Cattenom",
    "code": "57124",
    "epci_code": "245700695",
    "departement_code": "57",
    "region_code": "44",
    "postal_code": "57570"
  },
  {
    "name": "Chailly-lès-Ennery",
    "code": "57125",
    "epci_code": "200039949",
    "departement_code": "57",
    "region_code": "44",
    "postal_code": "57365"
  },
  {
    "name": "Chambrey",
    "code": "57126",
    "epci_code": "245701206",
    "departement_code": "57",
    "region_code": "44",
    "postal_code": "57170"
  },
  {
    "name": "Chanville",
    "code": "57127",
    "epci_code": "200039907",
    "departement_code": "57",
    "region_code": "44",
    "postal_code": "57580"
  },
  {
    "name": "Charleville-sous-Bois",
    "code": "57128",
    "epci_code": "200067957",
    "departement_code": "57",
    "region_code": "44",
    "postal_code": "57220"
  },
  {
    "name": "Charly-Oradour",
    "code": "57129",
    "epci_code": "200039949",
    "departement_code": "57",
    "region_code": "44",
    "postal_code": "57640"
  },
  {
    "name": "Château-Bréhain",
    "code": "57130",
    "epci_code": "245701206",
    "departement_code": "57",
    "region_code": "44",
    "postal_code": "57340"
  },
  {
    "name": "Château-Rouge",
    "code": "57131",
    "epci_code": "200067650",
    "departement_code": "57",
    "region_code": "44",
    "postal_code": "57320"
  },
  {
    "name": "Château-Salins",
    "code": "57132",
    "epci_code": "245701206",
    "departement_code": "57",
    "region_code": "44",
    "postal_code": "57170"
  },
  {
    "name": "Château-Voué",
    "code": "57133",
    "epci_code": "245701206",
    "departement_code": "57",
    "region_code": "44",
    "postal_code": "57170"
  },
  {
    "name": "Châtel-Saint-Germain",
    "code": "57134",
    "epci_code": "200039865",
    "departement_code": "57",
    "region_code": "44",
    "postal_code": "57160"
  },
  {
    "name": "Chémery-les-Deux",
    "code": "57136",
    "epci_code": "200067486",
    "departement_code": "57",
    "region_code": "44",
    "postal_code": "57320"
  },
  {
    "name": "Cheminot",
    "code": "57137",
    "epci_code": "200039907",
    "departement_code": "57",
    "region_code": "44",
    "postal_code": "57420"
  },
  {
    "name": "Chenois",
    "code": "57138",
    "epci_code": "245701206",
    "departement_code": "57",
    "region_code": "44",
    "postal_code": "57580"
  },
  {
    "name": "Chérisey",
    "code": "57139",
    "epci_code": "200039907",
    "departement_code": "57",
    "region_code": "44",
    "postal_code": "57420"
  },
  {
    "name": "Chesny",
    "code": "57140",
    "epci_code": "200039865",
    "departement_code": "57",
    "region_code": "44",
    "postal_code": "57245"
  },
  {
    "name": "Chicourt",
    "code": "57141",
    "epci_code": "245701206",
    "departement_code": "57",
    "region_code": "44",
    "postal_code": "57590"
  },
  {
    "name": "Chieulles",
    "code": "57142",
    "epci_code": "200039865",
    "departement_code": "57",
    "region_code": "44",
    "postal_code": "57070"
  },
  {
    "name": "Clouange",
    "code": "57143",
    "epci_code": "245701271",
    "departement_code": "57",
    "region_code": "44",
    "postal_code": "57185"
  },
  {
    "name": "Cocheren",
    "code": "57144",
    "epci_code": "245700372",
    "departement_code": "57",
    "region_code": "44",
    "postal_code": "57800"
  },
  {
    "name": "Coincy",
    "code": "57145",
    "epci_code": "200067957",
    "departement_code": "57",
    "region_code": "44",
    "postal_code": "57530"
  },
  {
    "name": "Coin-lès-Cuvry",
    "code": "57146",
    "epci_code": "200039865",
    "departement_code": "57",
    "region_code": "44",
    "postal_code": "57420"
  },
  {
    "name": "Coin-sur-Seille",
    "code": "57147",
    "epci_code": "200039865",
    "departement_code": "57",
    "region_code": "44",
    "postal_code": "57420"
  },
  {
    "name": "Colligny-Maizery",
    "code": "57148",
    "epci_code": "200067957",
    "departement_code": "57",
    "region_code": "44",
    "postal_code": "57530"
  },
  {
    "name": "Colmen",
    "code": "57149",
    "epci_code": "200067486",
    "departement_code": "57",
    "region_code": "44",
    "postal_code": "57320"
  },
  {
    "name": "Condé-Northen",
    "code": "57150",
    "epci_code": "200067650",
    "departement_code": "57",
    "region_code": "44",
    "postal_code": "57220"
  },
  {
    "name": "Conthil",
    "code": "57151",
    "epci_code": "245701206",
    "departement_code": "57",
    "region_code": "44",
    "postal_code": "57340"
  },
  {
    "name": "Contz-les-Bains",
    "code": "57152",
    "epci_code": "245700695",
    "departement_code": "57",
    "region_code": "44",
    "postal_code": "57480"
  },
  {
    "name": "Corny-sur-Moselle",
    "code": "57153",
    "epci_code": "200070738",
    "departement_code": "57",
    "region_code": "44",
    "postal_code": "57680"
  },
  {
    "name": "Coume",
    "code": "57154",
    "epci_code": "200067650",
    "departement_code": "57",
    "region_code": "44",
    "postal_code": "57220"
  },
  {
    "name": "Courcelles-Chaussy",
    "code": "57155",
    "epci_code": "200067957",
    "departement_code": "57",
    "region_code": "44",
    "postal_code": "57530"
  },
  {
    "name": "Courcelles-sur-Nied",
    "code": "57156",
    "epci_code": "200067957",
    "departement_code": "57",
    "region_code": "44",
    "postal_code": "57530"
  },
  {
    "name": "Craincourt",
    "code": "57158",
    "epci_code": "245701206",
    "departement_code": "57",
    "region_code": "44",
    "postal_code": "57590"
  },
  {
    "name": "Créhange",
    "code": "57159",
    "epci_code": "245700133",
    "departement_code": "57",
    "region_code": "44",
    "postal_code": "57690"
  },
  {
    "name": "Creutzwald",
    "code": "57160",
    "epci_code": "245701164",
    "departement_code": "57",
    "region_code": "44",
    "postal_code": "57150"
  },
  {
    "name": "Cutting",
    "code": "57161",
    "epci_code": "245701206",
    "departement_code": "57",
    "region_code": "44",
    "postal_code": "57260"
  },
  {
    "name": "Cuvry",
    "code": "57162",
    "epci_code": "200039865",
    "departement_code": "57",
    "region_code": "44",
    "postal_code": "57420"
  },
  {
    "name": "Dabo",
    "code": "57163",
    "epci_code": "245700950",
    "departement_code": "57",
    "region_code": "44",
    "postal_code": "57850"
  },
  {
    "name": "Dalem",
    "code": "57165",
    "epci_code": "200067650",
    "departement_code": "57",
    "region_code": "44",
    "postal_code": "57550"
  },
  {
    "name": "Dalhain",
    "code": "57166",
    "epci_code": "245701206",
    "departement_code": "57",
    "region_code": "44",
    "postal_code": "57340"
  },
  {
    "name": "Dalstein",
    "code": "57167",
    "epci_code": "200067486",
    "departement_code": "57",
    "region_code": "44",
    "postal_code": "57320"
  },
  {
    "name": "Danne-et-Quatre-Vents",
    "code": "57168",
    "epci_code": "245700950",
    "departement_code": "57",
    "region_code": "44",
    "postal_code": "57370"
  },
  {
    "name": "Dannelbourg",
    "code": "57169",
    "epci_code": "245700950",
    "departement_code": "57",
    "region_code": "44",
    "postal_code": "57820"
  },
  {
    "name": "Delme",
    "code": "57171",
    "epci_code": "245701206",
    "departement_code": "57",
    "region_code": "44",
    "postal_code": "57590"
  },
  {
    "name": "Denting",
    "code": "57172",
    "epci_code": "200067650",
    "departement_code": "57",
    "region_code": "44",
    "postal_code": "57220"
  },
  {
    "name": "Desseling",
    "code": "57173",
    "epci_code": "200068146",
    "departement_code": "57",
    "region_code": "44",
    "postal_code": "57260"
  },
  {
    "name": "Destry",
    "code": "57174",
    "epci_code": "200067502",
    "departement_code": "57",
    "region_code": "44",
    "postal_code": "57340"
  },
  {
    "name": "Diane-Capelle",
    "code": "57175",
    "epci_code": "200068146",
    "departement_code": "57",
    "region_code": "44",
    "postal_code": "57830"
  },
  {
    "name": "Diebling",
    "code": "57176",
    "epci_code": "245700372",
    "departement_code": "57",
    "region_code": "44",
    "postal_code": "57980"
  },
  {
    "name": "Dieuze",
    "code": "57177",
    "epci_code": "245701206",
    "departement_code": "57",
    "region_code": "44",
    "postal_code": "57260"
  },
  {
    "name": "Diffembach-lès-Hellimer",
    "code": "57178",
    "epci_code": "200067502",
    "departement_code": "57",
    "region_code": "44",
    "postal_code": "57660"
  },
  {
    "name": "Distroff",
    "code": "57179",
    "epci_code": "245701354",
    "departement_code": "57",
    "region_code": "44",
    "postal_code": "57925"
  },
  {
    "name": "Dolving",
    "code": "57180",
    "epci_code": "200068146",
    "departement_code": "57",
    "region_code": "44",
    "postal_code": "57400"
  },
  {
    "name": "Domnom-lès-Dieuze",
    "code": "57181",
    "epci_code": "245701206",
    "departement_code": "57",
    "region_code": "44",
    "postal_code": "57260"
  },
  {
    "name": "Donjeux",
    "code": "57182",
    "epci_code": "245701206",
    "departement_code": "57",
    "region_code": "44",
    "postal_code": "57590"
  },
  {
    "name": "Donnelay",
    "code": "57183",
    "epci_code": "245701206",
    "departement_code": "57",
    "region_code": "44",
    "postal_code": "57810"
  },
  {
    "name": "Ébersviller",
    "code": "57186",
    "epci_code": "200067486",
    "departement_code": "57",
    "region_code": "44",
    "postal_code": "57320"
  },
  {
    "name": "Éblange",
    "code": "57187",
    "epci_code": "200067650",
    "departement_code": "57",
    "region_code": "44",
    "postal_code": "57220"
  },
  {
    "name": "Éguelshardt",
    "code": "57188",
    "epci_code": "200069441",
    "departement_code": "57",
    "region_code": "44",
    "postal_code": "57230"
  },
  {
    "name": "Eincheville",
    "code": "57189",
    "epci_code": "200067502",
    "departement_code": "57",
    "region_code": "44",
    "postal_code": "57340"
  },
  {
    "name": "Elvange",
    "code": "57190",
    "epci_code": "245700133",
    "departement_code": "57",
    "region_code": "44",
    "postal_code": "57690"
  },
  {
    "name": "Elzange",
    "code": "57191",
    "epci_code": "245701354",
    "departement_code": "57",
    "region_code": "44",
    "postal_code": "57970"
  },
  {
    "name": "Enchenberg",
    "code": "57192",
    "epci_code": "200069441",
    "departement_code": "57",
    "region_code": "44",
    "postal_code": "57415"
  },
  {
    "name": "Ennery",
    "code": "57193",
    "epci_code": "200039949",
    "departement_code": "57",
    "region_code": "44",
    "postal_code": "57365"
  },
  {
    "name": "Entrange",
    "code": "57194",
    "epci_code": "245700695",
    "departement_code": "57",
    "region_code": "44",
    "postal_code": "57330"
  },
  {
    "name": "Epping",
    "code": "57195",
    "epci_code": "200069441",
    "departement_code": "57",
    "region_code": "44",
    "postal_code": "57720"
  },
  {
    "name": "Erching",
    "code": "57196",
    "epci_code": "200069441",
    "departement_code": "57",
    "region_code": "44",
    "postal_code": "57720"
  },
  {
    "name": "Ernestviller",
    "code": "57197",
    "epci_code": "200070746",
    "departement_code": "57",
    "region_code": "44",
    "postal_code": "57510"
  },
  {
    "name": "Erstroff",
    "code": "57198",
    "epci_code": "200067502",
    "departement_code": "57",
    "region_code": "44",
    "postal_code": "57660"
  },
  {
    "name": "Escherange",
    "code": "57199",
    "epci_code": "245700695",
    "departement_code": "57",
    "region_code": "44",
    "postal_code": "57330"
  },
  {
    "name": "Les Étangs",
    "code": "57200",
    "epci_code": "200067957",
    "departement_code": "57",
    "region_code": "44",
    "postal_code": "57530"
  },
  {
    "name": "Etting",
    "code": "57201",
    "epci_code": "200069441",
    "departement_code": "57",
    "region_code": "44",
    "postal_code": "57412"
  },
  {
    "name": "Etzling",
    "code": "57202",
    "epci_code": "245700372",
    "departement_code": "57",
    "region_code": "44",
    "postal_code": "57460"
  },
  {
    "name": "Évrange",
    "code": "57203",
    "epci_code": "245700695",
    "departement_code": "57",
    "region_code": "44",
    "postal_code": "57570"
  },
  {
    "name": "Failly",
    "code": "57204",
    "epci_code": "200067957",
    "departement_code": "57",
    "region_code": "44",
    "postal_code": "57640"
  },
  {
    "name": "Falck",
    "code": "57205",
    "epci_code": "200067650",
    "departement_code": "57",
    "region_code": "44",
    "postal_code": "57550"
  },
  {
    "name": "Fameck",
    "code": "57206",
    "epci_code": "245701222",
    "departement_code": "57",
    "region_code": "44",
    "postal_code": "57290"
  },
  {
    "name": "Farébersviller",
    "code": "57207",
    "epci_code": "245700398",
    "departement_code": "57",
    "region_code": "44",
    "postal_code": "57450"
  },
  {
    "name": "Farschviller",
    "code": "57208",
    "epci_code": "245700372",
    "departement_code": "57",
    "region_code": "44",
    "postal_code": "57450"
  },
  {
    "name": "Faulquemont",
    "code": "57209",
    "epci_code": "245700133",
    "departement_code": "57",
    "region_code": "44",
    "postal_code": "57380"
  },
  {
    "name": "Fénétrange",
    "code": "57210",
    "epci_code": "200068146",
    "departement_code": "57",
    "region_code": "44",
    "postal_code": "57930"
  },
  {
    "name": "Fèves",
    "code": "57211",
    "epci_code": "200039949",
    "departement_code": "57",
    "region_code": "44",
    "postal_code": "57280"
  },
  {
    "name": "Féy",
    "code": "57212",
    "epci_code": "200039865",
    "departement_code": "57",
    "region_code": "44",
    "postal_code": "57420"
  },
  {
    "name": "Filstroff",
    "code": "57213",
    "epci_code": "200067486",
    "departement_code": "57",
    "region_code": "44",
    "postal_code": "57320"
  },
  {
    "name": "Fixem",
    "code": "57214",
    "epci_code": "245700695",
    "departement_code": "57",
    "region_code": "44",
    "postal_code": "57570"
  },
  {
    "name": "Flastroff",
    "code": "57215",
    "epci_code": "200067486",
    "departement_code": "57",
    "region_code": "44",
    "postal_code": "57320"
  },
  {
    "name": "Fleisheim",
    "code": "57216",
    "epci_code": "200068146",
    "departement_code": "57",
    "region_code": "44",
    "postal_code": "57635"
  },
  {
    "name": "Flétrange",
    "code": "57217",
    "epci_code": "245700133",
    "departement_code": "57",
    "region_code": "44",
    "postal_code": "57690"
  },
  {
    "name": "Fleury",
    "code": "57218",
    "epci_code": "200039907",
    "departement_code": "57",
    "region_code": "44",
    "postal_code": "57420"
  },
  {
    "name": "Flévy",
    "code": "57219",
    "epci_code": "200039949",
    "departement_code": "57",
    "region_code": "44",
    "postal_code": "57365"
  },
  {
    "name": "Flocourt",
    "code": "57220",
    "epci_code": "200039907",
    "departement_code": "57",
    "region_code": "44",
    "postal_code": "57580"
  },
  {
    "name": "Florange",
    "code": "57221",
    "epci_code": "245701222",
    "departement_code": "57",
    "region_code": "44",
    "postal_code": "57190"
  },
  {
    "name": "Folkling",
    "code": "57222",
    "epci_code": "245700372",
    "departement_code": "57",
    "region_code": "44",
    "postal_code": "57600"
  },
  {
    "name": "Folschviller",
    "code": "57224",
    "epci_code": "200067502",
    "departement_code": "57",
    "region_code": "44",
    "postal_code": "57730"
  },
  {
    "name": "Fonteny",
    "code": "57225",
    "epci_code": "245701206",
    "departement_code": "57",
    "region_code": "44",
    "postal_code": "57590"
  },
  {
    "name": "Fontoy",
    "code": "57226",
    "epci_code": "245701362",
    "departement_code": "57",
    "region_code": "44",
    "postal_code": "57650"
  },
  {
    "name": "Forbach",
    "code": "57227",
    "epci_code": "245700372",
    "departement_code": "57",
    "region_code": "44",
    "postal_code": "57600"
  },
  {
    "name": "Fossieux",
    "code": "57228",
    "epci_code": "245701206",
    "departement_code": "57",
    "region_code": "44",
    "postal_code": "57590"
  },
  {
    "name": "Foulcrey",
    "code": "57229",
    "epci_code": "200068146",
    "departement_code": "57",
    "region_code": "44",
    "postal_code": "57830"
  },
  {
    "name": "Fouligny",
    "code": "57230",
    "epci_code": "245700133",
    "departement_code": "57",
    "region_code": "44",
    "postal_code": "57220"
  },
  {
    "name": "Foville",
    "code": "57231",
    "epci_code": "200039907",
    "departement_code": "57",
    "region_code": "44",
    "postal_code": "57420"
  },
  {
    "name": "Francaltroff",
    "code": "57232",
    "epci_code": "245701206",
    "departement_code": "57",
    "region_code": "44",
    "postal_code": "57670"
  },
  {
    "name": "Fraquelfing",
    "code": "57233",
    "epci_code": "200068146",
    "departement_code": "57",
    "region_code": "44",
    "postal_code": "57790"
  },
  {
    "name": "Frauenberg",
    "code": "57234",
    "epci_code": "200070746",
    "departement_code": "57",
    "region_code": "44",
    "postal_code": "57200"
  },
  {
    "name": "Freistroff",
    "code": "57235",
    "epci_code": "200067486",
    "departement_code": "57",
    "region_code": "44",
    "postal_code": "57320"
  },
  {
    "name": "Frémery",
    "code": "57236",
    "epci_code": "245701206",
    "departement_code": "57",
    "region_code": "44",
    "postal_code": "57590"
  },
  {
    "name": "Frémestroff",
    "code": "57237",
    "epci_code": "200067502",
    "departement_code": "57",
    "region_code": "44",
    "postal_code": "57660"
  },
  {
    "name": "Fresnes-en-Saulnois",
    "code": "57238",
    "epci_code": "245701206",
    "departement_code": "57",
    "region_code": "44",
    "postal_code": "57170"
  },
  {
    "name": "Freybouse",
    "code": "57239",
    "epci_code": "200067502",
    "departement_code": "57",
    "region_code": "44",
    "postal_code": "57660"
  },
  {
    "name": "Freyming-Merlebach",
    "code": "57240",
    "epci_code": "245700398",
    "departement_code": "57",
    "region_code": "44",
    "postal_code": "57800"
  },
  {
    "name": "Fribourg",
    "code": "57241",
    "epci_code": "200068146",
    "departement_code": "57",
    "region_code": "44",
    "postal_code": "57810"
  },
  {
    "name": "Gandrange",
    "code": "57242",
    "epci_code": "200039949",
    "departement_code": "57",
    "region_code": "44",
    "postal_code": "57175"
  },
  {
    "name": "Garrebourg",
    "code": "57244",
    "epci_code": "245700950",
    "departement_code": "57",
    "region_code": "44",
    "postal_code": "57820"
  },
  {
    "name": "Gavisse",
    "code": "57245",
    "epci_code": "245700695",
    "departement_code": "57",
    "region_code": "44",
    "postal_code": "57570"
  },
  {
    "name": "Gelucourt",
    "code": "57246",
    "epci_code": "245701206",
    "departement_code": "57",
    "region_code": "44",
    "postal_code": "57260"
  },
  {
    "name": "Gerbécourt",
    "code": "57247",
    "epci_code": "245701206",
    "departement_code": "57",
    "region_code": "44",
    "postal_code": "57170"
  },
  {
    "name": "Givrycourt",
    "code": "57248",
    "epci_code": "245701206",
    "departement_code": "57",
    "region_code": "44",
    "postal_code": "57670"
  },
  {
    "name": "Glatigny",
    "code": "57249",
    "epci_code": "200067957",
    "departement_code": "57",
    "region_code": "44",
    "postal_code": "57530"
  },
  {
    "name": "Goetzenbruck",
    "code": "57250",
    "epci_code": "200069441",
    "departement_code": "57",
    "region_code": "44",
    "postal_code": "57620"
  },
  {
    "name": "Goin",
    "code": "57251",
    "epci_code": "200039907",
    "departement_code": "57",
    "region_code": "44",
    "postal_code": "57420"
  },
  {
    "name": "Gomelange",
    "code": "57252",
    "epci_code": "200067650",
    "departement_code": "57",
    "region_code": "44",
    "postal_code": "57220"
  },
  {
    "name": "Gondrexange",
    "code": "57253",
    "epci_code": "200068146",
    "departement_code": "57",
    "region_code": "44",
    "postal_code": "57815"
  },
  {
    "name": "Gorze",
    "code": "57254",
    "epci_code": "200070738",
    "departement_code": "57",
    "region_code": "44",
    "postal_code": "57680"
  },
  {
    "name": "Gosselming",
    "code": "57255",
    "epci_code": "200068146",
    "departement_code": "57",
    "region_code": "44",
    "postal_code": "57930"
  },
  {
    "name": "Gravelotte",
    "code": "57256",
    "epci_code": "200039865",
    "departement_code": "57",
    "region_code": "44",
    "postal_code": "57130"
  },
  {
    "name": "Grémecey",
    "code": "57257",
    "epci_code": "245701206",
    "departement_code": "57",
    "region_code": "44",
    "postal_code": "57170"
  },
  {
    "name": "Gréning",
    "code": "57258",
    "epci_code": "200067502",
    "departement_code": "57",
    "region_code": "44",
    "postal_code": "57660"
  },
  {
    "name": "Grindorff-Bizing",
    "code": "57259",
    "epci_code": "200067486",
    "departement_code": "57",
    "region_code": "44",
    "postal_code": "57480"
  },
  {
    "name": "Grosbliederstroff",
    "code": "57260",
    "epci_code": "200070746",
    "departement_code": "57",
    "region_code": "44",
    "postal_code": "57520"
  },
  {
    "name": "Gros-Réderching",
    "code": "57261",
    "epci_code": "200069441",
    "departement_code": "57",
    "region_code": "44",
    "postal_code": "57410"
  },
  {
    "name": "Grostenquin",
    "code": "57262",
    "epci_code": "200067502",
    "departement_code": "57",
    "region_code": "44",
    "postal_code": "57660"
  },
  {
    "name": "Grundviller",
    "code": "57263",
    "epci_code": "200070746",
    "departement_code": "57",
    "region_code": "44",
    "postal_code": "57510"
  },
  {
    "name": "Guebenhouse",
    "code": "57264",
    "epci_code": "200070746",
    "departement_code": "57",
    "region_code": "44",
    "postal_code": "57510"
  },
  {
    "name": "Guébestroff",
    "code": "57265",
    "epci_code": "245701206",
    "departement_code": "57",
    "region_code": "44",
    "postal_code": "57260"
  },
  {
    "name": "Guéblange-lès-Dieuze",
    "code": "57266",
    "epci_code": "245701206",
    "departement_code": "57",
    "region_code": "44",
    "postal_code": "57260"
  },
  {
    "name": "Le Val-de-Guéblange",
    "code": "57267",
    "epci_code": "200070746",
    "departement_code": "57",
    "region_code": "44",
    "postal_code": "57430"
  },
  {
    "name": "Guébling",
    "code": "57268",
    "epci_code": "245701206",
    "departement_code": "57",
    "region_code": "44",
    "postal_code": "57260"
  },
  {
    "name": "Guénange",
    "code": "57269",
    "epci_code": "245701354",
    "departement_code": "57",
    "region_code": "44",
    "postal_code": "57310"
  },
  {
    "name": "Val-de-Bride",
    "code": "57270",
    "epci_code": "245701206",
    "departement_code": "57",
    "region_code": "44",
    "postal_code": "57260"
  },
  {
    "name": "Guenviller",
    "code": "57271",
    "epci_code": "245700398",
    "departement_code": "57",
    "region_code": "44",
    "postal_code": "57470"
  },
  {
    "name": "Guermange",
    "code": "57272",
    "epci_code": "200068146",
    "departement_code": "57",
    "region_code": "44",
    "postal_code": "57260"
  },
  {
    "name": "Guerstling",
    "code": "57273",
    "epci_code": "200067486",
    "departement_code": "57",
    "region_code": "44",
    "postal_code": "57320"
  },
  {
    "name": "Guerting",
    "code": "57274",
    "epci_code": "245701164",
    "departement_code": "57",
    "region_code": "44",
    "postal_code": "57880"
  },
  {
    "name": "Guessling-Hémering",
    "code": "57275",
    "epci_code": "200067502",
    "departement_code": "57",
    "region_code": "44",
    "postal_code": "57380"
  },
  {
    "name": "Guinglange",
    "code": "57276",
    "epci_code": "245700133",
    "departement_code": "57",
    "region_code": "44",
    "postal_code": "57690"
  },
  {
    "name": "Guinkirchen",
    "code": "57277",
    "epci_code": "200067650",
    "departement_code": "57",
    "region_code": "44",
    "postal_code": "57220"
  },
  {
    "name": "Guinzeling",
    "code": "57278",
    "epci_code": "245701206",
    "departement_code": "57",
    "region_code": "44",
    "postal_code": "57670"
  },
  {
    "name": "Guntzviller",
    "code": "57280",
    "epci_code": "245700950",
    "departement_code": "57",
    "region_code": "44",
    "postal_code": "57405"
  },
  {
    "name": "Haboudange",
    "code": "57281",
    "epci_code": "245701206",
    "departement_code": "57",
    "region_code": "44",
    "postal_code": "57340"
  },
  {
    "name": "Hagen",
    "code": "57282",
    "epci_code": "245700695",
    "departement_code": "57",
    "region_code": "44",
    "postal_code": "57570"
  },
  {
    "name": "Hagondange",
    "code": "57283",
    "epci_code": "200039949",
    "departement_code": "57",
    "region_code": "44",
    "postal_code": "57300"
  },
  {
    "name": "Hallering",
    "code": "57284",
    "epci_code": "245700133",
    "departement_code": "57",
    "region_code": "44",
    "postal_code": "57690"
  },
  {
    "name": "Halstroff",
    "code": "57286",
    "epci_code": "200067486",
    "departement_code": "57",
    "region_code": "44",
    "postal_code": "57480"
  },
  {
    "name": "Basse-Ham",
    "code": "57287",
    "epci_code": "245701362",
    "departement_code": "57",
    "region_code": "44",
    "postal_code": "57970"
  },
  {
    "name": "Ham-sous-Varsberg",
    "code": "57288",
    "epci_code": "245701164",
    "departement_code": "57",
    "region_code": "44",
    "postal_code": "57880"
  },
  {
    "name": "Hambach",
    "code": "57289",
    "epci_code": "200070746",
    "departement_code": "57",
    "region_code": "44",
    "postal_code": "57910"
  },
  {
    "name": "Hampont",
    "code": "57290",
    "epci_code": "245701206",
    "departement_code": "57",
    "region_code": "44",
    "postal_code": "57170"
  },
  {
    "name": "Hangviller",
    "code": "57291",
    "epci_code": "245700950",
    "departement_code": "57",
    "region_code": "44",
    "postal_code": "57370"
  },
  {
    "name": "Hannocourt",
    "code": "57292",
    "epci_code": "245701206",
    "departement_code": "57",
    "region_code": "44",
    "postal_code": "57590"
  },
  {
    "name": "Han-sur-Nied",
    "code": "57293",
    "epci_code": "245700133",
    "departement_code": "57",
    "region_code": "44",
    "postal_code": "57580"
  },
  {
    "name": "Hanviller",
    "code": "57294",
    "epci_code": "200069441",
    "departement_code": "57",
    "region_code": "44",
    "postal_code": "57230"
  },
  {
    "name": "Haraucourt-sur-Seille",
    "code": "57295",
    "epci_code": "245701206",
    "departement_code": "57",
    "region_code": "44",
    "postal_code": "57630"
  },
  {
    "name": "Hargarten-aux-Mines",
    "code": "57296",
    "epci_code": "200067650",
    "departement_code": "57",
    "region_code": "44",
    "postal_code": "57550"
  },
  {
    "name": "Harprich",
    "code": "57297",
    "epci_code": "200067502",
    "departement_code": "57",
    "region_code": "44",
    "postal_code": "57340"
  },
  {
    "name": "Harreberg",
    "code": "57298",
    "epci_code": "200068146",
    "departement_code": "57",
    "region_code": "44",
    "postal_code": "57870"
  },
  {
    "name": "Hartzviller",
    "code": "57299",
    "epci_code": "200068146",
    "departement_code": "57",
    "region_code": "44",
    "postal_code": "57870"
  },
  {
    "name": "Haselbourg",
    "code": "57300",
    "epci_code": "245700950",
    "departement_code": "57",
    "region_code": "44",
    "postal_code": "57850"
  },
  {
    "name": "Haspelschiedt",
    "code": "57301",
    "epci_code": "200069441",
    "departement_code": "57",
    "region_code": "44",
    "postal_code": "57230"
  },
  {
    "name": "Hattigny",
    "code": "57302",
    "epci_code": "200068146",
    "departement_code": "57",
    "region_code": "44",
    "postal_code": "57790"
  },
  {
    "name": "Hauconcourt",
    "code": "57303",
    "epci_code": "200039949",
    "departement_code": "57",
    "region_code": "44",
    "postal_code": "57280"
  },
  {
    "name": "Haut-Clocher",
    "code": "57304",
    "epci_code": "200068146",
    "departement_code": "57",
    "region_code": "44",
    "postal_code": "57400"
  },
  {
    "name": "Havange",
    "code": "57305",
    "epci_code": "245701362",
    "departement_code": "57",
    "region_code": "44",
    "postal_code": "57650"
  },
  {
    "name": "Hayange",
    "code": "57306",
    "epci_code": "245701222",
    "departement_code": "57",
    "region_code": "44",
    "postal_code": "57700"
  },
  {
    "name": "Hayes",
    "code": "57307",
    "epci_code": "200067957",
    "departement_code": "57",
    "region_code": "44",
    "postal_code": "57530"
  },
  {
    "name": "Hazembourg",
    "code": "57308",
    "epci_code": "200070746",
    "departement_code": "57",
    "region_code": "44",
    "postal_code": "57430"
  },
  {
    "name": "Heining-lès-Bouzonville",
    "code": "57309",
    "epci_code": "200067486",
    "departement_code": "57",
    "region_code": "44",
    "postal_code": "57320"
  },
  {
    "name": "Hellering-lès-Fénétrange",
    "code": "57310",
    "epci_code": "200068146",
    "departement_code": "57",
    "region_code": "44",
    "postal_code": "57930"
  },
  {
    "name": "Hellimer",
    "code": "57311",
    "epci_code": "200067502",
    "departement_code": "57",
    "region_code": "44",
    "postal_code": "57660"
  },
  {
    "name": "Helstroff",
    "code": "57312",
    "epci_code": "200067650",
    "departement_code": "57",
    "region_code": "44",
    "postal_code": "57220"
  },
  {
    "name": "Hémilly",
    "code": "57313",
    "epci_code": "245700133",
    "departement_code": "57",
    "region_code": "44",
    "postal_code": "57690"
  },
  {
    "name": "Héming",
    "code": "57314",
    "epci_code": "200068146",
    "departement_code": "57",
    "region_code": "44",
    "postal_code": "57830"
  },
  {
    "name": "Henridorff",
    "code": "57315",
    "epci_code": "245700950",
    "departement_code": "57",
    "region_code": "44",
    "postal_code": "57820"
  },
  {
    "name": "Henriville",
    "code": "57316",
    "epci_code": "245700398",
    "departement_code": "57",
    "region_code": "44",
    "postal_code": "57450"
  },
  {
    "name": "Hérange",
    "code": "57317",
    "epci_code": "245700950",
    "departement_code": "57",
    "region_code": "44",
    "postal_code": "57635"
  },
  {
    "name": "Hermelange",
    "code": "57318",
    "epci_code": "200068146",
    "departement_code": "57",
    "region_code": "44",
    "postal_code": "57790"
  },
  {
    "name": "Herny",
    "code": "57319",
    "epci_code": "245700133",
    "departement_code": "57",
    "region_code": "44",
    "postal_code": "57580"
  },
  {
    "name": "Hertzing",
    "code": "57320",
    "epci_code": "200068146",
    "departement_code": "57",
    "region_code": "44",
    "postal_code": "57830"
  },
  {
    "name": "Hesse",
    "code": "57321",
    "epci_code": "200068146",
    "departement_code": "57",
    "region_code": "44",
    "postal_code": "57400"
  },
  {
    "name": "Hestroff",
    "code": "57322",
    "epci_code": "200067486",
    "departement_code": "57",
    "region_code": "44",
    "postal_code": "57320"
  },
  {
    "name": "Hettange-Grande",
    "code": "57323",
    "epci_code": "245700695",
    "departement_code": "57",
    "region_code": "44",
    "postal_code": "57330"
  },
  {
    "name": "Hilbesheim",
    "code": "57324",
    "epci_code": "200068146",
    "departement_code": "57",
    "region_code": "44",
    "postal_code": "57400"
  },
  {
    "name": "Hilsprich",
    "code": "57325",
    "epci_code": "200070746",
    "departement_code": "57",
    "region_code": "44",
    "postal_code": "57510"
  },
  {
    "name": "Hinckange",
    "code": "57326",
    "epci_code": "200067650",
    "departement_code": "57",
    "region_code": "44",
    "postal_code": "57220"
  },
  {
    "name": "Holacourt",
    "code": "57328",
    "epci_code": "245700133",
    "departement_code": "57",
    "region_code": "44",
    "postal_code": "57380"
  },
  {
    "name": "Holling",
    "code": "57329",
    "epci_code": "200067486",
    "departement_code": "57",
    "region_code": "44",
    "postal_code": "57220"
  },
  {
    "name": "Holving",
    "code": "57330",
    "epci_code": "200070746",
    "departement_code": "57",
    "region_code": "44",
    "postal_code": "57510"
  },
  {
    "name": "Hombourg-Budange",
    "code": "57331",
    "epci_code": "245701354",
    "departement_code": "57",
    "region_code": "44",
    "postal_code": "57920"
  },
  {
    "name": "Hombourg-Haut",
    "code": "57332",
    "epci_code": "245700398",
    "departement_code": "57",
    "region_code": "44",
    "postal_code": "57470"
  },
  {
    "name": "Hommarting",
    "code": "57333",
    "epci_code": "200068146",
    "departement_code": "57",
    "region_code": "44",
    "postal_code": "57405"
  },
  {
    "name": "Hommert",
    "code": "57334",
    "epci_code": "200068146",
    "departement_code": "57",
    "region_code": "44",
    "postal_code": "57870"
  },
  {
    "name": "Honskirch",
    "code": "57335",
    "epci_code": "245701206",
    "departement_code": "57",
    "region_code": "44",
    "postal_code": "57670"
  },
  {
    "name": "L’Hôpital",
    "code": "57336",
    "epci_code": "200067502",
    "departement_code": "57",
    "region_code": "44",
    "postal_code": "57490"
  },
  {
    "name": "Hoste",
    "code": "57337",
    "epci_code": "245700398",
    "departement_code": "57",
    "region_code": "44",
    "postal_code": "57510"
  },
  {
    "name": "Hottviller",
    "code": "57338",
    "epci_code": "200069441",
    "departement_code": "57",
    "region_code": "44",
    "postal_code": "57720"
  },
  {
    "name": "Hultehouse",
    "code": "57339",
    "epci_code": "245700950",
    "departement_code": "57",
    "region_code": "44",
    "postal_code": "57820"
  },
  {
    "name": "Hundling",
    "code": "57340",
    "epci_code": "200070746",
    "departement_code": "57",
    "region_code": "44",
    "postal_code": "57990"
  },
  {
    "name": "Hunting",
    "code": "57341",
    "epci_code": "200067486",
    "departement_code": "57",
    "region_code": "44",
    "postal_code": "57480"
  },
  {
    "name": "Ibigny",
    "code": "57342",
    "epci_code": "200068146",
    "departement_code": "57",
    "region_code": "44",
    "postal_code": "57830"
  },
  {
    "name": "Illange",
    "code": "57343",
    "epci_code": "245701362",
    "departement_code": "57",
    "region_code": "44",
    "postal_code": "57970"
  },
  {
    "name": "Imling",
    "code": "57344",
    "epci_code": "200068146",
    "departement_code": "57",
    "region_code": "44",
    "postal_code": "57400"
  },
  {
    "name": "Inglange",
    "code": "57345",
    "epci_code": "245701354",
    "departement_code": "57",
    "region_code": "44",
    "postal_code": "57970"
  },
  {
    "name": "Insming",
    "code": "57346",
    "epci_code": "245701206",
    "departement_code": "57",
    "region_code": "44",
    "postal_code": "57670"
  },
  {
    "name": "Insviller",
    "code": "57347",
    "epci_code": "245701206",
    "departement_code": "57",
    "region_code": "44",
    "postal_code": "57670"
  },
  {
    "name": "Ippling",
    "code": "57348",
    "epci_code": "200070746",
    "departement_code": "57",
    "region_code": "44",
    "postal_code": "57990"
  },
  {
    "name": "Jallaucourt",
    "code": "57349",
    "epci_code": "245701206",
    "departement_code": "57",
    "region_code": "44",
    "postal_code": "57590"
  },
  {
    "name": "Jouy-aux-Arches",
    "code": "57350",
    "epci_code": "200070738",
    "departement_code": "57",
    "region_code": "44",
    "postal_code": "57130"
  },
  {
    "name": "Jury",
    "code": "57351",
    "epci_code": "200039865",
    "departement_code": "57",
    "region_code": "44",
    "postal_code": "57245"
  },
  {
    "name": "Jussy",
    "code": "57352",
    "epci_code": "200039865",
    "departement_code": "57",
    "region_code": "44",
    "postal_code": "57130"
  },
  {
    "name": "Juvelize",
    "code": "57353",
    "epci_code": "245701206",
    "departement_code": "57",
    "region_code": "44",
    "postal_code": "57630"
  },
  {
    "name": "Juville",
    "code": "57354",
    "epci_code": "245701206",
    "departement_code": "57",
    "region_code": "44",
    "postal_code": "57590"
  },
  {
    "name": "Kalhausen",
    "code": "57355",
    "epci_code": "200070746",
    "departement_code": "57",
    "region_code": "44",
    "postal_code": "57412"
  },
  {
    "name": "Kanfen",
    "code": "57356",
    "epci_code": "245700695",
    "departement_code": "57",
    "region_code": "44",
    "postal_code": "57330"
  },
  {
    "name": "Kappelkinger",
    "code": "57357",
    "epci_code": "200070746",
    "departement_code": "57",
    "region_code": "44",
    "postal_code": "57430"
  },
  {
    "name": "Kédange-sur-Canner",
    "code": "57358",
    "epci_code": "245701354",
    "departement_code": "57",
    "region_code": "44",
    "postal_code": "57920"
  },
  {
    "name": "Kemplich",
    "code": "57359",
    "epci_code": "245701354",
    "departement_code": "57",
    "region_code": "44",
    "postal_code": "57920"
  },
  {
    "name": "Kerbach",
    "code": "57360",
    "epci_code": "245700372",
    "departement_code": "57",
    "region_code": "44",
    "postal_code": "57460"
  },
  {
    "name": "Kerling-lès-Sierck",
    "code": "57361",
    "epci_code": "200067486",
    "departement_code": "57",
    "region_code": "44",
    "postal_code": "57480"
  },
  {
    "name": "Kerprich-aux-Bois",
    "code": "57362",
    "epci_code": "200068146",
    "departement_code": "57",
    "region_code": "44",
    "postal_code": "57830"
  },
  {
    "name": "Kirsch-lès-Sierck",
    "code": "57364",
    "epci_code": "200067486",
    "departement_code": "57",
    "region_code": "44",
    "postal_code": "57480"
  },
  {
    "name": "Kirschnaumen",
    "code": "57365",
    "epci_code": "200067486",
    "departement_code": "57",
    "region_code": "44",
    "postal_code": "57480"
  },
  {
    "name": "Kirviller",
    "code": "57366",
    "epci_code": "200070746",
    "departement_code": "57",
    "region_code": "44",
    "postal_code": "57430"
  },
  {
    "name": "Klang",
    "code": "57367",
    "epci_code": "245701354",
    "departement_code": "57",
    "region_code": "44",
    "postal_code": "57920"
  },
  {
    "name": "Knutange",
    "code": "57368",
    "epci_code": "245701222",
    "departement_code": "57",
    "region_code": "44",
    "postal_code": "57240"
  },
  {
    "name": "Kœnigsmacker",
    "code": "57370",
    "epci_code": "245701354",
    "departement_code": "57",
    "region_code": "44",
    "postal_code": "57970"
  },
  {
    "name": "Haute-Kontz",
    "code": "57371",
    "epci_code": "245700695",
    "departement_code": "57",
    "region_code": "44",
    "postal_code": "57480"
  },
  {
    "name": "Kuntzig",
    "code": "57372",
    "epci_code": "245701362",
    "departement_code": "57",
    "region_code": "44",
    "postal_code": "57970"
  },
  {
    "name": "Lachambre",
    "code": "57373",
    "epci_code": "200067502",
    "departement_code": "57",
    "region_code": "44",
    "postal_code": "57730"
  },
  {
    "name": "Lafrimbolle",
    "code": "57374",
    "epci_code": "200068146",
    "departement_code": "57",
    "region_code": "44",
    "postal_code": "57560"
  },
  {
    "name": "Lagarde",
    "code": "57375",
    "epci_code": "245701206",
    "departement_code": "57",
    "region_code": "44",
    "postal_code": "57810"
  },
  {
    "name": "Lambach",
    "code": "57376",
    "epci_code": "200069441",
    "departement_code": "57",
    "region_code": "44",
    "postal_code": "57410"
  },
  {
    "name": "Landange",
    "code": "57377",
    "epci_code": "200068146",
    "departement_code": "57",
    "region_code": "44",
    "postal_code": "57830"
  },
  {
    "name": "Landroff",
    "code": "57379",
    "epci_code": "200067502",
    "departement_code": "57",
    "region_code": "44",
    "postal_code": "57340"
  },
  {
    "name": "Laneuveville-lès-Lorquin",
    "code": "57380",
    "epci_code": "200068146",
    "departement_code": "57",
    "region_code": "44",
    "postal_code": "57790"
  },
  {
    "name": "Laneuveville-en-Saulnois",
    "code": "57381",
    "epci_code": "245701206",
    "departement_code": "57",
    "region_code": "44",
    "postal_code": "57590"
  },
  {
    "name": "Langatte",
    "code": "57382",
    "epci_code": "200068146",
    "departement_code": "57",
    "region_code": "44",
    "postal_code": "57400"
  },
  {
    "name": "Languimberg",
    "code": "57383",
    "epci_code": "200068146",
    "departement_code": "57",
    "region_code": "44",
    "postal_code": "57810"
  },
  {
    "name": "Laning",
    "code": "57384",
    "epci_code": "200067502",
    "departement_code": "57",
    "region_code": "44",
    "postal_code": "57660"
  },
  {
    "name": "Laquenexy",
    "code": "57385",
    "epci_code": "200039865",
    "departement_code": "57",
    "region_code": "44",
    "postal_code": "57530"
  },
  {
    "name": "Laudrefang",
    "code": "57386",
    "epci_code": "245700133",
    "departement_code": "57",
    "region_code": "44",
    "postal_code": "57385"
  },
  {
    "name": "Laumesfeld",
    "code": "57387",
    "epci_code": "200067486",
    "departement_code": "57",
    "region_code": "44",
    "postal_code": "57480"
  },
  {
    "name": "Launstroff",
    "code": "57388",
    "epci_code": "200067486",
    "departement_code": "57",
    "region_code": "44",
    "postal_code": "57480"
  },
  {
    "name": "Lelling",
    "code": "57389",
    "epci_code": "200067502",
    "departement_code": "57",
    "region_code": "44",
    "postal_code": "57660"
  },
  {
    "name": "Lemberg",
    "code": "57390",
    "epci_code": "200069441",
    "departement_code": "57",
    "region_code": "44",
    "postal_code": "57620"
  },
  {
    "name": "Lemoncourt",
    "code": "57391",
    "epci_code": "245701206",
    "departement_code": "57",
    "region_code": "44",
    "postal_code": "57590"
  },
  {
    "name": "Lemud",
    "code": "57392",
    "epci_code": "200039907",
    "departement_code": "57",
    "region_code": "44",
    "postal_code": "57580"
  },
  {
    "name": "Lengelsheim",
    "code": "57393",
    "epci_code": "200069441",
    "departement_code": "57",
    "region_code": "44",
    "postal_code": "57720"
  },
  {
    "name": "Léning",
    "code": "57394",
    "epci_code": "245701206",
    "departement_code": "57",
    "region_code": "44",
    "postal_code": "57670"
  },
  {
    "name": "Lesse",
    "code": "57395",
    "epci_code": "245701206",
    "departement_code": "57",
    "region_code": "44",
    "postal_code": "57580"
  },
  {
    "name": "Lessy",
    "code": "57396",
    "epci_code": "200039865",
    "departement_code": "57",
    "region_code": "44",
    "postal_code": "57160"
  },
  {
    "name": "Ley",
    "code": "57397",
    "epci_code": "245701206",
    "departement_code": "57",
    "region_code": "44",
    "postal_code": "57810"
  },
  {
    "name": "Leyviller",
    "code": "57398",
    "epci_code": "200067502",
    "departement_code": "57",
    "region_code": "44",
    "postal_code": "57660"
  },
  {
    "name": "Lezey",
    "code": "57399",
    "epci_code": "245701206",
    "departement_code": "57",
    "region_code": "44",
    "postal_code": "57630"
  },
  {
    "name": "Lidrezing",
    "code": "57401",
    "epci_code": "245701206",
    "departement_code": "57",
    "region_code": "44",
    "postal_code": "57340"
  },
  {
    "name": "Liederschiedt",
    "code": "57402",
    "epci_code": "200069441",
    "departement_code": "57",
    "region_code": "44",
    "postal_code": "57230"
  },
  {
    "name": "Liéhon",
    "code": "57403",
    "epci_code": "200039907",
    "departement_code": "57",
    "region_code": "44",
    "postal_code": "57420"
  },
  {
    "name": "Lindre-Basse",
    "code": "57404",
    "epci_code": "245701206",
    "departement_code": "57",
    "region_code": "44",
    "postal_code": "57260"
  },
  {
    "name": "Lindre-Haute",
    "code": "57405",
    "epci_code": "245701206",
    "departement_code": "57",
    "region_code": "44",
    "postal_code": "57260"
  },
  {
    "name": "Liocourt",
    "code": "57406",
    "epci_code": "245701206",
    "departement_code": "57",
    "region_code": "44",
    "postal_code": "57590"
  },
  {
    "name": "Lixheim",
    "code": "57407",
    "epci_code": "245700950",
    "departement_code": "57",
    "region_code": "44",
    "postal_code": "57635"
  },
  {
    "name": "Lixing-lès-Rouhling",
    "code": "57408",
    "epci_code": "200070746",
    "departement_code": "57",
    "region_code": "44",
    "postal_code": "57520"
  },
  {
    "name": "Lixing-lès-Saint-Avold",
    "code": "57409",
    "epci_code": "200067502",
    "departement_code": "57",
    "region_code": "44",
    "postal_code": "57660"
  },
  {
    "name": "Lhor",
    "code": "57410",
    "epci_code": "245701206",
    "departement_code": "57",
    "region_code": "44",
    "postal_code": "57670"
  },
  {
    "name": "Lommerange",
    "code": "57411",
    "epci_code": "245701362",
    "departement_code": "57",
    "region_code": "44",
    "postal_code": "57650"
  },
  {
    "name": "Longeville-lès-Metz",
    "code": "57412",
    "epci_code": "200039865",
    "departement_code": "57",
    "region_code": "44",
    "postal_code": "57050"
  },
  {
    "name": "Longeville-lès-Saint-Avold",
    "code": "57413",
    "epci_code": "245700133",
    "departement_code": "57",
    "region_code": "44",
    "postal_code": "57740"
  },
  {
    "name": "Lorquin",
    "code": "57414",
    "epci_code": "200068146",
    "departement_code": "57",
    "region_code": "44",
    "postal_code": "57790"
  },
  {
    "name": "Lorry-lès-Metz",
    "code": "57415",
    "epci_code": "200039865",
    "departement_code": "57",
    "region_code": "44",
    "postal_code": "57050"
  },
  {
    "name": "Lorry-Mardigny",
    "code": "57416",
    "epci_code": "200039865",
    "departement_code": "57",
    "region_code": "44",
    "postal_code": "57420"
  },
  {
    "name": "Lostroff",
    "code": "57417",
    "epci_code": "245701206",
    "departement_code": "57",
    "region_code": "44",
    "postal_code": "57670"
  },
  {
    "name": "Loudrefing",
    "code": "57418",
    "epci_code": "245701206",
    "departement_code": "57",
    "region_code": "44",
    "postal_code": "57670"
  },
  {
    "name": "Loupershouse",
    "code": "57419",
    "epci_code": "200070746",
    "departement_code": "57",
    "region_code": "44",
    "postal_code": "57510"
  },
  {
    "name": "Loutzviller",
    "code": "57421",
    "epci_code": "200069441",
    "departement_code": "57",
    "region_code": "44",
    "postal_code": "57720"
  },
  {
    "name": "Louvigny",
    "code": "57422",
    "epci_code": "200039907",
    "departement_code": "57",
    "region_code": "44",
    "postal_code": "57420"
  },
  {
    "name": "Lubécourt",
    "code": "57423",
    "epci_code": "245701206",
    "departement_code": "57",
    "region_code": "44",
    "postal_code": "57170"
  },
  {
    "name": "Lucy",
    "code": "57424",
    "epci_code": "245701206",
    "departement_code": "57",
    "region_code": "44",
    "postal_code": "57590"
  },
  {
    "name": "Luppy",
    "code": "57425",
    "epci_code": "200039907",
    "departement_code": "57",
    "region_code": "44",
    "postal_code": "57580"
  },
  {
    "name": "Luttange",
    "code": "57426",
    "epci_code": "245701354",
    "departement_code": "57",
    "region_code": "44",
    "postal_code": "57935"
  },
  {
    "name": "Lutzelbourg",
    "code": "57427",
    "epci_code": "245700950",
    "departement_code": "57",
    "region_code": "44",
    "postal_code": "57820"
  },
  {
    "name": "Macheren",
    "code": "57428",
    "epci_code": "200067502",
    "departement_code": "57",
    "region_code": "44",
    "postal_code": "57730"
  },
  {
    "name": "Mainvillers",
    "code": "57430",
    "epci_code": "245700133",
    "departement_code": "57",
    "region_code": "44",
    "postal_code": "57380"
  },
  {
    "name": "Maizeroy",
    "code": "57431",
    "epci_code": "200067957",
    "departement_code": "57",
    "region_code": "44",
    "postal_code": "57530"
  },
  {
    "name": "Maizières-lès-Metz",
    "code": "57433",
    "epci_code": "200039949",
    "departement_code": "57",
    "region_code": "44",
    "postal_code": "57280"
  },
  {
    "name": "Maizières-lès-Vic",
    "code": "57434",
    "epci_code": "245701206",
    "departement_code": "57",
    "region_code": "44",
    "postal_code": "57810"
  },
  {
    "name": "Malaucourt-sur-Seille",
    "code": "57436",
    "epci_code": "245701206",
    "departement_code": "57",
    "region_code": "44",
    "postal_code": "57590"
  },
  {
    "name": "Malling",
    "code": "57437",
    "epci_code": "245701354",
    "departement_code": "57",
    "region_code": "44",
    "postal_code": "57480"
  },
  {
    "name": "Malroy",
    "code": "57438",
    "epci_code": "200039949",
    "departement_code": "57",
    "region_code": "44",
    "postal_code": "57640"
  },
  {
    "name": "Manderen-Ritzing",
    "code": "57439",
    "epci_code": "200067486",
    "departement_code": "57",
    "region_code": "44",
    "postal_code": "57480"
  },
  {
    "name": "Manhoué",
    "code": "57440",
    "epci_code": "245701206",
    "departement_code": "57",
    "region_code": "44",
    "postal_code": "57590"
  },
  {
    "name": "Manom",
    "code": "57441",
    "epci_code": "245701362",
    "departement_code": "57",
    "region_code": "44",
    "postal_code": "57100"
  },
  {
    "name": "Many",
    "code": "57442",
    "epci_code": "245700133",
    "departement_code": "57",
    "region_code": "44",
    "postal_code": "57380"
  },
  {
    "name": "Marange-Silvange",
    "code": "57443",
    "epci_code": "245701271",
    "departement_code": "57",
    "region_code": "44",
    "postal_code": "57535"
  },
  {
    "name": "Marange-Zondrange",
    "code": "57444",
    "epci_code": "245700133",
    "departement_code": "57",
    "region_code": "44",
    "postal_code": "57690"
  },
  {
    "name": "Marieulles",
    "code": "57445",
    "epci_code": "200039865",
    "departement_code": "57",
    "region_code": "44",
    "postal_code": "57420"
  },
  {
    "name": "Marimont-lès-Bénestroff",
    "code": "57446",
    "epci_code": "245701206",
    "departement_code": "57",
    "region_code": "44",
    "postal_code": "57670"
  },
  {
    "name": "Marly",
    "code": "57447",
    "epci_code": "200039865",
    "departement_code": "57",
    "region_code": "44",
    "postal_code": "57155"
  },
  {
    "name": "Marsal",
    "code": "57448",
    "epci_code": "245701206",
    "departement_code": "57",
    "region_code": "44",
    "postal_code": "57630"
  },
  {
    "name": "Marsilly",
    "code": "57449",
    "epci_code": "200067957",
    "departement_code": "57",
    "region_code": "44",
    "postal_code": "57530"
  },
  {
    "name": "Marthille",
    "code": "57451",
    "epci_code": "245701206",
    "departement_code": "57",
    "region_code": "44",
    "postal_code": "57340"
  },
  {
    "name": "La Maxe",
    "code": "57452",
    "epci_code": "200039865",
    "departement_code": "57",
    "region_code": "44",
    "postal_code": "57140"
  },
  {
    "name": "Maxstadt",
    "code": "57453",
    "epci_code": "200067502",
    "departement_code": "57",
    "region_code": "44",
    "postal_code": "57660"
  },
  {
    "name": "Mécleuves",
    "code": "57454",
    "epci_code": "200039865",
    "departement_code": "57",
    "region_code": "44",
    "postal_code": "57245"
  },
  {
    "name": "Mégange",
    "code": "57455",
    "epci_code": "200067650",
    "departement_code": "57",
    "region_code": "44",
    "postal_code": "57220"
  },
  {
    "name": "Meisenthal",
    "code": "57456",
    "epci_code": "200069441",
    "departement_code": "57",
    "region_code": "44",
    "postal_code": "57960"
  },
  {
    "name": "Menskirch",
    "code": "57457",
    "epci_code": "200067486",
    "departement_code": "57",
    "region_code": "44",
    "postal_code": "57320"
  },
  {
    "name": "Merschweiller",
    "code": "57459",
    "epci_code": "200067486",
    "departement_code": "57",
    "region_code": "44",
    "postal_code": "57480"
  },
  {
    "name": "Merten",
    "code": "57460",
    "epci_code": "200067650",
    "departement_code": "57",
    "region_code": "44",
    "postal_code": "57550"
  },
  {
    "name": "Métairies-Saint-Quirin",
    "code": "57461",
    "epci_code": "200068146",
    "departement_code": "57",
    "region_code": "44",
    "postal_code": "57560"
  },
  {
    "name": "Metting",
    "code": "57462",
    "epci_code": "245700950",
    "departement_code": "57",
    "region_code": "44",
    "postal_code": "57370"
  },
  {
    "name": "Metz",
    "code": "57463",
    "epci_code": "200039865",
    "departement_code": "57",
    "region_code": "44",
    "postal_code": "57000"
  },
  {
    "name": "Metz",
    "code": "57463",
    "epci_code": "200039865",
    "departement_code": "57",
    "region_code": "44",
    "postal_code": "57050"
  },
  {
    "name": "Metz",
    "code": "57463",
    "epci_code": "200039865",
    "departement_code": "57",
    "region_code": "44",
    "postal_code": "57070"
  },
  {
    "name": "Metzeresche",
    "code": "57464",
    "epci_code": "245701354",
    "departement_code": "57",
    "region_code": "44",
    "postal_code": "57920"
  },
  {
    "name": "Metzervisse",
    "code": "57465",
    "epci_code": "245701354",
    "departement_code": "57",
    "region_code": "44",
    "postal_code": "57940"
  },
  {
    "name": "Metzing",
    "code": "57466",
    "epci_code": "245700372",
    "departement_code": "57",
    "region_code": "44",
    "postal_code": "57980"
  },
  {
    "name": "Mey",
    "code": "57467",
    "epci_code": "200039865",
    "departement_code": "57",
    "region_code": "44",
    "postal_code": "57070"
  },
  {
    "name": "Mittelbronn",
    "code": "57468",
    "epci_code": "245700950",
    "departement_code": "57",
    "region_code": "44",
    "postal_code": "57370"
  },
  {
    "name": "Mittersheim",
    "code": "57469",
    "epci_code": "200068146",
    "departement_code": "57",
    "region_code": "44",
    "postal_code": "57930"
  },
  {
    "name": "Molring",
    "code": "57470",
    "epci_code": "245701206",
    "departement_code": "57",
    "region_code": "44",
    "postal_code": "57670"
  },
  {
    "name": "Momerstroff",
    "code": "57471",
    "epci_code": "200067650",
    "departement_code": "57",
    "region_code": "44",
    "postal_code": "57220"
  },
  {
    "name": "Moncheux",
    "code": "57472",
    "epci_code": "200039907",
    "departement_code": "57",
    "region_code": "44",
    "postal_code": "57420"
  },
  {
    "name": "Moncourt",
    "code": "57473",
    "epci_code": "245701206",
    "departement_code": "57",
    "region_code": "44",
    "postal_code": "57810"
  },
  {
    "name": "Mondelange",
    "code": "57474",
    "epci_code": "200039949",
    "departement_code": "57",
    "region_code": "44",
    "postal_code": "57300"
  },
  {
    "name": "Mondorff",
    "code": "57475",
    "epci_code": "245700695",
    "departement_code": "57",
    "region_code": "44",
    "postal_code": "57570"
  },
  {
    "name": "Monneren",
    "code": "57476",
    "epci_code": "245701354",
    "departement_code": "57",
    "region_code": "44",
    "postal_code": "57920"
  },
  {
    "name": "Montbronn",
    "code": "57477",
    "epci_code": "200069441",
    "departement_code": "57",
    "region_code": "44",
    "postal_code": "57415"
  },
  {
    "name": "Montdidier",
    "code": "57478",
    "epci_code": "245701206",
    "departement_code": "57",
    "region_code": "44",
    "postal_code": "57670"
  },
  {
    "name": "Montenach",
    "code": "57479",
    "epci_code": "200067486",
    "departement_code": "57",
    "region_code": "44",
    "postal_code": "57480"
  },
  {
    "name": "Montigny-lès-Metz",
    "code": "57480",
    "epci_code": "200039865",
    "departement_code": "57",
    "region_code": "44",
    "postal_code": "57950"
  },
  {
    "name": "Montois-la-Montagne",
    "code": "57481",
    "epci_code": "245701271",
    "departement_code": "57",
    "region_code": "44",
    "postal_code": "57860"
  },
  {
    "name": "Ogy-Montoy-Flanville",
    "code": "57482",
    "epci_code": "200067957",
    "departement_code": "57",
    "region_code": "44",
    "postal_code": "57530"
  },
  {
    "name": "Ogy-Montoy-Flanville",
    "code": "57482",
    "epci_code": "200067957",
    "departement_code": "57",
    "region_code": "44",
    "postal_code": "57645"
  },
  {
    "name": "Morhange",
    "code": "57483",
    "epci_code": "200067502",
    "departement_code": "57",
    "region_code": "44",
    "postal_code": "57340"
  },
  {
    "name": "Morsbach",
    "code": "57484",
    "epci_code": "245700372",
    "departement_code": "57",
    "region_code": "44",
    "postal_code": "57600"
  },
  {
    "name": "Morville-lès-Vic",
    "code": "57485",
    "epci_code": "245701206",
    "departement_code": "57",
    "region_code": "44",
    "postal_code": "57170"
  },
  {
    "name": "Morville-sur-Nied",
    "code": "57486",
    "epci_code": "245701206",
    "departement_code": "57",
    "region_code": "44",
    "postal_code": "57590"
  },
  {
    "name": "Moulins-lès-Metz",
    "code": "57487",
    "epci_code": "200039865",
    "departement_code": "57",
    "region_code": "44",
    "postal_code": "57160"
  },
  {
    "name": "Moussey",
    "code": "57488",
    "epci_code": "200068146",
    "departement_code": "57",
    "region_code": "44",
    "postal_code": "57770"
  },
  {
    "name": "Mouterhouse",
    "code": "57489",
    "epci_code": "200069441",
    "departement_code": "57",
    "region_code": "44",
    "postal_code": "57620"
  },
  {
    "name": "Moyenvic",
    "code": "57490",
    "epci_code": "245701206",
    "departement_code": "57",
    "region_code": "44",
    "postal_code": "57630"
  },
  {
    "name": "Moyeuvre-Grande",
    "code": "57491",
    "epci_code": "245701271",
    "departement_code": "57",
    "region_code": "44",
    "postal_code": "57250"
  },
  {
    "name": "Moyeuvre-Petite",
    "code": "57492",
    "epci_code": "245701271",
    "departement_code": "57",
    "region_code": "44",
    "postal_code": "57250"
  },
  {
    "name": "Mulcey",
    "code": "57493",
    "epci_code": "245701206",
    "departement_code": "57",
    "region_code": "44",
    "postal_code": "57260"
  },
  {
    "name": "Munster",
    "code": "57494",
    "epci_code": "245701206",
    "departement_code": "57",
    "region_code": "44",
    "postal_code": "57670"
  },
  {
    "name": "Narbéfontaine",
    "code": "57495",
    "epci_code": "200067650",
    "departement_code": "57",
    "region_code": "44",
    "postal_code": "57220"
  },
  {
    "name": "Nébing",
    "code": "57496",
    "epci_code": "245701206",
    "departement_code": "57",
    "region_code": "44",
    "postal_code": "57670"
  },
  {
    "name": "Nelling",
    "code": "57497",
    "epci_code": "200070746",
    "departement_code": "57",
    "region_code": "44",
    "postal_code": "57670"
  },
  {
    "name": "Neufchef",
    "code": "57498",
    "epci_code": "245701222",
    "departement_code": "57",
    "region_code": "44",
    "postal_code": "57700"
  },
  {
    "name": "Neufgrange",
    "code": "57499",
    "epci_code": "200070746",
    "departement_code": "57",
    "region_code": "44",
    "postal_code": "57910"
  },
  {
    "name": "Neufmoulins",
    "code": "57500",
    "epci_code": "200068146",
    "departement_code": "57",
    "region_code": "44",
    "postal_code": "57830"
  },
  {
    "name": "Neufvillage",
    "code": "57501",
    "epci_code": "245701206",
    "departement_code": "57",
    "region_code": "44",
    "postal_code": "57670"
  },
  {
    "name": "Neunkirchen-lès-Bouzonville",
    "code": "57502",
    "epci_code": "200067486",
    "departement_code": "57",
    "region_code": "44",
    "postal_code": "57320"
  },
  {
    "name": "Niderhoff",
    "code": "57504",
    "epci_code": "200068146",
    "departement_code": "57",
    "region_code": "44",
    "postal_code": "57560"
  },
  {
    "name": "Niderviller",
    "code": "57505",
    "epci_code": "200068146",
    "departement_code": "57",
    "region_code": "44",
    "postal_code": "57565"
  },
  {
    "name": "Niederstinzel",
    "code": "57506",
    "epci_code": "200068146",
    "departement_code": "57",
    "region_code": "44",
    "postal_code": "57930"
  },
  {
    "name": "Niedervisse",
    "code": "57507",
    "epci_code": "200067650",
    "departement_code": "57",
    "region_code": "44",
    "postal_code": "57220"
  },
  {
    "name": "Nilvange",
    "code": "57508",
    "epci_code": "245701222",
    "departement_code": "57",
    "region_code": "44",
    "postal_code": "57240"
  },
  {
    "name": "Nitting",
    "code": "57509",
    "epci_code": "200068146",
    "departement_code": "57",
    "region_code": "44",
    "postal_code": "57790"
  },
  {
    "name": "Noisseville",
    "code": "57510",
    "epci_code": "200039865",
    "departement_code": "57",
    "region_code": "44",
    "postal_code": "57645"
  },
  {
    "name": "Norroy-le-Veneur",
    "code": "57511",
    "epci_code": "200039949",
    "departement_code": "57",
    "region_code": "44",
    "postal_code": "57140"
  },
  {
    "name": "Nouilly",
    "code": "57512",
    "epci_code": "200039865",
    "departement_code": "57",
    "region_code": "44",
    "postal_code": "57645"
  },
  {
    "name": "Nousseviller-lès-Bitche",
    "code": "57513",
    "epci_code": "200069441",
    "departement_code": "57",
    "region_code": "44",
    "postal_code": "57720"
  },
  {
    "name": "Nousseviller-Saint-Nabor",
    "code": "57514",
    "epci_code": "245700372",
    "departement_code": "57",
    "region_code": "44",
    "postal_code": "57990"
  },
  {
    "name": "Novéant-sur-Moselle",
    "code": "57515",
    "epci_code": "200070738",
    "departement_code": "57",
    "region_code": "44",
    "postal_code": "57680"
  },
  {
    "name": "Oberdorff",
    "code": "57516",
    "epci_code": "200067650",
    "departement_code": "57",
    "region_code": "44",
    "postal_code": "57320"
  },
  {
    "name": "Obergailbach",
    "code": "57517",
    "epci_code": "200069441",
    "departement_code": "57",
    "region_code": "44",
    "postal_code": "57720"
  },
  {
    "name": "Oberstinzel",
    "code": "57518",
    "epci_code": "200068146",
    "departement_code": "57",
    "region_code": "44",
    "postal_code": "57930"
  },
  {
    "name": "Obervisse",
    "code": "57519",
    "epci_code": "200067650",
    "departement_code": "57",
    "region_code": "44",
    "postal_code": "57220"
  },
  {
    "name": "Obreck",
    "code": "57520",
    "epci_code": "245701206",
    "departement_code": "57",
    "region_code": "44",
    "postal_code": "57170"
  },
  {
    "name": "Œting",
    "code": "57521",
    "epci_code": "245700372",
    "departement_code": "57",
    "region_code": "44",
    "postal_code": "57600"
  },
  {
    "name": "Ommeray",
    "code": "57524",
    "epci_code": "245701206",
    "departement_code": "57",
    "region_code": "44",
    "postal_code": "57810"
  },
  {
    "name": "Oriocourt",
    "code": "57525",
    "epci_code": "245701206",
    "departement_code": "57",
    "region_code": "44",
    "postal_code": "57590"
  },
  {
    "name": "Ormersviller",
    "code": "57526",
    "epci_code": "200069441",
    "departement_code": "57",
    "region_code": "44",
    "postal_code": "57720"
  },
  {
    "name": "Orny",
    "code": "57527",
    "epci_code": "200039907",
    "departement_code": "57",
    "region_code": "44",
    "postal_code": "57420"
  },
  {
    "name": "Oron",
    "code": "57528",
    "epci_code": "245701206",
    "departement_code": "57",
    "region_code": "44",
    "postal_code": "57590"
  },
  {
    "name": "Ottange",
    "code": "57529",
    "epci_code": "245701404",
    "departement_code": "57",
    "region_code": "44",
    "postal_code": "57840"
  },
  {
    "name": "Ottonville",
    "code": "57530",
    "epci_code": "200067650",
    "departement_code": "57",
    "region_code": "44",
    "postal_code": "57220"
  },
  {
    "name": "Oudrenne",
    "code": "57531",
    "epci_code": "245701354",
    "departement_code": "57",
    "region_code": "44",
    "postal_code": "57970"
  },
  {
    "name": "Pagny-lès-Goin",
    "code": "57532",
    "epci_code": "200039907",
    "departement_code": "57",
    "region_code": "44",
    "postal_code": "57420"
  },
  {
    "name": "Pange",
    "code": "57533",
    "epci_code": "200067957",
    "departement_code": "57",
    "region_code": "44",
    "postal_code": "57530"
  },
  {
    "name": "Peltre",
    "code": "57534",
    "epci_code": "200039865",
    "departement_code": "57",
    "region_code": "44",
    "postal_code": "57245"
  },
  {
    "name": "Petit-Réderching",
    "code": "57535",
    "epci_code": "200069441",
    "departement_code": "57",
    "region_code": "44",
    "postal_code": "57410"
  },
  {
    "name": "Petit-Tenquin",
    "code": "57536",
    "epci_code": "200067502",
    "departement_code": "57",
    "region_code": "44",
    "postal_code": "57660"
  },
  {
    "name": "Petite-Rosselle",
    "code": "57537",
    "epci_code": "245700372",
    "departement_code": "57",
    "region_code": "44",
    "postal_code": "57540"
  },
  {
    "name": "Pettoncourt",
    "code": "57538",
    "epci_code": "245701206",
    "departement_code": "57",
    "region_code": "44",
    "postal_code": "57170"
  },
  {
    "name": "Pévange",
    "code": "57539",
    "epci_code": "245701206",
    "departement_code": "57",
    "region_code": "44",
    "postal_code": "57340"
  },
  {
    "name": "Phalsbourg",
    "code": "57540",
    "epci_code": "245700950",
    "departement_code": "57",
    "region_code": "44",
    "postal_code": "57370"
  },
  {
    "name": "Philippsbourg",
    "code": "57541",
    "epci_code": "200069441",
    "departement_code": "57",
    "region_code": "44",
    "postal_code": "57230"
  },
  {
    "name": "Piblange",
    "code": "57542",
    "epci_code": "200067650",
    "departement_code": "57",
    "region_code": "44",
    "postal_code": "57220"
  },
  {
    "name": "Pierrevillers",
    "code": "57543",
    "epci_code": "245701271",
    "departement_code": "57",
    "region_code": "44",
    "postal_code": "57120"
  },
  {
    "name": "Plaine-de-Walsch",
    "code": "57544",
    "epci_code": "200068146",
    "departement_code": "57",
    "region_code": "44",
    "postal_code": "57870"
  },
  {
    "name": "Plappeville",
    "code": "57545",
    "epci_code": "200039865",
    "departement_code": "57",
    "region_code": "44",
    "postal_code": "57050"
  },
  {
    "name": "Plesnois",
    "code": "57546",
    "epci_code": "200039949",
    "departement_code": "57",
    "region_code": "44",
    "postal_code": "57140"
  },
  {
    "name": "Pommérieux",
    "code": "57547",
    "epci_code": "200039907",
    "departement_code": "57",
    "region_code": "44",
    "postal_code": "57420"
  },
  {
    "name": "Pontoy",
    "code": "57548",
    "epci_code": "200039907",
    "departement_code": "57",
    "region_code": "44",
    "postal_code": "57420"
  },
  {
    "name": "Pontpierre",
    "code": "57549",
    "epci_code": "245700133",
    "departement_code": "57",
    "region_code": "44",
    "postal_code": "57380"
  },
  {
    "name": "Porcelette",
    "code": "57550",
    "epci_code": "200067502",
    "departement_code": "57",
    "region_code": "44",
    "postal_code": "57890"
  },
  {
    "name": "Postroff",
    "code": "57551",
    "epci_code": "200068146",
    "departement_code": "57",
    "region_code": "44",
    "postal_code": "57930"
  },
  {
    "name": "Pouilly",
    "code": "57552",
    "epci_code": "200039865",
    "departement_code": "57",
    "region_code": "44",
    "postal_code": "57420"
  },
  {
    "name": "Pournoy-la-Chétive",
    "code": "57553",
    "epci_code": "200039865",
    "departement_code": "57",
    "region_code": "44",
    "postal_code": "57420"
  },
  {
    "name": "Pournoy-la-Grasse",
    "code": "57554",
    "epci_code": "200039907",
    "departement_code": "57",
    "region_code": "44",
    "postal_code": "57420"
  },
  {
    "name": "Prévocourt",
    "code": "57555",
    "epci_code": "245701206",
    "departement_code": "57",
    "region_code": "44",
    "postal_code": "57590"
  },
  {
    "name": "Puttelange-aux-Lacs",
    "code": "57556",
    "epci_code": "200070746",
    "departement_code": "57",
    "region_code": "44",
    "postal_code": "57510"
  },
  {
    "name": "Puttelange-lès-Thionville",
    "code": "57557",
    "epci_code": "245700695",
    "departement_code": "57",
    "region_code": "44",
    "postal_code": "57570"
  },
  {
    "name": "Puttigny",
    "code": "57558",
    "epci_code": "245701206",
    "departement_code": "57",
    "region_code": "44",
    "postal_code": "57170"
  },
  {
    "name": "Puzieux",
    "code": "57559",
    "epci_code": "245701206",
    "departement_code": "57",
    "region_code": "44",
    "postal_code": "57590"
  },
  {
    "name": "Racrange",
    "code": "57560",
    "epci_code": "200067502",
    "departement_code": "57",
    "region_code": "44",
    "postal_code": "57340"
  },
  {
    "name": "Rahling",
    "code": "57561",
    "epci_code": "200069441",
    "departement_code": "57",
    "region_code": "44",
    "postal_code": "57410"
  },
  {
    "name": "Ranguevaux",
    "code": "57562",
    "epci_code": "245701222",
    "departement_code": "57",
    "region_code": "44",
    "postal_code": "57700"
  },
  {
    "name": "Raville",
    "code": "57563",
    "epci_code": "200067957",
    "departement_code": "57",
    "region_code": "44",
    "postal_code": "57530"
  },
  {
    "name": "Réchicourt-le-Château",
    "code": "57564",
    "epci_code": "200068146",
    "departement_code": "57",
    "region_code": "44",
    "postal_code": "57810"
  },
  {
    "name": "Rédange",
    "code": "57565",
    "epci_code": "245701404",
    "departement_code": "57",
    "region_code": "44",
    "postal_code": "57390"
  },
  {
    "name": "Réding",
    "code": "57566",
    "epci_code": "200068146",
    "departement_code": "57",
    "region_code": "44",
    "postal_code": "57445"
  },
  {
    "name": "Rémelfang",
    "code": "57567",
    "epci_code": "200067486",
    "departement_code": "57",
    "region_code": "44",
    "postal_code": "57320"
  },
  {
    "name": "Rémelfing",
    "code": "57568",
    "epci_code": "200070746",
    "departement_code": "57",
    "region_code": "44",
    "postal_code": "57200"
  },
  {
    "name": "Rémeling",
    "code": "57569",
    "epci_code": "200067486",
    "departement_code": "57",
    "region_code": "44",
    "postal_code": "57480"
  },
  {
    "name": "Rémering",
    "code": "57570",
    "epci_code": "200067650",
    "departement_code": "57",
    "region_code": "44",
    "postal_code": "57550"
  },
  {
    "name": "Rémering-lès-Puttelange",
    "code": "57571",
    "epci_code": "200070746",
    "departement_code": "57",
    "region_code": "44",
    "postal_code": "57510"
  },
  {
    "name": "Rémilly",
    "code": "57572",
    "epci_code": "200039907",
    "departement_code": "57",
    "region_code": "44",
    "postal_code": "57580"
  },
  {
    "name": "Réning",
    "code": "57573",
    "epci_code": "245701206",
    "departement_code": "57",
    "region_code": "44",
    "postal_code": "57670"
  },
  {
    "name": "Basse-Rentgen",
    "code": "57574",
    "epci_code": "245700695",
    "departement_code": "57",
    "region_code": "44",
    "postal_code": "57570"
  },
  {
    "name": "Retonfey",
    "code": "57575",
    "epci_code": "200067957",
    "departement_code": "57",
    "region_code": "44",
    "postal_code": "57645"
  },
  {
    "name": "Rettel",
    "code": "57576",
    "epci_code": "200067486",
    "departement_code": "57",
    "region_code": "44",
    "postal_code": "57480"
  },
  {
    "name": "Reyersviller",
    "code": "57577",
    "epci_code": "200069441",
    "departement_code": "57",
    "region_code": "44",
    "postal_code": "57230"
  },
  {
    "name": "Rezonville-Vionville",
    "code": "57578",
    "epci_code": "200070738",
    "departement_code": "57",
    "region_code": "44",
    "postal_code": "57130"
  },
  {
    "name": "Rhodes",
    "code": "57579",
    "epci_code": "200068146",
    "departement_code": "57",
    "region_code": "44",
    "postal_code": "57810"
  },
  {
    "name": "Riche",
    "code": "57580",
    "epci_code": "245701206",
    "departement_code": "57",
    "region_code": "44",
    "postal_code": "57340"
  },
  {
    "name": "Richeling",
    "code": "57581",
    "epci_code": "200070746",
    "departement_code": "57",
    "region_code": "44",
    "postal_code": "57510"
  },
  {
    "name": "Richemont",
    "code": "57582",
    "epci_code": "200039949",
    "departement_code": "57",
    "region_code": "44",
    "postal_code": "57270"
  },
  {
    "name": "Richeval",
    "code": "57583",
    "epci_code": "200068146",
    "departement_code": "57",
    "region_code": "44",
    "postal_code": "57830"
  },
  {
    "name": "Rimling",
    "code": "57584",
    "epci_code": "200069441",
    "departement_code": "57",
    "region_code": "44",
    "postal_code": "57720"
  },
  {
    "name": "Rochonvillers",
    "code": "57586",
    "epci_code": "245701362",
    "departement_code": "57",
    "region_code": "44",
    "postal_code": "57840"
  },
  {
    "name": "Rodalbe",
    "code": "57587",
    "epci_code": "245701206",
    "departement_code": "57",
    "region_code": "44",
    "postal_code": "57340"
  },
  {
    "name": "Rodemack",
    "code": "57588",
    "epci_code": "245700695",
    "departement_code": "57",
    "region_code": "44",
    "postal_code": "57570"
  },
  {
    "name": "Rohrbach-lès-Bitche",
    "code": "57589",
    "epci_code": "200069441",
    "departement_code": "57",
    "region_code": "44",
    "postal_code": "57410"
  },
  {
    "name": "Rolbing",
    "code": "57590",
    "epci_code": "200069441",
    "departement_code": "57",
    "region_code": "44",
    "postal_code": "57720"
  },
  {
    "name": "Rombas",
    "code": "57591",
    "epci_code": "245701271",
    "departement_code": "57",
    "region_code": "44",
    "postal_code": "57120"
  },
  {
    "name": "Romelfing",
    "code": "57592",
    "epci_code": "200068146",
    "departement_code": "57",
    "region_code": "44",
    "postal_code": "57930"
  },
  {
    "name": "Roncourt",
    "code": "57593",
    "epci_code": "200039865",
    "departement_code": "57",
    "region_code": "44",
    "postal_code": "57860"
  },
  {
    "name": "Roppeviller",
    "code": "57594",
    "epci_code": "200069441",
    "departement_code": "57",
    "region_code": "44",
    "postal_code": "57230"
  },
  {
    "name": "Rorbach-lès-Dieuze",
    "code": "57595",
    "epci_code": "245701206",
    "departement_code": "57",
    "region_code": "44",
    "postal_code": "57260"
  },
  {
    "name": "Rosbruck",
    "code": "57596",
    "epci_code": "245700372",
    "departement_code": "57",
    "region_code": "44",
    "postal_code": "57800"
  },
  {
    "name": "Rosselange",
    "code": "57597",
    "epci_code": "245701271",
    "departement_code": "57",
    "region_code": "44",
    "postal_code": "57780"
  },
  {
    "name": "Rouhling",
    "code": "57598",
    "epci_code": "200070746",
    "departement_code": "57",
    "region_code": "44",
    "postal_code": "57520"
  },
  {
    "name": "Roupeldange",
    "code": "57599",
    "epci_code": "200067650",
    "departement_code": "57",
    "region_code": "44",
    "postal_code": "57220"
  },
  {
    "name": "Roussy-le-Village",
    "code": "57600",
    "epci_code": "245700695",
    "departement_code": "57",
    "region_code": "44",
    "postal_code": "57330"
  },
  {
    "name": "Rozérieulles",
    "code": "57601",
    "epci_code": "200039865",
    "departement_code": "57",
    "region_code": "44",
    "postal_code": "57160"
  },
  {
    "name": "Rurange-lès-Thionville",
    "code": "57602",
    "epci_code": "245701354",
    "departement_code": "57",
    "region_code": "44",
    "postal_code": "57310"
  },
  {
    "name": "Russange",
    "code": "57603",
    "epci_code": "245701404",
    "departement_code": "57",
    "region_code": "44",
    "postal_code": "57390"
  },
  {
    "name": "Rustroff",
    "code": "57604",
    "epci_code": "200067486",
    "departement_code": "57",
    "region_code": "44",
    "postal_code": "57480"
  },
  {
    "name": "Sailly-Achâtel",
    "code": "57605",
    "epci_code": "200039907",
    "departement_code": "57",
    "region_code": "44",
    "postal_code": "57420"
  },
  {
    "name": "Saint-Avold",
    "code": "57606",
    "epci_code": "200067502",
    "departement_code": "57",
    "region_code": "44",
    "postal_code": "57500"
  },
  {
    "name": "Sainte-Barbe",
    "code": "57607",
    "epci_code": "200067957",
    "departement_code": "57",
    "region_code": "44",
    "postal_code": "57640"
  },
  {
    "name": "Saint-Epvre",
    "code": "57609",
    "epci_code": "245701206",
    "departement_code": "57",
    "region_code": "44",
    "postal_code": "57580"
  },
  {
    "name": "Saint-François-Lacroix",
    "code": "57610",
    "epci_code": "200067486",
    "departement_code": "57",
    "region_code": "44",
    "postal_code": "57320"
  },
  {
    "name": "Saint-Georges",
    "code": "57611",
    "epci_code": "200068146",
    "departement_code": "57",
    "region_code": "44",
    "postal_code": "57830"
  },
  {
    "name": "Saint-Hubert",
    "code": "57612",
    "epci_code": "200067957",
    "departement_code": "57",
    "region_code": "44",
    "postal_code": "57640"
  },
  {
    "name": "Saint-Jean-de-Bassel",
    "code": "57613",
    "epci_code": "200068146",
    "departement_code": "57",
    "region_code": "44",
    "postal_code": "57930"
  },
  {
    "name": "Saint-Jean-Kourtzerode",
    "code": "57614",
    "epci_code": "245700950",
    "departement_code": "57",
    "region_code": "44",
    "postal_code": "57370"
  },
  {
    "name": "Saint-Jean-Rohrbach",
    "code": "57615",
    "epci_code": "200070746",
    "departement_code": "57",
    "region_code": "44",
    "postal_code": "57510"
  },
  {
    "name": "Saint-Julien-lès-Metz",
    "code": "57616",
    "epci_code": "200039865",
    "departement_code": "57",
    "region_code": "44",
    "postal_code": "57070"
  },
  {
    "name": "Saint-Jure",
    "code": "57617",
    "epci_code": "200039907",
    "departement_code": "57",
    "region_code": "44",
    "postal_code": "57420"
  },
  {
    "name": "Saint-Louis",
    "code": "57618",
    "epci_code": "245700950",
    "departement_code": "57",
    "region_code": "44",
    "postal_code": "57820"
  },
  {
    "name": "Saint-Louis-lès-Bitche",
    "code": "57619",
    "epci_code": "200069441",
    "departement_code": "57",
    "region_code": "44",
    "postal_code": "57620"
  },
  {
    "name": "Sainte-Marie-aux-Chênes",
    "code": "57620",
    "epci_code": "245701271",
    "departement_code": "57",
    "region_code": "44",
    "postal_code": "57255"
  },
  {
    "name": "Saint-Médard",
    "code": "57621",
    "epci_code": "245701206",
    "departement_code": "57",
    "region_code": "44",
    "postal_code": "57260"
  },
  {
    "name": "Saint-Privat-la-Montagne",
    "code": "57622",
    "epci_code": "200039865",
    "departement_code": "57",
    "region_code": "44",
    "postal_code": "57855"
  },
  {
    "name": "Saint-Quirin",
    "code": "57623",
    "epci_code": "200068146",
    "departement_code": "57",
    "region_code": "44",
    "postal_code": "57560"
  },
  {
    "name": "Sainte-Ruffine",
    "code": "57624",
    "epci_code": "200039865",
    "departement_code": "57",
    "region_code": "44",
    "postal_code": "57130"
  },
  {
    "name": "Salonnes",
    "code": "57625",
    "epci_code": "245701206",
    "departement_code": "57",
    "region_code": "44",
    "postal_code": "57170"
  },
  {
    "name": "Sanry-lès-Vigy",
    "code": "57626",
    "epci_code": "200067957",
    "departement_code": "57",
    "region_code": "44",
    "postal_code": "57640"
  },
  {
    "name": "Sanry-sur-Nied",
    "code": "57627",
    "epci_code": "200067957",
    "departement_code": "57",
    "region_code": "44",
    "postal_code": "57530"
  },
  {
    "name": "Sarralbe",
    "code": "57628",
    "epci_code": "200070746",
    "departement_code": "57",
    "region_code": "44",
    "postal_code": "57430"
  },
  {
    "name": "Sarraltroff",
    "code": "57629",
    "epci_code": "200068146",
    "departement_code": "57",
    "region_code": "44",
    "postal_code": "57400"
  },
  {
    "name": "Sarrebourg",
    "code": "57630",
    "epci_code": "200068146",
    "departement_code": "57",
    "region_code": "44",
    "postal_code": "57400"
  },
  {
    "name": "Sarreguemines",
    "code": "57631",
    "epci_code": "200070746",
    "departement_code": "57",
    "region_code": "44",
    "postal_code": "57200"
  },
  {
    "name": "Sarreinsming",
    "code": "57633",
    "epci_code": "200070746",
    "departement_code": "57",
    "region_code": "44",
    "postal_code": "57905"
  },
  {
    "name": "Saulny",
    "code": "57634",
    "epci_code": "200039865",
    "departement_code": "57",
    "region_code": "44",
    "postal_code": "57140"
  },
  {
    "name": "Schalbach",
    "code": "57635",
    "epci_code": "200068146",
    "departement_code": "57",
    "region_code": "44",
    "postal_code": "57370"
  },
  {
    "name": "Schmittviller",
    "code": "57636",
    "epci_code": "200069441",
    "departement_code": "57",
    "region_code": "44",
    "postal_code": "57412"
  },
  {
    "name": "Schneckenbusch",
    "code": "57637",
    "epci_code": "200068146",
    "departement_code": "57",
    "region_code": "44",
    "postal_code": "57400"
  },
  {
    "name": "Schœneck",
    "code": "57638",
    "epci_code": "245700372",
    "departement_code": "57",
    "region_code": "44",
    "postal_code": "57350"
  },
  {
    "name": "Schorbach",
    "code": "57639",
    "epci_code": "200069441",
    "departement_code": "57",
    "region_code": "44",
    "postal_code": "57230"
  },
  {
    "name": "Schwerdorff",
    "code": "57640",
    "epci_code": "200067486",
    "departement_code": "57",
    "region_code": "44",
    "postal_code": "57320"
  },
  {
    "name": "Schweyen",
    "code": "57641",
    "epci_code": "200069441",
    "departement_code": "57",
    "region_code": "44",
    "postal_code": "57720"
  },
  {
    "name": "Scy-Chazelles",
    "code": "57642",
    "epci_code": "200039865",
    "departement_code": "57",
    "region_code": "44",
    "postal_code": "57160"
  },
  {
    "name": "Secourt",
    "code": "57643",
    "epci_code": "200039907",
    "departement_code": "57",
    "region_code": "44",
    "postal_code": "57420"
  },
  {
    "name": "Seingbouse",
    "code": "57644",
    "epci_code": "245700398",
    "departement_code": "57",
    "region_code": "44",
    "postal_code": "57455"
  },
  {
    "name": "Semécourt",
    "code": "57645",
    "epci_code": "200039949",
    "departement_code": "57",
    "region_code": "44",
    "postal_code": "57280"
  },
  {
    "name": "Serémange-Erzange",
    "code": "57647",
    "epci_code": "245701222",
    "departement_code": "57",
    "region_code": "44",
    "postal_code": "57290"
  },
  {
    "name": "Servigny-lès-Raville",
    "code": "57648",
    "epci_code": "200067957",
    "departement_code": "57",
    "region_code": "44",
    "postal_code": "57530"
  },
  {
    "name": "Servigny-lès-Sainte-Barbe",
    "code": "57649",
    "epci_code": "200067957",
    "departement_code": "57",
    "region_code": "44",
    "postal_code": "57640"
  },
  {
    "name": "Sierck-les-Bains",
    "code": "57650",
    "epci_code": "200067486",
    "departement_code": "57",
    "region_code": "44",
    "postal_code": "57480"
  },
  {
    "name": "Siersthal",
    "code": "57651",
    "epci_code": "200069441",
    "departement_code": "57",
    "region_code": "44",
    "postal_code": "57410"
  },
  {
    "name": "Sillegny",
    "code": "57652",
    "epci_code": "200039907",
    "departement_code": "57",
    "region_code": "44",
    "postal_code": "57420"
  },
  {
    "name": "Silly-en-Saulnois",
    "code": "57653",
    "epci_code": "200039907",
    "departement_code": "57",
    "region_code": "44",
    "postal_code": "57420"
  },
  {
    "name": "Silly-sur-Nied",
    "code": "57654",
    "epci_code": "200067957",
    "departement_code": "57",
    "region_code": "44",
    "postal_code": "57530"
  },
  {
    "name": "Solgne",
    "code": "57655",
    "epci_code": "200039907",
    "departement_code": "57",
    "region_code": "44",
    "postal_code": "57420"
  },
  {
    "name": "Sorbey",
    "code": "57656",
    "epci_code": "200067957",
    "departement_code": "57",
    "region_code": "44",
    "postal_code": "57580"
  },
  {
    "name": "Sotzeling",
    "code": "57657",
    "epci_code": "245701206",
    "departement_code": "57",
    "region_code": "44",
    "postal_code": "57170"
  },
  {
    "name": "Soucht",
    "code": "57658",
    "epci_code": "200069441",
    "departement_code": "57",
    "region_code": "44",
    "postal_code": "57960"
  },
  {
    "name": "Spicheren",
    "code": "57659",
    "epci_code": "245700372",
    "departement_code": "57",
    "region_code": "44",
    "postal_code": "57350"
  },
  {
    "name": "Stiring-Wendel",
    "code": "57660",
    "epci_code": "245700372",
    "departement_code": "57",
    "region_code": "44",
    "postal_code": "57350"
  },
  {
    "name": "Sturzelbronn",
    "code": "57661",
    "epci_code": "200069441",
    "departement_code": "57",
    "region_code": "44",
    "postal_code": "57230"
  },
  {
    "name": "Suisse",
    "code": "57662",
    "epci_code": "200067502",
    "departement_code": "57",
    "region_code": "44",
    "postal_code": "57340"
  },
  {
    "name": "Talange",
    "code": "57663",
    "epci_code": "200039949",
    "departement_code": "57",
    "region_code": "44",
    "postal_code": "57525"
  },
  {
    "name": "Tarquimpol",
    "code": "57664",
    "epci_code": "245701206",
    "departement_code": "57",
    "region_code": "44",
    "postal_code": "57260"
  },
  {
    "name": "Tenteling",
    "code": "57665",
    "epci_code": "245700372",
    "departement_code": "57",
    "region_code": "44",
    "postal_code": "57980"
  },
  {
    "name": "Terville",
    "code": "57666",
    "epci_code": "245701362",
    "departement_code": "57",
    "region_code": "44",
    "postal_code": "57180"
  },
  {
    "name": "Téterchen",
    "code": "57667",
    "epci_code": "200067650",
    "departement_code": "57",
    "region_code": "44",
    "postal_code": "57220"
  },
  {
    "name": "Teting-sur-Nied",
    "code": "57668",
    "epci_code": "245700133",
    "departement_code": "57",
    "region_code": "44",
    "postal_code": "57385"
  },
  {
    "name": "Théding",
    "code": "57669",
    "epci_code": "245700372",
    "departement_code": "57",
    "region_code": "44",
    "postal_code": "57450"
  },
  {
    "name": "Thicourt",
    "code": "57670",
    "epci_code": "245700133",
    "departement_code": "57",
    "region_code": "44",
    "postal_code": "57380"
  },
  {
    "name": "Thimonville",
    "code": "57671",
    "epci_code": "200039907",
    "departement_code": "57",
    "region_code": "44",
    "postal_code": "57580"
  },
  {
    "name": "Thionville",
    "code": "57672",
    "epci_code": "245701362",
    "departement_code": "57",
    "region_code": "44",
    "postal_code": "57100"
  },
  {
    "name": "Thonville",
    "code": "57673",
    "epci_code": "245700133",
    "departement_code": "57",
    "region_code": "44",
    "postal_code": "57380"
  },
  {
    "name": "Tincry",
    "code": "57674",
    "epci_code": "245701206",
    "departement_code": "57",
    "region_code": "44",
    "postal_code": "57590"
  },
  {
    "name": "Torcheville",
    "code": "57675",
    "epci_code": "245701206",
    "departement_code": "57",
    "region_code": "44",
    "postal_code": "57670"
  },
  {
    "name": "Tragny",
    "code": "57676",
    "epci_code": "200039907",
    "departement_code": "57",
    "region_code": "44",
    "postal_code": "57580"
  },
  {
    "name": "Trémery",
    "code": "57677",
    "epci_code": "200039949",
    "departement_code": "57",
    "region_code": "44",
    "postal_code": "57300"
  },
  {
    "name": "Tressange",
    "code": "57678",
    "epci_code": "245701362",
    "departement_code": "57",
    "region_code": "44",
    "postal_code": "57710"
  },
  {
    "name": "Tritteling-Redlach",
    "code": "57679",
    "epci_code": "245700133",
    "departement_code": "57",
    "region_code": "44",
    "postal_code": "57385"
  },
  {
    "name": "Troisfontaines",
    "code": "57680",
    "epci_code": "200068146",
    "departement_code": "57",
    "region_code": "44",
    "postal_code": "57870"
  },
  {
    "name": "Tromborn",
    "code": "57681",
    "epci_code": "200067650",
    "departement_code": "57",
    "region_code": "44",
    "postal_code": "57320"
  },
  {
    "name": "Turquestein-Blancrupt",
    "code": "57682",
    "epci_code": "200068146",
    "departement_code": "57",
    "region_code": "44",
    "postal_code": "57560"
  },
  {
    "name": "Uckange",
    "code": "57683",
    "epci_code": "245701222",
    "departement_code": "57",
    "region_code": "44",
    "postal_code": "57270"
  },
  {
    "name": "Vahl-Ebersing",
    "code": "57684",
    "epci_code": "200067502",
    "departement_code": "57",
    "region_code": "44",
    "postal_code": "57660"
  },
  {
    "name": "Vahl-lès-Bénestroff",
    "code": "57685",
    "epci_code": "245701206",
    "departement_code": "57",
    "region_code": "44",
    "postal_code": "57670"
  },
  {
    "name": "Vahl-lès-Faulquemont",
    "code": "57686",
    "epci_code": "245700133",
    "departement_code": "57",
    "region_code": "44",
    "postal_code": "57380"
  },
  {
    "name": "Vallerange",
    "code": "57687",
    "epci_code": "200067502",
    "departement_code": "57",
    "region_code": "44",
    "postal_code": "57340"
  },
  {
    "name": "Valmestroff",
    "code": "57689",
    "epci_code": "245701354",
    "departement_code": "57",
    "region_code": "44",
    "postal_code": "57970"
  },
  {
    "name": "Valmont",
    "code": "57690",
    "epci_code": "200067502",
    "departement_code": "57",
    "region_code": "44",
    "postal_code": "57730"
  },
  {
    "name": "Valmunster",
    "code": "57691",
    "epci_code": "200067650",
    "departement_code": "57",
    "region_code": "44",
    "postal_code": "57220"
  },
  {
    "name": "Vannecourt",
    "code": "57692",
    "epci_code": "245701206",
    "departement_code": "57",
    "region_code": "44",
    "postal_code": "57340"
  },
  {
    "name": "Vantoux",
    "code": "57693",
    "epci_code": "200039865",
    "departement_code": "57",
    "region_code": "44",
    "postal_code": "57070"
  },
  {
    "name": "Vany",
    "code": "57694",
    "epci_code": "200039865",
    "departement_code": "57",
    "region_code": "44",
    "postal_code": "57070"
  },
  {
    "name": "Varize-Vaudoncourt",
    "code": "57695",
    "epci_code": "200067650",
    "departement_code": "57",
    "region_code": "44",
    "postal_code": "57220"
  },
  {
    "name": "Varsberg",
    "code": "57696",
    "epci_code": "245701164",
    "departement_code": "57",
    "region_code": "44",
    "postal_code": "57880"
  },
  {
    "name": "Vasperviller",
    "code": "57697",
    "epci_code": "200068146",
    "departement_code": "57",
    "region_code": "44",
    "postal_code": "57560"
  },
  {
    "name": "Vatimont",
    "code": "57698",
    "epci_code": "245700133",
    "departement_code": "57",
    "region_code": "44",
    "postal_code": "57580"
  },
  {
    "name": "Vaudreching",
    "code": "57700",
    "epci_code": "200067486",
    "departement_code": "57",
    "region_code": "44",
    "postal_code": "57320"
  },
  {
    "name": "Vaux",
    "code": "57701",
    "epci_code": "200039865",
    "departement_code": "57",
    "region_code": "44",
    "postal_code": "57130"
  },
  {
    "name": "Vaxy",
    "code": "57702",
    "epci_code": "245701206",
    "departement_code": "57",
    "region_code": "44",
    "postal_code": "57170"
  },
  {
    "name": "Veckersviller",
    "code": "57703",
    "epci_code": "200068146",
    "departement_code": "57",
    "region_code": "44",
    "postal_code": "57370"
  },
  {
    "name": "Veckring",
    "code": "57704",
    "epci_code": "245701354",
    "departement_code": "57",
    "region_code": "44",
    "postal_code": "57920"
  },
  {
    "name": "Velving",
    "code": "57705",
    "epci_code": "200067650",
    "departement_code": "57",
    "region_code": "44",
    "postal_code": "57220"
  },
  {
    "name": "Vergaville",
    "code": "57706",
    "epci_code": "245701206",
    "departement_code": "57",
    "region_code": "44",
    "postal_code": "57260"
  },
  {
    "name": "Vernéville",
    "code": "57707",
    "epci_code": "200039865",
    "departement_code": "57",
    "region_code": "44",
    "postal_code": "57130"
  },
  {
    "name": "Verny",
    "code": "57708",
    "epci_code": "200039907",
    "departement_code": "57",
    "region_code": "44",
    "postal_code": "57420"
  },
  {
    "name": "Vescheim",
    "code": "57709",
    "epci_code": "245700950",
    "departement_code": "57",
    "region_code": "44",
    "postal_code": "57370"
  },
  {
    "name": "Vibersviller",
    "code": "57711",
    "epci_code": "245701206",
    "departement_code": "57",
    "region_code": "44",
    "postal_code": "57670"
  },
  {
    "name": "Vic-sur-Seille",
    "code": "57712",
    "epci_code": "245701206",
    "departement_code": "57",
    "region_code": "44",
    "postal_code": "57630"
  },
  {
    "name": "Vieux-Lixheim",
    "code": "57713",
    "epci_code": "200068146",
    "departement_code": "57",
    "region_code": "44",
    "postal_code": "57635"
  },
  {
    "name": "Haute-Vigneulles",
    "code": "57714",
    "epci_code": "245700133",
    "departement_code": "57",
    "region_code": "44",
    "postal_code": "57690"
  },
  {
    "name": "Vigny",
    "code": "57715",
    "epci_code": "200039907",
    "departement_code": "57",
    "region_code": "44",
    "postal_code": "57420"
  },
  {
    "name": "Vigy",
    "code": "57716",
    "epci_code": "200067957",
    "departement_code": "57",
    "region_code": "44",
    "postal_code": "57640"
  },
  {
    "name": "Viller",
    "code": "57717",
    "epci_code": "200067502",
    "departement_code": "57",
    "region_code": "44",
    "postal_code": "57340"
  },
  {
    "name": "Villers-Stoncourt",
    "code": "57718",
    "epci_code": "200067957",
    "departement_code": "57",
    "region_code": "44",
    "postal_code": "57530"
  },
  {
    "name": "Villers-sur-Nied",
    "code": "57719",
    "epci_code": "245701206",
    "departement_code": "57",
    "region_code": "44",
    "postal_code": "57340"
  },
  {
    "name": "Villing",
    "code": "57720",
    "epci_code": "200067650",
    "departement_code": "57",
    "region_code": "44",
    "postal_code": "57550"
  },
  {
    "name": "Vilsberg",
    "code": "57721",
    "epci_code": "245700950",
    "departement_code": "57",
    "region_code": "44",
    "postal_code": "57370"
  },
  {
    "name": "Virming",
    "code": "57723",
    "epci_code": "245701206",
    "departement_code": "57",
    "region_code": "44",
    "postal_code": "57340"
  },
  {
    "name": "Vitry-sur-Orne",
    "code": "57724",
    "epci_code": "245701271",
    "departement_code": "57",
    "region_code": "44",
    "postal_code": "57185"
  },
  {
    "name": "Vittersbourg",
    "code": "57725",
    "epci_code": "245701206",
    "departement_code": "57",
    "region_code": "44",
    "postal_code": "57670"
  },
  {
    "name": "Vittoncourt",
    "code": "57726",
    "epci_code": "245700133",
    "departement_code": "57",
    "region_code": "44",
    "postal_code": "57580"
  },
  {
    "name": "Viviers",
    "code": "57727",
    "epci_code": "245701206",
    "departement_code": "57",
    "region_code": "44",
    "postal_code": "57590"
  },
  {
    "name": "Voimhaut",
    "code": "57728",
    "epci_code": "245700133",
    "departement_code": "57",
    "region_code": "44",
    "postal_code": "57580"
  },
  {
    "name": "Volmerange-lès-Boulay",
    "code": "57730",
    "epci_code": "200067650",
    "departement_code": "57",
    "region_code": "44",
    "postal_code": "57220"
  },
  {
    "name": "Volmerange-les-Mines",
    "code": "57731",
    "epci_code": "245700695",
    "departement_code": "57",
    "region_code": "44",
    "postal_code": "57330"
  },
  {
    "name": "Volmunster",
    "code": "57732",
    "epci_code": "200069441",
    "departement_code": "57",
    "region_code": "44",
    "postal_code": "57720"
  },
  {
    "name": "Volstroff",
    "code": "57733",
    "epci_code": "245701354",
    "departement_code": "57",
    "region_code": "44",
    "postal_code": "57940"
  },
  {
    "name": "Voyer",
    "code": "57734",
    "epci_code": "200068146",
    "departement_code": "57",
    "region_code": "44",
    "postal_code": "57560"
  },
  {
    "name": "Vry",
    "code": "57736",
    "epci_code": "200067957",
    "departement_code": "57",
    "region_code": "44",
    "postal_code": "57640"
  },
  {
    "name": "Vulmont",
    "code": "57737",
    "epci_code": "200039907",
    "departement_code": "57",
    "region_code": "44",
    "postal_code": "57420"
  },
  {
    "name": "Waldhouse",
    "code": "57738",
    "epci_code": "200069441",
    "departement_code": "57",
    "region_code": "44",
    "postal_code": "57720"
  },
  {
    "name": "Waldweistroff",
    "code": "57739",
    "epci_code": "200067486",
    "departement_code": "57",
    "region_code": "44",
    "postal_code": "57320"
  },
  {
    "name": "Waldwisse",
    "code": "57740",
    "epci_code": "200067486",
    "departement_code": "57",
    "region_code": "44",
    "postal_code": "57480"
  },
  {
    "name": "Walschbronn",
    "code": "57741",
    "epci_code": "200069441",
    "departement_code": "57",
    "region_code": "44",
    "postal_code": "57720"
  },
  {
    "name": "Walscheid",
    "code": "57742",
    "epci_code": "200068146",
    "departement_code": "57",
    "region_code": "44",
    "postal_code": "57870"
  },
  {
    "name": "Waltembourg",
    "code": "57743",
    "epci_code": "245700950",
    "departement_code": "57",
    "region_code": "44",
    "postal_code": "57370"
  },
  {
    "name": "Wiesviller",
    "code": "57745",
    "epci_code": "200070746",
    "departement_code": "57",
    "region_code": "44",
    "postal_code": "57200"
  },
  {
    "name": "Willerwald",
    "code": "57746",
    "epci_code": "200070746",
    "departement_code": "57",
    "region_code": "44",
    "postal_code": "57430"
  },
  {
    "name": "Wintersbourg",
    "code": "57747",
    "epci_code": "245700950",
    "departement_code": "57",
    "region_code": "44",
    "postal_code": "57635"
  },
  {
    "name": "Wittring",
    "code": "57748",
    "epci_code": "200070746",
    "departement_code": "57",
    "region_code": "44",
    "postal_code": "57905"
  },
  {
    "name": "Vœlfling-lès-Bouzonville",
    "code": "57749",
    "epci_code": "200067650",
    "departement_code": "57",
    "region_code": "44",
    "postal_code": "57320"
  },
  {
    "name": "Wœlfling-lès-Sarreguemines",
    "code": "57750",
    "epci_code": "200070746",
    "departement_code": "57",
    "region_code": "44",
    "postal_code": "57200"
  },
  {
    "name": "Woippy",
    "code": "57751",
    "epci_code": "200039865",
    "departement_code": "57",
    "region_code": "44",
    "postal_code": "57140"
  },
  {
    "name": "Woustviller",
    "code": "57752",
    "epci_code": "200070746",
    "departement_code": "57",
    "region_code": "44",
    "postal_code": "57915"
  },
  {
    "name": "Wuisse",
    "code": "57753",
    "epci_code": "245701206",
    "departement_code": "57",
    "region_code": "44",
    "postal_code": "57170"
  },
  {
    "name": "Xanrey",
    "code": "57754",
    "epci_code": "245701206",
    "departement_code": "57",
    "region_code": "44",
    "postal_code": "57630"
  },
  {
    "name": "Xocourt",
    "code": "57755",
    "epci_code": "245701206",
    "departement_code": "57",
    "region_code": "44",
    "postal_code": "57590"
  },
  {
    "name": "Xouaxange",
    "code": "57756",
    "epci_code": "200068146",
    "departement_code": "57",
    "region_code": "44",
    "postal_code": "57830"
  },
  {
    "name": "Yutz",
    "code": "57757",
    "epci_code": "245701362",
    "departement_code": "57",
    "region_code": "44",
    "postal_code": "57970"
  },
  {
    "name": "Zarbeling",
    "code": "57759",
    "epci_code": "245701206",
    "departement_code": "57",
    "region_code": "44",
    "postal_code": "57340"
  },
  {
    "name": "Zetting",
    "code": "57760",
    "epci_code": "200070746",
    "departement_code": "57",
    "region_code": "44",
    "postal_code": "57905"
  },
  {
    "name": "Zilling",
    "code": "57761",
    "epci_code": "245700950",
    "departement_code": "57",
    "region_code": "44",
    "postal_code": "57370"
  },
  {
    "name": "Zimming",
    "code": "57762",
    "epci_code": "245700133",
    "departement_code": "57",
    "region_code": "44",
    "postal_code": "57690"
  },
  {
    "name": "Zommange",
    "code": "57763",
    "epci_code": "245701206",
    "departement_code": "57",
    "region_code": "44",
    "postal_code": "57260"
  },
  {
    "name": "Zoufftgen",
    "code": "57764",
    "epci_code": "245700695",
    "departement_code": "57",
    "region_code": "44",
    "postal_code": "57330"
  },
  {
    "name": "Diesen",
    "code": "57765",
    "epci_code": "200067502",
    "departement_code": "57",
    "region_code": "44",
    "postal_code": "57890"
  },
  {
    "name": "Stuckange",
    "code": "57767",
    "epci_code": "245701354",
    "departement_code": "57",
    "region_code": "44",
    "postal_code": "57970"
  }
]