[
  {
    "name": "Ahuillé",
    "code": "53001",
    "epci_code": "200083392",
    "departement_code": "53",
    "region_code": "52",
    "postal_code": "53940"
  },
  {
    "name": "Alexain",
    "code": "53002",
    "epci_code": "200055887",
    "departement_code": "53",
    "region_code": "52",
    "postal_code": "53240"
  },
  {
    "name": "Ambrières-les-Vallées",
    "code": "53003",
    "epci_code": "245300389",
    "departement_code": "53",
    "region_code": "52",
    "postal_code": "53300"
  },
  {
    "name": "Andouillé",
    "code": "53005",
    "epci_code": "245300355",
    "departement_code": "53",
    "region_code": "52",
    "postal_code": "53240"
  },
  {
    "name": "Argentré",
    "code": "53007",
    "epci_code": "200083392",
    "departement_code": "53",
    "region_code": "52",
    "postal_code": "53210"
  },
  {
    "name": "Aron",
    "code": "53008",
    "epci_code": "200055887",
    "departement_code": "53",
    "region_code": "52",
    "postal_code": "53440"
  },
  {
    "name": "Arquenay",
    "code": "53009",
    "epci_code": "245300223",
    "departement_code": "53",
    "region_code": "52",
    "postal_code": "53170"
  },
  {
    "name": "Assé-le-Bérenger",
    "code": "53010",
    "epci_code": "200033298",
    "departement_code": "53",
    "region_code": "52",
    "postal_code": "53600"
  },
  {
    "name": "Astillé",
    "code": "53011",
    "epci_code": "200048551",
    "departement_code": "53",
    "region_code": "52",
    "postal_code": "53230"
  },
  {
    "name": "Athée",
    "code": "53012",
    "epci_code": "200048551",
    "departement_code": "53",
    "region_code": "52",
    "postal_code": "53400"
  },
  {
    "name": "Averton",
    "code": "53013",
    "epci_code": "200042182",
    "departement_code": "53",
    "region_code": "52",
    "postal_code": "53700"
  },
  {
    "name": "La Baconnière",
    "code": "53015",
    "epci_code": "245300355",
    "departement_code": "53",
    "region_code": "52",
    "postal_code": "53240"
  },
  {
    "name": "Bais",
    "code": "53016",
    "epci_code": "200033298",
    "departement_code": "53",
    "region_code": "52",
    "postal_code": "53160"
  },
  {
    "name": "Val-du-Maine",
    "code": "53017",
    "epci_code": "245300223",
    "departement_code": "53",
    "region_code": "52",
    "postal_code": "53340"
  },
  {
    "name": "Ballots",
    "code": "53018",
    "epci_code": "200048551",
    "departement_code": "53",
    "region_code": "52",
    "postal_code": "53350"
  },
  {
    "name": "Bannes",
    "code": "53019",
    "epci_code": "245300223",
    "departement_code": "53",
    "region_code": "52",
    "postal_code": "53340"
  },
  {
    "name": "La Bazoge-Montpinçon",
    "code": "53021",
    "epci_code": "200055887",
    "departement_code": "53",
    "region_code": "52",
    "postal_code": "53440"
  },
  {
    "name": "La Bazouge-de-Chemeré",
    "code": "53022",
    "epci_code": "245300223",
    "departement_code": "53",
    "region_code": "52",
    "postal_code": "53170"
  },
  {
    "name": "La Bazouge-des-Alleux",
    "code": "53023",
    "epci_code": "200033298",
    "departement_code": "53",
    "region_code": "52",
    "postal_code": "53470"
  },
  {
    "name": "Bazougers",
    "code": "53025",
    "epci_code": "245300223",
    "departement_code": "53",
    "region_code": "52",
    "postal_code": "53170"
  },
  {
    "name": "Beaulieu-sur-Oudon",
    "code": "53026",
    "epci_code": "200083392",
    "departement_code": "53",
    "region_code": "52",
    "postal_code": "53320"
  },
  {
    "name": "Beaumont-Pied-de-Bœuf",
    "code": "53027",
    "epci_code": "245300223",
    "departement_code": "53",
    "region_code": "52",
    "postal_code": "53290"
  },
  {
    "name": "Belgeard",
    "code": "53028",
    "epci_code": "200055887",
    "departement_code": "53",
    "region_code": "52",
    "postal_code": "53440"
  },
  {
    "name": "Bierné-les-Villages",
    "code": "53029",
    "epci_code": "245300447",
    "departement_code": "53",
    "region_code": "52",
    "postal_code": "53290"
  },
  {
    "name": "Le Bignon-du-Maine",
    "code": "53030",
    "epci_code": "245300223",
    "departement_code": "53",
    "region_code": "52",
    "postal_code": "53170"
  },
  {
    "name": "La Bigottière",
    "code": "53031",
    "epci_code": "245300355",
    "departement_code": "53",
    "region_code": "52",
    "postal_code": "53240"
  },
  {
    "name": "La Boissière",
    "code": "53033",
    "epci_code": "200048551",
    "departement_code": "53",
    "region_code": "52",
    "postal_code": "53800"
  },
  {
    "name": "Bonchamp-lès-Laval",
    "code": "53034",
    "epci_code": "200083392",
    "departement_code": "53",
    "region_code": "52",
    "postal_code": "53960"
  },
  {
    "name": "Bouchamps-lès-Craon",
    "code": "53035",
    "epci_code": "200048551",
    "departement_code": "53",
    "region_code": "52",
    "postal_code": "53800"
  },
  {
    "name": "Bouère",
    "code": "53036",
    "epci_code": "245300223",
    "departement_code": "53",
    "region_code": "52",
    "postal_code": "53290"
  },
  {
    "name": "Bouessay",
    "code": "53037",
    "epci_code": "247200090",
    "departement_code": "53",
    "region_code": "52",
    "postal_code": "53290"
  },
  {
    "name": "Boulay-les-Ifs",
    "code": "53038",
    "epci_code": "200042182",
    "departement_code": "53",
    "region_code": "52",
    "postal_code": "53370"
  },
  {
    "name": "Le Bourgneuf-la-Forêt",
    "code": "53039",
    "epci_code": "200083392",
    "departement_code": "53",
    "region_code": "52",
    "postal_code": "53410"
  },
  {
    "name": "Bourgon",
    "code": "53040",
    "epci_code": "200083392",
    "departement_code": "53",
    "region_code": "52",
    "postal_code": "53410"
  },
  {
    "name": "Brains-sur-les-Marches",
    "code": "53041",
    "epci_code": "200048551",
    "departement_code": "53",
    "region_code": "52",
    "postal_code": "53350"
  },
  {
    "name": "Brecé",
    "code": "53042",
    "epci_code": "245300389",
    "departement_code": "53",
    "region_code": "52",
    "postal_code": "53120"
  },
  {
    "name": "Brée",
    "code": "53043",
    "epci_code": "200033298",
    "departement_code": "53",
    "region_code": "52",
    "postal_code": "53150"
  },
  {
    "name": "La Brûlatte",
    "code": "53045",
    "epci_code": "200083392",
    "departement_code": "53",
    "region_code": "52",
    "postal_code": "53410"
  },
  {
    "name": "Le Buret",
    "code": "53046",
    "epci_code": "245300223",
    "departement_code": "53",
    "region_code": "52",
    "postal_code": "53170"
  },
  {
    "name": "Carelles",
    "code": "53047",
    "epci_code": "245300389",
    "departement_code": "53",
    "region_code": "52",
    "postal_code": "53120"
  },
  {
    "name": "Chailland",
    "code": "53048",
    "epci_code": "245300355",
    "departement_code": "53",
    "region_code": "52",
    "postal_code": "53420"
  },
  {
    "name": "Châlons-du-Maine",
    "code": "53049",
    "epci_code": "200083392",
    "departement_code": "53",
    "region_code": "52",
    "postal_code": "53470"
  },
  {
    "name": "Champéon",
    "code": "53051",
    "epci_code": "200055887",
    "departement_code": "53",
    "region_code": "52",
    "postal_code": "53640"
  },
  {
    "name": "Champfrémont",
    "code": "53052",
    "epci_code": "200042182",
    "departement_code": "53",
    "region_code": "52",
    "postal_code": "53370"
  },
  {
    "name": "Champgenéteux",
    "code": "53053",
    "epci_code": "200033298",
    "departement_code": "53",
    "region_code": "52",
    "postal_code": "53160"
  },
  {
    "name": "Changé",
    "code": "53054",
    "epci_code": "200083392",
    "departement_code": "53",
    "region_code": "52",
    "postal_code": "53810"
  },
  {
    "name": "Chantrigné",
    "code": "53055",
    "epci_code": "245300389",
    "departement_code": "53",
    "region_code": "52",
    "postal_code": "53300"
  },
  {
    "name": "La Chapelle-Anthenaise",
    "code": "53056",
    "epci_code": "200083392",
    "departement_code": "53",
    "region_code": "52",
    "postal_code": "53950"
  },
  {
    "name": "La Chapelle-au-Riboul",
    "code": "53057",
    "epci_code": "200055887",
    "departement_code": "53",
    "region_code": "52",
    "postal_code": "53440"
  },
  {
    "name": "La Chapelle-Craonnaise",
    "code": "53058",
    "epci_code": "200048551",
    "departement_code": "53",
    "region_code": "52",
    "postal_code": "53230"
  },
  {
    "name": "La Chapelle-Rainsouin",
    "code": "53059",
    "epci_code": "200033298",
    "departement_code": "53",
    "region_code": "52",
    "postal_code": "53150"
  },
  {
    "name": "Charchigné",
    "code": "53061",
    "epci_code": "200055887",
    "departement_code": "53",
    "region_code": "52",
    "postal_code": "53250"
  },
  {
    "name": "Château-Gontier-sur-Mayenne",
    "code": "53062",
    "epci_code": "245300447",
    "departement_code": "53",
    "region_code": "52",
    "postal_code": "53200"
  },
  {
    "name": "Châtelain",
    "code": "53063",
    "epci_code": "245300447",
    "departement_code": "53",
    "region_code": "52",
    "postal_code": "53200"
  },
  {
    "name": "Châtillon-sur-Colmont",
    "code": "53064",
    "epci_code": "245300389",
    "departement_code": "53",
    "region_code": "52",
    "postal_code": "53100"
  },
  {
    "name": "Chemazé",
    "code": "53066",
    "epci_code": "245300447",
    "departement_code": "53",
    "region_code": "52",
    "postal_code": "53200"
  },
  {
    "name": "Chémeré-le-Roi",
    "code": "53067",
    "epci_code": "245300223",
    "departement_code": "53",
    "region_code": "52",
    "postal_code": "53340"
  },
  {
    "name": "Chérancé",
    "code": "53068",
    "epci_code": "200048551",
    "departement_code": "53",
    "region_code": "52",
    "postal_code": "53400"
  },
  {
    "name": "Chevaigné-du-Maine",
    "code": "53069",
    "epci_code": "200042182",
    "departement_code": "53",
    "region_code": "52",
    "postal_code": "53250"
  },
  {
    "name": "Colombiers-du-Plessis",
    "code": "53071",
    "epci_code": "245300389",
    "departement_code": "53",
    "region_code": "52",
    "postal_code": "53120"
  },
  {
    "name": "Commer",
    "code": "53072",
    "epci_code": "200055887",
    "departement_code": "53",
    "region_code": "52",
    "postal_code": "53470"
  },
  {
    "name": "Congrier",
    "code": "53073",
    "epci_code": "200048551",
    "departement_code": "53",
    "region_code": "52",
    "postal_code": "53800"
  },
  {
    "name": "Contest",
    "code": "53074",
    "epci_code": "200055887",
    "departement_code": "53",
    "region_code": "52",
    "postal_code": "53100"
  },
  {
    "name": "Cosmes",
    "code": "53075",
    "epci_code": "200048551",
    "departement_code": "53",
    "region_code": "52",
    "postal_code": "53230"
  },
  {
    "name": "Cossé-en-Champagne",
    "code": "53076",
    "epci_code": "245300223",
    "departement_code": "53",
    "region_code": "52",
    "postal_code": "53340"
  },
  {
    "name": "Cossé-le-Vivien",
    "code": "53077",
    "epci_code": "200048551",
    "departement_code": "53",
    "region_code": "52",
    "postal_code": "53230"
  },
  {
    "name": "Coudray",
    "code": "53078",
    "epci_code": "245300447",
    "departement_code": "53",
    "region_code": "52",
    "postal_code": "53200"
  },
  {
    "name": "Couesmes-Vaucé",
    "code": "53079",
    "epci_code": "245300389",
    "departement_code": "53",
    "region_code": "52",
    "postal_code": "53300"
  },
  {
    "name": "Couptrain",
    "code": "53080",
    "epci_code": "200042182",
    "departement_code": "53",
    "region_code": "52",
    "postal_code": "53250"
  },
  {
    "name": "Courbeveille",
    "code": "53082",
    "epci_code": "200048551",
    "departement_code": "53",
    "region_code": "52",
    "postal_code": "53230"
  },
  {
    "name": "Courcité",
    "code": "53083",
    "epci_code": "200042182",
    "departement_code": "53",
    "region_code": "52",
    "postal_code": "53700"
  },
  {
    "name": "Craon",
    "code": "53084",
    "epci_code": "200048551",
    "departement_code": "53",
    "region_code": "52",
    "postal_code": "53400"
  },
  {
    "name": "Crennes-sur-Fraubée",
    "code": "53085",
    "epci_code": "200042182",
    "departement_code": "53",
    "region_code": "52",
    "postal_code": "53700"
  },
  {
    "name": "La Croixille",
    "code": "53086",
    "epci_code": "245300355",
    "departement_code": "53",
    "region_code": "52",
    "postal_code": "53380"
  },
  {
    "name": "La Cropte",
    "code": "53087",
    "epci_code": "245300223",
    "departement_code": "53",
    "region_code": "52",
    "postal_code": "53170"
  },
  {
    "name": "Cuillé",
    "code": "53088",
    "epci_code": "200048551",
    "departement_code": "53",
    "region_code": "52",
    "postal_code": "53540"
  },
  {
    "name": "Daon",
    "code": "53089",
    "epci_code": "245300447",
    "departement_code": "53",
    "region_code": "52",
    "postal_code": "53200"
  },
  {
    "name": "Denazé",
    "code": "53090",
    "epci_code": "200048551",
    "departement_code": "53",
    "region_code": "52",
    "postal_code": "53400"
  },
  {
    "name": "Désertines",
    "code": "53091",
    "epci_code": "245300389",
    "departement_code": "53",
    "region_code": "52",
    "postal_code": "53190"
  },
  {
    "name": "La Dorée",
    "code": "53093",
    "epci_code": "245300389",
    "departement_code": "53",
    "region_code": "52",
    "postal_code": "53190"
  },
  {
    "name": "Entrammes",
    "code": "53094",
    "epci_code": "200083392",
    "departement_code": "53",
    "region_code": "52",
    "postal_code": "53260"
  },
  {
    "name": "Ernée",
    "code": "53096",
    "epci_code": "245300355",
    "departement_code": "53",
    "region_code": "52",
    "postal_code": "53500"
  },
  {
    "name": "Évron",
    "code": "53097",
    "epci_code": "200033298",
    "departement_code": "53",
    "region_code": "52",
    "postal_code": "53150"
  },
  {
    "name": "Évron",
    "code": "53097",
    "epci_code": "200033298",
    "departement_code": "53",
    "region_code": "52",
    "postal_code": "53600"
  },
  {
    "name": "Fontaine-Couverte",
    "code": "53098",
    "epci_code": "200048551",
    "departement_code": "53",
    "region_code": "52",
    "postal_code": "53350"
  },
  {
    "name": "Forcé",
    "code": "53099",
    "epci_code": "200083392",
    "departement_code": "53",
    "region_code": "52",
    "postal_code": "53260"
  },
  {
    "name": "Fougerolles-du-Plessis",
    "code": "53100",
    "epci_code": "245300389",
    "departement_code": "53",
    "region_code": "52",
    "postal_code": "53190"
  },
  {
    "name": "Fromentières",
    "code": "53101",
    "epci_code": "245300447",
    "departement_code": "53",
    "region_code": "52",
    "postal_code": "53200"
  },
  {
    "name": "Gastines",
    "code": "53102",
    "epci_code": "200048551",
    "departement_code": "53",
    "region_code": "52",
    "postal_code": "53540"
  },
  {
    "name": "Le Genest-Saint-Isle",
    "code": "53103",
    "epci_code": "200083392",
    "departement_code": "53",
    "region_code": "52",
    "postal_code": "53940"
  },
  {
    "name": "Gennes-Longuefuye",
    "code": "53104",
    "epci_code": "245300447",
    "departement_code": "53",
    "region_code": "52",
    "postal_code": "53200"
  },
  {
    "name": "Gesnes",
    "code": "53105",
    "epci_code": "200033298",
    "departement_code": "53",
    "region_code": "52",
    "postal_code": "53150"
  },
  {
    "name": "Gesvres",
    "code": "53106",
    "epci_code": "200042182",
    "departement_code": "53",
    "region_code": "52",
    "postal_code": "53370"
  },
  {
    "name": "Gorron",
    "code": "53107",
    "epci_code": "245300389",
    "departement_code": "53",
    "region_code": "52",
    "postal_code": "53120"
  },
  {
    "name": "La Gravelle",
    "code": "53108",
    "epci_code": "200083392",
    "departement_code": "53",
    "region_code": "52",
    "postal_code": "53410"
  },
  {
    "name": "Grazay",
    "code": "53109",
    "epci_code": "200055887",
    "departement_code": "53",
    "region_code": "52",
    "postal_code": "53440"
  },
  {
    "name": "Grez-en-Bouère",
    "code": "53110",
    "epci_code": "245300223",
    "departement_code": "53",
    "region_code": "52",
    "postal_code": "53290"
  },
  {
    "name": "La Haie-Traversaine",
    "code": "53111",
    "epci_code": "200055887",
    "departement_code": "53",
    "region_code": "52",
    "postal_code": "53300"
  },
  {
    "name": "Le Ham",
    "code": "53112",
    "epci_code": "200042182",
    "departement_code": "53",
    "region_code": "52",
    "postal_code": "53250"
  },
  {
    "name": "Hambers",
    "code": "53113",
    "epci_code": "200033298",
    "departement_code": "53",
    "region_code": "52",
    "postal_code": "53160"
  },
  {
    "name": "Hardanges",
    "code": "53114",
    "epci_code": "200055887",
    "departement_code": "53",
    "region_code": "52",
    "postal_code": "53640"
  },
  {
    "name": "Hercé",
    "code": "53115",
    "epci_code": "245300389",
    "departement_code": "53",
    "region_code": "52",
    "postal_code": "53120"
  },
  {
    "name": "Le Horps",
    "code": "53116",
    "epci_code": "200055887",
    "departement_code": "53",
    "region_code": "52",
    "postal_code": "53640"
  },
  {
    "name": "Houssay",
    "code": "53117",
    "epci_code": "245300447",
    "departement_code": "53",
    "region_code": "52",
    "postal_code": "53360"
  },
  {
    "name": "Le Housseau-Brétignolles",
    "code": "53118",
    "epci_code": "200055887",
    "departement_code": "53",
    "region_code": "52",
    "postal_code": "53110"
  },
  {
    "name": "L’Huisserie",
    "code": "53119",
    "epci_code": "200083392",
    "departement_code": "53",
    "region_code": "52",
    "postal_code": "53970"
  },
  {
    "name": "Izé",
    "code": "53120",
    "epci_code": "200033298",
    "departement_code": "53",
    "region_code": "52",
    "postal_code": "53160"
  },
  {
    "name": "Javron-les-Chapelles",
    "code": "53121",
    "epci_code": "200042182",
    "departement_code": "53",
    "region_code": "52",
    "postal_code": "53250"
  },
  {
    "name": "Jublains",
    "code": "53122",
    "epci_code": "200055887",
    "departement_code": "53",
    "region_code": "52",
    "postal_code": "53160"
  },
  {
    "name": "Juvigné",
    "code": "53123",
    "epci_code": "245300355",
    "departement_code": "53",
    "region_code": "52",
    "postal_code": "53380"
  },
  {
    "name": "Prée-d’Anjou",
    "code": "53124",
    "epci_code": "245300447",
    "departement_code": "53",
    "region_code": "52",
    "postal_code": "53200"
  },
  {
    "name": "Landivy",
    "code": "53125",
    "epci_code": "245300389",
    "departement_code": "53",
    "region_code": "52",
    "postal_code": "53190"
  },
  {
    "name": "Larchamp",
    "code": "53126",
    "epci_code": "245300355",
    "departement_code": "53",
    "region_code": "52",
    "postal_code": "53220"
  },
  {
    "name": "Lassay-les-Châteaux",
    "code": "53127",
    "epci_code": "200055887",
    "departement_code": "53",
    "region_code": "52",
    "postal_code": "53110"
  },
  {
    "name": "Laubrières",
    "code": "53128",
    "epci_code": "200048551",
    "departement_code": "53",
    "region_code": "52",
    "postal_code": "53540"
  },
  {
    "name": "Launay-Villiers",
    "code": "53129",
    "epci_code": "200083392",
    "departement_code": "53",
    "region_code": "52",
    "postal_code": "53410"
  },
  {
    "name": "Laval",
    "code": "53130",
    "epci_code": "200083392",
    "departement_code": "53",
    "region_code": "52",
    "postal_code": "53000"
  },
  {
    "name": "Lesbois",
    "code": "53131",
    "epci_code": "245300389",
    "departement_code": "53",
    "region_code": "52",
    "postal_code": "53120"
  },
  {
    "name": "Levaré",
    "code": "53132",
    "epci_code": "245300389",
    "departement_code": "53",
    "region_code": "52",
    "postal_code": "53120"
  },
  {
    "name": "Lignières-Orgères",
    "code": "53133",
    "epci_code": "200042182",
    "departement_code": "53",
    "region_code": "52",
    "postal_code": "53140"
  },
  {
    "name": "Livet",
    "code": "53134",
    "epci_code": "200033298",
    "departement_code": "53",
    "region_code": "52",
    "postal_code": "53150"
  },
  {
    "name": "Livré-la-Touche",
    "code": "53135",
    "epci_code": "200048551",
    "departement_code": "53",
    "region_code": "52",
    "postal_code": "53400"
  },
  {
    "name": "La Roche-Neuville",
    "code": "53136",
    "epci_code": "245300447",
    "departement_code": "53",
    "region_code": "52",
    "postal_code": "53200"
  },
  {
    "name": "La Roche-Neuville",
    "code": "53136",
    "epci_code": "245300447",
    "departement_code": "53",
    "region_code": "52",
    "postal_code": "53360"
  },
  {
    "name": "Loiron-Ruillé",
    "code": "53137",
    "epci_code": "200083392",
    "departement_code": "53",
    "region_code": "52",
    "postal_code": "53320"
  },
  {
    "name": "Loupfougères",
    "code": "53139",
    "epci_code": "200042182",
    "departement_code": "53",
    "region_code": "52",
    "postal_code": "53700"
  },
  {
    "name": "Louverné",
    "code": "53140",
    "epci_code": "200083392",
    "departement_code": "53",
    "region_code": "52",
    "postal_code": "53950"
  },
  {
    "name": "Louvigné",
    "code": "53141",
    "epci_code": "200083392",
    "departement_code": "53",
    "region_code": "52",
    "postal_code": "53210"
  },
  {
    "name": "Madré",
    "code": "53142",
    "epci_code": "200042182",
    "departement_code": "53",
    "region_code": "52",
    "postal_code": "53250"
  },
  {
    "name": "Maisoncelles-du-Maine",
    "code": "53143",
    "epci_code": "245300223",
    "departement_code": "53",
    "region_code": "52",
    "postal_code": "53170"
  },
  {
    "name": "Marcillé-la-Ville",
    "code": "53144",
    "epci_code": "200055887",
    "departement_code": "53",
    "region_code": "52",
    "postal_code": "53440"
  },
  {
    "name": "Marigné-Peuton",
    "code": "53145",
    "epci_code": "245300447",
    "departement_code": "53",
    "region_code": "52",
    "postal_code": "53200"
  },
  {
    "name": "Martigné-sur-Mayenne",
    "code": "53146",
    "epci_code": "200055887",
    "departement_code": "53",
    "region_code": "52",
    "postal_code": "53470"
  },
  {
    "name": "Mayenne",
    "code": "53147",
    "epci_code": "200055887",
    "departement_code": "53",
    "region_code": "52",
    "postal_code": "53100"
  },
  {
    "name": "Mée",
    "code": "53148",
    "epci_code": "200048551",
    "departement_code": "53",
    "region_code": "52",
    "postal_code": "53400"
  },
  {
    "name": "Ménil",
    "code": "53150",
    "epci_code": "245300447",
    "departement_code": "53",
    "region_code": "52",
    "postal_code": "53200"
  },
  {
    "name": "Méral",
    "code": "53151",
    "epci_code": "200048551",
    "departement_code": "53",
    "region_code": "52",
    "postal_code": "53230"
  },
  {
    "name": "Meslay-du-Maine",
    "code": "53152",
    "epci_code": "245300223",
    "departement_code": "53",
    "region_code": "52",
    "postal_code": "53170"
  },
  {
    "name": "Mézangers",
    "code": "53153",
    "epci_code": "200033298",
    "departement_code": "53",
    "region_code": "52",
    "postal_code": "53600"
  },
  {
    "name": "Montaudin",
    "code": "53154",
    "epci_code": "245300389",
    "departement_code": "53",
    "region_code": "52",
    "postal_code": "53220"
  },
  {
    "name": "Montenay",
    "code": "53155",
    "epci_code": "245300355",
    "departement_code": "53",
    "region_code": "52",
    "postal_code": "53500"
  },
  {
    "name": "Montflours",
    "code": "53156",
    "epci_code": "200083392",
    "departement_code": "53",
    "region_code": "52",
    "postal_code": "53240"
  },
  {
    "name": "Montigné-le-Brillant",
    "code": "53157",
    "epci_code": "200083392",
    "departement_code": "53",
    "region_code": "52",
    "postal_code": "53970"
  },
  {
    "name": "Montjean",
    "code": "53158",
    "epci_code": "200083392",
    "departement_code": "53",
    "region_code": "52",
    "postal_code": "53320"
  },
  {
    "name": "Montreuil-Poulay",
    "code": "53160",
    "epci_code": "200055887",
    "departement_code": "53",
    "region_code": "52",
    "postal_code": "53640"
  },
  {
    "name": "Montsûrs",
    "code": "53161",
    "epci_code": "200033298",
    "departement_code": "53",
    "region_code": "52",
    "postal_code": "53150"
  },
  {
    "name": "Moulay",
    "code": "53162",
    "epci_code": "200055887",
    "departement_code": "53",
    "region_code": "52",
    "postal_code": "53100"
  },
  {
    "name": "Neau",
    "code": "53163",
    "epci_code": "200033298",
    "departement_code": "53",
    "region_code": "52",
    "postal_code": "53150"
  },
  {
    "name": "Neuilly-le-Vendin",
    "code": "53164",
    "epci_code": "200042182",
    "departement_code": "53",
    "region_code": "52",
    "postal_code": "53250"
  },
  {
    "name": "Niafles",
    "code": "53165",
    "epci_code": "200048551",
    "departement_code": "53",
    "region_code": "52",
    "postal_code": "53400"
  },
  {
    "name": "Nuillé-sur-Vicoin",
    "code": "53168",
    "epci_code": "200083392",
    "departement_code": "53",
    "region_code": "52",
    "postal_code": "53970"
  },
  {
    "name": "Olivet",
    "code": "53169",
    "epci_code": "200083392",
    "departement_code": "53",
    "region_code": "52",
    "postal_code": "53410"
  },
  {
    "name": "Oisseau",
    "code": "53170",
    "epci_code": "245300389",
    "departement_code": "53",
    "region_code": "52",
    "postal_code": "53300"
  },
  {
    "name": "Origné",
    "code": "53172",
    "epci_code": "245300447",
    "departement_code": "53",
    "region_code": "52",
    "postal_code": "53360"
  },
  {
    "name": "La Pallu",
    "code": "53173",
    "epci_code": "200042182",
    "departement_code": "53",
    "region_code": "52",
    "postal_code": "53140"
  },
  {
    "name": "Parigné-sur-Braye",
    "code": "53174",
    "epci_code": "200055887",
    "departement_code": "53",
    "region_code": "52",
    "postal_code": "53100"
  },
  {
    "name": "Parné-sur-Roc",
    "code": "53175",
    "epci_code": "200083392",
    "departement_code": "53",
    "region_code": "52",
    "postal_code": "53260"
  },
  {
    "name": "Le Pas",
    "code": "53176",
    "epci_code": "245300389",
    "departement_code": "53",
    "region_code": "52",
    "postal_code": "53300"
  },
  {
    "name": "La Pellerine",
    "code": "53177",
    "epci_code": "245300355",
    "departement_code": "53",
    "region_code": "52",
    "postal_code": "53220"
  },
  {
    "name": "Peuton",
    "code": "53178",
    "epci_code": "245300447",
    "departement_code": "53",
    "region_code": "52",
    "postal_code": "53360"
  },
  {
    "name": "Placé",
    "code": "53179",
    "epci_code": "200055887",
    "departement_code": "53",
    "region_code": "52",
    "postal_code": "53240"
  },
  {
    "name": "Pommerieux",
    "code": "53180",
    "epci_code": "200048551",
    "departement_code": "53",
    "region_code": "52",
    "postal_code": "53400"
  },
  {
    "name": "Pontmain",
    "code": "53181",
    "epci_code": "245300389",
    "departement_code": "53",
    "region_code": "52",
    "postal_code": "53220"
  },
  {
    "name": "Port-Brillet",
    "code": "53182",
    "epci_code": "200083392",
    "departement_code": "53",
    "region_code": "52",
    "postal_code": "53410"
  },
  {
    "name": "Préaux",
    "code": "53184",
    "epci_code": "245300223",
    "departement_code": "53",
    "region_code": "52",
    "postal_code": "53340"
  },
  {
    "name": "Pré-en-Pail-Saint-Samson",
    "code": "53185",
    "epci_code": "200042182",
    "departement_code": "53",
    "region_code": "52",
    "postal_code": "53140"
  },
  {
    "name": "Quelaines-Saint-Gault",
    "code": "53186",
    "epci_code": "200048551",
    "departement_code": "53",
    "region_code": "52",
    "postal_code": "53360"
  },
  {
    "name": "Ravigny",
    "code": "53187",
    "epci_code": "200042182",
    "departement_code": "53",
    "region_code": "52",
    "postal_code": "53370"
  },
  {
    "name": "Renazé",
    "code": "53188",
    "epci_code": "200048551",
    "departement_code": "53",
    "region_code": "52",
    "postal_code": "53800"
  },
  {
    "name": "Rennes-en-Grenouilles",
    "code": "53189",
    "epci_code": "200055887",
    "departement_code": "53",
    "region_code": "52",
    "postal_code": "53110"
  },
  {
    "name": "Le Ribay",
    "code": "53190",
    "epci_code": "200055887",
    "departement_code": "53",
    "region_code": "52",
    "postal_code": "53640"
  },
  {
    "name": "La Roë",
    "code": "53191",
    "epci_code": "200048551",
    "departement_code": "53",
    "region_code": "52",
    "postal_code": "53350"
  },
  {
    "name": "La Rouaudière",
    "code": "53192",
    "epci_code": "200048551",
    "departement_code": "53",
    "region_code": "52",
    "postal_code": "53390"
  },
  {
    "name": "Ruillé-Froid-Fonds",
    "code": "53193",
    "epci_code": "245300223",
    "departement_code": "53",
    "region_code": "52",
    "postal_code": "53170"
  },
  {
    "name": "Sacé",
    "code": "53195",
    "epci_code": "200055887",
    "departement_code": "53",
    "region_code": "52",
    "postal_code": "53470"
  },
  {
    "name": "Saint-Aignan-de-Couptrain",
    "code": "53196",
    "epci_code": "200042182",
    "departement_code": "53",
    "region_code": "52",
    "postal_code": "53250"
  },
  {
    "name": "Saint-Aignan-sur-Roë",
    "code": "53197",
    "epci_code": "200048551",
    "departement_code": "53",
    "region_code": "52",
    "postal_code": "53390"
  },
  {
    "name": "Saint-Aubin-du-Désert",
    "code": "53198",
    "epci_code": "200042182",
    "departement_code": "53",
    "region_code": "52",
    "postal_code": "53700"
  },
  {
    "name": "Saint-Aubin-Fosse-Louvain",
    "code": "53199",
    "epci_code": "245300389",
    "departement_code": "53",
    "region_code": "52",
    "postal_code": "53120"
  },
  {
    "name": "Saint-Baudelle",
    "code": "53200",
    "epci_code": "200055887",
    "departement_code": "53",
    "region_code": "52",
    "postal_code": "53100"
  },
  {
    "name": "Saint-Berthevin",
    "code": "53201",
    "epci_code": "200083392",
    "departement_code": "53",
    "region_code": "52",
    "postal_code": "53940"
  },
  {
    "name": "Saint-Berthevin-la-Tannière",
    "code": "53202",
    "epci_code": "245300389",
    "departement_code": "53",
    "region_code": "52",
    "postal_code": "53220"
  },
  {
    "name": "Saint-Brice",
    "code": "53203",
    "epci_code": "245300223",
    "departement_code": "53",
    "region_code": "52",
    "postal_code": "53290"
  },
  {
    "name": "Saint-Calais-du-Désert",
    "code": "53204",
    "epci_code": "200042182",
    "departement_code": "53",
    "region_code": "52",
    "postal_code": "53140"
  },
  {
    "name": "Saint-Charles-la-Forêt",
    "code": "53206",
    "epci_code": "245300223",
    "departement_code": "53",
    "region_code": "52",
    "postal_code": "53170"
  },
  {
    "name": "Saint-Cyr-en-Pail",
    "code": "53208",
    "epci_code": "200042182",
    "departement_code": "53",
    "region_code": "52",
    "postal_code": "53140"
  },
  {
    "name": "Saint-Cyr-le-Gravelais",
    "code": "53209",
    "epci_code": "200083392",
    "departement_code": "53",
    "region_code": "52",
    "postal_code": "53320"
  },
  {
    "name": "Saint-Denis-d’Anjou",
    "code": "53210",
    "epci_code": "245300447",
    "departement_code": "53",
    "region_code": "52",
    "postal_code": "53290"
  },
  {
    "name": "Saint-Denis-de-Gastines",
    "code": "53211",
    "epci_code": "245300355",
    "departement_code": "53",
    "region_code": "52",
    "postal_code": "53500"
  },
  {
    "name": "Saint-Denis-du-Maine",
    "code": "53212",
    "epci_code": "245300223",
    "departement_code": "53",
    "region_code": "52",
    "postal_code": "53170"
  },
  {
    "name": "Saint-Ellier-du-Maine",
    "code": "53213",
    "epci_code": "245300389",
    "departement_code": "53",
    "region_code": "52",
    "postal_code": "53220"
  },
  {
    "name": "Saint-Erblon",
    "code": "53214",
    "epci_code": "200048551",
    "departement_code": "53",
    "region_code": "52",
    "postal_code": "53390"
  },
  {
    "name": "Saint-Fraimbault-de-Prières",
    "code": "53216",
    "epci_code": "200055887",
    "departement_code": "53",
    "region_code": "52",
    "postal_code": "53300"
  },
  {
    "name": "Sainte-Gemmes-le-Robert",
    "code": "53218",
    "epci_code": "200033298",
    "departement_code": "53",
    "region_code": "52",
    "postal_code": "53600"
  },
  {
    "name": "Saint-Georges-Buttavent",
    "code": "53219",
    "epci_code": "200055887",
    "departement_code": "53",
    "region_code": "52",
    "postal_code": "53100"
  },
  {
    "name": "Saint-Georges-le-Fléchard",
    "code": "53220",
    "epci_code": "200033298",
    "departement_code": "53",
    "region_code": "52",
    "postal_code": "53480"
  },
  {
    "name": "Saint-Georges-sur-Erve",
    "code": "53221",
    "epci_code": "200033298",
    "departement_code": "53",
    "region_code": "52",
    "postal_code": "53600"
  },
  {
    "name": "Saint-Germain-d’Anxure",
    "code": "53222",
    "epci_code": "200055887",
    "departement_code": "53",
    "region_code": "52",
    "postal_code": "53240"
  },
  {
    "name": "Saint-Germain-de-Coulamer",
    "code": "53223",
    "epci_code": "200042182",
    "departement_code": "53",
    "region_code": "52",
    "postal_code": "53700"
  },
  {
    "name": "Saint-Germain-le-Fouilloux",
    "code": "53224",
    "epci_code": "200083392",
    "departement_code": "53",
    "region_code": "52",
    "postal_code": "53240"
  },
  {
    "name": "Saint-Germain-le-Guillaume",
    "code": "53225",
    "epci_code": "245300355",
    "departement_code": "53",
    "region_code": "52",
    "postal_code": "53240"
  },
  {
    "name": "Saint-Hilaire-du-Maine",
    "code": "53226",
    "epci_code": "245300355",
    "departement_code": "53",
    "region_code": "52",
    "postal_code": "53380"
  },
  {
    "name": "Blandouet-Saint Jean",
    "code": "53228",
    "epci_code": "200033298",
    "departement_code": "53",
    "region_code": "52",
    "postal_code": "53270"
  },
  {
    "name": "Saint-Jean-sur-Mayenne",
    "code": "53229",
    "epci_code": "200083392",
    "departement_code": "53",
    "region_code": "52",
    "postal_code": "53240"
  },
  {
    "name": "Saint-Julien-du-Terroux",
    "code": "53230",
    "epci_code": "200055887",
    "departement_code": "53",
    "region_code": "52",
    "postal_code": "53110"
  },
  {
    "name": "Saint-Léger",
    "code": "53232",
    "epci_code": "200033298",
    "departement_code": "53",
    "region_code": "52",
    "postal_code": "53480"
  },
  {
    "name": "Saint-Loup-du-Dorat",
    "code": "53233",
    "epci_code": "245300223",
    "departement_code": "53",
    "region_code": "52",
    "postal_code": "53290"
  },
  {
    "name": "Saint-Loup-du-Gast",
    "code": "53234",
    "epci_code": "245300389",
    "departement_code": "53",
    "region_code": "52",
    "postal_code": "53300"
  },
  {
    "name": "Sainte-Marie-du-Bois",
    "code": "53235",
    "epci_code": "200055887",
    "departement_code": "53",
    "region_code": "52",
    "postal_code": "53110"
  },
  {
    "name": "Saint-Mars-du-Désert",
    "code": "53236",
    "epci_code": "200042182",
    "departement_code": "53",
    "region_code": "52",
    "postal_code": "53700"
  },
  {
    "name": "Saint-Mars-sur-Colmont",
    "code": "53237",
    "epci_code": "245300389",
    "departement_code": "53",
    "region_code": "52",
    "postal_code": "53300"
  },
  {
    "name": "Saint-Mars-sur-la-Futaie",
    "code": "53238",
    "epci_code": "245300389",
    "departement_code": "53",
    "region_code": "52",
    "postal_code": "53220"
  },
  {
    "name": "Saint-Martin-du-Limet",
    "code": "53240",
    "epci_code": "200048551",
    "departement_code": "53",
    "region_code": "52",
    "postal_code": "53800"
  },
  {
    "name": "Saint-Michel-de-la-Roë",
    "code": "53242",
    "epci_code": "200048551",
    "departement_code": "53",
    "region_code": "52",
    "postal_code": "53350"
  },
  {
    "name": "Saint-Ouën-des-Toits",
    "code": "53243",
    "epci_code": "200083392",
    "departement_code": "53",
    "region_code": "52",
    "postal_code": "53410"
  },
  {
    "name": "Saint-Pierre-des-Landes",
    "code": "53245",
    "epci_code": "245300355",
    "departement_code": "53",
    "region_code": "52",
    "postal_code": "53500"
  },
  {
    "name": "Saint-Pierre-des-Nids",
    "code": "53246",
    "epci_code": "200042182",
    "departement_code": "53",
    "region_code": "52",
    "postal_code": "53370"
  },
  {
    "name": "Saint-Pierre-la-Cour",
    "code": "53247",
    "epci_code": "200083392",
    "departement_code": "53",
    "region_code": "52",
    "postal_code": "53410"
  },
  {
    "name": "Saint-Pierre-sur-Erve",
    "code": "53248",
    "epci_code": "200033298",
    "departement_code": "53",
    "region_code": "52",
    "postal_code": "53270"
  },
  {
    "name": "Vimartin-sur-Orthe",
    "code": "53249",
    "epci_code": "200033298",
    "departement_code": "53",
    "region_code": "52",
    "postal_code": "53160"
  },
  {
    "name": "Saint-Poix",
    "code": "53250",
    "epci_code": "200048551",
    "departement_code": "53",
    "region_code": "52",
    "postal_code": "53540"
  },
  {
    "name": "Saint-Quentin-les-Anges",
    "code": "53251",
    "epci_code": "200048551",
    "departement_code": "53",
    "region_code": "52",
    "postal_code": "53400"
  },
  {
    "name": "Saint-Saturnin-du-Limet",
    "code": "53253",
    "epci_code": "200048551",
    "departement_code": "53",
    "region_code": "52",
    "postal_code": "53800"
  },
  {
    "name": "Sainte-Suzanne-et-Chammes",
    "code": "53255",
    "epci_code": "200033298",
    "departement_code": "53",
    "region_code": "52",
    "postal_code": "53270"
  },
  {
    "name": "Saint-Thomas-de-Courceriers",
    "code": "53256",
    "epci_code": "200033298",
    "departement_code": "53",
    "region_code": "52",
    "postal_code": "53160"
  },
  {
    "name": "Saulges",
    "code": "53257",
    "epci_code": "200033298",
    "departement_code": "53",
    "region_code": "52",
    "postal_code": "53340"
  },
  {
    "name": "La Selle-Craonnaise",
    "code": "53258",
    "epci_code": "200048551",
    "departement_code": "53",
    "region_code": "52",
    "postal_code": "53800"
  },
  {
    "name": "Senonnes",
    "code": "53259",
    "epci_code": "200048551",
    "departement_code": "53",
    "region_code": "52",
    "postal_code": "53390"
  },
  {
    "name": "Simplé",
    "code": "53260",
    "epci_code": "200048551",
    "departement_code": "53",
    "region_code": "52",
    "postal_code": "53360"
  },
  {
    "name": "Soucé",
    "code": "53261",
    "epci_code": "245300389",
    "departement_code": "53",
    "region_code": "52",
    "postal_code": "53300"
  },
  {
    "name": "Soulgé-sur-Ouette",
    "code": "53262",
    "epci_code": "200083392",
    "departement_code": "53",
    "region_code": "52",
    "postal_code": "53210"
  },
  {
    "name": "Thubœuf",
    "code": "53263",
    "epci_code": "200055887",
    "departement_code": "53",
    "region_code": "52",
    "postal_code": "53110"
  },
  {
    "name": "Thorigné-en-Charnie",
    "code": "53264",
    "epci_code": "200033298",
    "departement_code": "53",
    "region_code": "52",
    "postal_code": "53270"
  },
  {
    "name": "Torcé-Viviers-en-Charnie",
    "code": "53265",
    "epci_code": "200033298",
    "departement_code": "53",
    "region_code": "52",
    "postal_code": "53270"
  },
  {
    "name": "Trans",
    "code": "53266",
    "epci_code": "200033298",
    "departement_code": "53",
    "region_code": "52",
    "postal_code": "53160"
  },
  {
    "name": "Vaiges",
    "code": "53267",
    "epci_code": "200033298",
    "departement_code": "53",
    "region_code": "52",
    "postal_code": "53480"
  },
  {
    "name": "Vautorte",
    "code": "53269",
    "epci_code": "245300355",
    "departement_code": "53",
    "region_code": "52",
    "postal_code": "53500"
  },
  {
    "name": "Vieuvy",
    "code": "53270",
    "epci_code": "245300389",
    "departement_code": "53",
    "region_code": "52",
    "postal_code": "53120"
  },
  {
    "name": "Villaines-la-Juhel",
    "code": "53271",
    "epci_code": "200042182",
    "departement_code": "53",
    "region_code": "52",
    "postal_code": "53700"
  },
  {
    "name": "Villepail",
    "code": "53272",
    "epci_code": "200042182",
    "departement_code": "53",
    "region_code": "52",
    "postal_code": "53250"
  },
  {
    "name": "Villiers-Charlemagne",
    "code": "53273",
    "epci_code": "245300223",
    "departement_code": "53",
    "region_code": "52",
    "postal_code": "53170"
  },
  {
    "name": "Voutré",
    "code": "53276",
    "epci_code": "200033298",
    "departement_code": "53",
    "region_code": "52",
    "postal_code": "53600"
  }
]