[
  {
    "name": "Abbécourt",
    "code": "02001",
    "epci_code": "200071785",
    "departement_code": "02",
    "region_code": "32",
    "postal_code": "02300"
  },
  {
    "name": "Achery",
    "code": "02002",
    "epci_code": "200071785",
    "departement_code": "02",
    "region_code": "32",
    "postal_code": "02800"
  },
  {
    "name": "Acy",
    "code": "02003",
    "epci_code": "240200477",
    "departement_code": "02",
    "region_code": "32",
    "postal_code": "02200"
  },
  {
    "name": "Agnicourt-et-Séchelles",
    "code": "02004",
    "epci_code": "240200469",
    "departement_code": "02",
    "region_code": "32",
    "postal_code": "02340"
  },
  {
    "name": "Aguilcourt",
    "code": "02005",
    "epci_code": "240200576",
    "departement_code": "02",
    "region_code": "32",
    "postal_code": "02190"
  },
  {
    "name": "Aisonville-et-Bernoville",
    "code": "02006",
    "epci_code": "200071983",
    "departement_code": "02",
    "region_code": "32",
    "postal_code": "02110"
  },
  {
    "name": "Aizelles",
    "code": "02007",
    "epci_code": "240200592",
    "departement_code": "02",
    "region_code": "32",
    "postal_code": "02820"
  },
  {
    "name": "Aizy-Jouy",
    "code": "02008",
    "epci_code": "240200501",
    "departement_code": "02",
    "region_code": "32",
    "postal_code": "02370"
  },
  {
    "name": "Alaincourt",
    "code": "02009",
    "epci_code": "200040426",
    "departement_code": "02",
    "region_code": "32",
    "postal_code": "02240"
  },
  {
    "name": "Allemant",
    "code": "02010",
    "epci_code": "240200501",
    "departement_code": "02",
    "region_code": "32",
    "postal_code": "02320"
  },
  {
    "name": "Ambleny",
    "code": "02011",
    "epci_code": "200071991",
    "departement_code": "02",
    "region_code": "32",
    "postal_code": "02290"
  },
  {
    "name": "Ambrief",
    "code": "02012",
    "epci_code": "240200519",
    "departement_code": "02",
    "region_code": "32",
    "postal_code": "02200"
  },
  {
    "name": "Amifontaine",
    "code": "02013",
    "epci_code": "240200576",
    "departement_code": "02",
    "region_code": "32",
    "postal_code": "02190"
  },
  {
    "name": "Amigny-Rouy",
    "code": "02014",
    "epci_code": "200071785",
    "departement_code": "02",
    "region_code": "32",
    "postal_code": "02700"
  },
  {
    "name": "Ancienville",
    "code": "02015",
    "epci_code": "200071991",
    "departement_code": "02",
    "region_code": "32",
    "postal_code": "02600"
  },
  {
    "name": "Andelain",
    "code": "02016",
    "epci_code": "200071785",
    "departement_code": "02",
    "region_code": "32",
    "postal_code": "02800"
  },
  {
    "name": "Anguilcourt-le-Sart",
    "code": "02017",
    "epci_code": "200071785",
    "departement_code": "02",
    "region_code": "32",
    "postal_code": "02800"
  },
  {
    "name": "Anizy-le-Grand",
    "code": "02018",
    "epci_code": "200071769",
    "departement_code": "02",
    "region_code": "32",
    "postal_code": "02320"
  },
  {
    "name": "Annois",
    "code": "02019",
    "epci_code": "200071892",
    "departement_code": "02",
    "region_code": "32",
    "postal_code": "02480"
  },
  {
    "name": "Any-Martin-Rieux",
    "code": "02020",
    "epci_code": "240200600",
    "departement_code": "02",
    "region_code": "32",
    "postal_code": "02500"
  },
  {
    "name": "Archon",
    "code": "02021",
    "epci_code": "240200634",
    "departement_code": "02",
    "region_code": "32",
    "postal_code": "02360"
  },
  {
    "name": "Arcy-Sainte-Restitue",
    "code": "02022",
    "epci_code": "240200519",
    "departement_code": "02",
    "region_code": "32",
    "postal_code": "02130"
  },
  {
    "name": "Armentières-sur-Ourcq",
    "code": "02023",
    "epci_code": "200072031",
    "departement_code": "02",
    "region_code": "32",
    "postal_code": "02210"
  },
  {
    "name": "Arrancy",
    "code": "02024",
    "epci_code": "200043495",
    "departement_code": "02",
    "region_code": "32",
    "postal_code": "02860"
  },
  {
    "name": "Artemps",
    "code": "02025",
    "epci_code": "200071892",
    "departement_code": "02",
    "region_code": "32",
    "postal_code": "02480"
  },
  {
    "name": "Assis-sur-Serre",
    "code": "02027",
    "epci_code": "240200469",
    "departement_code": "02",
    "region_code": "32",
    "postal_code": "02270"
  },
  {
    "name": "Athies-sous-Laon",
    "code": "02028",
    "epci_code": "200043495",
    "departement_code": "02",
    "region_code": "32",
    "postal_code": "02840"
  },
  {
    "name": "Attilly",
    "code": "02029",
    "epci_code": "240200493",
    "departement_code": "02",
    "region_code": "32",
    "postal_code": "02490"
  },
  {
    "name": "Aubencheul-aux-Bois",
    "code": "02030",
    "epci_code": "240200493",
    "departement_code": "02",
    "region_code": "32",
    "postal_code": "02420"
  },
  {
    "name": "Aubenton",
    "code": "02031",
    "epci_code": "240200600",
    "departement_code": "02",
    "region_code": "32",
    "postal_code": "02500"
  },
  {
    "name": "Aubigny-aux-Kaisnes",
    "code": "02032",
    "epci_code": "200071892",
    "departement_code": "02",
    "region_code": "32",
    "postal_code": "02590"
  },
  {
    "name": "Aubigny-en-Laonnois",
    "code": "02033",
    "epci_code": "240200592",
    "departement_code": "02",
    "region_code": "32",
    "postal_code": "02820"
  },
  {
    "name": "Audignicourt",
    "code": "02034",
    "epci_code": "200071991",
    "departement_code": "02",
    "region_code": "32",
    "postal_code": "02300"
  },
  {
    "name": "Audigny",
    "code": "02035",
    "epci_code": "200071983",
    "departement_code": "02",
    "region_code": "32",
    "postal_code": "02120"
  },
  {
    "name": "Augy",
    "code": "02036",
    "epci_code": "240200501",
    "departement_code": "02",
    "region_code": "32",
    "postal_code": "02220"
  },
  {
    "name": "Aulnois-sous-Laon",
    "code": "02037",
    "epci_code": "200043495",
    "departement_code": "02",
    "region_code": "32",
    "postal_code": "02000"
  },
  {
    "name": "Les Autels",
    "code": "02038",
    "epci_code": "240200634",
    "departement_code": "02",
    "region_code": "32",
    "postal_code": "02360"
  },
  {
    "name": "Autremencourt",
    "code": "02039",
    "epci_code": "240200469",
    "departement_code": "02",
    "region_code": "32",
    "postal_code": "02250"
  },
  {
    "name": "Autreppes",
    "code": "02040",
    "epci_code": "240200444",
    "departement_code": "02",
    "region_code": "32",
    "postal_code": "02580"
  },
  {
    "name": "Autreville",
    "code": "02041",
    "epci_code": "200071785",
    "departement_code": "02",
    "region_code": "32",
    "postal_code": "02300"
  },
  {
    "name": "Azy-sur-Marne",
    "code": "02042",
    "epci_code": "200072031",
    "departement_code": "02",
    "region_code": "32",
    "postal_code": "02400"
  },
  {
    "name": "Bagneux",
    "code": "02043",
    "epci_code": "240200477",
    "departement_code": "02",
    "region_code": "32",
    "postal_code": "02290"
  },
  {
    "name": "Bancigny",
    "code": "02044",
    "epci_code": "240200444",
    "departement_code": "02",
    "region_code": "32",
    "postal_code": "02140"
  },
  {
    "name": "Barenton-Bugny",
    "code": "02046",
    "epci_code": "240200469",
    "departement_code": "02",
    "region_code": "32",
    "postal_code": "02000"
  },
  {
    "name": "Barenton-Cel",
    "code": "02047",
    "epci_code": "240200469",
    "departement_code": "02",
    "region_code": "32",
    "postal_code": "02000"
  },
  {
    "name": "Barenton-sur-Serre",
    "code": "02048",
    "epci_code": "240200469",
    "departement_code": "02",
    "region_code": "32",
    "postal_code": "02270"
  },
  {
    "name": "Barisis-aux-Bois",
    "code": "02049",
    "epci_code": "200071769",
    "departement_code": "02",
    "region_code": "32",
    "postal_code": "02700"
  },
  {
    "name": "Barzy-en-Thiérache",
    "code": "02050",
    "epci_code": "240200444",
    "departement_code": "02",
    "region_code": "32",
    "postal_code": "02170"
  },
  {
    "name": "Barzy-sur-Marne",
    "code": "02051",
    "epci_code": "200072031",
    "departement_code": "02",
    "region_code": "32",
    "postal_code": "02850"
  },
  {
    "name": "Bassoles-Aulers",
    "code": "02052",
    "epci_code": "200071769",
    "departement_code": "02",
    "region_code": "32",
    "postal_code": "02380"
  },
  {
    "name": "Vallées en Champagne",
    "code": "02053",
    "epci_code": "200072031",
    "departement_code": "02",
    "region_code": "32",
    "postal_code": "02330"
  },
  {
    "name": "Bazoches-et-Saint-Thibaut",
    "code": "02054",
    "epci_code": "240200501",
    "departement_code": "02",
    "region_code": "32",
    "postal_code": "02220"
  },
  {
    "name": "Beaumé",
    "code": "02055",
    "epci_code": "240200600",
    "departement_code": "02",
    "region_code": "32",
    "postal_code": "02500"
  },
  {
    "name": "Beaumont-en-Beine",
    "code": "02056",
    "epci_code": "200071785",
    "departement_code": "02",
    "region_code": "32",
    "postal_code": "02300"
  },
  {
    "name": "Beaurevoir",
    "code": "02057",
    "epci_code": "240200493",
    "departement_code": "02",
    "region_code": "32",
    "postal_code": "02110"
  },
  {
    "name": "Beaurieux",
    "code": "02058",
    "epci_code": "240200592",
    "departement_code": "02",
    "region_code": "32",
    "postal_code": "02160"
  },
  {
    "name": "Beautor",
    "code": "02059",
    "epci_code": "200071785",
    "departement_code": "02",
    "region_code": "32",
    "postal_code": "02800"
  },
  {
    "name": "Beauvois-en-Vermandois",
    "code": "02060",
    "epci_code": "240200493",
    "departement_code": "02",
    "region_code": "32",
    "postal_code": "02590"
  },
  {
    "name": "Becquigny",
    "code": "02061",
    "epci_code": "240200493",
    "departement_code": "02",
    "region_code": "32",
    "postal_code": "02110"
  },
  {
    "name": "Belleau",
    "code": "02062",
    "epci_code": "200072031",
    "departement_code": "02",
    "region_code": "32",
    "postal_code": "02400"
  },
  {
    "name": "Bellenglise",
    "code": "02063",
    "epci_code": "240200493",
    "departement_code": "02",
    "region_code": "32",
    "postal_code": "02420"
  },
  {
    "name": "Belleu",
    "code": "02064",
    "epci_code": "240200477",
    "departement_code": "02",
    "region_code": "32",
    "postal_code": "02200"
  },
  {
    "name": "Bellicourt",
    "code": "02065",
    "epci_code": "240200493",
    "departement_code": "02",
    "region_code": "32",
    "postal_code": "02420"
  },
  {
    "name": "Benay",
    "code": "02066",
    "epci_code": "200040426",
    "departement_code": "02",
    "region_code": "32",
    "postal_code": "02440"
  },
  {
    "name": "Bergues-sur-Sambre",
    "code": "02067",
    "epci_code": "240200444",
    "departement_code": "02",
    "region_code": "32",
    "postal_code": "02450"
  },
  {
    "name": "Berlancourt",
    "code": "02068",
    "epci_code": "240200444",
    "departement_code": "02",
    "region_code": "32",
    "postal_code": "02250"
  },
  {
    "name": "Berlise",
    "code": "02069",
    "epci_code": "240200634",
    "departement_code": "02",
    "region_code": "32",
    "postal_code": "02340"
  },
  {
    "name": "Bernot",
    "code": "02070",
    "epci_code": "200071983",
    "departement_code": "02",
    "region_code": "32",
    "postal_code": "02120"
  },
  {
    "name": "Berny-Rivière",
    "code": "02071",
    "epci_code": "200071991",
    "departement_code": "02",
    "region_code": "32",
    "postal_code": "02290"
  },
  {
    "name": "Berrieux",
    "code": "02072",
    "epci_code": "240200592",
    "departement_code": "02",
    "region_code": "32",
    "postal_code": "02820"
  },
  {
    "name": "Berry-au-Bac",
    "code": "02073",
    "epci_code": "240200576",
    "departement_code": "02",
    "region_code": "32",
    "postal_code": "02190"
  },
  {
    "name": "Bertaucourt-Epourdon",
    "code": "02074",
    "epci_code": "200071785",
    "departement_code": "02",
    "region_code": "32",
    "postal_code": "02800"
  },
  {
    "name": "Berthenicourt",
    "code": "02075",
    "epci_code": "200040426",
    "departement_code": "02",
    "region_code": "32",
    "postal_code": "02240"
  },
  {
    "name": "Bertricourt",
    "code": "02076",
    "epci_code": "240200576",
    "departement_code": "02",
    "region_code": "32",
    "postal_code": "02190"
  },
  {
    "name": "Besmé",
    "code": "02078",
    "epci_code": "200071769",
    "departement_code": "02",
    "region_code": "32",
    "postal_code": "02300"
  },
  {
    "name": "Besmont",
    "code": "02079",
    "epci_code": "240200600",
    "departement_code": "02",
    "region_code": "32",
    "postal_code": "02500"
  },
  {
    "name": "Besny-et-Loizy",
    "code": "02080",
    "epci_code": "200043495",
    "departement_code": "02",
    "region_code": "32",
    "postal_code": "02870"
  },
  {
    "name": "Béthancourt-en-Vaux",
    "code": "02081",
    "epci_code": "200071785",
    "departement_code": "02",
    "region_code": "32",
    "postal_code": "02300"
  },
  {
    "name": "Beugneux",
    "code": "02082",
    "epci_code": "240200519",
    "departement_code": "02",
    "region_code": "32",
    "postal_code": "02210"
  },
  {
    "name": "Beuvardes",
    "code": "02083",
    "epci_code": "200072031",
    "departement_code": "02",
    "region_code": "32",
    "postal_code": "02130"
  },
  {
    "name": "Bézu-le-Guéry",
    "code": "02084",
    "epci_code": "240200584",
    "departement_code": "02",
    "region_code": "32",
    "postal_code": "02310"
  },
  {
    "name": "Bézu-Saint-Germain",
    "code": "02085",
    "epci_code": "200072031",
    "departement_code": "02",
    "region_code": "32",
    "postal_code": "02400"
  },
  {
    "name": "Bichancourt",
    "code": "02086",
    "epci_code": "200071785",
    "departement_code": "02",
    "region_code": "32",
    "postal_code": "02300"
  },
  {
    "name": "Bieuxy",
    "code": "02087",
    "epci_code": "200071991",
    "departement_code": "02",
    "region_code": "32",
    "postal_code": "02290"
  },
  {
    "name": "Bièvres",
    "code": "02088",
    "epci_code": "200043495",
    "departement_code": "02",
    "region_code": "32",
    "postal_code": "02860"
  },
  {
    "name": "Billy-sur-Aisne",
    "code": "02089",
    "epci_code": "240200477",
    "departement_code": "02",
    "region_code": "32",
    "postal_code": "02200"
  },
  {
    "name": "Billy-sur-Ourcq",
    "code": "02090",
    "epci_code": "240200519",
    "departement_code": "02",
    "region_code": "32",
    "postal_code": "02210"
  },
  {
    "name": "Blanzy-lès-Fismes",
    "code": "02091",
    "epci_code": "240200501",
    "departement_code": "02",
    "region_code": "32",
    "postal_code": "02160"
  },
  {
    "name": "Blérancourt",
    "code": "02093",
    "epci_code": "200071769",
    "departement_code": "02",
    "region_code": "32",
    "postal_code": "02300"
  },
  {
    "name": "Blesmes",
    "code": "02094",
    "epci_code": "200072031",
    "departement_code": "02",
    "region_code": "32",
    "postal_code": "02400"
  },
  {
    "name": "Bohain-en-Vermandois",
    "code": "02095",
    "epci_code": "240200493",
    "departement_code": "02",
    "region_code": "32",
    "postal_code": "02110"
  },
  {
    "name": "Bois-lès-Pargny",
    "code": "02096",
    "epci_code": "240200469",
    "departement_code": "02",
    "region_code": "32",
    "postal_code": "02270"
  },
  {
    "name": "Boncourt",
    "code": "02097",
    "epci_code": "240200576",
    "departement_code": "02",
    "region_code": "32",
    "postal_code": "02350"
  },
  {
    "name": "Bonneil",
    "code": "02098",
    "epci_code": "200072031",
    "departement_code": "02",
    "region_code": "32",
    "postal_code": "02400"
  },
  {
    "name": "Bonnesvalyn",
    "code": "02099",
    "epci_code": "200072031",
    "departement_code": "02",
    "region_code": "32",
    "postal_code": "02400"
  },
  {
    "name": "Bony",
    "code": "02100",
    "epci_code": "240200493",
    "departement_code": "02",
    "region_code": "32",
    "postal_code": "02420"
  },
  {
    "name": "Bosmont-sur-Serre",
    "code": "02101",
    "epci_code": "240200469",
    "departement_code": "02",
    "region_code": "32",
    "postal_code": "02250"
  },
  {
    "name": "Bouconville-Vauclair",
    "code": "02102",
    "epci_code": "240200592",
    "departement_code": "02",
    "region_code": "32",
    "postal_code": "02860"
  },
  {
    "name": "Boué",
    "code": "02103",
    "epci_code": "240200444",
    "departement_code": "02",
    "region_code": "32",
    "postal_code": "02450"
  },
  {
    "name": "Bouffignereux",
    "code": "02104",
    "epci_code": "240200576",
    "departement_code": "02",
    "region_code": "32",
    "postal_code": "02160"
  },
  {
    "name": "Bouresches",
    "code": "02105",
    "epci_code": "200072031",
    "departement_code": "02",
    "region_code": "32",
    "postal_code": "02400"
  },
  {
    "name": "Bourg-et-Comin",
    "code": "02106",
    "epci_code": "240200592",
    "departement_code": "02",
    "region_code": "32",
    "postal_code": "02160"
  },
  {
    "name": "Bourguignon-sous-Coucy",
    "code": "02107",
    "epci_code": "200071769",
    "departement_code": "02",
    "region_code": "32",
    "postal_code": "02300"
  },
  {
    "name": "Bourguignon-sous-Montbavin",
    "code": "02108",
    "epci_code": "200071769",
    "departement_code": "02",
    "region_code": "32",
    "postal_code": "02000"
  },
  {
    "name": "La Bouteille",
    "code": "02109",
    "epci_code": "240200444",
    "departement_code": "02",
    "region_code": "32",
    "postal_code": "02140"
  },
  {
    "name": "Braine",
    "code": "02110",
    "epci_code": "240200501",
    "departement_code": "02",
    "region_code": "32",
    "postal_code": "02220"
  },
  {
    "name": "Brancourt-en-Laonnois",
    "code": "02111",
    "epci_code": "200071769",
    "departement_code": "02",
    "region_code": "32",
    "postal_code": "02320"
  },
  {
    "name": "Brancourt-le-Grand",
    "code": "02112",
    "epci_code": "240200493",
    "departement_code": "02",
    "region_code": "32",
    "postal_code": "02110"
  },
  {
    "name": "Brasles",
    "code": "02114",
    "epci_code": "200072031",
    "departement_code": "02",
    "region_code": "32",
    "postal_code": "02400"
  },
  {
    "name": "Braye-en-Laonnois",
    "code": "02115",
    "epci_code": "240200592",
    "departement_code": "02",
    "region_code": "32",
    "postal_code": "02000"
  },
  {
    "name": "Braye-en-Thiérache",
    "code": "02116",
    "epci_code": "240200444",
    "departement_code": "02",
    "region_code": "32",
    "postal_code": "02140"
  },
  {
    "name": "Bray-Saint-Christophe",
    "code": "02117",
    "epci_code": "200071892",
    "departement_code": "02",
    "region_code": "32",
    "postal_code": "02480"
  },
  {
    "name": "Braye",
    "code": "02118",
    "epci_code": "240200501",
    "departement_code": "02",
    "region_code": "32",
    "postal_code": "02880"
  },
  {
    "name": "Brécy",
    "code": "02119",
    "epci_code": "200072031",
    "departement_code": "02",
    "region_code": "32",
    "postal_code": "02210"
  },
  {
    "name": "Brenelle",
    "code": "02120",
    "epci_code": "240200501",
    "departement_code": "02",
    "region_code": "32",
    "postal_code": "02220"
  },
  {
    "name": "Breny",
    "code": "02121",
    "epci_code": "240200519",
    "departement_code": "02",
    "region_code": "32",
    "postal_code": "02210"
  },
  {
    "name": "Brie",
    "code": "02122",
    "epci_code": "200071785",
    "departement_code": "02",
    "region_code": "32",
    "postal_code": "02870"
  },
  {
    "name": "Brissay-Choigny",
    "code": "02123",
    "epci_code": "200040426",
    "departement_code": "02",
    "region_code": "32",
    "postal_code": "02240"
  },
  {
    "name": "Brissy-Hamégicourt",
    "code": "02124",
    "epci_code": "200040426",
    "departement_code": "02",
    "region_code": "32",
    "postal_code": "02240"
  },
  {
    "name": "Brumetz",
    "code": "02125",
    "epci_code": "200072031",
    "departement_code": "02",
    "region_code": "32",
    "postal_code": "02810"
  },
  {
    "name": "Brunehamel",
    "code": "02126",
    "epci_code": "240200634",
    "departement_code": "02",
    "region_code": "32",
    "postal_code": "02360"
  },
  {
    "name": "Bruyères-sur-Fère",
    "code": "02127",
    "epci_code": "200072031",
    "departement_code": "02",
    "region_code": "32",
    "postal_code": "02130"
  },
  {
    "name": "Bruyères-et-Montbérault",
    "code": "02128",
    "epci_code": "200043495",
    "departement_code": "02",
    "region_code": "32",
    "postal_code": "02860"
  },
  {
    "name": "Bruys",
    "code": "02129",
    "epci_code": "240200501",
    "departement_code": "02",
    "region_code": "32",
    "postal_code": "02220"
  },
  {
    "name": "Bucilly",
    "code": "02130",
    "epci_code": "240200600",
    "departement_code": "02",
    "region_code": "32",
    "postal_code": "02500"
  },
  {
    "name": "Bucy-le-Long",
    "code": "02131",
    "epci_code": "240200501",
    "departement_code": "02",
    "region_code": "32",
    "postal_code": "02880"
  },
  {
    "name": "Bucy-lès-Cerny",
    "code": "02132",
    "epci_code": "200043495",
    "departement_code": "02",
    "region_code": "32",
    "postal_code": "02870"
  },
  {
    "name": "Bucy-lès-Pierrepont",
    "code": "02133",
    "epci_code": "240200576",
    "departement_code": "02",
    "region_code": "32",
    "postal_code": "02350"
  },
  {
    "name": "Buire",
    "code": "02134",
    "epci_code": "240200600",
    "departement_code": "02",
    "region_code": "32",
    "postal_code": "02500"
  },
  {
    "name": "Buironfosse",
    "code": "02135",
    "epci_code": "240200444",
    "departement_code": "02",
    "region_code": "32",
    "postal_code": "02620"
  },
  {
    "name": "Burelles",
    "code": "02136",
    "epci_code": "240200444",
    "departement_code": "02",
    "region_code": "32",
    "postal_code": "02140"
  },
  {
    "name": "Bussiares",
    "code": "02137",
    "epci_code": "200072031",
    "departement_code": "02",
    "region_code": "32",
    "postal_code": "02810"
  },
  {
    "name": "Buzancy",
    "code": "02138",
    "epci_code": "240200519",
    "departement_code": "02",
    "region_code": "32",
    "postal_code": "02200"
  },
  {
    "name": "Caillouël-Crépigny",
    "code": "02139",
    "epci_code": "200071785",
    "departement_code": "02",
    "region_code": "32",
    "postal_code": "02300"
  },
  {
    "name": "Camelin",
    "code": "02140",
    "epci_code": "200071769",
    "departement_code": "02",
    "region_code": "32",
    "postal_code": "02300"
  },
  {
    "name": "La Capelle",
    "code": "02141",
    "epci_code": "240200444",
    "departement_code": "02",
    "region_code": "32",
    "postal_code": "02260"
  },
  {
    "name": "Castres",
    "code": "02142",
    "epci_code": "200071892",
    "departement_code": "02",
    "region_code": "32",
    "postal_code": "02680"
  },
  {
    "name": "Le Catelet",
    "code": "02143",
    "epci_code": "240200493",
    "departement_code": "02",
    "region_code": "32",
    "postal_code": "02420"
  },
  {
    "name": "Caulaincourt",
    "code": "02144",
    "epci_code": "240200493",
    "departement_code": "02",
    "region_code": "32",
    "postal_code": "02490"
  },
  {
    "name": "Caumont",
    "code": "02145",
    "epci_code": "200071785",
    "departement_code": "02",
    "region_code": "32",
    "postal_code": "02300"
  },
  {
    "name": "Celles-lès-Condé",
    "code": "02146",
    "epci_code": "200072031",
    "departement_code": "02",
    "region_code": "32",
    "postal_code": "02330"
  },
  {
    "name": "Celles-sur-Aisne",
    "code": "02148",
    "epci_code": "240200501",
    "departement_code": "02",
    "region_code": "32",
    "postal_code": "02370"
  },
  {
    "name": "Cerizy",
    "code": "02149",
    "epci_code": "200040426",
    "departement_code": "02",
    "region_code": "32",
    "postal_code": "02240"
  },
  {
    "name": "Cerny-en-Laonnois",
    "code": "02150",
    "epci_code": "200043495",
    "departement_code": "02",
    "region_code": "32",
    "postal_code": "02860"
  },
  {
    "name": "Cerny-lès-Bucy",
    "code": "02151",
    "epci_code": "200043495",
    "departement_code": "02",
    "region_code": "32",
    "postal_code": "02870"
  },
  {
    "name": "Cerseuil",
    "code": "02152",
    "epci_code": "240200501",
    "departement_code": "02",
    "region_code": "32",
    "postal_code": "02220"
  },
  {
    "name": "Cessières-Suzy",
    "code": "02153",
    "epci_code": "200043495",
    "departement_code": "02",
    "region_code": "32",
    "postal_code": "02320"
  },
  {
    "name": "Chacrise",
    "code": "02154",
    "epci_code": "240200519",
    "departement_code": "02",
    "region_code": "32",
    "postal_code": "02200"
  },
  {
    "name": "Chaillevois",
    "code": "02155",
    "epci_code": "200071769",
    "departement_code": "02",
    "region_code": "32",
    "postal_code": "02000"
  },
  {
    "name": "Chalandry",
    "code": "02156",
    "epci_code": "240200469",
    "departement_code": "02",
    "region_code": "32",
    "postal_code": "02270"
  },
  {
    "name": "Chambry",
    "code": "02157",
    "epci_code": "200043495",
    "departement_code": "02",
    "region_code": "32",
    "postal_code": "02000"
  },
  {
    "name": "Chamouille",
    "code": "02158",
    "epci_code": "200043495",
    "departement_code": "02",
    "region_code": "32",
    "postal_code": "02860"
  },
  {
    "name": "Champs",
    "code": "02159",
    "epci_code": "200071769",
    "departement_code": "02",
    "region_code": "32",
    "postal_code": "02670"
  },
  {
    "name": "Chaourse",
    "code": "02160",
    "epci_code": "240200634",
    "departement_code": "02",
    "region_code": "32",
    "postal_code": "02340"
  },
  {
    "name": "La Chapelle-sur-Chézy",
    "code": "02162",
    "epci_code": "240200584",
    "departement_code": "02",
    "region_code": "32",
    "postal_code": "02570"
  },
  {
    "name": "Charly-sur-Marne",
    "code": "02163",
    "epci_code": "240200584",
    "departement_code": "02",
    "region_code": "32",
    "postal_code": "02310"
  },
  {
    "name": "Le Charmel",
    "code": "02164",
    "epci_code": "200072031",
    "departement_code": "02",
    "region_code": "32",
    "postal_code": "02850"
  },
  {
    "name": "Charmes",
    "code": "02165",
    "epci_code": "200071785",
    "departement_code": "02",
    "region_code": "32",
    "postal_code": "02800"
  },
  {
    "name": "Chartèves",
    "code": "02166",
    "epci_code": "200072031",
    "departement_code": "02",
    "region_code": "32",
    "postal_code": "02400"
  },
  {
    "name": "Chassemy",
    "code": "02167",
    "epci_code": "240200501",
    "departement_code": "02",
    "region_code": "32",
    "postal_code": "02370"
  },
  {
    "name": "Château-Thierry",
    "code": "02168",
    "epci_code": "200072031",
    "departement_code": "02",
    "region_code": "32",
    "postal_code": "02400"
  },
  {
    "name": "Châtillon-lès-Sons",
    "code": "02169",
    "epci_code": "240200469",
    "departement_code": "02",
    "region_code": "32",
    "postal_code": "02270"
  },
  {
    "name": "Châtillon-sur-Oise",
    "code": "02170",
    "epci_code": "200040426",
    "departement_code": "02",
    "region_code": "32",
    "postal_code": "02240"
  },
  {
    "name": "Chaudardes",
    "code": "02171",
    "epci_code": "240200576",
    "departement_code": "02",
    "region_code": "32",
    "postal_code": "02160"
  },
  {
    "name": "Chaudun",
    "code": "02172",
    "epci_code": "240200519",
    "departement_code": "02",
    "region_code": "32",
    "postal_code": "02200"
  },
  {
    "name": "Chauny",
    "code": "02173",
    "epci_code": "200071785",
    "departement_code": "02",
    "region_code": "32",
    "postal_code": "02300"
  },
  {
    "name": "Chavignon",
    "code": "02174",
    "epci_code": "240200501",
    "departement_code": "02",
    "region_code": "32",
    "postal_code": "02000"
  },
  {
    "name": "Chavigny",
    "code": "02175",
    "epci_code": "240200477",
    "departement_code": "02",
    "region_code": "32",
    "postal_code": "02880"
  },
  {
    "name": "Chavonne",
    "code": "02176",
    "epci_code": "240200501",
    "departement_code": "02",
    "region_code": "32",
    "postal_code": "02370"
  },
  {
    "name": "Chérêt",
    "code": "02177",
    "epci_code": "200043495",
    "departement_code": "02",
    "region_code": "32",
    "postal_code": "02860"
  },
  {
    "name": "Chermizy-Ailles",
    "code": "02178",
    "epci_code": "240200592",
    "departement_code": "02",
    "region_code": "32",
    "postal_code": "02860"
  },
  {
    "name": "Chéry-Chartreuve",
    "code": "02179",
    "epci_code": "240200501",
    "departement_code": "02",
    "region_code": "32",
    "postal_code": "02220"
  },
  {
    "name": "Chéry-lès-Pouilly",
    "code": "02180",
    "epci_code": "240200469",
    "departement_code": "02",
    "region_code": "32",
    "postal_code": "02000"
  },
  {
    "name": "Chéry-lès-Rozoy",
    "code": "02181",
    "epci_code": "240200634",
    "departement_code": "02",
    "region_code": "32",
    "postal_code": "02360"
  },
  {
    "name": "Chevennes",
    "code": "02182",
    "epci_code": "240200444",
    "departement_code": "02",
    "region_code": "32",
    "postal_code": "02250"
  },
  {
    "name": "Chevregny",
    "code": "02183",
    "epci_code": "240200592",
    "departement_code": "02",
    "region_code": "32",
    "postal_code": "02000"
  },
  {
    "name": "Chevresis-Monceau",
    "code": "02184",
    "epci_code": "200040426",
    "departement_code": "02",
    "region_code": "32",
    "postal_code": "02270"
  },
  {
    "name": "Chézy-en-Orxois",
    "code": "02185",
    "epci_code": "200072031",
    "departement_code": "02",
    "region_code": "32",
    "postal_code": "02810"
  },
  {
    "name": "Chézy-sur-Marne",
    "code": "02186",
    "epci_code": "240200584",
    "departement_code": "02",
    "region_code": "32",
    "postal_code": "02570"
  },
  {
    "name": "Chierry",
    "code": "02187",
    "epci_code": "200072031",
    "departement_code": "02",
    "region_code": "32",
    "postal_code": "02400"
  },
  {
    "name": "Chigny",
    "code": "02188",
    "epci_code": "200071983",
    "departement_code": "02",
    "region_code": "32",
    "postal_code": "02120"
  },
  {
    "name": "Chivres-en-Laonnois",
    "code": "02189",
    "epci_code": "240200576",
    "departement_code": "02",
    "region_code": "32",
    "postal_code": "02350"
  },
  {
    "name": "Chivres-Val",
    "code": "02190",
    "epci_code": "240200501",
    "departement_code": "02",
    "region_code": "32",
    "postal_code": "02880"
  },
  {
    "name": "Chivy-lès-Étouvelles",
    "code": "02191",
    "epci_code": "200043495",
    "departement_code": "02",
    "region_code": "32",
    "postal_code": "02000"
  },
  {
    "name": "Chouy",
    "code": "02192",
    "epci_code": "200071991",
    "departement_code": "02",
    "region_code": "32",
    "postal_code": "02210"
  },
  {
    "name": "Cierges",
    "code": "02193",
    "epci_code": "200072031",
    "departement_code": "02",
    "region_code": "32",
    "postal_code": "02130"
  },
  {
    "name": "Cilly",
    "code": "02194",
    "epci_code": "240200469",
    "departement_code": "02",
    "region_code": "32",
    "postal_code": "02250"
  },
  {
    "name": "Ciry-Salsogne",
    "code": "02195",
    "epci_code": "240200501",
    "departement_code": "02",
    "region_code": "32",
    "postal_code": "02220"
  },
  {
    "name": "Clacy-et-Thierret",
    "code": "02196",
    "epci_code": "200043495",
    "departement_code": "02",
    "region_code": "32",
    "postal_code": "02000"
  },
  {
    "name": "Clairfontaine",
    "code": "02197",
    "epci_code": "240200444",
    "departement_code": "02",
    "region_code": "32",
    "postal_code": "02260"
  },
  {
    "name": "Clamecy",
    "code": "02198",
    "epci_code": "240200501",
    "departement_code": "02",
    "region_code": "32",
    "postal_code": "02880"
  },
  {
    "name": "Clastres",
    "code": "02199",
    "epci_code": "200071892",
    "departement_code": "02",
    "region_code": "32",
    "postal_code": "02440"
  },
  {
    "name": "Clermont-les-Fermes",
    "code": "02200",
    "epci_code": "240200634",
    "departement_code": "02",
    "region_code": "32",
    "postal_code": "02340"
  },
  {
    "name": "Cœuvres-et-Valsery",
    "code": "02201",
    "epci_code": "200071991",
    "departement_code": "02",
    "region_code": "32",
    "postal_code": "02600"
  },
  {
    "name": "Coincy",
    "code": "02203",
    "epci_code": "200072031",
    "departement_code": "02",
    "region_code": "32",
    "postal_code": "02210"
  },
  {
    "name": "Coingt",
    "code": "02204",
    "epci_code": "240200600",
    "departement_code": "02",
    "region_code": "32",
    "postal_code": "02360"
  },
  {
    "name": "Colligis-Crandelain",
    "code": "02205",
    "epci_code": "200043495",
    "departement_code": "02",
    "region_code": "32",
    "postal_code": "02860"
  },
  {
    "name": "Colonfay",
    "code": "02206",
    "epci_code": "240200444",
    "departement_code": "02",
    "region_code": "32",
    "postal_code": "02120"
  },
  {
    "name": "Commenchon",
    "code": "02207",
    "epci_code": "200071785",
    "departement_code": "02",
    "region_code": "32",
    "postal_code": "02300"
  },
  {
    "name": "Concevreux",
    "code": "02208",
    "epci_code": "240200576",
    "departement_code": "02",
    "region_code": "32",
    "postal_code": "02160"
  },
  {
    "name": "Condé-en-Brie",
    "code": "02209",
    "epci_code": "200072031",
    "departement_code": "02",
    "region_code": "32",
    "postal_code": "02330"
  },
  {
    "name": "Condé-sur-Aisne",
    "code": "02210",
    "epci_code": "240200501",
    "departement_code": "02",
    "region_code": "32",
    "postal_code": "02370"
  },
  {
    "name": "Condé-sur-Suippe",
    "code": "02211",
    "epci_code": "240200576",
    "departement_code": "02",
    "region_code": "32",
    "postal_code": "02190"
  },
  {
    "name": "Condren",
    "code": "02212",
    "epci_code": "200071785",
    "departement_code": "02",
    "region_code": "32",
    "postal_code": "02700"
  },
  {
    "name": "Connigis",
    "code": "02213",
    "epci_code": "200072031",
    "departement_code": "02",
    "region_code": "32",
    "postal_code": "02330"
  },
  {
    "name": "Contescourt",
    "code": "02214",
    "epci_code": "200071892",
    "departement_code": "02",
    "region_code": "32",
    "postal_code": "02680"
  },
  {
    "name": "Corbeny",
    "code": "02215",
    "epci_code": "240200592",
    "departement_code": "02",
    "region_code": "32",
    "postal_code": "02820"
  },
  {
    "name": "Corcy",
    "code": "02216",
    "epci_code": "200071991",
    "departement_code": "02",
    "region_code": "32",
    "postal_code": "02600"
  },
  {
    "name": "Coucy-le-Château-Auffrique",
    "code": "02217",
    "epci_code": "200071769",
    "departement_code": "02",
    "region_code": "32",
    "postal_code": "02380"
  },
  {
    "name": "Coucy-lès-Eppes",
    "code": "02218",
    "epci_code": "240200576",
    "departement_code": "02",
    "region_code": "32",
    "postal_code": "02840"
  },
  {
    "name": "Coucy-la-Ville",
    "code": "02219",
    "epci_code": "200071769",
    "departement_code": "02",
    "region_code": "32",
    "postal_code": "02380"
  },
  {
    "name": "Coulonges-Cohan",
    "code": "02220",
    "epci_code": "200072031",
    "departement_code": "02",
    "region_code": "32",
    "postal_code": "02130"
  },
  {
    "name": "Coupru",
    "code": "02221",
    "epci_code": "240200584",
    "departement_code": "02",
    "region_code": "32",
    "postal_code": "02310"
  },
  {
    "name": "Courbes",
    "code": "02222",
    "epci_code": "200071785",
    "departement_code": "02",
    "region_code": "32",
    "postal_code": "02800"
  },
  {
    "name": "Courboin",
    "code": "02223",
    "epci_code": "200072031",
    "departement_code": "02",
    "region_code": "32",
    "postal_code": "02330"
  },
  {
    "name": "Courcelles-sur-Vesle",
    "code": "02224",
    "epci_code": "240200501",
    "departement_code": "02",
    "region_code": "32",
    "postal_code": "02220"
  },
  {
    "name": "Courchamps",
    "code": "02225",
    "epci_code": "200072031",
    "departement_code": "02",
    "region_code": "32",
    "postal_code": "02810"
  },
  {
    "name": "Courmelles",
    "code": "02226",
    "epci_code": "240200477",
    "departement_code": "02",
    "region_code": "32",
    "postal_code": "02200"
  },
  {
    "name": "Courmont",
    "code": "02227",
    "epci_code": "200072031",
    "departement_code": "02",
    "region_code": "32",
    "postal_code": "02130"
  },
  {
    "name": "Courtemont-Varennes",
    "code": "02228",
    "epci_code": "200072031",
    "departement_code": "02",
    "region_code": "32",
    "postal_code": "02850"
  },
  {
    "name": "Courtrizy-et-Fussigny",
    "code": "02229",
    "epci_code": "240200576",
    "departement_code": "02",
    "region_code": "32",
    "postal_code": "02820"
  },
  {
    "name": "Couvrelles",
    "code": "02230",
    "epci_code": "240200501",
    "departement_code": "02",
    "region_code": "32",
    "postal_code": "02220"
  },
  {
    "name": "Couvron-et-Aumencourt",
    "code": "02231",
    "epci_code": "240200469",
    "departement_code": "02",
    "region_code": "32",
    "postal_code": "02270"
  },
  {
    "name": "Coyolles",
    "code": "02232",
    "epci_code": "200071991",
    "departement_code": "02",
    "region_code": "32",
    "postal_code": "02600"
  },
  {
    "name": "Cramaille",
    "code": "02233",
    "epci_code": "240200519",
    "departement_code": "02",
    "region_code": "32",
    "postal_code": "02130"
  },
  {
    "name": "Craonne",
    "code": "02234",
    "epci_code": "240200592",
    "departement_code": "02",
    "region_code": "32",
    "postal_code": "02160"
  },
  {
    "name": "Craonnelle",
    "code": "02235",
    "epci_code": "240200592",
    "departement_code": "02",
    "region_code": "32",
    "postal_code": "02160"
  },
  {
    "name": "Crécy-au-Mont",
    "code": "02236",
    "epci_code": "200071769",
    "departement_code": "02",
    "region_code": "32",
    "postal_code": "02380"
  },
  {
    "name": "Crécy-sur-Serre",
    "code": "02237",
    "epci_code": "240200469",
    "departement_code": "02",
    "region_code": "32",
    "postal_code": "02270"
  },
  {
    "name": "Crépy",
    "code": "02238",
    "epci_code": "200043495",
    "departement_code": "02",
    "region_code": "32",
    "postal_code": "02870"
  },
  {
    "name": "Crézancy",
    "code": "02239",
    "epci_code": "200072031",
    "departement_code": "02",
    "region_code": "32",
    "postal_code": "02650"
  },
  {
    "name": "Croix-Fonsomme",
    "code": "02240",
    "epci_code": "240200493",
    "departement_code": "02",
    "region_code": "32",
    "postal_code": "02110"
  },
  {
    "name": "La Croix-sur-Ourcq",
    "code": "02241",
    "epci_code": "200072031",
    "departement_code": "02",
    "region_code": "32",
    "postal_code": "02210"
  },
  {
    "name": "Crouttes-sur-Marne",
    "code": "02242",
    "epci_code": "240200584",
    "departement_code": "02",
    "region_code": "32",
    "postal_code": "02310"
  },
  {
    "name": "Crouy",
    "code": "02243",
    "epci_code": "240200477",
    "departement_code": "02",
    "region_code": "32",
    "postal_code": "02880"
  },
  {
    "name": "Crupilly",
    "code": "02244",
    "epci_code": "200071983",
    "departement_code": "02",
    "region_code": "32",
    "postal_code": "02120"
  },
  {
    "name": "Cuffies",
    "code": "02245",
    "epci_code": "240200477",
    "departement_code": "02",
    "region_code": "32",
    "postal_code": "02880"
  },
  {
    "name": "Cugny",
    "code": "02246",
    "epci_code": "200071892",
    "departement_code": "02",
    "region_code": "32",
    "postal_code": "02480"
  },
  {
    "name": "Cuirieux",
    "code": "02248",
    "epci_code": "240200469",
    "departement_code": "02",
    "region_code": "32",
    "postal_code": "02350"
  },
  {
    "name": "Cuiry-Housse",
    "code": "02249",
    "epci_code": "240200519",
    "departement_code": "02",
    "region_code": "32",
    "postal_code": "02220"
  },
  {
    "name": "Cuiry-lès-Chaudardes",
    "code": "02250",
    "epci_code": "240200592",
    "departement_code": "02",
    "region_code": "32",
    "postal_code": "02160"
  },
  {
    "name": "Cuiry-lès-Iviers",
    "code": "02251",
    "epci_code": "240200634",
    "departement_code": "02",
    "region_code": "32",
    "postal_code": "02360"
  },
  {
    "name": "Cuissy-et-Geny",
    "code": "02252",
    "epci_code": "240200592",
    "departement_code": "02",
    "region_code": "32",
    "postal_code": "02160"
  },
  {
    "name": "Cuisy-en-Almont",
    "code": "02253",
    "epci_code": "240200477",
    "departement_code": "02",
    "region_code": "32",
    "postal_code": "02200"
  },
  {
    "name": "Cutry",
    "code": "02254",
    "epci_code": "200071991",
    "departement_code": "02",
    "region_code": "32",
    "postal_code": "02600"
  },
  {
    "name": "Cys-la-Commune",
    "code": "02255",
    "epci_code": "240200501",
    "departement_code": "02",
    "region_code": "32",
    "postal_code": "02220"
  },
  {
    "name": "Dagny-Lambercy",
    "code": "02256",
    "epci_code": "240200634",
    "departement_code": "02",
    "region_code": "32",
    "postal_code": "02140"
  },
  {
    "name": "Dallon",
    "code": "02257",
    "epci_code": "200071892",
    "departement_code": "02",
    "region_code": "32",
    "postal_code": "02680"
  },
  {
    "name": "Dammard",
    "code": "02258",
    "epci_code": "200071991",
    "departement_code": "02",
    "region_code": "32",
    "postal_code": "02470"
  },
  {
    "name": "Dampleux",
    "code": "02259",
    "epci_code": "200071991",
    "departement_code": "02",
    "region_code": "32",
    "postal_code": "02600"
  },
  {
    "name": "Danizy",
    "code": "02260",
    "epci_code": "200071785",
    "departement_code": "02",
    "region_code": "32",
    "postal_code": "02800"
  },
  {
    "name": "Dercy",
    "code": "02261",
    "epci_code": "240200469",
    "departement_code": "02",
    "region_code": "32",
    "postal_code": "02270"
  },
  {
    "name": "Deuillet",
    "code": "02262",
    "epci_code": "200071785",
    "departement_code": "02",
    "region_code": "32",
    "postal_code": "02700"
  },
  {
    "name": "Dhuizel",
    "code": "02263",
    "epci_code": "240200501",
    "departement_code": "02",
    "region_code": "32",
    "postal_code": "02220"
  },
  {
    "name": "Dizy-le-Gros",
    "code": "02264",
    "epci_code": "240200634",
    "departement_code": "02",
    "region_code": "32",
    "postal_code": "02340"
  },
  {
    "name": "Dohis",
    "code": "02265",
    "epci_code": "240200634",
    "departement_code": "02",
    "region_code": "32",
    "postal_code": "02360"
  },
  {
    "name": "Dolignon",
    "code": "02266",
    "epci_code": "240200634",
    "departement_code": "02",
    "region_code": "32",
    "postal_code": "02360"
  },
  {
    "name": "Dommiers",
    "code": "02267",
    "epci_code": "200071991",
    "departement_code": "02",
    "region_code": "32",
    "postal_code": "02600"
  },
  {
    "name": "Domptin",
    "code": "02268",
    "epci_code": "240200584",
    "departement_code": "02",
    "region_code": "32",
    "postal_code": "02310"
  },
  {
    "name": "Dorengt",
    "code": "02269",
    "epci_code": "240200444",
    "departement_code": "02",
    "region_code": "32",
    "postal_code": "02450"
  },
  {
    "name": "Douchy",
    "code": "02270",
    "epci_code": "240200493",
    "departement_code": "02",
    "region_code": "32",
    "postal_code": "02590"
  },
  {
    "name": "Dravegny",
    "code": "02271",
    "epci_code": "200072031",
    "departement_code": "02",
    "region_code": "32",
    "postal_code": "02130"
  },
  {
    "name": "Droizy",
    "code": "02272",
    "epci_code": "240200519",
    "departement_code": "02",
    "region_code": "32",
    "postal_code": "02210"
  },
  {
    "name": "Dury",
    "code": "02273",
    "epci_code": "200071892",
    "departement_code": "02",
    "region_code": "32",
    "postal_code": "02480"
  },
  {
    "name": "Ébouleau",
    "code": "02274",
    "epci_code": "240200576",
    "departement_code": "02",
    "region_code": "32",
    "postal_code": "02350"
  },
  {
    "name": "Effry",
    "code": "02275",
    "epci_code": "240200600",
    "departement_code": "02",
    "region_code": "32",
    "postal_code": "02500"
  },
  {
    "name": "Englancourt",
    "code": "02276",
    "epci_code": "240200444",
    "departement_code": "02",
    "region_code": "32",
    "postal_code": "02260"
  },
  {
    "name": "Épagny",
    "code": "02277",
    "epci_code": "200071991",
    "departement_code": "02",
    "region_code": "32",
    "postal_code": "02290"
  },
  {
    "name": "Éparcy",
    "code": "02278",
    "epci_code": "240200600",
    "departement_code": "02",
    "region_code": "32",
    "postal_code": "02500"
  },
  {
    "name": "Épaux-Bézu",
    "code": "02279",
    "epci_code": "200072031",
    "departement_code": "02",
    "region_code": "32",
    "postal_code": "02400"
  },
  {
    "name": "Épieds",
    "code": "02280",
    "epci_code": "200072031",
    "departement_code": "02",
    "region_code": "32",
    "postal_code": "02400"
  },
  {
    "name": "L’Épine-aux-Bois",
    "code": "02281",
    "epci_code": "240200584",
    "departement_code": "02",
    "region_code": "32",
    "postal_code": "02540"
  },
  {
    "name": "Eppes",
    "code": "02282",
    "epci_code": "200043495",
    "departement_code": "02",
    "region_code": "32",
    "postal_code": "02840"
  },
  {
    "name": "Erlon",
    "code": "02283",
    "epci_code": "240200469",
    "departement_code": "02",
    "region_code": "32",
    "postal_code": "02250"
  },
  {
    "name": "Erloy",
    "code": "02284",
    "epci_code": "240200444",
    "departement_code": "02",
    "region_code": "32",
    "postal_code": "02260"
  },
  {
    "name": "Esquéhéries",
    "code": "02286",
    "epci_code": "240200444",
    "departement_code": "02",
    "region_code": "32",
    "postal_code": "02170"
  },
  {
    "name": "Essigny-le-Grand",
    "code": "02287",
    "epci_code": "200040426",
    "departement_code": "02",
    "region_code": "32",
    "postal_code": "02690"
  },
  {
    "name": "Essigny-le-Petit",
    "code": "02288",
    "epci_code": "200071892",
    "departement_code": "02",
    "region_code": "32",
    "postal_code": "02100"
  },
  {
    "name": "Essises",
    "code": "02289",
    "epci_code": "240200584",
    "departement_code": "02",
    "region_code": "32",
    "postal_code": "02570"
  },
  {
    "name": "Essômes-sur-Marne",
    "code": "02290",
    "epci_code": "200072031",
    "departement_code": "02",
    "region_code": "32",
    "postal_code": "02400"
  },
  {
    "name": "Estrées",
    "code": "02291",
    "epci_code": "240200493",
    "departement_code": "02",
    "region_code": "32",
    "postal_code": "02420"
  },
  {
    "name": "Étampes-sur-Marne",
    "code": "02292",
    "epci_code": "200072031",
    "departement_code": "02",
    "region_code": "32",
    "postal_code": "02400"
  },
  {
    "name": "Étaves-et-Bocquiaux",
    "code": "02293",
    "epci_code": "240200493",
    "departement_code": "02",
    "region_code": "32",
    "postal_code": "02110"
  },
  {
    "name": "Étouvelles",
    "code": "02294",
    "epci_code": "200043495",
    "departement_code": "02",
    "region_code": "32",
    "postal_code": "02000"
  },
  {
    "name": "Étréaupont",
    "code": "02295",
    "epci_code": "240200444",
    "departement_code": "02",
    "region_code": "32",
    "postal_code": "02580"
  },
  {
    "name": "Étreillers",
    "code": "02296",
    "epci_code": "240200493",
    "departement_code": "02",
    "region_code": "32",
    "postal_code": "02590"
  },
  {
    "name": "Étrépilly",
    "code": "02297",
    "epci_code": "200072031",
    "departement_code": "02",
    "region_code": "32",
    "postal_code": "02400"
  },
  {
    "name": "Étreux",
    "code": "02298",
    "epci_code": "200071983",
    "departement_code": "02",
    "region_code": "32",
    "postal_code": "02510"
  },
  {
    "name": "Évergnicourt",
    "code": "02299",
    "epci_code": "240200576",
    "departement_code": "02",
    "region_code": "32",
    "postal_code": "02190"
  },
  {
    "name": "Faverolles",
    "code": "02302",
    "epci_code": "200071991",
    "departement_code": "02",
    "region_code": "32",
    "postal_code": "02600"
  },
  {
    "name": "Fayet",
    "code": "02303",
    "epci_code": "200071892",
    "departement_code": "02",
    "region_code": "32",
    "postal_code": "02100"
  },
  {
    "name": "La Fère",
    "code": "02304",
    "epci_code": "200071785",
    "departement_code": "02",
    "region_code": "32",
    "postal_code": "02800"
  },
  {
    "name": "Fère-en-Tardenois",
    "code": "02305",
    "epci_code": "200072031",
    "departement_code": "02",
    "region_code": "32",
    "postal_code": "02130"
  },
  {
    "name": "La Ferté-Chevresis",
    "code": "02306",
    "epci_code": "200040426",
    "departement_code": "02",
    "region_code": "32",
    "postal_code": "02270"
  },
  {
    "name": "La Ferté-Milon",
    "code": "02307",
    "epci_code": "200071991",
    "departement_code": "02",
    "region_code": "32",
    "postal_code": "02460"
  },
  {
    "name": "Fesmy-le-Sart",
    "code": "02308",
    "epci_code": "240200444",
    "departement_code": "02",
    "region_code": "32",
    "postal_code": "02450"
  },
  {
    "name": "Festieux",
    "code": "02309",
    "epci_code": "200043495",
    "departement_code": "02",
    "region_code": "32",
    "postal_code": "02840"
  },
  {
    "name": "Fieulaine",
    "code": "02310",
    "epci_code": "200071892",
    "departement_code": "02",
    "region_code": "32",
    "postal_code": "02110"
  },
  {
    "name": "La Flamengrie",
    "code": "02312",
    "epci_code": "240200444",
    "departement_code": "02",
    "region_code": "32",
    "postal_code": "02260"
  },
  {
    "name": "Flavigny-le-Grand-et-Beaurain",
    "code": "02313",
    "epci_code": "200071983",
    "departement_code": "02",
    "region_code": "32",
    "postal_code": "02120"
  },
  {
    "name": "Flavy-le-Martel",
    "code": "02315",
    "epci_code": "200071892",
    "departement_code": "02",
    "region_code": "32",
    "postal_code": "02520"
  },
  {
    "name": "Fleury",
    "code": "02316",
    "epci_code": "200071991",
    "departement_code": "02",
    "region_code": "32",
    "postal_code": "02600"
  },
  {
    "name": "Fluquières",
    "code": "02317",
    "epci_code": "240200493",
    "departement_code": "02",
    "region_code": "32",
    "postal_code": "02590"
  },
  {
    "name": "Folembray",
    "code": "02318",
    "epci_code": "200071769",
    "departement_code": "02",
    "region_code": "32",
    "postal_code": "02670"
  },
  {
    "name": "Fonsomme",
    "code": "02319",
    "epci_code": "200071892",
    "departement_code": "02",
    "region_code": "32",
    "postal_code": "02110"
  },
  {
    "name": "Fontaine-lès-Clercs",
    "code": "02320",
    "epci_code": "200071892",
    "departement_code": "02",
    "region_code": "32",
    "postal_code": "02680"
  },
  {
    "name": "Fontaine-lès-Vervins",
    "code": "02321",
    "epci_code": "240200444",
    "departement_code": "02",
    "region_code": "32",
    "postal_code": "02140"
  },
  {
    "name": "Fontaine-Notre-Dame",
    "code": "02322",
    "epci_code": "200071892",
    "departement_code": "02",
    "region_code": "32",
    "postal_code": "02110"
  },
  {
    "name": "Fontaine-Uterte",
    "code": "02323",
    "epci_code": "240200493",
    "departement_code": "02",
    "region_code": "32",
    "postal_code": "02110"
  },
  {
    "name": "Fontenelle",
    "code": "02324",
    "epci_code": "240200444",
    "departement_code": "02",
    "region_code": "32",
    "postal_code": "02170"
  },
  {
    "name": "Fontenoy",
    "code": "02326",
    "epci_code": "200071991",
    "departement_code": "02",
    "region_code": "32",
    "postal_code": "02290"
  },
  {
    "name": "Foreste",
    "code": "02327",
    "epci_code": "240200493",
    "departement_code": "02",
    "region_code": "32",
    "postal_code": "02590"
  },
  {
    "name": "Fossoy",
    "code": "02328",
    "epci_code": "200072031",
    "departement_code": "02",
    "region_code": "32",
    "postal_code": "02650"
  },
  {
    "name": "Fourdrain",
    "code": "02329",
    "epci_code": "200071785",
    "departement_code": "02",
    "region_code": "32",
    "postal_code": "02870"
  },
  {
    "name": "Francilly-Selency",
    "code": "02330",
    "epci_code": "240200493",
    "departement_code": "02",
    "region_code": "32",
    "postal_code": "02760"
  },
  {
    "name": "Franqueville",
    "code": "02331",
    "epci_code": "240200444",
    "departement_code": "02",
    "region_code": "32",
    "postal_code": "02140"
  },
  {
    "name": "Fresnes-en-Tardenois",
    "code": "02332",
    "epci_code": "200072031",
    "departement_code": "02",
    "region_code": "32",
    "postal_code": "02130"
  },
  {
    "name": "Fresnes-sous-Coucy",
    "code": "02333",
    "epci_code": "200071769",
    "departement_code": "02",
    "region_code": "32",
    "postal_code": "02380"
  },
  {
    "name": "Fresnoy-le-Grand",
    "code": "02334",
    "epci_code": "240200493",
    "departement_code": "02",
    "region_code": "32",
    "postal_code": "02230"
  },
  {
    "name": "Fressancourt",
    "code": "02335",
    "epci_code": "200071785",
    "departement_code": "02",
    "region_code": "32",
    "postal_code": "02800"
  },
  {
    "name": "Frières-Faillouël",
    "code": "02336",
    "epci_code": "200071785",
    "departement_code": "02",
    "region_code": "32",
    "postal_code": "02700"
  },
  {
    "name": "Froidestrées",
    "code": "02337",
    "epci_code": "240200444",
    "departement_code": "02",
    "region_code": "32",
    "postal_code": "02260"
  },
  {
    "name": "Froidmont-Cohartille",
    "code": "02338",
    "epci_code": "240200469",
    "departement_code": "02",
    "region_code": "32",
    "postal_code": "02270"
  },
  {
    "name": "Gandelu",
    "code": "02339",
    "epci_code": "200072031",
    "departement_code": "02",
    "region_code": "32",
    "postal_code": "02810"
  },
  {
    "name": "Gauchy",
    "code": "02340",
    "epci_code": "200071892",
    "departement_code": "02",
    "region_code": "32",
    "postal_code": "02430"
  },
  {
    "name": "Gercy",
    "code": "02341",
    "epci_code": "240200444",
    "departement_code": "02",
    "region_code": "32",
    "postal_code": "02140"
  },
  {
    "name": "Gergny",
    "code": "02342",
    "epci_code": "240200444",
    "departement_code": "02",
    "region_code": "32",
    "postal_code": "02260"
  },
  {
    "name": "Germaine",
    "code": "02343",
    "epci_code": "240200493",
    "departement_code": "02",
    "region_code": "32",
    "postal_code": "02590"
  },
  {
    "name": "Gibercourt",
    "code": "02345",
    "epci_code": "200040426",
    "departement_code": "02",
    "region_code": "32",
    "postal_code": "02440"
  },
  {
    "name": "Gizy",
    "code": "02346",
    "epci_code": "240200576",
    "departement_code": "02",
    "region_code": "32",
    "postal_code": "02350"
  },
  {
    "name": "Gland",
    "code": "02347",
    "epci_code": "200072031",
    "departement_code": "02",
    "region_code": "32",
    "postal_code": "02400"
  },
  {
    "name": "Goudelancourt-lès-Berrieux",
    "code": "02349",
    "epci_code": "240200592",
    "departement_code": "02",
    "region_code": "32",
    "postal_code": "02820"
  },
  {
    "name": "Goudelancourt-lès-Pierrepont",
    "code": "02350",
    "epci_code": "240200576",
    "departement_code": "02",
    "region_code": "32",
    "postal_code": "02350"
  },
  {
    "name": "Goussancourt",
    "code": "02351",
    "epci_code": "200072031",
    "departement_code": "02",
    "region_code": "32",
    "postal_code": "02130"
  },
  {
    "name": "Gouy",
    "code": "02352",
    "epci_code": "240200493",
    "departement_code": "02",
    "region_code": "32",
    "postal_code": "02420"
  },
  {
    "name": "Grandlup-et-Fay",
    "code": "02353",
    "epci_code": "240200469",
    "departement_code": "02",
    "region_code": "32",
    "postal_code": "02350"
  },
  {
    "name": "Grandrieux",
    "code": "02354",
    "epci_code": "240200634",
    "departement_code": "02",
    "region_code": "32",
    "postal_code": "02360"
  },
  {
    "name": "Gricourt",
    "code": "02355",
    "epci_code": "240200493",
    "departement_code": "02",
    "region_code": "32",
    "postal_code": "02100"
  },
  {
    "name": "Grisolles",
    "code": "02356",
    "epci_code": "200072031",
    "departement_code": "02",
    "region_code": "32",
    "postal_code": "02210"
  },
  {
    "name": "Gronard",
    "code": "02357",
    "epci_code": "240200444",
    "departement_code": "02",
    "region_code": "32",
    "postal_code": "02140"
  },
  {
    "name": "Grougis",
    "code": "02358",
    "epci_code": "200071983",
    "departement_code": "02",
    "region_code": "32",
    "postal_code": "02110"
  },
  {
    "name": "Grugies",
    "code": "02359",
    "epci_code": "200071892",
    "departement_code": "02",
    "region_code": "32",
    "postal_code": "02680"
  },
  {
    "name": "Villeneuve-sur-Aisne",
    "code": "02360",
    "epci_code": "240200576",
    "departement_code": "02",
    "region_code": "32",
    "postal_code": "02190"
  },
  {
    "name": "Guise",
    "code": "02361",
    "epci_code": "200071983",
    "departement_code": "02",
    "region_code": "32",
    "postal_code": "02120"
  },
  {
    "name": "Guivry",
    "code": "02362",
    "epci_code": "200071785",
    "departement_code": "02",
    "region_code": "32",
    "postal_code": "02300"
  },
  {
    "name": "Guny",
    "code": "02363",
    "epci_code": "200071769",
    "departement_code": "02",
    "region_code": "32",
    "postal_code": "02300"
  },
  {
    "name": "Guyencourt",
    "code": "02364",
    "epci_code": "240200576",
    "departement_code": "02",
    "region_code": "32",
    "postal_code": "02160"
  },
  {
    "name": "Hannapes",
    "code": "02366",
    "epci_code": "200071983",
    "departement_code": "02",
    "region_code": "32",
    "postal_code": "02510"
  },
  {
    "name": "Happencourt",
    "code": "02367",
    "epci_code": "200071892",
    "departement_code": "02",
    "region_code": "32",
    "postal_code": "02480"
  },
  {
    "name": "Haramont",
    "code": "02368",
    "epci_code": "200071991",
    "departement_code": "02",
    "region_code": "32",
    "postal_code": "02600"
  },
  {
    "name": "Harcigny",
    "code": "02369",
    "epci_code": "240200444",
    "departement_code": "02",
    "region_code": "32",
    "postal_code": "02140"
  },
  {
    "name": "Hargicourt",
    "code": "02370",
    "epci_code": "240200493",
    "departement_code": "02",
    "region_code": "32",
    "postal_code": "02420"
  },
  {
    "name": "Harly",
    "code": "02371",
    "epci_code": "200071892",
    "departement_code": "02",
    "region_code": "32",
    "postal_code": "02100"
  },
  {
    "name": "Hartennes-et-Taux",
    "code": "02372",
    "epci_code": "240200519",
    "departement_code": "02",
    "region_code": "32",
    "postal_code": "02210"
  },
  {
    "name": "Hary",
    "code": "02373",
    "epci_code": "240200444",
    "departement_code": "02",
    "region_code": "32",
    "postal_code": "02140"
  },
  {
    "name": "Lehaucourt",
    "code": "02374",
    "epci_code": "240200493",
    "departement_code": "02",
    "region_code": "32",
    "postal_code": "02420"
  },
  {
    "name": "Hautevesnes",
    "code": "02375",
    "epci_code": "200072031",
    "departement_code": "02",
    "region_code": "32",
    "postal_code": "02810"
  },
  {
    "name": "Hauteville",
    "code": "02376",
    "epci_code": "200071983",
    "departement_code": "02",
    "region_code": "32",
    "postal_code": "02120"
  },
  {
    "name": "Haution",
    "code": "02377",
    "epci_code": "240200444",
    "departement_code": "02",
    "region_code": "32",
    "postal_code": "02140"
  },
  {
    "name": "La Hérie",
    "code": "02378",
    "epci_code": "240200600",
    "departement_code": "02",
    "region_code": "32",
    "postal_code": "02500"
  },
  {
    "name": "Le Hérie-la-Viéville",
    "code": "02379",
    "epci_code": "240200444",
    "departement_code": "02",
    "region_code": "32",
    "postal_code": "02120"
  },
  {
    "name": "Hinacourt",
    "code": "02380",
    "epci_code": "200040426",
    "departement_code": "02",
    "region_code": "32",
    "postal_code": "02440"
  },
  {
    "name": "Hirson",
    "code": "02381",
    "epci_code": "240200600",
    "departement_code": "02",
    "region_code": "32",
    "postal_code": "02500"
  },
  {
    "name": "Holnon",
    "code": "02382",
    "epci_code": "240200493",
    "departement_code": "02",
    "region_code": "32",
    "postal_code": "02760"
  },
  {
    "name": "Homblières",
    "code": "02383",
    "epci_code": "200071892",
    "departement_code": "02",
    "region_code": "32",
    "postal_code": "02720"
  },
  {
    "name": "Houry",
    "code": "02384",
    "epci_code": "240200444",
    "departement_code": "02",
    "region_code": "32",
    "postal_code": "02140"
  },
  {
    "name": "Housset",
    "code": "02385",
    "epci_code": "240200444",
    "departement_code": "02",
    "region_code": "32",
    "postal_code": "02250"
  },
  {
    "name": "Iron",
    "code": "02386",
    "epci_code": "200071983",
    "departement_code": "02",
    "region_code": "32",
    "postal_code": "02510"
  },
  {
    "name": "Itancourt",
    "code": "02387",
    "epci_code": "200040426",
    "departement_code": "02",
    "region_code": "32",
    "postal_code": "02240"
  },
  {
    "name": "Iviers",
    "code": "02388",
    "epci_code": "240200600",
    "departement_code": "02",
    "region_code": "32",
    "postal_code": "02360"
  },
  {
    "name": "Jaulgonne",
    "code": "02389",
    "epci_code": "200072031",
    "departement_code": "02",
    "region_code": "32",
    "postal_code": "02850"
  },
  {
    "name": "Jeancourt",
    "code": "02390",
    "epci_code": "240200493",
    "departement_code": "02",
    "region_code": "32",
    "postal_code": "02490"
  },
  {
    "name": "Jeantes",
    "code": "02391",
    "epci_code": "240200600",
    "departement_code": "02",
    "region_code": "32",
    "postal_code": "02140"
  },
  {
    "name": "Joncourt",
    "code": "02392",
    "epci_code": "240200493",
    "departement_code": "02",
    "region_code": "32",
    "postal_code": "02420"
  },
  {
    "name": "Jouaignes",
    "code": "02393",
    "epci_code": "240200501",
    "departement_code": "02",
    "region_code": "32",
    "postal_code": "02220"
  },
  {
    "name": "Jumencourt",
    "code": "02395",
    "epci_code": "200071769",
    "departement_code": "02",
    "region_code": "32",
    "postal_code": "02380"
  },
  {
    "name": "Jumigny",
    "code": "02396",
    "epci_code": "240200592",
    "departement_code": "02",
    "region_code": "32",
    "postal_code": "02160"
  },
  {
    "name": "Jussy",
    "code": "02397",
    "epci_code": "200071892",
    "departement_code": "02",
    "region_code": "32",
    "postal_code": "02480"
  },
  {
    "name": "Juvigny",
    "code": "02398",
    "epci_code": "240200477",
    "departement_code": "02",
    "region_code": "32",
    "postal_code": "02880"
  },
  {
    "name": "Juvincourt-et-Damary",
    "code": "02399",
    "epci_code": "240200576",
    "departement_code": "02",
    "region_code": "32",
    "postal_code": "02190"
  },
  {
    "name": "Laffaux",
    "code": "02400",
    "epci_code": "240200501",
    "departement_code": "02",
    "region_code": "32",
    "postal_code": "02880"
  },
  {
    "name": "Laigny",
    "code": "02401",
    "epci_code": "240200444",
    "departement_code": "02",
    "region_code": "32",
    "postal_code": "02140"
  },
  {
    "name": "Lanchy",
    "code": "02402",
    "epci_code": "240200493",
    "departement_code": "02",
    "region_code": "32",
    "postal_code": "02590"
  },
  {
    "name": "Landifay-et-Bertaignemont",
    "code": "02403",
    "epci_code": "240200444",
    "departement_code": "02",
    "region_code": "32",
    "postal_code": "02120"
  },
  {
    "name": "Landouzy-la-Cour",
    "code": "02404",
    "epci_code": "240200444",
    "departement_code": "02",
    "region_code": "32",
    "postal_code": "02140"
  },
  {
    "name": "Landouzy-la-Ville",
    "code": "02405",
    "epci_code": "240200600",
    "departement_code": "02",
    "region_code": "32",
    "postal_code": "02140"
  },
  {
    "name": "Landricourt",
    "code": "02406",
    "epci_code": "200071769",
    "departement_code": "02",
    "region_code": "32",
    "postal_code": "02380"
  },
  {
    "name": "Laniscourt",
    "code": "02407",
    "epci_code": "200043495",
    "departement_code": "02",
    "region_code": "32",
    "postal_code": "02000"
  },
  {
    "name": "Laon",
    "code": "02408",
    "epci_code": "200043495",
    "departement_code": "02",
    "region_code": "32",
    "postal_code": "02000"
  },
  {
    "name": "Lappion",
    "code": "02409",
    "epci_code": "240200576",
    "departement_code": "02",
    "region_code": "32",
    "postal_code": "02150"
  },
  {
    "name": "Largny-sur-Automne",
    "code": "02410",
    "epci_code": "200071991",
    "departement_code": "02",
    "region_code": "32",
    "postal_code": "02600"
  },
  {
    "name": "Latilly",
    "code": "02411",
    "epci_code": "200072031",
    "departement_code": "02",
    "region_code": "32",
    "postal_code": "02210"
  },
  {
    "name": "Launoy",
    "code": "02412",
    "epci_code": "240200519",
    "departement_code": "02",
    "region_code": "32",
    "postal_code": "02210"
  },
  {
    "name": "Laval-en-Laonnois",
    "code": "02413",
    "epci_code": "200043495",
    "departement_code": "02",
    "region_code": "32",
    "postal_code": "02860"
  },
  {
    "name": "Lavaqueresse",
    "code": "02414",
    "epci_code": "200071983",
    "departement_code": "02",
    "region_code": "32",
    "postal_code": "02450"
  },
  {
    "name": "Laversine",
    "code": "02415",
    "epci_code": "200071991",
    "departement_code": "02",
    "region_code": "32",
    "postal_code": "02600"
  },
  {
    "name": "Lemé",
    "code": "02416",
    "epci_code": "240200444",
    "departement_code": "02",
    "region_code": "32",
    "postal_code": "02140"
  },
  {
    "name": "Lempire",
    "code": "02417",
    "epci_code": "240200493",
    "departement_code": "02",
    "region_code": "32",
    "postal_code": "02420"
  },
  {
    "name": "Lerzy",
    "code": "02418",
    "epci_code": "240200444",
    "departement_code": "02",
    "region_code": "32",
    "postal_code": "02260"
  },
  {
    "name": "Leschelle",
    "code": "02419",
    "epci_code": "240200444",
    "departement_code": "02",
    "region_code": "32",
    "postal_code": "02170"
  },
  {
    "name": "Lesdins",
    "code": "02420",
    "epci_code": "200071892",
    "departement_code": "02",
    "region_code": "32",
    "postal_code": "02100"
  },
  {
    "name": "Lesges",
    "code": "02421",
    "epci_code": "240200501",
    "departement_code": "02",
    "region_code": "32",
    "postal_code": "02220"
  },
  {
    "name": "Lesquielles-Saint-Germain",
    "code": "02422",
    "epci_code": "200071983",
    "departement_code": "02",
    "region_code": "32",
    "postal_code": "02120"
  },
  {
    "name": "Leuilly-sous-Coucy",
    "code": "02423",
    "epci_code": "200071769",
    "departement_code": "02",
    "region_code": "32",
    "postal_code": "02380"
  },
  {
    "name": "Leury",
    "code": "02424",
    "epci_code": "240200477",
    "departement_code": "02",
    "region_code": "32",
    "postal_code": "02880"
  },
  {
    "name": "Leuze",
    "code": "02425",
    "epci_code": "240200600",
    "departement_code": "02",
    "region_code": "32",
    "postal_code": "02500"
  },
  {
    "name": "Levergies",
    "code": "02426",
    "epci_code": "240200493",
    "departement_code": "02",
    "region_code": "32",
    "postal_code": "02420"
  },
  {
    "name": "Lhuys",
    "code": "02427",
    "epci_code": "240200501",
    "departement_code": "02",
    "region_code": "32",
    "postal_code": "02220"
  },
  {
    "name": "Licy-Clignon",
    "code": "02428",
    "epci_code": "200072031",
    "departement_code": "02",
    "region_code": "32",
    "postal_code": "02810"
  },
  {
    "name": "Lierval",
    "code": "02429",
    "epci_code": "200043495",
    "departement_code": "02",
    "region_code": "32",
    "postal_code": "02860"
  },
  {
    "name": "Liesse-Notre-Dame",
    "code": "02430",
    "epci_code": "240200576",
    "departement_code": "02",
    "region_code": "32",
    "postal_code": "02350"
  },
  {
    "name": "Liez",
    "code": "02431",
    "epci_code": "200071785",
    "departement_code": "02",
    "region_code": "32",
    "postal_code": "02700"
  },
  {
    "name": "Limé",
    "code": "02432",
    "epci_code": "240200501",
    "departement_code": "02",
    "region_code": "32",
    "postal_code": "02220"
  },
  {
    "name": "Lislet",
    "code": "02433",
    "epci_code": "240200634",
    "departement_code": "02",
    "region_code": "32",
    "postal_code": "02340"
  },
  {
    "name": "Logny-lès-Aubenton",
    "code": "02435",
    "epci_code": "240200600",
    "departement_code": "02",
    "region_code": "32",
    "postal_code": "02500"
  },
  {
    "name": "Longpont",
    "code": "02438",
    "epci_code": "200071991",
    "departement_code": "02",
    "region_code": "32",
    "postal_code": "02600"
  },
  {
    "name": "Les Septvallons",
    "code": "02439",
    "epci_code": "240200501",
    "departement_code": "02",
    "region_code": "32",
    "postal_code": "02160"
  },
  {
    "name": "Lor",
    "code": "02440",
    "epci_code": "240200576",
    "departement_code": "02",
    "region_code": "32",
    "postal_code": "02190"
  },
  {
    "name": "Louâtre",
    "code": "02441",
    "epci_code": "200071991",
    "departement_code": "02",
    "region_code": "32",
    "postal_code": "02600"
  },
  {
    "name": "Loupeigne",
    "code": "02442",
    "epci_code": "200072031",
    "departement_code": "02",
    "region_code": "32",
    "postal_code": "02130"
  },
  {
    "name": "Lucy-le-Bocage",
    "code": "02443",
    "epci_code": "240200584",
    "departement_code": "02",
    "region_code": "32",
    "postal_code": "02400"
  },
  {
    "name": "Lugny",
    "code": "02444",
    "epci_code": "240200444",
    "departement_code": "02",
    "region_code": "32",
    "postal_code": "02140"
  },
  {
    "name": "Luzoir",
    "code": "02445",
    "epci_code": "240200444",
    "departement_code": "02",
    "region_code": "32",
    "postal_code": "02500"
  },
  {
    "name": "Ly-Fontaine",
    "code": "02446",
    "epci_code": "200040426",
    "departement_code": "02",
    "region_code": "32",
    "postal_code": "02440"
  },
  {
    "name": "Maast-et-Violaine",
    "code": "02447",
    "epci_code": "240200519",
    "departement_code": "02",
    "region_code": "32",
    "postal_code": "02220"
  },
  {
    "name": "Mâchecourt",
    "code": "02448",
    "epci_code": "240200576",
    "departement_code": "02",
    "region_code": "32",
    "postal_code": "02350"
  },
  {
    "name": "Macogny",
    "code": "02449",
    "epci_code": "200071991",
    "departement_code": "02",
    "region_code": "32",
    "postal_code": "02470"
  },
  {
    "name": "Macquigny",
    "code": "02450",
    "epci_code": "200071983",
    "departement_code": "02",
    "region_code": "32",
    "postal_code": "02120"
  },
  {
    "name": "Magny-la-Fosse",
    "code": "02451",
    "epci_code": "240200493",
    "departement_code": "02",
    "region_code": "32",
    "postal_code": "02420"
  },
  {
    "name": "Maissemy",
    "code": "02452",
    "epci_code": "240200493",
    "departement_code": "02",
    "region_code": "32",
    "postal_code": "02490"
  },
  {
    "name": "Maizy",
    "code": "02453",
    "epci_code": "240200576",
    "departement_code": "02",
    "region_code": "32",
    "postal_code": "02160"
  },
  {
    "name": "La Malmaison",
    "code": "02454",
    "epci_code": "240200576",
    "departement_code": "02",
    "region_code": "32",
    "postal_code": "02190"
  },
  {
    "name": "Malzy",
    "code": "02455",
    "epci_code": "200071983",
    "departement_code": "02",
    "region_code": "32",
    "postal_code": "02120"
  },
  {
    "name": "Manicamp",
    "code": "02456",
    "epci_code": "200071785",
    "departement_code": "02",
    "region_code": "32",
    "postal_code": "02300"
  },
  {
    "name": "Marchais",
    "code": "02457",
    "epci_code": "240200576",
    "departement_code": "02",
    "region_code": "32",
    "postal_code": "02350"
  },
  {
    "name": "Dhuys et Morin-en-Brie",
    "code": "02458",
    "epci_code": "200072031",
    "departement_code": "02",
    "region_code": "32",
    "postal_code": "02330"
  },
  {
    "name": "Dhuys et Morin-en-Brie",
    "code": "02458",
    "epci_code": "200072031",
    "departement_code": "02",
    "region_code": "32",
    "postal_code": "02540"
  },
  {
    "name": "Marcy",
    "code": "02459",
    "epci_code": "200071892",
    "departement_code": "02",
    "region_code": "32",
    "postal_code": "02720"
  },
  {
    "name": "Marcy-sous-Marle",
    "code": "02460",
    "epci_code": "240200469",
    "departement_code": "02",
    "region_code": "32",
    "postal_code": "02250"
  },
  {
    "name": "Marest-Dampcourt",
    "code": "02461",
    "epci_code": "200071785",
    "departement_code": "02",
    "region_code": "32",
    "postal_code": "02300"
  },
  {
    "name": "Mareuil-en-Dôle",
    "code": "02462",
    "epci_code": "200072031",
    "departement_code": "02",
    "region_code": "32",
    "postal_code": "02130"
  },
  {
    "name": "Marfontaine",
    "code": "02463",
    "epci_code": "240200444",
    "departement_code": "02",
    "region_code": "32",
    "postal_code": "02140"
  },
  {
    "name": "Margival",
    "code": "02464",
    "epci_code": "240200501",
    "departement_code": "02",
    "region_code": "32",
    "postal_code": "02880"
  },
  {
    "name": "Marigny-en-Orxois",
    "code": "02465",
    "epci_code": "240200584",
    "departement_code": "02",
    "region_code": "32",
    "postal_code": "02810"
  },
  {
    "name": "Marizy-Sainte-Geneviève",
    "code": "02466",
    "epci_code": "200071991",
    "departement_code": "02",
    "region_code": "32",
    "postal_code": "02470"
  },
  {
    "name": "Marizy-Saint-Mard",
    "code": "02467",
    "epci_code": "200071991",
    "departement_code": "02",
    "region_code": "32",
    "postal_code": "02470"
  },
  {
    "name": "Marle",
    "code": "02468",
    "epci_code": "240200469",
    "departement_code": "02",
    "region_code": "32",
    "postal_code": "02250"
  },
  {
    "name": "Marly-Gomont",
    "code": "02469",
    "epci_code": "200071983",
    "departement_code": "02",
    "region_code": "32",
    "postal_code": "02120"
  },
  {
    "name": "Martigny",
    "code": "02470",
    "epci_code": "240200600",
    "departement_code": "02",
    "region_code": "32",
    "postal_code": "02500"
  },
  {
    "name": "Martigny-Courpierre",
    "code": "02471",
    "epci_code": "200043495",
    "departement_code": "02",
    "region_code": "32",
    "postal_code": "02860"
  },
  {
    "name": "Mauregny-en-Haye",
    "code": "02472",
    "epci_code": "240200576",
    "departement_code": "02",
    "region_code": "32",
    "postal_code": "02820"
  },
  {
    "name": "Mayot",
    "code": "02473",
    "epci_code": "200071785",
    "departement_code": "02",
    "region_code": "32",
    "postal_code": "02800"
  },
  {
    "name": "Mennessis",
    "code": "02474",
    "epci_code": "200071785",
    "departement_code": "02",
    "region_code": "32",
    "postal_code": "02700"
  },
  {
    "name": "Mennevret",
    "code": "02476",
    "epci_code": "200071983",
    "departement_code": "02",
    "region_code": "32",
    "postal_code": "02630"
  },
  {
    "name": "Mercin-et-Vaux",
    "code": "02477",
    "epci_code": "240200477",
    "departement_code": "02",
    "region_code": "32",
    "postal_code": "02200"
  },
  {
    "name": "Merlieux-et-Fouquerolles",
    "code": "02478",
    "epci_code": "200071769",
    "departement_code": "02",
    "region_code": "32",
    "postal_code": "02000"
  },
  {
    "name": "Mesbrecourt-Richecourt",
    "code": "02480",
    "epci_code": "240200469",
    "departement_code": "02",
    "region_code": "32",
    "postal_code": "02270"
  },
  {
    "name": "Mesnil-Saint-Laurent",
    "code": "02481",
    "epci_code": "200071892",
    "departement_code": "02",
    "region_code": "32",
    "postal_code": "02720"
  },
  {
    "name": "Meurival",
    "code": "02482",
    "epci_code": "240200576",
    "departement_code": "02",
    "region_code": "32",
    "postal_code": "02160"
  },
  {
    "name": "Mézières-sur-Oise",
    "code": "02483",
    "epci_code": "200040426",
    "departement_code": "02",
    "region_code": "32",
    "postal_code": "02240"
  },
  {
    "name": "Mézy-Moulins",
    "code": "02484",
    "epci_code": "200072031",
    "departement_code": "02",
    "region_code": "32",
    "postal_code": "02650"
  },
  {
    "name": "Missy-aux-Bois",
    "code": "02485",
    "epci_code": "240200477",
    "departement_code": "02",
    "region_code": "32",
    "postal_code": "02200"
  },
  {
    "name": "Missy-lès-Pierrepont",
    "code": "02486",
    "epci_code": "240200576",
    "departement_code": "02",
    "region_code": "32",
    "postal_code": "02350"
  },
  {
    "name": "Missy-sur-Aisne",
    "code": "02487",
    "epci_code": "240200501",
    "departement_code": "02",
    "region_code": "32",
    "postal_code": "02880"
  },
  {
    "name": "Molain",
    "code": "02488",
    "epci_code": "200071983",
    "departement_code": "02",
    "region_code": "32",
    "postal_code": "02110"
  },
  {
    "name": "Molinchart",
    "code": "02489",
    "epci_code": "200043495",
    "departement_code": "02",
    "region_code": "32",
    "postal_code": "02000"
  },
  {
    "name": "Monampteuil",
    "code": "02490",
    "epci_code": "240200501",
    "departement_code": "02",
    "region_code": "32",
    "postal_code": "02000"
  },
  {
    "name": "Monceau-le-Neuf-et-Faucouzy",
    "code": "02491",
    "epci_code": "240200444",
    "departement_code": "02",
    "region_code": "32",
    "postal_code": "02270"
  },
  {
    "name": "Monceau-lès-Leups",
    "code": "02492",
    "epci_code": "200071785",
    "departement_code": "02",
    "region_code": "32",
    "postal_code": "02270"
  },
  {
    "name": "Monceau-le-Waast",
    "code": "02493",
    "epci_code": "240200469",
    "departement_code": "02",
    "region_code": "32",
    "postal_code": "02840"
  },
  {
    "name": "Monceau-sur-Oise",
    "code": "02494",
    "epci_code": "200071983",
    "departement_code": "02",
    "region_code": "32",
    "postal_code": "02120"
  },
  {
    "name": "Mondrepuis",
    "code": "02495",
    "epci_code": "240200600",
    "departement_code": "02",
    "region_code": "32",
    "postal_code": "02500"
  },
  {
    "name": "Monnes",
    "code": "02496",
    "epci_code": "200071991",
    "departement_code": "02",
    "region_code": "32",
    "postal_code": "02470"
  },
  {
    "name": "Mons-en-Laonnois",
    "code": "02497",
    "epci_code": "200043495",
    "departement_code": "02",
    "region_code": "32",
    "postal_code": "02000"
  },
  {
    "name": "Montaigu",
    "code": "02498",
    "epci_code": "240200576",
    "departement_code": "02",
    "region_code": "32",
    "postal_code": "02820"
  },
  {
    "name": "Montbavin",
    "code": "02499",
    "epci_code": "200071769",
    "departement_code": "02",
    "region_code": "32",
    "postal_code": "02000"
  },
  {
    "name": "Montbrehain",
    "code": "02500",
    "epci_code": "240200493",
    "departement_code": "02",
    "region_code": "32",
    "postal_code": "02110"
  },
  {
    "name": "Montchâlons",
    "code": "02501",
    "epci_code": "200043495",
    "departement_code": "02",
    "region_code": "32",
    "postal_code": "02860"
  },
  {
    "name": "Montcornet",
    "code": "02502",
    "epci_code": "240200634",
    "departement_code": "02",
    "region_code": "32",
    "postal_code": "02340"
  },
  {
    "name": "Mont-d’Origny",
    "code": "02503",
    "epci_code": "200040426",
    "departement_code": "02",
    "region_code": "32",
    "postal_code": "02390"
  },
  {
    "name": "Montescourt-Lizerolles",
    "code": "02504",
    "epci_code": "200071892",
    "departement_code": "02",
    "region_code": "32",
    "postal_code": "02440"
  },
  {
    "name": "Montfaucon",
    "code": "02505",
    "epci_code": "240200584",
    "departement_code": "02",
    "region_code": "32",
    "postal_code": "02540"
  },
  {
    "name": "Montgobert",
    "code": "02506",
    "epci_code": "200071991",
    "departement_code": "02",
    "region_code": "32",
    "postal_code": "02600"
  },
  {
    "name": "Montgru-Saint-Hilaire",
    "code": "02507",
    "epci_code": "240200519",
    "departement_code": "02",
    "region_code": "32",
    "postal_code": "02210"
  },
  {
    "name": "Monthenault",
    "code": "02508",
    "epci_code": "200043495",
    "departement_code": "02",
    "region_code": "32",
    "postal_code": "02860"
  },
  {
    "name": "Monthiers",
    "code": "02509",
    "epci_code": "200072031",
    "departement_code": "02",
    "region_code": "32",
    "postal_code": "02400"
  },
  {
    "name": "Monthurel",
    "code": "02510",
    "epci_code": "200072031",
    "departement_code": "02",
    "region_code": "32",
    "postal_code": "02330"
  },
  {
    "name": "Montigny-en-Arrouaise",
    "code": "02511",
    "epci_code": "240200493",
    "departement_code": "02",
    "region_code": "32",
    "postal_code": "02110"
  },
  {
    "name": "Montigny-l’Allier",
    "code": "02512",
    "epci_code": "200072031",
    "departement_code": "02",
    "region_code": "32",
    "postal_code": "02810"
  },
  {
    "name": "Montigny-le-Franc",
    "code": "02513",
    "epci_code": "240200469",
    "departement_code": "02",
    "region_code": "32",
    "postal_code": "02250"
  },
  {
    "name": "Montigny-Lengrain",
    "code": "02514",
    "epci_code": "200071991",
    "departement_code": "02",
    "region_code": "32",
    "postal_code": "02290"
  },
  {
    "name": "Montigny-lès-Condé",
    "code": "02515",
    "epci_code": "200072031",
    "departement_code": "02",
    "region_code": "32",
    "postal_code": "02330"
  },
  {
    "name": "Montigny-sous-Marle",
    "code": "02516",
    "epci_code": "240200469",
    "departement_code": "02",
    "region_code": "32",
    "postal_code": "02250"
  },
  {
    "name": "Montigny-sur-Crécy",
    "code": "02517",
    "epci_code": "240200469",
    "departement_code": "02",
    "region_code": "32",
    "postal_code": "02270"
  },
  {
    "name": "Montlevon",
    "code": "02518",
    "epci_code": "200072031",
    "departement_code": "02",
    "region_code": "32",
    "postal_code": "02330"
  },
  {
    "name": "Montloué",
    "code": "02519",
    "epci_code": "240200634",
    "departement_code": "02",
    "region_code": "32",
    "postal_code": "02340"
  },
  {
    "name": "Mont-Notre-Dame",
    "code": "02520",
    "epci_code": "240200501",
    "departement_code": "02",
    "region_code": "32",
    "postal_code": "02220"
  },
  {
    "name": "Montreuil-aux-Lions",
    "code": "02521",
    "epci_code": "240200584",
    "departement_code": "02",
    "region_code": "32",
    "postal_code": "02310"
  },
  {
    "name": "Mont-Saint-Jean",
    "code": "02522",
    "epci_code": "240200600",
    "departement_code": "02",
    "region_code": "32",
    "postal_code": "02360"
  },
  {
    "name": "Mont-Saint-Martin",
    "code": "02523",
    "epci_code": "240200501",
    "departement_code": "02",
    "region_code": "32",
    "postal_code": "02220"
  },
  {
    "name": "Mont-Saint-Père",
    "code": "02524",
    "epci_code": "200072031",
    "departement_code": "02",
    "region_code": "32",
    "postal_code": "02400"
  },
  {
    "name": "Morcourt",
    "code": "02525",
    "epci_code": "200071892",
    "departement_code": "02",
    "region_code": "32",
    "postal_code": "02100"
  },
  {
    "name": "Morgny-en-Thiérache",
    "code": "02526",
    "epci_code": "240200634",
    "departement_code": "02",
    "region_code": "32",
    "postal_code": "02360"
  },
  {
    "name": "Morsain",
    "code": "02527",
    "epci_code": "200071991",
    "departement_code": "02",
    "region_code": "32",
    "postal_code": "02290"
  },
  {
    "name": "Mortefontaine",
    "code": "02528",
    "epci_code": "200071991",
    "departement_code": "02",
    "region_code": "32",
    "postal_code": "02600"
  },
  {
    "name": "Mortiers",
    "code": "02529",
    "epci_code": "240200469",
    "departement_code": "02",
    "region_code": "32",
    "postal_code": "02270"
  },
  {
    "name": "Moulins",
    "code": "02530",
    "epci_code": "240200592",
    "departement_code": "02",
    "region_code": "32",
    "postal_code": "02160"
  },
  {
    "name": "Moussy-Verneuil",
    "code": "02531",
    "epci_code": "240200592",
    "departement_code": "02",
    "region_code": "32",
    "postal_code": "02160"
  },
  {
    "name": "Moÿ-de-l’Aisne",
    "code": "02532",
    "epci_code": "200040426",
    "departement_code": "02",
    "region_code": "32",
    "postal_code": "02610"
  },
  {
    "name": "Muret-et-Crouttes",
    "code": "02533",
    "epci_code": "240200519",
    "departement_code": "02",
    "region_code": "32",
    "postal_code": "02210"
  },
  {
    "name": "Muscourt",
    "code": "02534",
    "epci_code": "240200576",
    "departement_code": "02",
    "region_code": "32",
    "postal_code": "02160"
  },
  {
    "name": "Nampcelles-la-Cour",
    "code": "02535",
    "epci_code": "240200444",
    "departement_code": "02",
    "region_code": "32",
    "postal_code": "02140"
  },
  {
    "name": "Nampteuil-sous-Muret",
    "code": "02536",
    "epci_code": "240200519",
    "departement_code": "02",
    "region_code": "32",
    "postal_code": "02200"
  },
  {
    "name": "Nanteuil-la-Fosse",
    "code": "02537",
    "epci_code": "240200501",
    "departement_code": "02",
    "region_code": "32",
    "postal_code": "02880"
  },
  {
    "name": "Nanteuil-Notre-Dame",
    "code": "02538",
    "epci_code": "200072031",
    "departement_code": "02",
    "region_code": "32",
    "postal_code": "02210"
  },
  {
    "name": "Nauroy",
    "code": "02539",
    "epci_code": "240200493",
    "departement_code": "02",
    "region_code": "32",
    "postal_code": "02420"
  },
  {
    "name": "Nesles-la-Montagne",
    "code": "02540",
    "epci_code": "200072031",
    "departement_code": "02",
    "region_code": "32",
    "postal_code": "02400"
  },
  {
    "name": "Neufchâtel-sur-Aisne",
    "code": "02541",
    "epci_code": "240200576",
    "departement_code": "02",
    "region_code": "32",
    "postal_code": "02190"
  },
  {
    "name": "Neuflieux",
    "code": "02542",
    "epci_code": "200071785",
    "departement_code": "02",
    "region_code": "32",
    "postal_code": "02300"
  },
  {
    "name": "Neuilly-Saint-Front",
    "code": "02543",
    "epci_code": "200072031",
    "departement_code": "02",
    "region_code": "32",
    "postal_code": "02470"
  },
  {
    "name": "Neuve-Maison",
    "code": "02544",
    "epci_code": "240200600",
    "departement_code": "02",
    "region_code": "32",
    "postal_code": "02500"
  },
  {
    "name": "La Neuville-Bosmont",
    "code": "02545",
    "epci_code": "240200469",
    "departement_code": "02",
    "region_code": "32",
    "postal_code": "02250"
  },
  {
    "name": "La Neuville-en-Beine",
    "code": "02546",
    "epci_code": "200071785",
    "departement_code": "02",
    "region_code": "32",
    "postal_code": "02300"
  },
  {
    "name": "La Neuville-Housset",
    "code": "02547",
    "epci_code": "240200444",
    "departement_code": "02",
    "region_code": "32",
    "postal_code": "02250"
  },
  {
    "name": "La Neuville-lès-Dorengt",
    "code": "02548",
    "epci_code": "240200444",
    "departement_code": "02",
    "region_code": "32",
    "postal_code": "02450"
  },
  {
    "name": "Neuville-Saint-Amand",
    "code": "02549",
    "epci_code": "200071892",
    "departement_code": "02",
    "region_code": "32",
    "postal_code": "02100"
  },
  {
    "name": "Neuville-sur-Ailette",
    "code": "02550",
    "epci_code": "240200592",
    "departement_code": "02",
    "region_code": "32",
    "postal_code": "02860"
  },
  {
    "name": "Neuville-sur-Margival",
    "code": "02551",
    "epci_code": "240200501",
    "departement_code": "02",
    "region_code": "32",
    "postal_code": "02880"
  },
  {
    "name": "Neuvillette",
    "code": "02552",
    "epci_code": "200040426",
    "departement_code": "02",
    "region_code": "32",
    "postal_code": "02390"
  },
  {
    "name": "Nizy-le-Comte",
    "code": "02553",
    "epci_code": "240200576",
    "departement_code": "02",
    "region_code": "32",
    "postal_code": "02150"
  },
  {
    "name": "Nogentel",
    "code": "02554",
    "epci_code": "200072031",
    "departement_code": "02",
    "region_code": "32",
    "postal_code": "02400"
  },
  {
    "name": "Nogent-l’Artaud",
    "code": "02555",
    "epci_code": "240200584",
    "departement_code": "02",
    "region_code": "32",
    "postal_code": "02310"
  },
  {
    "name": "Noircourt",
    "code": "02556",
    "epci_code": "240200634",
    "departement_code": "02",
    "region_code": "32",
    "postal_code": "02340"
  },
  {
    "name": "Noroy-sur-Ourcq",
    "code": "02557",
    "epci_code": "200071991",
    "departement_code": "02",
    "region_code": "32",
    "postal_code": "02600"
  },
  {
    "name": "Le Nouvion-en-Thiérache",
    "code": "02558",
    "epci_code": "240200444",
    "departement_code": "02",
    "region_code": "32",
    "postal_code": "02170"
  },
  {
    "name": "Nouvion-et-Catillon",
    "code": "02559",
    "epci_code": "240200469",
    "departement_code": "02",
    "region_code": "32",
    "postal_code": "02270"
  },
  {
    "name": "Nouvion-le-Comte",
    "code": "02560",
    "epci_code": "240200469",
    "departement_code": "02",
    "region_code": "32",
    "postal_code": "02800"
  },
  {
    "name": "Nouvion-le-Vineux",
    "code": "02561",
    "epci_code": "200043495",
    "departement_code": "02",
    "region_code": "32",
    "postal_code": "02860"
  },
  {
    "name": "Nouvron-Vingré",
    "code": "02562",
    "epci_code": "200071991",
    "departement_code": "02",
    "region_code": "32",
    "postal_code": "02290"
  },
  {
    "name": "Noyales",
    "code": "02563",
    "epci_code": "200071983",
    "departement_code": "02",
    "region_code": "32",
    "postal_code": "02120"
  },
  {
    "name": "Bernoy-le-Château",
    "code": "02564",
    "epci_code": "240200477",
    "departement_code": "02",
    "region_code": "32",
    "postal_code": "02200"
  },
  {
    "name": "Œuilly",
    "code": "02565",
    "epci_code": "240200592",
    "departement_code": "02",
    "region_code": "32",
    "postal_code": "02160"
  },
  {
    "name": "Ognes",
    "code": "02566",
    "epci_code": "200071785",
    "departement_code": "02",
    "region_code": "32",
    "postal_code": "02300"
  },
  {
    "name": "Ohis",
    "code": "02567",
    "epci_code": "240200600",
    "departement_code": "02",
    "region_code": "32",
    "postal_code": "02500"
  },
  {
    "name": "Oigny-en-Valois",
    "code": "02568",
    "epci_code": "200071991",
    "departement_code": "02",
    "region_code": "32",
    "postal_code": "02600"
  },
  {
    "name": "Oisy",
    "code": "02569",
    "epci_code": "200071983",
    "departement_code": "02",
    "region_code": "32",
    "postal_code": "02450"
  },
  {
    "name": "Ollezy",
    "code": "02570",
    "epci_code": "200071892",
    "departement_code": "02",
    "region_code": "32",
    "postal_code": "02480"
  },
  {
    "name": "Omissy",
    "code": "02571",
    "epci_code": "200071892",
    "departement_code": "02",
    "region_code": "32",
    "postal_code": "02100"
  },
  {
    "name": "Orainville",
    "code": "02572",
    "epci_code": "240200576",
    "departement_code": "02",
    "region_code": "32",
    "postal_code": "02190"
  },
  {
    "name": "Orgeval",
    "code": "02573",
    "epci_code": "200043495",
    "departement_code": "02",
    "region_code": "32",
    "postal_code": "02860"
  },
  {
    "name": "Origny-en-Thiérache",
    "code": "02574",
    "epci_code": "240200600",
    "departement_code": "02",
    "region_code": "32",
    "postal_code": "02550"
  },
  {
    "name": "Origny-Sainte-Benoite",
    "code": "02575",
    "epci_code": "200040426",
    "departement_code": "02",
    "region_code": "32",
    "postal_code": "02390"
  },
  {
    "name": "Osly-Courtil",
    "code": "02576",
    "epci_code": "240200477",
    "departement_code": "02",
    "region_code": "32",
    "postal_code": "02290"
  },
  {
    "name": "Ostel",
    "code": "02577",
    "epci_code": "240200501",
    "departement_code": "02",
    "region_code": "32",
    "postal_code": "02370"
  },
  {
    "name": "Oulches-la-Vallée-Foulon",
    "code": "02578",
    "epci_code": "240200592",
    "departement_code": "02",
    "region_code": "32",
    "postal_code": "02160"
  },
  {
    "name": "Oulchy-la-Ville",
    "code": "02579",
    "epci_code": "240200519",
    "departement_code": "02",
    "region_code": "32",
    "postal_code": "02210"
  },
  {
    "name": "Oulchy-le-Château",
    "code": "02580",
    "epci_code": "240200519",
    "departement_code": "02",
    "region_code": "32",
    "postal_code": "02210"
  },
  {
    "name": "Paars",
    "code": "02581",
    "epci_code": "240200501",
    "departement_code": "02",
    "region_code": "32",
    "postal_code": "02220"
  },
  {
    "name": "Paissy",
    "code": "02582",
    "epci_code": "240200592",
    "departement_code": "02",
    "region_code": "32",
    "postal_code": "02160"
  },
  {
    "name": "Pancy-Courtecon",
    "code": "02583",
    "epci_code": "240200592",
    "departement_code": "02",
    "region_code": "32",
    "postal_code": "02860"
  },
  {
    "name": "Papleux",
    "code": "02584",
    "epci_code": "240200444",
    "departement_code": "02",
    "region_code": "32",
    "postal_code": "02260"
  },
  {
    "name": "Parcy-et-Tigny",
    "code": "02585",
    "epci_code": "240200519",
    "departement_code": "02",
    "region_code": "32",
    "postal_code": "02210"
  },
  {
    "name": "Parfondeval",
    "code": "02586",
    "epci_code": "240200634",
    "departement_code": "02",
    "region_code": "32",
    "postal_code": "02360"
  },
  {
    "name": "Parfondru",
    "code": "02587",
    "epci_code": "200043495",
    "departement_code": "02",
    "region_code": "32",
    "postal_code": "02840"
  },
  {
    "name": "Pargnan",
    "code": "02588",
    "epci_code": "240200592",
    "departement_code": "02",
    "region_code": "32",
    "postal_code": "02160"
  },
  {
    "name": "Pargny-et-Filain",
    "code": "02589",
    "epci_code": "240200501",
    "departement_code": "02",
    "region_code": "32",
    "postal_code": "02000"
  },
  {
    "name": "Pargny-la-Dhuys",
    "code": "02590",
    "epci_code": "200072031",
    "departement_code": "02",
    "region_code": "32",
    "postal_code": "02330"
  },
  {
    "name": "Pargny-les-Bois",
    "code": "02591",
    "epci_code": "240200469",
    "departement_code": "02",
    "region_code": "32",
    "postal_code": "02270"
  },
  {
    "name": "Parpeville",
    "code": "02592",
    "epci_code": "200040426",
    "departement_code": "02",
    "region_code": "32",
    "postal_code": "02240"
  },
  {
    "name": "Pasly",
    "code": "02593",
    "epci_code": "240200477",
    "departement_code": "02",
    "region_code": "32",
    "postal_code": "02200"
  },
  {
    "name": "Passy-en-Valois",
    "code": "02594",
    "epci_code": "200071991",
    "departement_code": "02",
    "region_code": "32",
    "postal_code": "02470"
  },
  {
    "name": "Passy-sur-Marne",
    "code": "02595",
    "epci_code": "200072031",
    "departement_code": "02",
    "region_code": "32",
    "postal_code": "02850"
  },
  {
    "name": "Pavant",
    "code": "02596",
    "epci_code": "240200584",
    "departement_code": "02",
    "region_code": "32",
    "postal_code": "02310"
  },
  {
    "name": "Pernant",
    "code": "02598",
    "epci_code": "200071991",
    "departement_code": "02",
    "region_code": "32",
    "postal_code": "02200"
  },
  {
    "name": "Pierremande",
    "code": "02599",
    "epci_code": "200071785",
    "departement_code": "02",
    "region_code": "32",
    "postal_code": "02300"
  },
  {
    "name": "Pierrepont",
    "code": "02600",
    "epci_code": "240200469",
    "departement_code": "02",
    "region_code": "32",
    "postal_code": "02350"
  },
  {
    "name": "Pignicourt",
    "code": "02601",
    "epci_code": "240200576",
    "departement_code": "02",
    "region_code": "32",
    "postal_code": "02190"
  },
  {
    "name": "Pinon",
    "code": "02602",
    "epci_code": "200071769",
    "departement_code": "02",
    "region_code": "32",
    "postal_code": "02320"
  },
  {
    "name": "Pithon",
    "code": "02604",
    "epci_code": "200070985",
    "departement_code": "02",
    "region_code": "32",
    "postal_code": "02480"
  },
  {
    "name": "Pleine-Selve",
    "code": "02605",
    "epci_code": "200040426",
    "departement_code": "02",
    "region_code": "32",
    "postal_code": "02240"
  },
  {
    "name": "Le Plessier-Huleu",
    "code": "02606",
    "epci_code": "240200519",
    "departement_code": "02",
    "region_code": "32",
    "postal_code": "02210"
  },
  {
    "name": "Ploisy",
    "code": "02607",
    "epci_code": "240200477",
    "departement_code": "02",
    "region_code": "32",
    "postal_code": "02200"
  },
  {
    "name": "Plomion",
    "code": "02608",
    "epci_code": "240200444",
    "departement_code": "02",
    "region_code": "32",
    "postal_code": "02140"
  },
  {
    "name": "Ployart-et-Vaurseine",
    "code": "02609",
    "epci_code": "240200592",
    "departement_code": "02",
    "region_code": "32",
    "postal_code": "02860"
  },
  {
    "name": "Pommiers",
    "code": "02610",
    "epci_code": "240200477",
    "departement_code": "02",
    "region_code": "32",
    "postal_code": "02200"
  },
  {
    "name": "Pont-Arcy",
    "code": "02612",
    "epci_code": "240200501",
    "departement_code": "02",
    "region_code": "32",
    "postal_code": "02160"
  },
  {
    "name": "Pontavert",
    "code": "02613",
    "epci_code": "240200576",
    "departement_code": "02",
    "region_code": "32",
    "postal_code": "02160"
  },
  {
    "name": "Pontru",
    "code": "02614",
    "epci_code": "240200493",
    "departement_code": "02",
    "region_code": "32",
    "postal_code": "02490"
  },
  {
    "name": "Pontruet",
    "code": "02615",
    "epci_code": "240200493",
    "departement_code": "02",
    "region_code": "32",
    "postal_code": "02490"
  },
  {
    "name": "Pont-Saint-Mard",
    "code": "02616",
    "epci_code": "200071769",
    "departement_code": "02",
    "region_code": "32",
    "postal_code": "02380"
  },
  {
    "name": "Pouilly-sur-Serre",
    "code": "02617",
    "epci_code": "240200469",
    "departement_code": "02",
    "region_code": "32",
    "postal_code": "02270"
  },
  {
    "name": "Prémont",
    "code": "02618",
    "epci_code": "240200493",
    "departement_code": "02",
    "region_code": "32",
    "postal_code": "02110"
  },
  {
    "name": "Prémontré",
    "code": "02619",
    "epci_code": "200071769",
    "departement_code": "02",
    "region_code": "32",
    "postal_code": "02320"
  },
  {
    "name": "Presles-et-Boves",
    "code": "02620",
    "epci_code": "240200501",
    "departement_code": "02",
    "region_code": "32",
    "postal_code": "02370"
  },
  {
    "name": "Presles-et-Thierny",
    "code": "02621",
    "epci_code": "200043495",
    "departement_code": "02",
    "region_code": "32",
    "postal_code": "02860"
  },
  {
    "name": "Priez",
    "code": "02622",
    "epci_code": "200072031",
    "departement_code": "02",
    "region_code": "32",
    "postal_code": "02470"
  },
  {
    "name": "Prisces",
    "code": "02623",
    "epci_code": "240200444",
    "departement_code": "02",
    "region_code": "32",
    "postal_code": "02140"
  },
  {
    "name": "Proisy",
    "code": "02624",
    "epci_code": "200071983",
    "departement_code": "02",
    "region_code": "32",
    "postal_code": "02120"
  },
  {
    "name": "Proix",
    "code": "02625",
    "epci_code": "200071983",
    "departement_code": "02",
    "region_code": "32",
    "postal_code": "02120"
  },
  {
    "name": "Prouvais",
    "code": "02626",
    "epci_code": "240200576",
    "departement_code": "02",
    "region_code": "32",
    "postal_code": "02190"
  },
  {
    "name": "Proviseux-et-Plesnoy",
    "code": "02627",
    "epci_code": "240200576",
    "departement_code": "02",
    "region_code": "32",
    "postal_code": "02190"
  },
  {
    "name": "Puiseux-en-Retz",
    "code": "02628",
    "epci_code": "200071991",
    "departement_code": "02",
    "region_code": "32",
    "postal_code": "02600"
  },
  {
    "name": "Puisieux-et-Clanlieu",
    "code": "02629",
    "epci_code": "240200444",
    "departement_code": "02",
    "region_code": "32",
    "postal_code": "02120"
  },
  {
    "name": "Quierzy",
    "code": "02631",
    "epci_code": "200071785",
    "departement_code": "02",
    "region_code": "32",
    "postal_code": "02300"
  },
  {
    "name": "Quincy-Basse",
    "code": "02632",
    "epci_code": "200071769",
    "departement_code": "02",
    "region_code": "32",
    "postal_code": "02380"
  },
  {
    "name": "Quincy-sous-le-Mont",
    "code": "02633",
    "epci_code": "240200501",
    "departement_code": "02",
    "region_code": "32",
    "postal_code": "02220"
  },
  {
    "name": "Raillimont",
    "code": "02634",
    "epci_code": "240200634",
    "departement_code": "02",
    "region_code": "32",
    "postal_code": "02360"
  },
  {
    "name": "Ramicourt",
    "code": "02635",
    "epci_code": "240200493",
    "departement_code": "02",
    "region_code": "32",
    "postal_code": "02110"
  },
  {
    "name": "Regny",
    "code": "02636",
    "epci_code": "200040426",
    "departement_code": "02",
    "region_code": "32",
    "postal_code": "02240"
  },
  {
    "name": "Remaucourt",
    "code": "02637",
    "epci_code": "200071892",
    "departement_code": "02",
    "region_code": "32",
    "postal_code": "02100"
  },
  {
    "name": "Remies",
    "code": "02638",
    "epci_code": "240200469",
    "departement_code": "02",
    "region_code": "32",
    "postal_code": "02270"
  },
  {
    "name": "Remigny",
    "code": "02639",
    "epci_code": "200040426",
    "departement_code": "02",
    "region_code": "32",
    "postal_code": "02440"
  },
  {
    "name": "Renansart",
    "code": "02640",
    "epci_code": "200040426",
    "departement_code": "02",
    "region_code": "32",
    "postal_code": "02240"
  },
  {
    "name": "Renneval",
    "code": "02641",
    "epci_code": "240200634",
    "departement_code": "02",
    "region_code": "32",
    "postal_code": "02340"
  },
  {
    "name": "Résigny",
    "code": "02642",
    "epci_code": "240200634",
    "departement_code": "02",
    "region_code": "32",
    "postal_code": "02360"
  },
  {
    "name": "Ressons-le-Long",
    "code": "02643",
    "epci_code": "200071991",
    "departement_code": "02",
    "region_code": "32",
    "postal_code": "02290"
  },
  {
    "name": "Retheuil",
    "code": "02644",
    "epci_code": "200071991",
    "departement_code": "02",
    "region_code": "32",
    "postal_code": "02600"
  },
  {
    "name": "Reuilly-Sauvigny",
    "code": "02645",
    "epci_code": "200072031",
    "departement_code": "02",
    "region_code": "32",
    "postal_code": "02850"
  },
  {
    "name": "Ribeauville",
    "code": "02647",
    "epci_code": "200071983",
    "departement_code": "02",
    "region_code": "32",
    "postal_code": "02110"
  },
  {
    "name": "Ribemont",
    "code": "02648",
    "epci_code": "200040426",
    "departement_code": "02",
    "region_code": "32",
    "postal_code": "02240"
  },
  {
    "name": "Rocourt-Saint-Martin",
    "code": "02649",
    "epci_code": "200072031",
    "departement_code": "02",
    "region_code": "32",
    "postal_code": "02210"
  },
  {
    "name": "Rocquigny",
    "code": "02650",
    "epci_code": "240200444",
    "departement_code": "02",
    "region_code": "32",
    "postal_code": "02260"
  },
  {
    "name": "Rogécourt",
    "code": "02651",
    "epci_code": "200071785",
    "departement_code": "02",
    "region_code": "32",
    "postal_code": "02800"
  },
  {
    "name": "Rogny",
    "code": "02652",
    "epci_code": "240200444",
    "departement_code": "02",
    "region_code": "32",
    "postal_code": "02140"
  },
  {
    "name": "Romeny-sur-Marne",
    "code": "02653",
    "epci_code": "240200584",
    "departement_code": "02",
    "region_code": "32",
    "postal_code": "02310"
  },
  {
    "name": "Romery",
    "code": "02654",
    "epci_code": "200071983",
    "departement_code": "02",
    "region_code": "32",
    "postal_code": "02120"
  },
  {
    "name": "Ronchères",
    "code": "02655",
    "epci_code": "200072031",
    "departement_code": "02",
    "region_code": "32",
    "postal_code": "02130"
  },
  {
    "name": "Roucy",
    "code": "02656",
    "epci_code": "240200576",
    "departement_code": "02",
    "region_code": "32",
    "postal_code": "02160"
  },
  {
    "name": "Rougeries",
    "code": "02657",
    "epci_code": "240200444",
    "departement_code": "02",
    "region_code": "32",
    "postal_code": "02140"
  },
  {
    "name": "Roupy",
    "code": "02658",
    "epci_code": "240200493",
    "departement_code": "02",
    "region_code": "32",
    "postal_code": "02590"
  },
  {
    "name": "Rouvroy",
    "code": "02659",
    "epci_code": "200071892",
    "departement_code": "02",
    "region_code": "32",
    "postal_code": "02100"
  },
  {
    "name": "Rouvroy-sur-Serre",
    "code": "02660",
    "epci_code": "240200634",
    "departement_code": "02",
    "region_code": "32",
    "postal_code": "02360"
  },
  {
    "name": "Royaucourt-et-Chailvet",
    "code": "02661",
    "epci_code": "200071769",
    "departement_code": "02",
    "region_code": "32",
    "postal_code": "02000"
  },
  {
    "name": "Rozet-Saint-Albin",
    "code": "02662",
    "epci_code": "200072031",
    "departement_code": "02",
    "region_code": "32",
    "postal_code": "02210"
  },
  {
    "name": "Rozières-sur-Crise",
    "code": "02663",
    "epci_code": "240200519",
    "departement_code": "02",
    "region_code": "32",
    "postal_code": "02200"
  },
  {
    "name": "Rozoy-Bellevalle",
    "code": "02664",
    "epci_code": "200072031",
    "departement_code": "02",
    "region_code": "32",
    "postal_code": "02540"
  },
  {
    "name": "Grand-Rozoy",
    "code": "02665",
    "epci_code": "240200519",
    "departement_code": "02",
    "region_code": "32",
    "postal_code": "02210"
  },
  {
    "name": "Rozoy-sur-Serre",
    "code": "02666",
    "epci_code": "240200634",
    "departement_code": "02",
    "region_code": "32",
    "postal_code": "02360"
  },
  {
    "name": "Saconin-et-Breuil",
    "code": "02667",
    "epci_code": "200071991",
    "departement_code": "02",
    "region_code": "32",
    "postal_code": "02200"
  },
  {
    "name": "Sains-Richaumont",
    "code": "02668",
    "epci_code": "240200444",
    "departement_code": "02",
    "region_code": "32",
    "postal_code": "02120"
  },
  {
    "name": "Saint-Algis",
    "code": "02670",
    "epci_code": "240200444",
    "departement_code": "02",
    "region_code": "32",
    "postal_code": "02260"
  },
  {
    "name": "Saint-Aubin",
    "code": "02671",
    "epci_code": "200071769",
    "departement_code": "02",
    "region_code": "32",
    "postal_code": "02300"
  },
  {
    "name": "Saint-Bandry",
    "code": "02672",
    "epci_code": "200071991",
    "departement_code": "02",
    "region_code": "32",
    "postal_code": "02290"
  },
  {
    "name": "Saint-Christophe-à-Berry",
    "code": "02673",
    "epci_code": "200071991",
    "departement_code": "02",
    "region_code": "32",
    "postal_code": "02290"
  },
  {
    "name": "Saint-Clément",
    "code": "02674",
    "epci_code": "240200600",
    "departement_code": "02",
    "region_code": "32",
    "postal_code": "02360"
  },
  {
    "name": "Sainte-Croix",
    "code": "02675",
    "epci_code": "240200592",
    "departement_code": "02",
    "region_code": "32",
    "postal_code": "02820"
  },
  {
    "name": "Saint-Erme-Outre-et-Ramecourt",
    "code": "02676",
    "epci_code": "240200576",
    "departement_code": "02",
    "region_code": "32",
    "postal_code": "02820"
  },
  {
    "name": "Saint-Eugène",
    "code": "02677",
    "epci_code": "200072031",
    "departement_code": "02",
    "region_code": "32",
    "postal_code": "02330"
  },
  {
    "name": "Sainte-Geneviève",
    "code": "02678",
    "epci_code": "240200634",
    "departement_code": "02",
    "region_code": "32",
    "postal_code": "02340"
  },
  {
    "name": "Saint-Gengoulph",
    "code": "02679",
    "epci_code": "200072031",
    "departement_code": "02",
    "region_code": "32",
    "postal_code": "02810"
  },
  {
    "name": "Saint-Gobain",
    "code": "02680",
    "epci_code": "200071785",
    "departement_code": "02",
    "region_code": "32",
    "postal_code": "02410"
  },
  {
    "name": "Saint-Gobert",
    "code": "02681",
    "epci_code": "240200444",
    "departement_code": "02",
    "region_code": "32",
    "postal_code": "02140"
  },
  {
    "name": "Saint-Mard",
    "code": "02682",
    "epci_code": "240200501",
    "departement_code": "02",
    "region_code": "32",
    "postal_code": "02220"
  },
  {
    "name": "Saint-Martin-Rivière",
    "code": "02683",
    "epci_code": "200071983",
    "departement_code": "02",
    "region_code": "32",
    "postal_code": "02110"
  },
  {
    "name": "Saint-Michel",
    "code": "02684",
    "epci_code": "240200600",
    "departement_code": "02",
    "region_code": "32",
    "postal_code": "02830"
  },
  {
    "name": "Saint-Nicolas-aux-Bois",
    "code": "02685",
    "epci_code": "200071785",
    "departement_code": "02",
    "region_code": "32",
    "postal_code": "02410"
  },
  {
    "name": "Saint-Paul-aux-Bois",
    "code": "02686",
    "epci_code": "200071769",
    "departement_code": "02",
    "region_code": "32",
    "postal_code": "02300"
  },
  {
    "name": "Saint-Pierre-Aigle",
    "code": "02687",
    "epci_code": "200071991",
    "departement_code": "02",
    "region_code": "32",
    "postal_code": "02600"
  },
  {
    "name": "Saint-Pierre-lès-Franqueville",
    "code": "02688",
    "epci_code": "240200444",
    "departement_code": "02",
    "region_code": "32",
    "postal_code": "02140"
  },
  {
    "name": "Saint-Pierremont",
    "code": "02689",
    "epci_code": "240200469",
    "departement_code": "02",
    "region_code": "32",
    "postal_code": "02250"
  },
  {
    "name": "Sainte-Preuve",
    "code": "02690",
    "epci_code": "240200576",
    "departement_code": "02",
    "region_code": "32",
    "postal_code": "02350"
  },
  {
    "name": "Saint-Quentin",
    "code": "02691",
    "epci_code": "200071892",
    "departement_code": "02",
    "region_code": "32",
    "postal_code": "02100"
  },
  {
    "name": "Saint-Rémy-Blanzy",
    "code": "02693",
    "epci_code": "240200519",
    "departement_code": "02",
    "region_code": "32",
    "postal_code": "02210"
  },
  {
    "name": "Saint-Simon",
    "code": "02694",
    "epci_code": "200071892",
    "departement_code": "02",
    "region_code": "32",
    "postal_code": "02640"
  },
  {
    "name": "Saint-Thomas",
    "code": "02696",
    "epci_code": "240200592",
    "departement_code": "02",
    "region_code": "32",
    "postal_code": "02820"
  },
  {
    "name": "Samoussy",
    "code": "02697",
    "epci_code": "200043495",
    "departement_code": "02",
    "region_code": "32",
    "postal_code": "02840"
  },
  {
    "name": "Sancy-les-Cheminots",
    "code": "02698",
    "epci_code": "240200501",
    "departement_code": "02",
    "region_code": "32",
    "postal_code": "02880"
  },
  {
    "name": "Saponay",
    "code": "02699",
    "epci_code": "200072031",
    "departement_code": "02",
    "region_code": "32",
    "postal_code": "02130"
  },
  {
    "name": "Saulchery",
    "code": "02701",
    "epci_code": "240200584",
    "departement_code": "02",
    "region_code": "32",
    "postal_code": "02310"
  },
  {
    "name": "Savy",
    "code": "02702",
    "epci_code": "240200493",
    "departement_code": "02",
    "region_code": "32",
    "postal_code": "02590"
  },
  {
    "name": "Seboncourt",
    "code": "02703",
    "epci_code": "240200493",
    "departement_code": "02",
    "region_code": "32",
    "postal_code": "02110"
  },
  {
    "name": "Selens",
    "code": "02704",
    "epci_code": "200071769",
    "departement_code": "02",
    "region_code": "32",
    "postal_code": "02300"
  },
  {
    "name": "La Selve",
    "code": "02705",
    "epci_code": "240200576",
    "departement_code": "02",
    "region_code": "32",
    "postal_code": "02150"
  },
  {
    "name": "Septmonts",
    "code": "02706",
    "epci_code": "240200477",
    "departement_code": "02",
    "region_code": "32",
    "postal_code": "02200"
  },
  {
    "name": "Septvaux",
    "code": "02707",
    "epci_code": "200071769",
    "departement_code": "02",
    "region_code": "32",
    "postal_code": "02410"
  },
  {
    "name": "Sequehart",
    "code": "02708",
    "epci_code": "240200493",
    "departement_code": "02",
    "region_code": "32",
    "postal_code": "02420"
  },
  {
    "name": "Serain",
    "code": "02709",
    "epci_code": "240200493",
    "departement_code": "02",
    "region_code": "32",
    "postal_code": "02110"
  },
  {
    "name": "Seraucourt-le-Grand",
    "code": "02710",
    "epci_code": "200071892",
    "departement_code": "02",
    "region_code": "32",
    "postal_code": "02790"
  },
  {
    "name": "Serches",
    "code": "02711",
    "epci_code": "240200477",
    "departement_code": "02",
    "region_code": "32",
    "postal_code": "02220"
  },
  {
    "name": "Sergy",
    "code": "02712",
    "epci_code": "200072031",
    "departement_code": "02",
    "region_code": "32",
    "postal_code": "02130"
  },
  {
    "name": "Seringes-et-Nesles",
    "code": "02713",
    "epci_code": "200072031",
    "departement_code": "02",
    "region_code": "32",
    "postal_code": "02130"
  },
  {
    "name": "Sermoise",
    "code": "02714",
    "epci_code": "240200477",
    "departement_code": "02",
    "region_code": "32",
    "postal_code": "02220"
  },
  {
    "name": "Serval",
    "code": "02715",
    "epci_code": "240200501",
    "departement_code": "02",
    "region_code": "32",
    "postal_code": "02160"
  },
  {
    "name": "Servais",
    "code": "02716",
    "epci_code": "200071785",
    "departement_code": "02",
    "region_code": "32",
    "postal_code": "02700"
  },
  {
    "name": "Séry-lès-Mézières",
    "code": "02717",
    "epci_code": "200040426",
    "departement_code": "02",
    "region_code": "32",
    "postal_code": "02240"
  },
  {
    "name": "Silly-la-Poterie",
    "code": "02718",
    "epci_code": "200071991",
    "departement_code": "02",
    "region_code": "32",
    "postal_code": "02460"
  },
  {
    "name": "Sinceny",
    "code": "02719",
    "epci_code": "200071785",
    "departement_code": "02",
    "region_code": "32",
    "postal_code": "02300"
  },
  {
    "name": "Sissonne",
    "code": "02720",
    "epci_code": "240200576",
    "departement_code": "02",
    "region_code": "32",
    "postal_code": "02150"
  },
  {
    "name": "Sissy",
    "code": "02721",
    "epci_code": "200040426",
    "departement_code": "02",
    "region_code": "32",
    "postal_code": "02240"
  },
  {
    "name": "Soissons",
    "code": "02722",
    "epci_code": "240200477",
    "departement_code": "02",
    "region_code": "32",
    "postal_code": "02200"
  },
  {
    "name": "Soize",
    "code": "02723",
    "epci_code": "240200634",
    "departement_code": "02",
    "region_code": "32",
    "postal_code": "02340"
  },
  {
    "name": "Sommelans",
    "code": "02724",
    "epci_code": "200072031",
    "departement_code": "02",
    "region_code": "32",
    "postal_code": "02470"
  },
  {
    "name": "Sommeron",
    "code": "02725",
    "epci_code": "240200444",
    "departement_code": "02",
    "region_code": "32",
    "postal_code": "02260"
  },
  {
    "name": "Sommette-Eaucourt",
    "code": "02726",
    "epci_code": "200071892",
    "departement_code": "02",
    "region_code": "32",
    "postal_code": "02480"
  },
  {
    "name": "Sons-et-Ronchères",
    "code": "02727",
    "epci_code": "240200469",
    "departement_code": "02",
    "region_code": "32",
    "postal_code": "02270"
  },
  {
    "name": "Sorbais",
    "code": "02728",
    "epci_code": "240200444",
    "departement_code": "02",
    "region_code": "32",
    "postal_code": "02580"
  },
  {
    "name": "Soucy",
    "code": "02729",
    "epci_code": "200071991",
    "departement_code": "02",
    "region_code": "32",
    "postal_code": "02600"
  },
  {
    "name": "Soupir",
    "code": "02730",
    "epci_code": "240200501",
    "departement_code": "02",
    "region_code": "32",
    "postal_code": "02160"
  },
  {
    "name": "Le Sourd",
    "code": "02731",
    "epci_code": "240200444",
    "departement_code": "02",
    "region_code": "32",
    "postal_code": "02140"
  },
  {
    "name": "Surfontaine",
    "code": "02732",
    "epci_code": "200040426",
    "departement_code": "02",
    "region_code": "32",
    "postal_code": "02240"
  },
  {
    "name": "Taillefontaine",
    "code": "02734",
    "epci_code": "200071991",
    "departement_code": "02",
    "region_code": "32",
    "postal_code": "02600"
  },
  {
    "name": "Tannières",
    "code": "02735",
    "epci_code": "240200501",
    "departement_code": "02",
    "region_code": "32",
    "postal_code": "02220"
  },
  {
    "name": "Tartiers",
    "code": "02736",
    "epci_code": "200071991",
    "departement_code": "02",
    "region_code": "32",
    "postal_code": "02290"
  },
  {
    "name": "Tavaux-et-Pontséricourt",
    "code": "02737",
    "epci_code": "240200469",
    "departement_code": "02",
    "region_code": "32",
    "postal_code": "02250"
  },
  {
    "name": "Tergnier",
    "code": "02738",
    "epci_code": "200071785",
    "departement_code": "02",
    "region_code": "32",
    "postal_code": "02700"
  },
  {
    "name": "Terny-Sorny",
    "code": "02739",
    "epci_code": "240200501",
    "departement_code": "02",
    "region_code": "32",
    "postal_code": "02880"
  },
  {
    "name": "Thenailles",
    "code": "02740",
    "epci_code": "240200444",
    "departement_code": "02",
    "region_code": "32",
    "postal_code": "02140"
  },
  {
    "name": "Thenelles",
    "code": "02741",
    "epci_code": "200040426",
    "departement_code": "02",
    "region_code": "32",
    "postal_code": "02390"
  },
  {
    "name": "Thiernu",
    "code": "02742",
    "epci_code": "240200469",
    "departement_code": "02",
    "region_code": "32",
    "postal_code": "02250"
  },
  {
    "name": "Le Thuel",
    "code": "02743",
    "epci_code": "240200634",
    "departement_code": "02",
    "region_code": "32",
    "postal_code": "02340"
  },
  {
    "name": "Torcy-en-Valois",
    "code": "02744",
    "epci_code": "200072031",
    "departement_code": "02",
    "region_code": "32",
    "postal_code": "02810"
  },
  {
    "name": "Toulis-et-Attencourt",
    "code": "02745",
    "epci_code": "240200469",
    "departement_code": "02",
    "region_code": "32",
    "postal_code": "02250"
  },
  {
    "name": "Travecy",
    "code": "02746",
    "epci_code": "200071785",
    "departement_code": "02",
    "region_code": "32",
    "postal_code": "02800"
  },
  {
    "name": "Trefcon",
    "code": "02747",
    "epci_code": "240200493",
    "departement_code": "02",
    "region_code": "32",
    "postal_code": "02490"
  },
  {
    "name": "Trélou-sur-Marne",
    "code": "02748",
    "epci_code": "200072031",
    "departement_code": "02",
    "region_code": "32",
    "postal_code": "02850"
  },
  {
    "name": "Troësnes",
    "code": "02749",
    "epci_code": "200071991",
    "departement_code": "02",
    "region_code": "32",
    "postal_code": "02460"
  },
  {
    "name": "Trosly-Loire",
    "code": "02750",
    "epci_code": "200071769",
    "departement_code": "02",
    "region_code": "32",
    "postal_code": "02300"
  },
  {
    "name": "Trucy",
    "code": "02751",
    "epci_code": "240200592",
    "departement_code": "02",
    "region_code": "32",
    "postal_code": "02860"
  },
  {
    "name": "Tugny-et-Pont",
    "code": "02752",
    "epci_code": "200071892",
    "departement_code": "02",
    "region_code": "32",
    "postal_code": "02640"
  },
  {
    "name": "Tupigny",
    "code": "02753",
    "epci_code": "200071983",
    "departement_code": "02",
    "region_code": "32",
    "postal_code": "02120"
  },
  {
    "name": "Ugny-le-Gay",
    "code": "02754",
    "epci_code": "200071785",
    "departement_code": "02",
    "region_code": "32",
    "postal_code": "02300"
  },
  {
    "name": "Urcel",
    "code": "02755",
    "epci_code": "200071769",
    "departement_code": "02",
    "region_code": "32",
    "postal_code": "02000"
  },
  {
    "name": "Urvillers",
    "code": "02756",
    "epci_code": "200040426",
    "departement_code": "02",
    "region_code": "32",
    "postal_code": "02690"
  },
  {
    "name": "Vadencourt",
    "code": "02757",
    "epci_code": "200071983",
    "departement_code": "02",
    "region_code": "32",
    "postal_code": "02120"
  },
  {
    "name": "Vailly-sur-Aisne",
    "code": "02758",
    "epci_code": "240200501",
    "departement_code": "02",
    "region_code": "32",
    "postal_code": "02370"
  },
  {
    "name": "La Vallée-au-Blé",
    "code": "02759",
    "epci_code": "240200444",
    "departement_code": "02",
    "region_code": "32",
    "postal_code": "02140"
  },
  {
    "name": "La Vallée-Mulâtre",
    "code": "02760",
    "epci_code": "200071983",
    "departement_code": "02",
    "region_code": "32",
    "postal_code": "02110"
  },
  {
    "name": "Variscourt",
    "code": "02761",
    "epci_code": "240200576",
    "departement_code": "02",
    "region_code": "32",
    "postal_code": "02190"
  },
  {
    "name": "Vassens",
    "code": "02762",
    "epci_code": "200071991",
    "departement_code": "02",
    "region_code": "32",
    "postal_code": "02290"
  },
  {
    "name": "Vasseny",
    "code": "02763",
    "epci_code": "240200501",
    "departement_code": "02",
    "region_code": "32",
    "postal_code": "02220"
  },
  {
    "name": "Vassogne",
    "code": "02764",
    "epci_code": "240200592",
    "departement_code": "02",
    "region_code": "32",
    "postal_code": "02160"
  },
  {
    "name": "Vaucelles-et-Beffecourt",
    "code": "02765",
    "epci_code": "200043495",
    "departement_code": "02",
    "region_code": "32",
    "postal_code": "02000"
  },
  {
    "name": "Vaudesson",
    "code": "02766",
    "epci_code": "240200501",
    "departement_code": "02",
    "region_code": "32",
    "postal_code": "02320"
  },
  {
    "name": "Vauxrezis",
    "code": "02767",
    "epci_code": "240200477",
    "departement_code": "02",
    "region_code": "32",
    "postal_code": "02200"
  },
  {
    "name": "Vauxaillon",
    "code": "02768",
    "epci_code": "200071769",
    "departement_code": "02",
    "region_code": "32",
    "postal_code": "02320"
  },
  {
    "name": "Vaux-Andigny",
    "code": "02769",
    "epci_code": "200071983",
    "departement_code": "02",
    "region_code": "32",
    "postal_code": "02110"
  },
  {
    "name": "Vauxbuin",
    "code": "02770",
    "epci_code": "240200477",
    "departement_code": "02",
    "region_code": "32",
    "postal_code": "02200"
  },
  {
    "name": "Vaux-en-Vermandois",
    "code": "02772",
    "epci_code": "240200493",
    "departement_code": "02",
    "region_code": "32",
    "postal_code": "02590"
  },
  {
    "name": "Vauxtin",
    "code": "02773",
    "epci_code": "240200501",
    "departement_code": "02",
    "region_code": "32",
    "postal_code": "02220"
  },
  {
    "name": "Vendelles",
    "code": "02774",
    "epci_code": "240200493",
    "departement_code": "02",
    "region_code": "32",
    "postal_code": "02490"
  },
  {
    "name": "Vendeuil",
    "code": "02775",
    "epci_code": "200040426",
    "departement_code": "02",
    "region_code": "32",
    "postal_code": "02800"
  },
  {
    "name": "Vendhuile",
    "code": "02776",
    "epci_code": "240200493",
    "departement_code": "02",
    "region_code": "32",
    "postal_code": "02420"
  },
  {
    "name": "Vendières",
    "code": "02777",
    "epci_code": "240200584",
    "departement_code": "02",
    "region_code": "32",
    "postal_code": "02540"
  },
  {
    "name": "Vendresse-Beaulne",
    "code": "02778",
    "epci_code": "240200592",
    "departement_code": "02",
    "region_code": "32",
    "postal_code": "02160"
  },
  {
    "name": "Vénérolles",
    "code": "02779",
    "epci_code": "200071983",
    "departement_code": "02",
    "region_code": "32",
    "postal_code": "02510"
  },
  {
    "name": "Venizel",
    "code": "02780",
    "epci_code": "240200477",
    "departement_code": "02",
    "region_code": "32",
    "postal_code": "02200"
  },
  {
    "name": "Verdilly",
    "code": "02781",
    "epci_code": "200072031",
    "departement_code": "02",
    "region_code": "32",
    "postal_code": "02400"
  },
  {
    "name": "Le Verguier",
    "code": "02782",
    "epci_code": "240200493",
    "departement_code": "02",
    "region_code": "32",
    "postal_code": "02490"
  },
  {
    "name": "Grand-Verly",
    "code": "02783",
    "epci_code": "200071983",
    "departement_code": "02",
    "region_code": "32",
    "postal_code": "02120"
  },
  {
    "name": "Petit-Verly",
    "code": "02784",
    "epci_code": "200071983",
    "departement_code": "02",
    "region_code": "32",
    "postal_code": "02630"
  },
  {
    "name": "Vermand",
    "code": "02785",
    "epci_code": "240200493",
    "departement_code": "02",
    "region_code": "32",
    "postal_code": "02490"
  },
  {
    "name": "Verneuil-sous-Coucy",
    "code": "02786",
    "epci_code": "200071769",
    "departement_code": "02",
    "region_code": "32",
    "postal_code": "02380"
  },
  {
    "name": "Verneuil-sur-Serre",
    "code": "02787",
    "epci_code": "240200469",
    "departement_code": "02",
    "region_code": "32",
    "postal_code": "02000"
  },
  {
    "name": "Versigny",
    "code": "02788",
    "epci_code": "200071785",
    "departement_code": "02",
    "region_code": "32",
    "postal_code": "02800"
  },
  {
    "name": "Vervins",
    "code": "02789",
    "epci_code": "240200444",
    "departement_code": "02",
    "region_code": "32",
    "postal_code": "02140"
  },
  {
    "name": "Vesles-et-Caumont",
    "code": "02790",
    "epci_code": "240200469",
    "departement_code": "02",
    "region_code": "32",
    "postal_code": "02350"
  },
  {
    "name": "Veslud",
    "code": "02791",
    "epci_code": "200043495",
    "departement_code": "02",
    "region_code": "32",
    "postal_code": "02840"
  },
  {
    "name": "Veuilly-la-Poterie",
    "code": "02792",
    "epci_code": "240200584",
    "departement_code": "02",
    "region_code": "32",
    "postal_code": "02810"
  },
  {
    "name": "Vézaponin",
    "code": "02793",
    "epci_code": "200071991",
    "departement_code": "02",
    "region_code": "32",
    "postal_code": "02290"
  },
  {
    "name": "Vézilly",
    "code": "02794",
    "epci_code": "200072031",
    "departement_code": "02",
    "region_code": "32",
    "postal_code": "02130"
  },
  {
    "name": "Vic-sur-Aisne",
    "code": "02795",
    "epci_code": "200071991",
    "departement_code": "02",
    "region_code": "32",
    "postal_code": "02290"
  },
  {
    "name": "Vichel-Nanteuil",
    "code": "02796",
    "epci_code": "200072031",
    "departement_code": "02",
    "region_code": "32",
    "postal_code": "02210"
  },
  {
    "name": "Viel-Arcy",
    "code": "02797",
    "epci_code": "240200501",
    "departement_code": "02",
    "region_code": "32",
    "postal_code": "02160"
  },
  {
    "name": "Viels-Maisons",
    "code": "02798",
    "epci_code": "240200584",
    "departement_code": "02",
    "region_code": "32",
    "postal_code": "02540"
  },
  {
    "name": "Vierzy",
    "code": "02799",
    "epci_code": "240200519",
    "departement_code": "02",
    "region_code": "32",
    "postal_code": "02210"
  },
  {
    "name": "Viffort",
    "code": "02800",
    "epci_code": "200072031",
    "departement_code": "02",
    "region_code": "32",
    "postal_code": "02540"
  },
  {
    "name": "Vigneux-Hocquet",
    "code": "02801",
    "epci_code": "240200634",
    "departement_code": "02",
    "region_code": "32",
    "postal_code": "02340"
  },
  {
    "name": "La Ville-aux-Bois-lès-Dizy",
    "code": "02802",
    "epci_code": "240200634",
    "departement_code": "02",
    "region_code": "32",
    "postal_code": "02340"
  },
  {
    "name": "La Ville-aux-Bois-lès-Pontavert",
    "code": "02803",
    "epci_code": "240200576",
    "departement_code": "02",
    "region_code": "32",
    "postal_code": "02160"
  },
  {
    "name": "Villemontoire",
    "code": "02804",
    "epci_code": "240200519",
    "departement_code": "02",
    "region_code": "32",
    "postal_code": "02210"
  },
  {
    "name": "Villeneuve-Saint-Germain",
    "code": "02805",
    "epci_code": "240200477",
    "departement_code": "02",
    "region_code": "32",
    "postal_code": "02200"
  },
  {
    "name": "Villeneuve-sur-Fère",
    "code": "02806",
    "epci_code": "200072031",
    "departement_code": "02",
    "region_code": "32",
    "postal_code": "02130"
  },
  {
    "name": "Villequier-Aumont",
    "code": "02807",
    "epci_code": "200071785",
    "departement_code": "02",
    "region_code": "32",
    "postal_code": "02300"
  },
  {
    "name": "Villeret",
    "code": "02808",
    "epci_code": "240200493",
    "departement_code": "02",
    "region_code": "32",
    "postal_code": "02420"
  },
  {
    "name": "Villers-Agron-Aiguizy",
    "code": "02809",
    "epci_code": "200072031",
    "departement_code": "02",
    "region_code": "32",
    "postal_code": "02130"
  },
  {
    "name": "Villers-Cotterêts",
    "code": "02810",
    "epci_code": "200071991",
    "departement_code": "02",
    "region_code": "32",
    "postal_code": "02600"
  },
  {
    "name": "Villers-Hélon",
    "code": "02812",
    "epci_code": "200071991",
    "departement_code": "02",
    "region_code": "32",
    "postal_code": "02600"
  },
  {
    "name": "Villers-le-Sec",
    "code": "02813",
    "epci_code": "200040426",
    "departement_code": "02",
    "region_code": "32",
    "postal_code": "02240"
  },
  {
    "name": "Villers-lès-Guise",
    "code": "02814",
    "epci_code": "200071983",
    "departement_code": "02",
    "region_code": "32",
    "postal_code": "02120"
  },
  {
    "name": "Villers-Saint-Christophe",
    "code": "02815",
    "epci_code": "200071892",
    "departement_code": "02",
    "region_code": "32",
    "postal_code": "02590"
  },
  {
    "name": "Villers-sur-Fère",
    "code": "02816",
    "epci_code": "200072031",
    "departement_code": "02",
    "region_code": "32",
    "postal_code": "02130"
  },
  {
    "name": "Ville-Savoye",
    "code": "02817",
    "epci_code": "240200501",
    "departement_code": "02",
    "region_code": "32",
    "postal_code": "02220"
  },
  {
    "name": "Villiers-Saint-Denis",
    "code": "02818",
    "epci_code": "240200584",
    "departement_code": "02",
    "region_code": "32",
    "postal_code": "02310"
  },
  {
    "name": "Vincy-Reuil-et-Magny",
    "code": "02819",
    "epci_code": "240200634",
    "departement_code": "02",
    "region_code": "32",
    "postal_code": "02340"
  },
  {
    "name": "Viry-Noureuil",
    "code": "02820",
    "epci_code": "200071785",
    "departement_code": "02",
    "region_code": "32",
    "postal_code": "02300"
  },
  {
    "name": "Vivaise",
    "code": "02821",
    "epci_code": "200043495",
    "departement_code": "02",
    "region_code": "32",
    "postal_code": "02870"
  },
  {
    "name": "Vivières",
    "code": "02822",
    "epci_code": "200071991",
    "departement_code": "02",
    "region_code": "32",
    "postal_code": "02600"
  },
  {
    "name": "Voharies",
    "code": "02823",
    "epci_code": "240200444",
    "departement_code": "02",
    "region_code": "32",
    "postal_code": "02140"
  },
  {
    "name": "Vorges",
    "code": "02824",
    "epci_code": "200043495",
    "departement_code": "02",
    "region_code": "32",
    "postal_code": "02860"
  },
  {
    "name": "Voulpaix",
    "code": "02826",
    "epci_code": "240200444",
    "departement_code": "02",
    "region_code": "32",
    "postal_code": "02140"
  },
  {
    "name": "Voyenne",
    "code": "02827",
    "epci_code": "240200469",
    "departement_code": "02",
    "region_code": "32",
    "postal_code": "02250"
  },
  {
    "name": "Vregny",
    "code": "02828",
    "epci_code": "240200477",
    "departement_code": "02",
    "region_code": "32",
    "postal_code": "02880"
  },
  {
    "name": "Vuillery",
    "code": "02829",
    "epci_code": "240200501",
    "departement_code": "02",
    "region_code": "32",
    "postal_code": "02880"
  },
  {
    "name": "Wassigny",
    "code": "02830",
    "epci_code": "200071983",
    "departement_code": "02",
    "region_code": "32",
    "postal_code": "02630"
  },
  {
    "name": "Watigny",
    "code": "02831",
    "epci_code": "240200600",
    "departement_code": "02",
    "region_code": "32",
    "postal_code": "02830"
  },
  {
    "name": "Wiège-Faty",
    "code": "02832",
    "epci_code": "240200444",
    "departement_code": "02",
    "region_code": "32",
    "postal_code": "02120"
  },
  {
    "name": "Wimy",
    "code": "02833",
    "epci_code": "240200600",
    "departement_code": "02",
    "region_code": "32",
    "postal_code": "02500"
  },
  {
    "name": "Wissignicourt",
    "code": "02834",
    "epci_code": "200071769",
    "departement_code": "02",
    "region_code": "32",
    "postal_code": "02320"
  }
]