[
  {
    "name": "Althen-des-Paluds",
    "code": "84001",
    "epci_code": "248400293",
    "departement_code": "84",
    "region_code": "93",
    "postal_code": "84210"
  },
  {
    "name": "Ansouis",
    "code": "84002",
    "epci_code": "248400285",
    "departement_code": "84",
    "region_code": "93",
    "postal_code": "84240"
  },
  {
    "name": "Apt",
    "code": "84003",
    "epci_code": "200040624",
    "departement_code": "84",
    "region_code": "93",
    "postal_code": "84400"
  },
  {
    "name": "Aubignan",
    "code": "84004",
    "epci_code": "248400053",
    "departement_code": "84",
    "region_code": "93",
    "postal_code": "84810"
  },
  {
    "name": "Aurel",
    "code": "84005",
    "epci_code": "200035723",
    "departement_code": "84",
    "region_code": "93",
    "postal_code": "84390"
  },
  {
    "name": "Auribeau",
    "code": "84006",
    "epci_code": "200040624",
    "departement_code": "84",
    "region_code": "93",
    "postal_code": "84400"
  },
  {
    "name": "Avignon",
    "code": "84007",
    "epci_code": "248400251",
    "departement_code": "84",
    "region_code": "93",
    "postal_code": "84000"
  },
  {
    "name": "Avignon",
    "code": "84007",
    "epci_code": "248400251",
    "departement_code": "84",
    "region_code": "93",
    "postal_code": "84140"
  },
  {
    "name": "Le Barroux",
    "code": "84008",
    "epci_code": "248400053",
    "departement_code": "84",
    "region_code": "93",
    "postal_code": "84330"
  },
  {
    "name": "La Bastide-des-Jourdans",
    "code": "84009",
    "epci_code": "248400285",
    "departement_code": "84",
    "region_code": "93",
    "postal_code": "84240"
  },
  {
    "name": "La Bastidonne",
    "code": "84010",
    "epci_code": "248400285",
    "departement_code": "84",
    "region_code": "93",
    "postal_code": "84120"
  },
  {
    "name": "Le Beaucet",
    "code": "84011",
    "epci_code": "248400053",
    "departement_code": "84",
    "region_code": "93",
    "postal_code": "84210"
  },
  {
    "name": "Beaumes-de-Venise",
    "code": "84012",
    "epci_code": "248400053",
    "departement_code": "84",
    "region_code": "93",
    "postal_code": "84190"
  },
  {
    "name": "Beaumettes",
    "code": "84013",
    "epci_code": "200040442",
    "departement_code": "84",
    "region_code": "93",
    "postal_code": "84220"
  },
  {
    "name": "Beaumont-de-Pertuis",
    "code": "84014",
    "epci_code": "248400285",
    "departement_code": "84",
    "region_code": "93",
    "postal_code": "84120"
  },
  {
    "name": "Beaumont-du-Ventoux",
    "code": "84015",
    "epci_code": "248400053",
    "departement_code": "84",
    "region_code": "93",
    "postal_code": "84340"
  },
  {
    "name": "Bédarrides",
    "code": "84016",
    "epci_code": "248400293",
    "departement_code": "84",
    "region_code": "93",
    "postal_code": "84370"
  },
  {
    "name": "Bédoin",
    "code": "84017",
    "epci_code": "248400053",
    "departement_code": "84",
    "region_code": "93",
    "postal_code": "84410"
  },
  {
    "name": "Blauvac",
    "code": "84018",
    "epci_code": "200035723",
    "departement_code": "84",
    "region_code": "93",
    "postal_code": "84570"
  },
  {
    "name": "Bollène",
    "code": "84019",
    "epci_code": "200000628",
    "departement_code": "84",
    "region_code": "93",
    "postal_code": "84500"
  },
  {
    "name": "Bonnieux",
    "code": "84020",
    "epci_code": "200040624",
    "departement_code": "84",
    "region_code": "93",
    "postal_code": "84480"
  },
  {
    "name": "Brantes",
    "code": "84021",
    "epci_code": "248400335",
    "departement_code": "84",
    "region_code": "93",
    "postal_code": "84390"
  },
  {
    "name": "Buisson",
    "code": "84022",
    "epci_code": "248400335",
    "departement_code": "84",
    "region_code": "93",
    "postal_code": "84110"
  },
  {
    "name": "Buoux",
    "code": "84023",
    "epci_code": "200040624",
    "departement_code": "84",
    "region_code": "93",
    "postal_code": "84480"
  },
  {
    "name": "Cabrières-d’Aigues",
    "code": "84024",
    "epci_code": "248400285",
    "departement_code": "84",
    "region_code": "93",
    "postal_code": "84240"
  },
  {
    "name": "Cabrières-d’Avignon",
    "code": "84025",
    "epci_code": "200040442",
    "departement_code": "84",
    "region_code": "93",
    "postal_code": "84220"
  },
  {
    "name": "Cadenet",
    "code": "84026",
    "epci_code": "248400285",
    "departement_code": "84",
    "region_code": "93",
    "postal_code": "84160"
  },
  {
    "name": "Caderousse",
    "code": "84027",
    "epci_code": "248400236",
    "departement_code": "84",
    "region_code": "93",
    "postal_code": "84860"
  },
  {
    "name": "Cairanne",
    "code": "84028",
    "epci_code": "248400335",
    "departement_code": "84",
    "region_code": "93",
    "postal_code": "84290"
  },
  {
    "name": "Camaret-sur-Aigues",
    "code": "84029",
    "epci_code": "248400160",
    "departement_code": "84",
    "region_code": "93",
    "postal_code": "84850"
  },
  {
    "name": "Caromb",
    "code": "84030",
    "epci_code": "248400053",
    "departement_code": "84",
    "region_code": "93",
    "postal_code": "84330"
  },
  {
    "name": "Carpentras",
    "code": "84031",
    "epci_code": "248400053",
    "departement_code": "84",
    "region_code": "93",
    "postal_code": "84200"
  },
  {
    "name": "Caseneuve",
    "code": "84032",
    "epci_code": "200040624",
    "departement_code": "84",
    "region_code": "93",
    "postal_code": "84750"
  },
  {
    "name": "Castellet-en-Luberon",
    "code": "84033",
    "epci_code": "200040624",
    "departement_code": "84",
    "region_code": "93",
    "postal_code": "84400"
  },
  {
    "name": "Caumont-sur-Durance",
    "code": "84034",
    "epci_code": "248400251",
    "departement_code": "84",
    "region_code": "93",
    "postal_code": "84510"
  },
  {
    "name": "Cavaillon",
    "code": "84035",
    "epci_code": "200040442",
    "departement_code": "84",
    "region_code": "93",
    "postal_code": "84300"
  },
  {
    "name": "Châteauneuf-de-Gadagne",
    "code": "84036",
    "epci_code": "248400319",
    "departement_code": "84",
    "region_code": "93",
    "postal_code": "84470"
  },
  {
    "name": "Châteauneuf-du-Pape",
    "code": "84037",
    "epci_code": "248400236",
    "departement_code": "84",
    "region_code": "93",
    "postal_code": "84230"
  },
  {
    "name": "Cheval-Blanc",
    "code": "84038",
    "epci_code": "200040442",
    "departement_code": "84",
    "region_code": "93",
    "postal_code": "84460"
  },
  {
    "name": "Courthézon",
    "code": "84039",
    "epci_code": "248400236",
    "departement_code": "84",
    "region_code": "93",
    "postal_code": "84350"
  },
  {
    "name": "Crestet",
    "code": "84040",
    "epci_code": "248400335",
    "departement_code": "84",
    "region_code": "93",
    "postal_code": "84110"
  },
  {
    "name": "Crillon-le-Brave",
    "code": "84041",
    "epci_code": "248400053",
    "departement_code": "84",
    "region_code": "93",
    "postal_code": "84410"
  },
  {
    "name": "Cucuron",
    "code": "84042",
    "epci_code": "248400285",
    "departement_code": "84",
    "region_code": "93",
    "postal_code": "84160"
  },
  {
    "name": "Entraigues-sur-la-Sorgue",
    "code": "84043",
    "epci_code": "248400251",
    "departement_code": "84",
    "region_code": "93",
    "postal_code": "84320"
  },
  {
    "name": "Entrechaux",
    "code": "84044",
    "epci_code": "248400335",
    "departement_code": "84",
    "region_code": "93",
    "postal_code": "84340"
  },
  {
    "name": "Faucon",
    "code": "84045",
    "epci_code": "248400335",
    "departement_code": "84",
    "region_code": "93",
    "postal_code": "84110"
  },
  {
    "name": "Flassan",
    "code": "84046",
    "epci_code": "248400053",
    "departement_code": "84",
    "region_code": "93",
    "postal_code": "84410"
  },
  {
    "name": "Gargas",
    "code": "84047",
    "epci_code": "200040624",
    "departement_code": "84",
    "region_code": "93",
    "postal_code": "84400"
  },
  {
    "name": "Gignac",
    "code": "84048",
    "epci_code": "200040624",
    "departement_code": "84",
    "region_code": "93",
    "postal_code": "84400"
  },
  {
    "name": "Gigondas",
    "code": "84049",
    "epci_code": "248400053",
    "departement_code": "84",
    "region_code": "93",
    "postal_code": "84190"
  },
  {
    "name": "Gordes",
    "code": "84050",
    "epci_code": "200040442",
    "departement_code": "84",
    "region_code": "93",
    "postal_code": "84220"
  },
  {
    "name": "Goult",
    "code": "84051",
    "epci_code": "200040624",
    "departement_code": "84",
    "region_code": "93",
    "postal_code": "84220"
  },
  {
    "name": "Grambois",
    "code": "84052",
    "epci_code": "248400285",
    "departement_code": "84",
    "region_code": "93",
    "postal_code": "84240"
  },
  {
    "name": "Grillon",
    "code": "84053",
    "epci_code": "200040681",
    "departement_code": "84",
    "region_code": "93",
    "postal_code": "84600"
  },
  {
    "name": "L’Isle-sur-la-Sorgue",
    "code": "84054",
    "epci_code": "248400319",
    "departement_code": "84",
    "region_code": "93",
    "postal_code": "84800"
  },
  {
    "name": "Jonquerettes",
    "code": "84055",
    "epci_code": "248400251",
    "departement_code": "84",
    "region_code": "93",
    "postal_code": "84450"
  },
  {
    "name": "Jonquières",
    "code": "84056",
    "epci_code": "248400236",
    "departement_code": "84",
    "region_code": "93",
    "postal_code": "84150"
  },
  {
    "name": "Joucas",
    "code": "84057",
    "epci_code": "200040624",
    "departement_code": "84",
    "region_code": "93",
    "postal_code": "84220"
  },
  {
    "name": "Lacoste",
    "code": "84058",
    "epci_code": "200040624",
    "departement_code": "84",
    "region_code": "93",
    "postal_code": "84480"
  },
  {
    "name": "Lafare",
    "code": "84059",
    "epci_code": "248400053",
    "departement_code": "84",
    "region_code": "93",
    "postal_code": "84190"
  },
  {
    "name": "Lagarde-d’Apt",
    "code": "84060",
    "epci_code": "200040624",
    "departement_code": "84",
    "region_code": "93",
    "postal_code": "84400"
  },
  {
    "name": "Lagarde-Paréol",
    "code": "84061",
    "epci_code": "248400160",
    "departement_code": "84",
    "region_code": "93",
    "postal_code": "84290"
  },
  {
    "name": "Lagnes",
    "code": "84062",
    "epci_code": "200040442",
    "departement_code": "84",
    "region_code": "93",
    "postal_code": "84800"
  },
  {
    "name": "Lamotte-du-Rhône",
    "code": "84063",
    "epci_code": "200000628",
    "departement_code": "84",
    "region_code": "93",
    "postal_code": "84840"
  },
  {
    "name": "Lapalud",
    "code": "84064",
    "epci_code": "200000628",
    "departement_code": "84",
    "region_code": "93",
    "postal_code": "84840"
  },
  {
    "name": "Lauris",
    "code": "84065",
    "epci_code": "200040442",
    "departement_code": "84",
    "region_code": "93",
    "postal_code": "84360"
  },
  {
    "name": "Lioux",
    "code": "84066",
    "epci_code": "200040624",
    "departement_code": "84",
    "region_code": "93",
    "postal_code": "84220"
  },
  {
    "name": "Loriol-du-Comtat",
    "code": "84067",
    "epci_code": "248400053",
    "departement_code": "84",
    "region_code": "93",
    "postal_code": "84870"
  },
  {
    "name": "Lourmarin",
    "code": "84068",
    "epci_code": "200040442",
    "departement_code": "84",
    "region_code": "93",
    "postal_code": "84160"
  },
  {
    "name": "Malaucène",
    "code": "84069",
    "epci_code": "248400053",
    "departement_code": "84",
    "region_code": "93",
    "postal_code": "84340"
  },
  {
    "name": "Malemort-du-Comtat",
    "code": "84070",
    "epci_code": "200035723",
    "departement_code": "84",
    "region_code": "93",
    "postal_code": "84570"
  },
  {
    "name": "Maubec",
    "code": "84071",
    "epci_code": "200040442",
    "departement_code": "84",
    "region_code": "93",
    "postal_code": "84660"
  },
  {
    "name": "Mazan",
    "code": "84072",
    "epci_code": "248400053",
    "departement_code": "84",
    "region_code": "93",
    "postal_code": "84380"
  },
  {
    "name": "Ménerbes",
    "code": "84073",
    "epci_code": "200040624",
    "departement_code": "84",
    "region_code": "93",
    "postal_code": "84560"
  },
  {
    "name": "Mérindol",
    "code": "84074",
    "epci_code": "200040442",
    "departement_code": "84",
    "region_code": "93",
    "postal_code": "84360"
  },
  {
    "name": "Méthamis",
    "code": "84075",
    "epci_code": "200035723",
    "departement_code": "84",
    "region_code": "93",
    "postal_code": "84570"
  },
  {
    "name": "Mirabeau",
    "code": "84076",
    "epci_code": "248400285",
    "departement_code": "84",
    "region_code": "93",
    "postal_code": "84120"
  },
  {
    "name": "Modène",
    "code": "84077",
    "epci_code": "248400053",
    "departement_code": "84",
    "region_code": "93",
    "postal_code": "84330"
  },
  {
    "name": "Mondragon",
    "code": "84078",
    "epci_code": "200000628",
    "departement_code": "84",
    "region_code": "93",
    "postal_code": "84430"
  },
  {
    "name": "Monieux",
    "code": "84079",
    "epci_code": "200035723",
    "departement_code": "84",
    "region_code": "93",
    "postal_code": "84390"
  },
  {
    "name": "Monteux",
    "code": "84080",
    "epci_code": "248400293",
    "departement_code": "84",
    "region_code": "93",
    "postal_code": "84170"
  },
  {
    "name": "Morières-lès-Avignon",
    "code": "84081",
    "epci_code": "248400251",
    "departement_code": "84",
    "region_code": "93",
    "postal_code": "84310"
  },
  {
    "name": "Mormoiron",
    "code": "84082",
    "epci_code": "200035723",
    "departement_code": "84",
    "region_code": "93",
    "postal_code": "84570"
  },
  {
    "name": "Mornas",
    "code": "84083",
    "epci_code": "200000628",
    "departement_code": "84",
    "region_code": "93",
    "postal_code": "84550"
  },
  {
    "name": "La Motte-d’Aigues",
    "code": "84084",
    "epci_code": "248400285",
    "departement_code": "84",
    "region_code": "93",
    "postal_code": "84240"
  },
  {
    "name": "Murs",
    "code": "84085",
    "epci_code": "200040624",
    "departement_code": "84",
    "region_code": "93",
    "postal_code": "84220"
  },
  {
    "name": "Oppède",
    "code": "84086",
    "epci_code": "200040442",
    "departement_code": "84",
    "region_code": "93",
    "postal_code": "84580"
  },
  {
    "name": "Orange",
    "code": "84087",
    "epci_code": "248400236",
    "departement_code": "84",
    "region_code": "93",
    "postal_code": "84100"
  },
  {
    "name": "Pernes-les-Fontaines",
    "code": "84088",
    "epci_code": "248400293",
    "departement_code": "84",
    "region_code": "93",
    "postal_code": "84210"
  },
  {
    "name": "Pertuis",
    "code": "84089",
    "epci_code": "200054807",
    "departement_code": "84",
    "region_code": "93",
    "postal_code": "84120"
  },
  {
    "name": "Peypin-d’Aigues",
    "code": "84090",
    "epci_code": "248400285",
    "departement_code": "84",
    "region_code": "93",
    "postal_code": "84240"
  },
  {
    "name": "Piolenc",
    "code": "84091",
    "epci_code": "248400160",
    "departement_code": "84",
    "region_code": "93",
    "postal_code": "84420"
  },
  {
    "name": "Le Pontet",
    "code": "84092",
    "epci_code": "248400251",
    "departement_code": "84",
    "region_code": "93",
    "postal_code": "84130"
  },
  {
    "name": "Puget",
    "code": "84093",
    "epci_code": "200040442",
    "departement_code": "84",
    "region_code": "93",
    "postal_code": "84360"
  },
  {
    "name": "Puyméras",
    "code": "84094",
    "epci_code": "248400335",
    "departement_code": "84",
    "region_code": "93",
    "postal_code": "84110"
  },
  {
    "name": "Puyvert",
    "code": "84095",
    "epci_code": "200040442",
    "departement_code": "84",
    "region_code": "93",
    "postal_code": "84160"
  },
  {
    "name": "Rasteau",
    "code": "84096",
    "epci_code": "248400335",
    "departement_code": "84",
    "region_code": "93",
    "postal_code": "84110"
  },
  {
    "name": "Richerenches",
    "code": "84097",
    "epci_code": "200040681",
    "departement_code": "84",
    "region_code": "93",
    "postal_code": "84600"
  },
  {
    "name": "Roaix",
    "code": "84098",
    "epci_code": "248400335",
    "departement_code": "84",
    "region_code": "93",
    "postal_code": "84110"
  },
  {
    "name": "Robion",
    "code": "84099",
    "epci_code": "200040442",
    "departement_code": "84",
    "region_code": "93",
    "postal_code": "84440"
  },
  {
    "name": "La Roque-Alric",
    "code": "84100",
    "epci_code": "248400053",
    "departement_code": "84",
    "region_code": "93",
    "postal_code": "84190"
  },
  {
    "name": "La Roque-sur-Pernes",
    "code": "84101",
    "epci_code": "248400053",
    "departement_code": "84",
    "region_code": "93",
    "postal_code": "84210"
  },
  {
    "name": "Roussillon",
    "code": "84102",
    "epci_code": "200040624",
    "departement_code": "84",
    "region_code": "93",
    "postal_code": "84220"
  },
  {
    "name": "Rustrel",
    "code": "84103",
    "epci_code": "200040624",
    "departement_code": "84",
    "region_code": "93",
    "postal_code": "84400"
  },
  {
    "name": "Sablet",
    "code": "84104",
    "epci_code": "248400335",
    "departement_code": "84",
    "region_code": "93",
    "postal_code": "84110"
  },
  {
    "name": "Saignon",
    "code": "84105",
    "epci_code": "200040624",
    "departement_code": "84",
    "region_code": "93",
    "postal_code": "84400"
  },
  {
    "name": "Sainte-Cécile-les-Vignes",
    "code": "84106",
    "epci_code": "248400160",
    "departement_code": "84",
    "region_code": "93",
    "postal_code": "84290"
  },
  {
    "name": "Saint-Christol",
    "code": "84107",
    "epci_code": "200035723",
    "departement_code": "84",
    "region_code": "93",
    "postal_code": "84390"
  },
  {
    "name": "Saint-Didier",
    "code": "84108",
    "epci_code": "248400053",
    "departement_code": "84",
    "region_code": "93",
    "postal_code": "84210"
  },
  {
    "name": "Saint-Hippolyte-le-Graveyron",
    "code": "84109",
    "epci_code": "248400053",
    "departement_code": "84",
    "region_code": "93",
    "postal_code": "84330"
  },
  {
    "name": "Saint-Léger-du-Ventoux",
    "code": "84110",
    "epci_code": "248400335",
    "departement_code": "84",
    "region_code": "93",
    "postal_code": "84390"
  },
  {
    "name": "Saint-Marcellin-lès-Vaison",
    "code": "84111",
    "epci_code": "248400335",
    "departement_code": "84",
    "region_code": "93",
    "postal_code": "84110"
  },
  {
    "name": "Saint-Martin-de-Castillon",
    "code": "84112",
    "epci_code": "200040624",
    "departement_code": "84",
    "region_code": "93",
    "postal_code": "84750"
  },
  {
    "name": "Saint-Martin-de-la-Brasque",
    "code": "84113",
    "epci_code": "248400285",
    "departement_code": "84",
    "region_code": "93",
    "postal_code": "84760"
  },
  {
    "name": "Saint-Pantaléon",
    "code": "84114",
    "epci_code": "200040624",
    "departement_code": "84",
    "region_code": "93",
    "postal_code": "84220"
  },
  {
    "name": "Saint-Pierre-de-Vassols",
    "code": "84115",
    "epci_code": "248400053",
    "departement_code": "84",
    "region_code": "93",
    "postal_code": "84330"
  },
  {
    "name": "Saint-Romain-en-Viennois",
    "code": "84116",
    "epci_code": "248400335",
    "departement_code": "84",
    "region_code": "93",
    "postal_code": "84110"
  },
  {
    "name": "Saint-Roman-de-Malegarde",
    "code": "84117",
    "epci_code": "248400335",
    "departement_code": "84",
    "region_code": "93",
    "postal_code": "84290"
  },
  {
    "name": "Saint-Saturnin-lès-Apt",
    "code": "84118",
    "epci_code": "200040624",
    "departement_code": "84",
    "region_code": "93",
    "postal_code": "84490"
  },
  {
    "name": "Saint-Saturnin-lès-Avignon",
    "code": "84119",
    "epci_code": "248400251",
    "departement_code": "84",
    "region_code": "93",
    "postal_code": "84450"
  },
  {
    "name": "Saint-Trinit",
    "code": "84120",
    "epci_code": "200035723",
    "departement_code": "84",
    "region_code": "93",
    "postal_code": "84390"
  },
  {
    "name": "Sannes",
    "code": "84121",
    "epci_code": "248400285",
    "departement_code": "84",
    "region_code": "93",
    "postal_code": "84240"
  },
  {
    "name": "Sarrians",
    "code": "84122",
    "epci_code": "248400053",
    "departement_code": "84",
    "region_code": "93",
    "postal_code": "84260"
  },
  {
    "name": "Sault",
    "code": "84123",
    "epci_code": "200035723",
    "departement_code": "84",
    "region_code": "93",
    "postal_code": "84390"
  },
  {
    "name": "Saumane-de-Vaucluse",
    "code": "84124",
    "epci_code": "248400319",
    "departement_code": "84",
    "region_code": "93",
    "postal_code": "84800"
  },
  {
    "name": "Savoillan",
    "code": "84125",
    "epci_code": "248400335",
    "departement_code": "84",
    "region_code": "93",
    "postal_code": "84390"
  },
  {
    "name": "Séguret",
    "code": "84126",
    "epci_code": "248400335",
    "departement_code": "84",
    "region_code": "93",
    "postal_code": "84110"
  },
  {
    "name": "Sérignan-du-Comtat",
    "code": "84127",
    "epci_code": "248400160",
    "departement_code": "84",
    "region_code": "93",
    "postal_code": "84830"
  },
  {
    "name": "Sivergues",
    "code": "84128",
    "epci_code": "200040624",
    "departement_code": "84",
    "region_code": "93",
    "postal_code": "84400"
  },
  {
    "name": "Sorgues",
    "code": "84129",
    "epci_code": "248400293",
    "departement_code": "84",
    "region_code": "93",
    "postal_code": "84700"
  },
  {
    "name": "Suzette",
    "code": "84130",
    "epci_code": "248400053",
    "departement_code": "84",
    "region_code": "93",
    "postal_code": "84190"
  },
  {
    "name": "Taillades",
    "code": "84131",
    "epci_code": "200040442",
    "departement_code": "84",
    "region_code": "93",
    "postal_code": "84300"
  },
  {
    "name": "Le Thor",
    "code": "84132",
    "epci_code": "248400319",
    "departement_code": "84",
    "region_code": "93",
    "postal_code": "84250"
  },
  {
    "name": "La Tour-d’Aigues",
    "code": "84133",
    "epci_code": "248400285",
    "departement_code": "84",
    "region_code": "93",
    "postal_code": "84240"
  },
  {
    "name": "Travaillan",
    "code": "84134",
    "epci_code": "248400160",
    "departement_code": "84",
    "region_code": "93",
    "postal_code": "84850"
  },
  {
    "name": "Uchaux",
    "code": "84135",
    "epci_code": "248400160",
    "departement_code": "84",
    "region_code": "93",
    "postal_code": "84100"
  },
  {
    "name": "Vacqueyras",
    "code": "84136",
    "epci_code": "248400053",
    "departement_code": "84",
    "region_code": "93",
    "postal_code": "84190"
  },
  {
    "name": "Vaison-la-Romaine",
    "code": "84137",
    "epci_code": "248400335",
    "departement_code": "84",
    "region_code": "93",
    "postal_code": "84110"
  },
  {
    "name": "Valréas",
    "code": "84138",
    "epci_code": "200040681",
    "departement_code": "84",
    "region_code": "93",
    "postal_code": "84600"
  },
  {
    "name": "Fontaine-de-Vaucluse",
    "code": "84139",
    "epci_code": "248400319",
    "departement_code": "84",
    "region_code": "93",
    "postal_code": "84800"
  },
  {
    "name": "Vaugines",
    "code": "84140",
    "epci_code": "200040442",
    "departement_code": "84",
    "region_code": "93",
    "postal_code": "84160"
  },
  {
    "name": "Vedène",
    "code": "84141",
    "epci_code": "248400251",
    "departement_code": "84",
    "region_code": "93",
    "postal_code": "84270"
  },
  {
    "name": "Velleron",
    "code": "84142",
    "epci_code": "248400251",
    "departement_code": "84",
    "region_code": "93",
    "postal_code": "84740"
  },
  {
    "name": "Venasque",
    "code": "84143",
    "epci_code": "248400053",
    "departement_code": "84",
    "region_code": "93",
    "postal_code": "84210"
  },
  {
    "name": "Viens",
    "code": "84144",
    "epci_code": "200040624",
    "departement_code": "84",
    "region_code": "93",
    "postal_code": "84750"
  },
  {
    "name": "Villars",
    "code": "84145",
    "epci_code": "200040624",
    "departement_code": "84",
    "region_code": "93",
    "postal_code": "84400"
  },
  {
    "name": "Villedieu",
    "code": "84146",
    "epci_code": "248400335",
    "departement_code": "84",
    "region_code": "93",
    "postal_code": "84110"
  },
  {
    "name": "Villelaure",
    "code": "84147",
    "epci_code": "248400285",
    "departement_code": "84",
    "region_code": "93",
    "postal_code": "84530"
  },
  {
    "name": "Villes-sur-Auzon",
    "code": "84148",
    "epci_code": "200035723",
    "departement_code": "84",
    "region_code": "93",
    "postal_code": "84570"
  },
  {
    "name": "Violès",
    "code": "84149",
    "epci_code": "248400160",
    "departement_code": "84",
    "region_code": "93",
    "postal_code": "84150"
  },
  {
    "name": "Visan",
    "code": "84150",
    "epci_code": "200040681",
    "departement_code": "84",
    "region_code": "93",
    "postal_code": "84820"
  },
  {
    "name": "Vitrolles-en-Lubéron",
    "code": "84151",
    "epci_code": "248400285",
    "departement_code": "84",
    "region_code": "93",
    "postal_code": "84240"
  }
]