[
  {
    "name": "Accons",
    "code": "07001",
    "epci_code": "200041465",
    "departement_code": "07",
    "region_code": "84",
    "postal_code": "07160"
  },
  {
    "name": "Ailhon",
    "code": "07002",
    "epci_code": "200073245",
    "departement_code": "07",
    "region_code": "84",
    "postal_code": "07200"
  },
  {
    "name": "Aizac",
    "code": "07003",
    "epci_code": "200073245",
    "departement_code": "07",
    "region_code": "84",
    "postal_code": "07530"
  },
  {
    "name": "Ajoux",
    "code": "07004",
    "epci_code": "200071413",
    "departement_code": "07",
    "region_code": "84",
    "postal_code": "07000"
  },
  {
    "name": "Alba-la-Romaine",
    "code": "07005",
    "epci_code": "200071405",
    "departement_code": "07",
    "region_code": "84",
    "postal_code": "07400"
  },
  {
    "name": "Albon-d’Ardèche",
    "code": "07006",
    "epci_code": "200041465",
    "departement_code": "07",
    "region_code": "84",
    "postal_code": "07190"
  },
  {
    "name": "Alboussière",
    "code": "07007",
    "epci_code": "200041366",
    "departement_code": "07",
    "region_code": "84",
    "postal_code": "07440"
  },
  {
    "name": "Alissas",
    "code": "07008",
    "epci_code": "200071413",
    "departement_code": "07",
    "region_code": "84",
    "postal_code": "07210"
  },
  {
    "name": "Andance",
    "code": "07009",
    "epci_code": "200040491",
    "departement_code": "07",
    "region_code": "84",
    "postal_code": "07340"
  },
  {
    "name": "Annonay",
    "code": "07010",
    "epci_code": "200072015",
    "departement_code": "07",
    "region_code": "84",
    "postal_code": "07100"
  },
  {
    "name": "Vallées-d’Antraigues-Asperjoc",
    "code": "07011",
    "epci_code": "200073245",
    "departement_code": "07",
    "region_code": "84",
    "postal_code": "07530"
  },
  {
    "name": "Vallées-d’Antraigues-Asperjoc",
    "code": "07011",
    "epci_code": "200073245",
    "departement_code": "07",
    "region_code": "84",
    "postal_code": "07600"
  },
  {
    "name": "Arcens",
    "code": "07012",
    "epci_code": "200041465",
    "departement_code": "07",
    "region_code": "84",
    "postal_code": "07310"
  },
  {
    "name": "Ardoix",
    "code": "07013",
    "epci_code": "200072015",
    "departement_code": "07",
    "region_code": "84",
    "postal_code": "07290"
  },
  {
    "name": "Arlebosc",
    "code": "07014",
    "epci_code": "200073096",
    "departement_code": "07",
    "region_code": "84",
    "postal_code": "07410"
  },
  {
    "name": "Arras-sur-Rhône",
    "code": "07015",
    "epci_code": "200040491",
    "departement_code": "07",
    "region_code": "84",
    "postal_code": "07370"
  },
  {
    "name": "Les Assions",
    "code": "07017",
    "epci_code": "200039832",
    "departement_code": "07",
    "region_code": "84",
    "postal_code": "07140"
  },
  {
    "name": "Astet",
    "code": "07018",
    "epci_code": "200072007",
    "departement_code": "07",
    "region_code": "84",
    "postal_code": "07330"
  },
  {
    "name": "Aubenas",
    "code": "07019",
    "epci_code": "200073245",
    "departement_code": "07",
    "region_code": "84",
    "postal_code": "07200"
  },
  {
    "name": "Aubignas",
    "code": "07020",
    "epci_code": "200071405",
    "departement_code": "07",
    "region_code": "84",
    "postal_code": "07400"
  },
  {
    "name": "Baix",
    "code": "07022",
    "epci_code": "200071405",
    "departement_code": "07",
    "region_code": "84",
    "postal_code": "07210"
  },
  {
    "name": "Balazuc",
    "code": "07023",
    "epci_code": "200039808",
    "departement_code": "07",
    "region_code": "84",
    "postal_code": "07120"
  },
  {
    "name": "Banne",
    "code": "07024",
    "epci_code": "200039832",
    "departement_code": "07",
    "region_code": "84",
    "postal_code": "07460"
  },
  {
    "name": "Barnas",
    "code": "07025",
    "epci_code": "200039824",
    "departement_code": "07",
    "region_code": "84",
    "postal_code": "07330"
  },
  {
    "name": "Le Béage",
    "code": "07026",
    "epci_code": "200072007",
    "departement_code": "07",
    "region_code": "84",
    "postal_code": "07630"
  },
  {
    "name": "Beauchastel",
    "code": "07027",
    "epci_code": "200071413",
    "departement_code": "07",
    "region_code": "84",
    "postal_code": "07800"
  },
  {
    "name": "Beaulieu",
    "code": "07028",
    "epci_code": "200039832",
    "departement_code": "07",
    "region_code": "84",
    "postal_code": "07460"
  },
  {
    "name": "Beaumont",
    "code": "07029",
    "epci_code": "240700302",
    "departement_code": "07",
    "region_code": "84",
    "postal_code": "07110"
  },
  {
    "name": "Beauvène",
    "code": "07030",
    "epci_code": "200071413",
    "departement_code": "07",
    "region_code": "84",
    "postal_code": "07190"
  },
  {
    "name": "Berrias-et-Casteljau",
    "code": "07031",
    "epci_code": "200039832",
    "departement_code": "07",
    "region_code": "84",
    "postal_code": "07460"
  },
  {
    "name": "Berzème",
    "code": "07032",
    "epci_code": "240700815",
    "departement_code": "07",
    "region_code": "84",
    "postal_code": "07580"
  },
  {
    "name": "Bessas",
    "code": "07033",
    "epci_code": "200039808",
    "departement_code": "07",
    "region_code": "84",
    "postal_code": "07150"
  },
  {
    "name": "Bidon",
    "code": "07034",
    "epci_code": "240700864",
    "departement_code": "07",
    "region_code": "84",
    "postal_code": "07700"
  },
  {
    "name": "Boffres",
    "code": "07035",
    "epci_code": "200041366",
    "departement_code": "07",
    "region_code": "84",
    "postal_code": "07440"
  },
  {
    "name": "Bogy",
    "code": "07036",
    "epci_code": "200072015",
    "departement_code": "07",
    "region_code": "84",
    "postal_code": "07340"
  },
  {
    "name": "Borée",
    "code": "07037",
    "epci_code": "200072007",
    "departement_code": "07",
    "region_code": "84",
    "postal_code": "07310"
  },
  {
    "name": "Borne",
    "code": "07038",
    "epci_code": "200072007",
    "departement_code": "07",
    "region_code": "84",
    "postal_code": "07590"
  },
  {
    "name": "Bozas",
    "code": "07039",
    "epci_code": "200073096",
    "departement_code": "07",
    "region_code": "84",
    "postal_code": "07410"
  },
  {
    "name": "Boucieu-le-Roi",
    "code": "07040",
    "epci_code": "200073096",
    "departement_code": "07",
    "region_code": "84",
    "postal_code": "07270"
  },
  {
    "name": "Boulieu-lès-Annonay",
    "code": "07041",
    "epci_code": "200072015",
    "departement_code": "07",
    "region_code": "84",
    "postal_code": "07100"
  },
  {
    "name": "Bourg-Saint-Andéol",
    "code": "07042",
    "epci_code": "240700864",
    "departement_code": "07",
    "region_code": "84",
    "postal_code": "07700"
  },
  {
    "name": "Brossainc",
    "code": "07044",
    "epci_code": "200072015",
    "departement_code": "07",
    "region_code": "84",
    "postal_code": "07340"
  },
  {
    "name": "Burzet",
    "code": "07045",
    "epci_code": "200039824",
    "departement_code": "07",
    "region_code": "84",
    "postal_code": "07450"
  },
  {
    "name": "Cellier-du-Luc",
    "code": "07047",
    "epci_code": "200072007",
    "departement_code": "07",
    "region_code": "84",
    "postal_code": "07590"
  },
  {
    "name": "Chalencon",
    "code": "07048",
    "epci_code": "200071413",
    "departement_code": "07",
    "region_code": "84",
    "postal_code": "07240"
  },
  {
    "name": "Le Chambon",
    "code": "07049",
    "epci_code": "200041465",
    "departement_code": "07",
    "region_code": "84",
    "postal_code": "07160"
  },
  {
    "name": "Chambonas",
    "code": "07050",
    "epci_code": "200039832",
    "departement_code": "07",
    "region_code": "84",
    "postal_code": "07140"
  },
  {
    "name": "Champagne",
    "code": "07051",
    "epci_code": "200040491",
    "departement_code": "07",
    "region_code": "84",
    "postal_code": "07340"
  },
  {
    "name": "Champis",
    "code": "07052",
    "epci_code": "200041366",
    "departement_code": "07",
    "region_code": "84",
    "postal_code": "07440"
  },
  {
    "name": "Chandolas",
    "code": "07053",
    "epci_code": "240700302",
    "departement_code": "07",
    "region_code": "84",
    "postal_code": "07230"
  },
  {
    "name": "Chanéac",
    "code": "07054",
    "epci_code": "200041465",
    "departement_code": "07",
    "region_code": "84",
    "postal_code": "07310"
  },
  {
    "name": "Charmes-sur-Rhône",
    "code": "07055",
    "epci_code": "200041366",
    "departement_code": "07",
    "region_code": "84",
    "postal_code": "07800"
  },
  {
    "name": "Charnas",
    "code": "07056",
    "epci_code": "200072015",
    "departement_code": "07",
    "region_code": "84",
    "postal_code": "07340"
  },
  {
    "name": "Chassiers",
    "code": "07058",
    "epci_code": "240700617",
    "departement_code": "07",
    "region_code": "84",
    "postal_code": "07110"
  },
  {
    "name": "Châteaubourg",
    "code": "07059",
    "epci_code": "200041366",
    "departement_code": "07",
    "region_code": "84",
    "postal_code": "07130"
  },
  {
    "name": "Châteauneuf-de-Vernoux",
    "code": "07060",
    "epci_code": "200071413",
    "departement_code": "07",
    "region_code": "84",
    "postal_code": "07240"
  },
  {
    "name": "Chauzon",
    "code": "07061",
    "epci_code": "200039808",
    "departement_code": "07",
    "region_code": "84",
    "postal_code": "07120"
  },
  {
    "name": "Chazeaux",
    "code": "07062",
    "epci_code": "240700617",
    "departement_code": "07",
    "region_code": "84",
    "postal_code": "07110"
  },
  {
    "name": "Cheminas",
    "code": "07063",
    "epci_code": "200073096",
    "departement_code": "07",
    "region_code": "84",
    "postal_code": "07300"
  },
  {
    "name": "Le Cheylard",
    "code": "07064",
    "epci_code": "200041465",
    "departement_code": "07",
    "region_code": "84",
    "postal_code": "07160"
  },
  {
    "name": "Chirols",
    "code": "07065",
    "epci_code": "200039824",
    "departement_code": "07",
    "region_code": "84",
    "postal_code": "07380"
  },
  {
    "name": "Chomérac",
    "code": "07066",
    "epci_code": "200071413",
    "departement_code": "07",
    "region_code": "84",
    "postal_code": "07210"
  },
  {
    "name": "Colombier-le-Cardinal",
    "code": "07067",
    "epci_code": "200072015",
    "departement_code": "07",
    "region_code": "84",
    "postal_code": "07430"
  },
  {
    "name": "Colombier-le-Jeune",
    "code": "07068",
    "epci_code": "200073096",
    "departement_code": "07",
    "region_code": "84",
    "postal_code": "07270"
  },
  {
    "name": "Colombier-le-Vieux",
    "code": "07069",
    "epci_code": "200073096",
    "departement_code": "07",
    "region_code": "84",
    "postal_code": "07410"
  },
  {
    "name": "Cornas",
    "code": "07070",
    "epci_code": "200041366",
    "departement_code": "07",
    "region_code": "84",
    "postal_code": "07130"
  },
  {
    "name": "Coucouron",
    "code": "07071",
    "epci_code": "200072007",
    "departement_code": "07",
    "region_code": "84",
    "postal_code": "07470"
  },
  {
    "name": "Coux",
    "code": "07072",
    "epci_code": "200071413",
    "departement_code": "07",
    "region_code": "84",
    "postal_code": "07000"
  },
  {
    "name": "Le Crestet",
    "code": "07073",
    "epci_code": "200016905",
    "departement_code": "07",
    "region_code": "84",
    "postal_code": "07270"
  },
  {
    "name": "Creysseilles",
    "code": "07074",
    "epci_code": "200071413",
    "departement_code": "07",
    "region_code": "84",
    "postal_code": "07000"
  },
  {
    "name": "Cros-de-Géorand",
    "code": "07075",
    "epci_code": "200072007",
    "departement_code": "07",
    "region_code": "84",
    "postal_code": "07510"
  },
  {
    "name": "Cros-de-Géorand",
    "code": "07075",
    "epci_code": "200072007",
    "departement_code": "07",
    "region_code": "84",
    "postal_code": "07630"
  },
  {
    "name": "Cruas",
    "code": "07076",
    "epci_code": "200071405",
    "departement_code": "07",
    "region_code": "84",
    "postal_code": "07350"
  },
  {
    "name": "Darbres",
    "code": "07077",
    "epci_code": "240700815",
    "departement_code": "07",
    "region_code": "84",
    "postal_code": "07170"
  },
  {
    "name": "Davézieux",
    "code": "07078",
    "epci_code": "200072015",
    "departement_code": "07",
    "region_code": "84",
    "postal_code": "07430"
  },
  {
    "name": "Désaignes",
    "code": "07079",
    "epci_code": "200016905",
    "departement_code": "07",
    "region_code": "84",
    "postal_code": "07570"
  },
  {
    "name": "Devesset",
    "code": "07080",
    "epci_code": "200041465",
    "departement_code": "07",
    "region_code": "84",
    "postal_code": "07320"
  },
  {
    "name": "Dompnac",
    "code": "07081",
    "epci_code": "240700302",
    "departement_code": "07",
    "region_code": "84",
    "postal_code": "07260"
  },
  {
    "name": "Dornas",
    "code": "07082",
    "epci_code": "200041465",
    "departement_code": "07",
    "region_code": "84",
    "postal_code": "07160"
  },
  {
    "name": "Dunière-sur-Eyrieux",
    "code": "07083",
    "epci_code": "200071413",
    "departement_code": "07",
    "region_code": "84",
    "postal_code": "07360"
  },
  {
    "name": "Eclassan",
    "code": "07084",
    "epci_code": "200040491",
    "departement_code": "07",
    "region_code": "84",
    "postal_code": "07370"
  },
  {
    "name": "Empurany",
    "code": "07085",
    "epci_code": "200016905",
    "departement_code": "07",
    "region_code": "84",
    "postal_code": "07270"
  },
  {
    "name": "Étables",
    "code": "07086",
    "epci_code": "200073096",
    "departement_code": "07",
    "region_code": "84",
    "postal_code": "07300"
  },
  {
    "name": "Fabras",
    "code": "07087",
    "epci_code": "200039824",
    "departement_code": "07",
    "region_code": "84",
    "postal_code": "07380"
  },
  {
    "name": "Faugères",
    "code": "07088",
    "epci_code": "240700302",
    "departement_code": "07",
    "region_code": "84",
    "postal_code": "07230"
  },
  {
    "name": "Félines",
    "code": "07089",
    "epci_code": "200072015",
    "departement_code": "07",
    "region_code": "84",
    "postal_code": "07340"
  },
  {
    "name": "Flaviac",
    "code": "07090",
    "epci_code": "200071413",
    "departement_code": "07",
    "region_code": "84",
    "postal_code": "07000"
  },
  {
    "name": "Fons",
    "code": "07091",
    "epci_code": "200073245",
    "departement_code": "07",
    "region_code": "84",
    "postal_code": "07200"
  },
  {
    "name": "Freyssenet",
    "code": "07092",
    "epci_code": "200071413",
    "departement_code": "07",
    "region_code": "84",
    "postal_code": "07000"
  },
  {
    "name": "Genestelle",
    "code": "07093",
    "epci_code": "200073245",
    "departement_code": "07",
    "region_code": "84",
    "postal_code": "07530"
  },
  {
    "name": "Gilhac-et-Bruzac",
    "code": "07094",
    "epci_code": "200071413",
    "departement_code": "07",
    "region_code": "84",
    "postal_code": "07800"
  },
  {
    "name": "Gilhoc-sur-Ormèze",
    "code": "07095",
    "epci_code": "200016905",
    "departement_code": "07",
    "region_code": "84",
    "postal_code": "07270"
  },
  {
    "name": "Gluiras",
    "code": "07096",
    "epci_code": "200071413",
    "departement_code": "07",
    "region_code": "84",
    "postal_code": "07190"
  },
  {
    "name": "Glun",
    "code": "07097",
    "epci_code": "200073096",
    "departement_code": "07",
    "region_code": "84",
    "postal_code": "07300"
  },
  {
    "name": "Gourdon",
    "code": "07098",
    "epci_code": "200071413",
    "departement_code": "07",
    "region_code": "84",
    "postal_code": "07000"
  },
  {
    "name": "Gras",
    "code": "07099",
    "epci_code": "240700864",
    "departement_code": "07",
    "region_code": "84",
    "postal_code": "07700"
  },
  {
    "name": "Gravières",
    "code": "07100",
    "epci_code": "200039832",
    "departement_code": "07",
    "region_code": "84",
    "postal_code": "07140"
  },
  {
    "name": "Grospierres",
    "code": "07101",
    "epci_code": "200039808",
    "departement_code": "07",
    "region_code": "84",
    "postal_code": "07120"
  },
  {
    "name": "Guilherand-Granges",
    "code": "07102",
    "epci_code": "200041366",
    "departement_code": "07",
    "region_code": "84",
    "postal_code": "07500"
  },
  {
    "name": "Saint-Julien-d’Intres",
    "code": "07103",
    "epci_code": "200041465",
    "departement_code": "07",
    "region_code": "84",
    "postal_code": "07310"
  },
  {
    "name": "Saint-Julien-d’Intres",
    "code": "07103",
    "epci_code": "200041465",
    "departement_code": "07",
    "region_code": "84",
    "postal_code": "07320"
  },
  {
    "name": "Issamoulenc",
    "code": "07104",
    "epci_code": "200041465",
    "departement_code": "07",
    "region_code": "84",
    "postal_code": "07190"
  },
  {
    "name": "Issanlas",
    "code": "07105",
    "epci_code": "200072007",
    "departement_code": "07",
    "region_code": "84",
    "postal_code": "07510"
  },
  {
    "name": "Issanlas",
    "code": "07105",
    "epci_code": "200072007",
    "departement_code": "07",
    "region_code": "84",
    "postal_code": "07660"
  },
  {
    "name": "Issarlès",
    "code": "07106",
    "epci_code": "200072007",
    "departement_code": "07",
    "region_code": "84",
    "postal_code": "07470"
  },
  {
    "name": "Jaujac",
    "code": "07107",
    "epci_code": "200039824",
    "departement_code": "07",
    "region_code": "84",
    "postal_code": "07380"
  },
  {
    "name": "Jaunac",
    "code": "07108",
    "epci_code": "200041465",
    "departement_code": "07",
    "region_code": "84",
    "postal_code": "07160"
  },
  {
    "name": "Joannas",
    "code": "07109",
    "epci_code": "240700617",
    "departement_code": "07",
    "region_code": "84",
    "postal_code": "07110"
  },
  {
    "name": "Joyeuse",
    "code": "07110",
    "epci_code": "240700302",
    "departement_code": "07",
    "region_code": "84",
    "postal_code": "07260"
  },
  {
    "name": "Juvinas",
    "code": "07111",
    "epci_code": "200073245",
    "departement_code": "07",
    "region_code": "84",
    "postal_code": "07600"
  },
  {
    "name": "Labastide-sur-Bésorgues",
    "code": "07112",
    "epci_code": "200073245",
    "departement_code": "07",
    "region_code": "84",
    "postal_code": "07600"
  },
  {
    "name": "Labastide-de-Virac",
    "code": "07113",
    "epci_code": "200039808",
    "departement_code": "07",
    "region_code": "84",
    "postal_code": "07150"
  },
  {
    "name": "Labatie-d’Andaure",
    "code": "07114",
    "epci_code": "200016905",
    "departement_code": "07",
    "region_code": "84",
    "postal_code": "07570"
  },
  {
    "name": "Labeaume",
    "code": "07115",
    "epci_code": "200039808",
    "departement_code": "07",
    "region_code": "84",
    "postal_code": "07120"
  },
  {
    "name": "Labégude",
    "code": "07116",
    "epci_code": "200073245",
    "departement_code": "07",
    "region_code": "84",
    "postal_code": "07200"
  },
  {
    "name": "Lablachère",
    "code": "07117",
    "epci_code": "240700302",
    "departement_code": "07",
    "region_code": "84",
    "postal_code": "07230"
  },
  {
    "name": "Laboule",
    "code": "07118",
    "epci_code": "240700302",
    "departement_code": "07",
    "region_code": "84",
    "postal_code": "07110"
  },
  {
    "name": "Le Lac-d’Issarlès",
    "code": "07119",
    "epci_code": "200072007",
    "departement_code": "07",
    "region_code": "84",
    "postal_code": "07470"
  },
  {
    "name": "Lachamp-Raphaël",
    "code": "07120",
    "epci_code": "200072007",
    "departement_code": "07",
    "region_code": "84",
    "postal_code": "07530"
  },
  {
    "name": "Lachapelle-Graillouse",
    "code": "07121",
    "epci_code": "200072007",
    "departement_code": "07",
    "region_code": "84",
    "postal_code": "07470"
  },
  {
    "name": "Lachapelle-sous-Aubenas",
    "code": "07122",
    "epci_code": "200073245",
    "departement_code": "07",
    "region_code": "84",
    "postal_code": "07200"
  },
  {
    "name": "Lachapelle-sous-Chanéac",
    "code": "07123",
    "epci_code": "200041465",
    "departement_code": "07",
    "region_code": "84",
    "postal_code": "07310"
  },
  {
    "name": "Lafarre",
    "code": "07124",
    "epci_code": "200016905",
    "departement_code": "07",
    "region_code": "84",
    "postal_code": "07520"
  },
  {
    "name": "Lagorce",
    "code": "07126",
    "epci_code": "200039808",
    "departement_code": "07",
    "region_code": "84",
    "postal_code": "07150"
  },
  {
    "name": "Lalevade-d’Ardèche",
    "code": "07127",
    "epci_code": "200039824",
    "departement_code": "07",
    "region_code": "84",
    "postal_code": "07380"
  },
  {
    "name": "Lalouvesc",
    "code": "07128",
    "epci_code": "240700716",
    "departement_code": "07",
    "region_code": "84",
    "postal_code": "07520"
  },
  {
    "name": "Lamastre",
    "code": "07129",
    "epci_code": "200016905",
    "departement_code": "07",
    "region_code": "84",
    "postal_code": "07270"
  },
  {
    "name": "Lanarce",
    "code": "07130",
    "epci_code": "200072007",
    "departement_code": "07",
    "region_code": "84",
    "postal_code": "07660"
  },
  {
    "name": "Lanas",
    "code": "07131",
    "epci_code": "200039808",
    "departement_code": "07",
    "region_code": "84",
    "postal_code": "07200"
  },
  {
    "name": "Largentière",
    "code": "07132",
    "epci_code": "240700617",
    "departement_code": "07",
    "region_code": "84",
    "postal_code": "07110"
  },
  {
    "name": "Larnas",
    "code": "07133",
    "epci_code": "240700864",
    "departement_code": "07",
    "region_code": "84",
    "postal_code": "07220"
  },
  {
    "name": "Laurac-en-Vivarais",
    "code": "07134",
    "epci_code": "240700617",
    "departement_code": "07",
    "region_code": "84",
    "postal_code": "07110"
  },
  {
    "name": "Laveyrune",
    "code": "07136",
    "epci_code": "200072007",
    "departement_code": "07",
    "region_code": "84",
    "postal_code": "48250"
  },
  {
    "name": "Lavillatte",
    "code": "07137",
    "epci_code": "200072007",
    "departement_code": "07",
    "region_code": "84",
    "postal_code": "07660"
  },
  {
    "name": "Lavilledieu",
    "code": "07138",
    "epci_code": "200073245",
    "departement_code": "07",
    "region_code": "84",
    "postal_code": "07170"
  },
  {
    "name": "Laviolle",
    "code": "07139",
    "epci_code": "200073245",
    "departement_code": "07",
    "region_code": "84",
    "postal_code": "07530"
  },
  {
    "name": "Lemps",
    "code": "07140",
    "epci_code": "200073096",
    "departement_code": "07",
    "region_code": "84",
    "postal_code": "07610"
  },
  {
    "name": "Lentillères",
    "code": "07141",
    "epci_code": "200073245",
    "departement_code": "07",
    "region_code": "84",
    "postal_code": "07200"
  },
  {
    "name": "Lespéron",
    "code": "07142",
    "epci_code": "200072007",
    "departement_code": "07",
    "region_code": "84",
    "postal_code": "07660"
  },
  {
    "name": "Limony",
    "code": "07143",
    "epci_code": "200072015",
    "departement_code": "07",
    "region_code": "84",
    "postal_code": "07340"
  },
  {
    "name": "Loubaresse",
    "code": "07144",
    "epci_code": "240700302",
    "departement_code": "07",
    "region_code": "84",
    "postal_code": "07110"
  },
  {
    "name": "Lussas",
    "code": "07145",
    "epci_code": "240700815",
    "departement_code": "07",
    "region_code": "84",
    "postal_code": "07170"
  },
  {
    "name": "Lyas",
    "code": "07146",
    "epci_code": "200071413",
    "departement_code": "07",
    "region_code": "84",
    "postal_code": "07000"
  },
  {
    "name": "Malarce-sur-la-Thines",
    "code": "07147",
    "epci_code": "200039832",
    "departement_code": "07",
    "region_code": "84",
    "postal_code": "07140"
  },
  {
    "name": "Malbosc",
    "code": "07148",
    "epci_code": "200039832",
    "departement_code": "07",
    "region_code": "84",
    "postal_code": "07140"
  },
  {
    "name": "Marcols-les-Eaux",
    "code": "07149",
    "epci_code": "200071413",
    "departement_code": "07",
    "region_code": "84",
    "postal_code": "07190"
  },
  {
    "name": "Mariac",
    "code": "07150",
    "epci_code": "200041465",
    "departement_code": "07",
    "region_code": "84",
    "postal_code": "07160"
  },
  {
    "name": "Mars",
    "code": "07151",
    "epci_code": "200041465",
    "departement_code": "07",
    "region_code": "84",
    "postal_code": "07320"
  },
  {
    "name": "Mauves",
    "code": "07152",
    "epci_code": "200073096",
    "departement_code": "07",
    "region_code": "84",
    "postal_code": "07300"
  },
  {
    "name": "Mayres",
    "code": "07153",
    "epci_code": "200039824",
    "departement_code": "07",
    "region_code": "84",
    "postal_code": "07330"
  },
  {
    "name": "Mazan-l’Abbaye",
    "code": "07154",
    "epci_code": "200072007",
    "departement_code": "07",
    "region_code": "84",
    "postal_code": "07510"
  },
  {
    "name": "Mercuer",
    "code": "07155",
    "epci_code": "200073245",
    "departement_code": "07",
    "region_code": "84",
    "postal_code": "07200"
  },
  {
    "name": "Meyras",
    "code": "07156",
    "epci_code": "200039824",
    "departement_code": "07",
    "region_code": "84",
    "postal_code": "07380"
  },
  {
    "name": "Meysse",
    "code": "07157",
    "epci_code": "200071405",
    "departement_code": "07",
    "region_code": "84",
    "postal_code": "07400"
  },
  {
    "name": "Mézilhac",
    "code": "07158",
    "epci_code": "200073245",
    "departement_code": "07",
    "region_code": "84",
    "postal_code": "07530"
  },
  {
    "name": "Mirabel",
    "code": "07159",
    "epci_code": "240700815",
    "departement_code": "07",
    "region_code": "84",
    "postal_code": "07170"
  },
  {
    "name": "Monestier",
    "code": "07160",
    "epci_code": "200072015",
    "departement_code": "07",
    "region_code": "84",
    "postal_code": "07690"
  },
  {
    "name": "Montpezat-sous-Bauzon",
    "code": "07161",
    "epci_code": "200039824",
    "departement_code": "07",
    "region_code": "84",
    "postal_code": "07560"
  },
  {
    "name": "Montréal",
    "code": "07162",
    "epci_code": "240700617",
    "departement_code": "07",
    "region_code": "84",
    "postal_code": "07110"
  },
  {
    "name": "Montselgues",
    "code": "07163",
    "epci_code": "200039832",
    "departement_code": "07",
    "region_code": "84",
    "postal_code": "07140"
  },
  {
    "name": "Belsentes",
    "code": "07165",
    "epci_code": "200041465",
    "departement_code": "07",
    "region_code": "84",
    "postal_code": "07160"
  },
  {
    "name": "Nozières",
    "code": "07166",
    "epci_code": "200016905",
    "departement_code": "07",
    "region_code": "84",
    "postal_code": "07270"
  },
  {
    "name": "Les Ollières-sur-Eyrieux",
    "code": "07167",
    "epci_code": "200071413",
    "departement_code": "07",
    "region_code": "84",
    "postal_code": "07360"
  },
  {
    "name": "Orgnac-l’Aven",
    "code": "07168",
    "epci_code": "200039808",
    "departement_code": "07",
    "region_code": "84",
    "postal_code": "07150"
  },
  {
    "name": "Ozon",
    "code": "07169",
    "epci_code": "200040491",
    "departement_code": "07",
    "region_code": "84",
    "postal_code": "07370"
  },
  {
    "name": "Pailharès",
    "code": "07170",
    "epci_code": "200073096",
    "departement_code": "07",
    "region_code": "84",
    "postal_code": "07410"
  },
  {
    "name": "Payzac",
    "code": "07171",
    "epci_code": "240700302",
    "departement_code": "07",
    "region_code": "84",
    "postal_code": "07230"
  },
  {
    "name": "Peaugres",
    "code": "07172",
    "epci_code": "200072015",
    "departement_code": "07",
    "region_code": "84",
    "postal_code": "07340"
  },
  {
    "name": "Péreyres",
    "code": "07173",
    "epci_code": "200039824",
    "departement_code": "07",
    "region_code": "84",
    "postal_code": "07450"
  },
  {
    "name": "Peyraud",
    "code": "07174",
    "epci_code": "200040491",
    "departement_code": "07",
    "region_code": "84",
    "postal_code": "07340"
  },
  {
    "name": "Le Plagnal",
    "code": "07175",
    "epci_code": "200072007",
    "departement_code": "07",
    "region_code": "84",
    "postal_code": "07590"
  },
  {
    "name": "Planzolles",
    "code": "07176",
    "epci_code": "240700302",
    "departement_code": "07",
    "region_code": "84",
    "postal_code": "07230"
  },
  {
    "name": "Plats",
    "code": "07177",
    "epci_code": "200073096",
    "departement_code": "07",
    "region_code": "84",
    "postal_code": "07300"
  },
  {
    "name": "Pont-de-Labeaume",
    "code": "07178",
    "epci_code": "200039824",
    "departement_code": "07",
    "region_code": "84",
    "postal_code": "07380"
  },
  {
    "name": "Pourchères",
    "code": "07179",
    "epci_code": "200071413",
    "departement_code": "07",
    "region_code": "84",
    "postal_code": "07000"
  },
  {
    "name": "Le Pouzin",
    "code": "07181",
    "epci_code": "200071413",
    "departement_code": "07",
    "region_code": "84",
    "postal_code": "07250"
  },
  {
    "name": "Prades",
    "code": "07182",
    "epci_code": "200039824",
    "departement_code": "07",
    "region_code": "84",
    "postal_code": "07380"
  },
  {
    "name": "Pradons",
    "code": "07183",
    "epci_code": "200039808",
    "departement_code": "07",
    "region_code": "84",
    "postal_code": "07120"
  },
  {
    "name": "Pranles",
    "code": "07184",
    "epci_code": "200071413",
    "departement_code": "07",
    "region_code": "84",
    "postal_code": "07000"
  },
  {
    "name": "Préaux",
    "code": "07185",
    "epci_code": "240700716",
    "departement_code": "07",
    "region_code": "84",
    "postal_code": "07290"
  },
  {
    "name": "Privas",
    "code": "07186",
    "epci_code": "200071413",
    "departement_code": "07",
    "region_code": "84",
    "postal_code": "07000"
  },
  {
    "name": "Prunet",
    "code": "07187",
    "epci_code": "240700617",
    "departement_code": "07",
    "region_code": "84",
    "postal_code": "07110"
  },
  {
    "name": "Quintenas",
    "code": "07188",
    "epci_code": "200072015",
    "departement_code": "07",
    "region_code": "84",
    "postal_code": "07290"
  },
  {
    "name": "Ribes",
    "code": "07189",
    "epci_code": "240700302",
    "departement_code": "07",
    "region_code": "84",
    "postal_code": "07260"
  },
  {
    "name": "Rochecolombe",
    "code": "07190",
    "epci_code": "200039808",
    "departement_code": "07",
    "region_code": "84",
    "postal_code": "07200"
  },
  {
    "name": "Rochemaure",
    "code": "07191",
    "epci_code": "200071405",
    "departement_code": "07",
    "region_code": "84",
    "postal_code": "07400"
  },
  {
    "name": "Rochepaule",
    "code": "07192",
    "epci_code": "200041465",
    "departement_code": "07",
    "region_code": "84",
    "postal_code": "07320"
  },
  {
    "name": "Rocher",
    "code": "07193",
    "epci_code": "240700617",
    "departement_code": "07",
    "region_code": "84",
    "postal_code": "07110"
  },
  {
    "name": "Rochessauve",
    "code": "07194",
    "epci_code": "200071413",
    "departement_code": "07",
    "region_code": "84",
    "postal_code": "07210"
  },
  {
    "name": "La Rochette",
    "code": "07195",
    "epci_code": "200072007",
    "departement_code": "07",
    "region_code": "84",
    "postal_code": "07310"
  },
  {
    "name": "Rocles",
    "code": "07196",
    "epci_code": "240700302",
    "departement_code": "07",
    "region_code": "84",
    "postal_code": "07110"
  },
  {
    "name": "Roiffieux",
    "code": "07197",
    "epci_code": "200072015",
    "departement_code": "07",
    "region_code": "84",
    "postal_code": "07100"
  },
  {
    "name": "Rompon",
    "code": "07198",
    "epci_code": "200071413",
    "departement_code": "07",
    "region_code": "84",
    "postal_code": "07250"
  },
  {
    "name": "Rompon",
    "code": "07198",
    "epci_code": "200071413",
    "departement_code": "07",
    "region_code": "84",
    "postal_code": "07800"
  },
  {
    "name": "Rosières",
    "code": "07199",
    "epci_code": "240700302",
    "departement_code": "07",
    "region_code": "84",
    "postal_code": "07260"
  },
  {
    "name": "Le Roux",
    "code": "07200",
    "epci_code": "200072007",
    "departement_code": "07",
    "region_code": "84",
    "postal_code": "07560"
  },
  {
    "name": "Ruoms",
    "code": "07201",
    "epci_code": "200039808",
    "departement_code": "07",
    "region_code": "84",
    "postal_code": "07120"
  },
  {
    "name": "Sablières",
    "code": "07202",
    "epci_code": "240700302",
    "departement_code": "07",
    "region_code": "84",
    "postal_code": "07260"
  },
  {
    "name": "Sagnes-et-Goudoulet",
    "code": "07203",
    "epci_code": "200072007",
    "departement_code": "07",
    "region_code": "84",
    "postal_code": "07450"
  },
  {
    "name": "Saint-Agrève",
    "code": "07204",
    "epci_code": "200041465",
    "departement_code": "07",
    "region_code": "84",
    "postal_code": "07320"
  },
  {
    "name": "Saint-Alban-d’Ay",
    "code": "07205",
    "epci_code": "240700716",
    "departement_code": "07",
    "region_code": "84",
    "postal_code": "07790"
  },
  {
    "name": "Saint-Alban-en-Montagne",
    "code": "07206",
    "epci_code": "200072007",
    "departement_code": "07",
    "region_code": "84",
    "postal_code": "07590"
  },
  {
    "name": "Saint-Alban-Auriolles",
    "code": "07207",
    "epci_code": "200039808",
    "departement_code": "07",
    "region_code": "84",
    "postal_code": "07120"
  },
  {
    "name": "Saint-Andéol-de-Berg",
    "code": "07208",
    "epci_code": "240700815",
    "departement_code": "07",
    "region_code": "84",
    "postal_code": "07170"
  },
  {
    "name": "Saint-Andéol-de-Fourchades",
    "code": "07209",
    "epci_code": "200041465",
    "departement_code": "07",
    "region_code": "84",
    "postal_code": "07160"
  },
  {
    "name": "Saint-Andéol-de-Vals",
    "code": "07210",
    "epci_code": "200073245",
    "departement_code": "07",
    "region_code": "84",
    "postal_code": "07600"
  },
  {
    "name": "Saint-André-de-Cruzières",
    "code": "07211",
    "epci_code": "200039832",
    "departement_code": "07",
    "region_code": "84",
    "postal_code": "07460"
  },
  {
    "name": "Saint-André-en-Vivarais",
    "code": "07212",
    "epci_code": "200041465",
    "departement_code": "07",
    "region_code": "84",
    "postal_code": "07690"
  },
  {
    "name": "Saint-André-Lachamp",
    "code": "07213",
    "epci_code": "240700302",
    "departement_code": "07",
    "region_code": "84",
    "postal_code": "07230"
  },
  {
    "name": "Saint-Apollinaire-de-Rias",
    "code": "07214",
    "epci_code": "200071413",
    "departement_code": "07",
    "region_code": "84",
    "postal_code": "07240"
  },
  {
    "name": "Saint-Barthélemy-le-Meil",
    "code": "07215",
    "epci_code": "200041465",
    "departement_code": "07",
    "region_code": "84",
    "postal_code": "07160"
  },
  {
    "name": "Saint-Barthélemy-Grozon",
    "code": "07216",
    "epci_code": "200016905",
    "departement_code": "07",
    "region_code": "84",
    "postal_code": "07270"
  },
  {
    "name": "Saint-Barthélemy-le-Plain",
    "code": "07217",
    "epci_code": "200073096",
    "departement_code": "07",
    "region_code": "84",
    "postal_code": "07300"
  },
  {
    "name": "Saint-Basile",
    "code": "07218",
    "epci_code": "200016905",
    "departement_code": "07",
    "region_code": "84",
    "postal_code": "07270"
  },
  {
    "name": "Saint-Bauzile",
    "code": "07219",
    "epci_code": "200071405",
    "departement_code": "07",
    "region_code": "84",
    "postal_code": "07210"
  },
  {
    "name": "Saint-Christol",
    "code": "07220",
    "epci_code": "200041465",
    "departement_code": "07",
    "region_code": "84",
    "postal_code": "07160"
  },
  {
    "name": "Saint-Cierge-la-Serre",
    "code": "07221",
    "epci_code": "200071413",
    "departement_code": "07",
    "region_code": "84",
    "postal_code": "07800"
  },
  {
    "name": "Saint-Cierge-sous-le-Cheylard",
    "code": "07222",
    "epci_code": "200041465",
    "departement_code": "07",
    "region_code": "84",
    "postal_code": "07160"
  },
  {
    "name": "Saint-Cirgues-de-Prades",
    "code": "07223",
    "epci_code": "200039824",
    "departement_code": "07",
    "region_code": "84",
    "postal_code": "07380"
  },
  {
    "name": "Saint-Cirgues-en-Montagne",
    "code": "07224",
    "epci_code": "200072007",
    "departement_code": "07",
    "region_code": "84",
    "postal_code": "07510"
  },
  {
    "name": "Saint-Clair",
    "code": "07225",
    "epci_code": "200072015",
    "departement_code": "07",
    "region_code": "84",
    "postal_code": "07430"
  },
  {
    "name": "Saint-Clément",
    "code": "07226",
    "epci_code": "200041465",
    "departement_code": "07",
    "region_code": "84",
    "postal_code": "07310"
  },
  {
    "name": "Saint-Cyr",
    "code": "07227",
    "epci_code": "200072015",
    "departement_code": "07",
    "region_code": "84",
    "postal_code": "07430"
  },
  {
    "name": "Saint-Désirat",
    "code": "07228",
    "epci_code": "200072015",
    "departement_code": "07",
    "region_code": "84",
    "postal_code": "07340"
  },
  {
    "name": "Saint-Didier-sous-Aubenas",
    "code": "07229",
    "epci_code": "200073245",
    "departement_code": "07",
    "region_code": "84",
    "postal_code": "07200"
  },
  {
    "name": "Saint-Étienne-de-Boulogne",
    "code": "07230",
    "epci_code": "200073245",
    "departement_code": "07",
    "region_code": "84",
    "postal_code": "07200"
  },
  {
    "name": "Saint-Étienne-de-Fontbellon",
    "code": "07231",
    "epci_code": "200073245",
    "departement_code": "07",
    "region_code": "84",
    "postal_code": "07200"
  },
  {
    "name": "Saint-Étienne-de-Lugdarès",
    "code": "07232",
    "epci_code": "200072007",
    "departement_code": "07",
    "region_code": "84",
    "postal_code": "07590"
  },
  {
    "name": "Saint-Étienne-de-Serre",
    "code": "07233",
    "epci_code": "200071413",
    "departement_code": "07",
    "region_code": "84",
    "postal_code": "07190"
  },
  {
    "name": "Saint-Étienne-de-Valoux",
    "code": "07234",
    "epci_code": "200040491",
    "departement_code": "07",
    "region_code": "84",
    "postal_code": "07340"
  },
  {
    "name": "Sainte-Eulalie",
    "code": "07235",
    "epci_code": "200072007",
    "departement_code": "07",
    "region_code": "84",
    "postal_code": "07510"
  },
  {
    "name": "Saint-Félicien",
    "code": "07236",
    "epci_code": "200073096",
    "departement_code": "07",
    "region_code": "84",
    "postal_code": "07410"
  },
  {
    "name": "Saint-Fortunat-sur-Eyrieux",
    "code": "07237",
    "epci_code": "200071413",
    "departement_code": "07",
    "region_code": "84",
    "postal_code": "07360"
  },
  {
    "name": "Saint-Genest-de-Beauzon",
    "code": "07238",
    "epci_code": "240700302",
    "departement_code": "07",
    "region_code": "84",
    "postal_code": "07230"
  },
  {
    "name": "Saint-Genest-Lachamp",
    "code": "07239",
    "epci_code": "200041465",
    "departement_code": "07",
    "region_code": "84",
    "postal_code": "07160"
  },
  {
    "name": "Saint-Genest-Lachamp",
    "code": "07239",
    "epci_code": "200041465",
    "departement_code": "07",
    "region_code": "84",
    "postal_code": "07190"
  },
  {
    "name": "Saint-Georges-les-Bains",
    "code": "07240",
    "epci_code": "200041366",
    "departement_code": "07",
    "region_code": "84",
    "postal_code": "07800"
  },
  {
    "name": "Saint-Germain",
    "code": "07241",
    "epci_code": "240700815",
    "departement_code": "07",
    "region_code": "84",
    "postal_code": "07170"
  },
  {
    "name": "Saint-Gineys-en-Coiron",
    "code": "07242",
    "epci_code": "240700815",
    "departement_code": "07",
    "region_code": "84",
    "postal_code": "07580"
  },
  {
    "name": "Saint-Jacques-d’Atticieux",
    "code": "07243",
    "epci_code": "200072015",
    "departement_code": "07",
    "region_code": "84",
    "postal_code": "07340"
  },
  {
    "name": "Saint-Jean-Chambre",
    "code": "07244",
    "epci_code": "200071413",
    "departement_code": "07",
    "region_code": "84",
    "postal_code": "07240"
  },
  {
    "name": "Saint-Jean-de-Muzols",
    "code": "07245",
    "epci_code": "200073096",
    "departement_code": "07",
    "region_code": "84",
    "postal_code": "07300"
  },
  {
    "name": "Saint-Jean-le-Centenier",
    "code": "07247",
    "epci_code": "240700815",
    "departement_code": "07",
    "region_code": "84",
    "postal_code": "07580"
  },
  {
    "name": "Saint-Jean-Roure",
    "code": "07248",
    "epci_code": "200041465",
    "departement_code": "07",
    "region_code": "84",
    "postal_code": "07160"
  },
  {
    "name": "Saint-Jeure-d’Andaure",
    "code": "07249",
    "epci_code": "200041465",
    "departement_code": "07",
    "region_code": "84",
    "postal_code": "07320"
  },
  {
    "name": "Saint-Jeure-d’Ay",
    "code": "07250",
    "epci_code": "240700716",
    "departement_code": "07",
    "region_code": "84",
    "postal_code": "07290"
  },
  {
    "name": "Saint-Joseph-des-Bancs",
    "code": "07251",
    "epci_code": "200073245",
    "departement_code": "07",
    "region_code": "84",
    "postal_code": "07530"
  },
  {
    "name": "Saint-Julien-du-Gua",
    "code": "07253",
    "epci_code": "200071413",
    "departement_code": "07",
    "region_code": "84",
    "postal_code": "07190"
  },
  {
    "name": "Saint-Julien-du-Serre",
    "code": "07254",
    "epci_code": "200073245",
    "departement_code": "07",
    "region_code": "84",
    "postal_code": "07200"
  },
  {
    "name": "Saint-Julien-en-Saint-Alban",
    "code": "07255",
    "epci_code": "200071413",
    "departement_code": "07",
    "region_code": "84",
    "postal_code": "07000"
  },
  {
    "name": "Saint-Julien-le-Roux",
    "code": "07257",
    "epci_code": "200071413",
    "departement_code": "07",
    "region_code": "84",
    "postal_code": "07240"
  },
  {
    "name": "Saint-Julien-Vocance",
    "code": "07258",
    "epci_code": "200072015",
    "departement_code": "07",
    "region_code": "84",
    "postal_code": "07690"
  },
  {
    "name": "Saint-Just-d’Ardèche",
    "code": "07259",
    "epci_code": "240700864",
    "departement_code": "07",
    "region_code": "84",
    "postal_code": "07700"
  },
  {
    "name": "Saint-Lager-Bressac",
    "code": "07260",
    "epci_code": "200071405",
    "departement_code": "07",
    "region_code": "84",
    "postal_code": "07210"
  },
  {
    "name": "Saint-Laurent-du-Pape",
    "code": "07261",
    "epci_code": "200071413",
    "departement_code": "07",
    "region_code": "84",
    "postal_code": "07800"
  },
  {
    "name": "Saint-Laurent-les-Bains-Laval-d’Aurelle",
    "code": "07262",
    "epci_code": "200072007",
    "departement_code": "07",
    "region_code": "84",
    "postal_code": "07590"
  },
  {
    "name": "Saint-Laurent-sous-Coiron",
    "code": "07263",
    "epci_code": "240700815",
    "departement_code": "07",
    "region_code": "84",
    "postal_code": "07170"
  },
  {
    "name": "Saint-Marcel-d’Ardèche",
    "code": "07264",
    "epci_code": "240700864",
    "departement_code": "07",
    "region_code": "84",
    "postal_code": "07700"
  },
  {
    "name": "Saint-Marcel-lès-Annonay",
    "code": "07265",
    "epci_code": "200072015",
    "departement_code": "07",
    "region_code": "84",
    "postal_code": "07100"
  },
  {
    "name": "Sainte-Marguerite-Lafigère",
    "code": "07266",
    "epci_code": "200039832",
    "departement_code": "07",
    "region_code": "84",
    "postal_code": "07140"
  },
  {
    "name": "Saint-Martial",
    "code": "07267",
    "epci_code": "200072007",
    "departement_code": "07",
    "region_code": "84",
    "postal_code": "07310"
  },
  {
    "name": "Saint-Martin-d’Ardèche",
    "code": "07268",
    "epci_code": "240700864",
    "departement_code": "07",
    "region_code": "84",
    "postal_code": "07700"
  },
  {
    "name": "Saint-Martin-de-Valamas",
    "code": "07269",
    "epci_code": "200041465",
    "departement_code": "07",
    "region_code": "84",
    "postal_code": "07310"
  },
  {
    "name": "Saint-Martin-sur-Lavezon",
    "code": "07270",
    "epci_code": "200071405",
    "departement_code": "07",
    "region_code": "84",
    "postal_code": "07400"
  },
  {
    "name": "Saint-Maurice-d’Ardèche",
    "code": "07272",
    "epci_code": "200039808",
    "departement_code": "07",
    "region_code": "84",
    "postal_code": "07200"
  },
  {
    "name": "Saint-Maurice-d’Ibie",
    "code": "07273",
    "epci_code": "240700815",
    "departement_code": "07",
    "region_code": "84",
    "postal_code": "07170"
  },
  {
    "name": "Saint-Maurice-en-Chalencon",
    "code": "07274",
    "epci_code": "200071413",
    "departement_code": "07",
    "region_code": "84",
    "postal_code": "07190"
  },
  {
    "name": "Saint-Mélany",
    "code": "07275",
    "epci_code": "240700302",
    "departement_code": "07",
    "region_code": "84",
    "postal_code": "07260"
  },
  {
    "name": "Saint-Michel-d’Aurance",
    "code": "07276",
    "epci_code": "200041465",
    "departement_code": "07",
    "region_code": "84",
    "postal_code": "07160"
  },
  {
    "name": "Saint-Michel-de-Boulogne",
    "code": "07277",
    "epci_code": "200073245",
    "departement_code": "07",
    "region_code": "84",
    "postal_code": "07200"
  },
  {
    "name": "Saint-Michel-de-Chabrillanoux",
    "code": "07278",
    "epci_code": "200071413",
    "departement_code": "07",
    "region_code": "84",
    "postal_code": "07360"
  },
  {
    "name": "Saint-Montan",
    "code": "07279",
    "epci_code": "240700864",
    "departement_code": "07",
    "region_code": "84",
    "postal_code": "07220"
  },
  {
    "name": "Saint-Paul-le-Jeune",
    "code": "07280",
    "epci_code": "200039832",
    "departement_code": "07",
    "region_code": "84",
    "postal_code": "07460"
  },
  {
    "name": "Saint-Péray",
    "code": "07281",
    "epci_code": "200041366",
    "departement_code": "07",
    "region_code": "84",
    "postal_code": "07130"
  },
  {
    "name": "Saint-Pierre-de-Colombier",
    "code": "07282",
    "epci_code": "200039824",
    "departement_code": "07",
    "region_code": "84",
    "postal_code": "07450"
  },
  {
    "name": "Saint-Pierre-la-Roche",
    "code": "07283",
    "epci_code": "200071405",
    "departement_code": "07",
    "region_code": "84",
    "postal_code": "07400"
  },
  {
    "name": "Saint-Pierre-Saint-Jean",
    "code": "07284",
    "epci_code": "200039832",
    "departement_code": "07",
    "region_code": "84",
    "postal_code": "07140"
  },
  {
    "name": "Saint-Pierre-sur-Doux",
    "code": "07285",
    "epci_code": "240700716",
    "departement_code": "07",
    "region_code": "84",
    "postal_code": "07520"
  },
  {
    "name": "Saint-Pierreville",
    "code": "07286",
    "epci_code": "200041465",
    "departement_code": "07",
    "region_code": "84",
    "postal_code": "07190"
  },
  {
    "name": "Saint-Pons",
    "code": "07287",
    "epci_code": "240700815",
    "departement_code": "07",
    "region_code": "84",
    "postal_code": "07580"
  },
  {
    "name": "Saint-Priest",
    "code": "07288",
    "epci_code": "200071413",
    "departement_code": "07",
    "region_code": "84",
    "postal_code": "07000"
  },
  {
    "name": "Saint-Privat",
    "code": "07289",
    "epci_code": "200073245",
    "departement_code": "07",
    "region_code": "84",
    "postal_code": "07200"
  },
  {
    "name": "Saint-Prix",
    "code": "07290",
    "epci_code": "200016905",
    "departement_code": "07",
    "region_code": "84",
    "postal_code": "07270"
  },
  {
    "name": "Saint-Remèze",
    "code": "07291",
    "epci_code": "200039808",
    "departement_code": "07",
    "region_code": "84",
    "postal_code": "07700"
  },
  {
    "name": "Saint-Romain-d’Ay",
    "code": "07292",
    "epci_code": "240700716",
    "departement_code": "07",
    "region_code": "84",
    "postal_code": "07290"
  },
  {
    "name": "Saint-Romain-de-Lerps",
    "code": "07293",
    "epci_code": "200041366",
    "departement_code": "07",
    "region_code": "84",
    "postal_code": "07130"
  },
  {
    "name": "Saint-Sauveur-de-Cruzières",
    "code": "07294",
    "epci_code": "200035129",
    "departement_code": "07",
    "region_code": "84",
    "postal_code": "07460"
  },
  {
    "name": "Saint-Sauveur-de-Montagut",
    "code": "07295",
    "epci_code": "200071413",
    "departement_code": "07",
    "region_code": "84",
    "postal_code": "07190"
  },
  {
    "name": "Saint-Sernin",
    "code": "07296",
    "epci_code": "200073245",
    "departement_code": "07",
    "region_code": "84",
    "postal_code": "07200"
  },
  {
    "name": "Saint-Sylvestre",
    "code": "07297",
    "epci_code": "200041366",
    "departement_code": "07",
    "region_code": "84",
    "postal_code": "07440"
  },
  {
    "name": "Saint-Symphorien-sous-Chomérac",
    "code": "07298",
    "epci_code": "200071405",
    "departement_code": "07",
    "region_code": "84",
    "postal_code": "07210"
  },
  {
    "name": "Saint-Symphorien-de-Mahun",
    "code": "07299",
    "epci_code": "240700716",
    "departement_code": "07",
    "region_code": "84",
    "postal_code": "07290"
  },
  {
    "name": "Saint-Thomé",
    "code": "07300",
    "epci_code": "200071405",
    "departement_code": "07",
    "region_code": "84",
    "postal_code": "07220"
  },
  {
    "name": "Saint-Victor",
    "code": "07301",
    "epci_code": "200073096",
    "departement_code": "07",
    "region_code": "84",
    "postal_code": "07410"
  },
  {
    "name": "Saint-Vincent-de-Barrès",
    "code": "07302",
    "epci_code": "200071405",
    "departement_code": "07",
    "region_code": "84",
    "postal_code": "07210"
  },
  {
    "name": "Saint-Vincent-de-Durfort",
    "code": "07303",
    "epci_code": "200071413",
    "departement_code": "07",
    "region_code": "84",
    "postal_code": "07360"
  },
  {
    "name": "Salavas",
    "code": "07304",
    "epci_code": "200039808",
    "departement_code": "07",
    "region_code": "84",
    "postal_code": "07150"
  },
  {
    "name": "Les Salelles",
    "code": "07305",
    "epci_code": "200039832",
    "departement_code": "07",
    "region_code": "84",
    "postal_code": "07140"
  },
  {
    "name": "Sampzon",
    "code": "07306",
    "epci_code": "200039808",
    "departement_code": "07",
    "region_code": "84",
    "postal_code": "07120"
  },
  {
    "name": "Sanilhac",
    "code": "07307",
    "epci_code": "240700617",
    "departement_code": "07",
    "region_code": "84",
    "postal_code": "07110"
  },
  {
    "name": "Sarras",
    "code": "07308",
    "epci_code": "200040491",
    "departement_code": "07",
    "region_code": "84",
    "postal_code": "07370"
  },
  {
    "name": "Satillieu",
    "code": "07309",
    "epci_code": "240700716",
    "departement_code": "07",
    "region_code": "84",
    "postal_code": "07290"
  },
  {
    "name": "Savas",
    "code": "07310",
    "epci_code": "200072015",
    "departement_code": "07",
    "region_code": "84",
    "postal_code": "07430"
  },
  {
    "name": "Sceautres",
    "code": "07311",
    "epci_code": "240700815",
    "departement_code": "07",
    "region_code": "84",
    "postal_code": "07400"
  },
  {
    "name": "Sécheras",
    "code": "07312",
    "epci_code": "200073096",
    "departement_code": "07",
    "region_code": "84",
    "postal_code": "07610"
  },
  {
    "name": "Serrières",
    "code": "07313",
    "epci_code": "200072015",
    "departement_code": "07",
    "region_code": "84",
    "postal_code": "07340"
  },
  {
    "name": "Silhac",
    "code": "07314",
    "epci_code": "200071413",
    "departement_code": "07",
    "region_code": "84",
    "postal_code": "07240"
  },
  {
    "name": "La Souche",
    "code": "07315",
    "epci_code": "200039824",
    "departement_code": "07",
    "region_code": "84",
    "postal_code": "07380"
  },
  {
    "name": "Soyons",
    "code": "07316",
    "epci_code": "200041366",
    "departement_code": "07",
    "region_code": "84",
    "postal_code": "07130"
  },
  {
    "name": "Talencieux",
    "code": "07317",
    "epci_code": "200072015",
    "departement_code": "07",
    "region_code": "84",
    "postal_code": "07340"
  },
  {
    "name": "Tauriers",
    "code": "07318",
    "epci_code": "240700617",
    "departement_code": "07",
    "region_code": "84",
    "postal_code": "07110"
  },
  {
    "name": "Le Teil",
    "code": "07319",
    "epci_code": "200071405",
    "departement_code": "07",
    "region_code": "84",
    "postal_code": "07400"
  },
  {
    "name": "Thorrenc",
    "code": "07321",
    "epci_code": "200072015",
    "departement_code": "07",
    "region_code": "84",
    "postal_code": "07340"
  },
  {
    "name": "Thueyts",
    "code": "07322",
    "epci_code": "200039824",
    "departement_code": "07",
    "region_code": "84",
    "postal_code": "07330"
  },
  {
    "name": "Toulaud",
    "code": "07323",
    "epci_code": "200041366",
    "departement_code": "07",
    "region_code": "84",
    "postal_code": "07130"
  },
  {
    "name": "Tournon-sur-Rhône",
    "code": "07324",
    "epci_code": "200073096",
    "departement_code": "07",
    "region_code": "84",
    "postal_code": "07300"
  },
  {
    "name": "Ucel",
    "code": "07325",
    "epci_code": "200073245",
    "departement_code": "07",
    "region_code": "84",
    "postal_code": "07200"
  },
  {
    "name": "Usclades-et-Rieutord",
    "code": "07326",
    "epci_code": "200072007",
    "departement_code": "07",
    "region_code": "84",
    "postal_code": "07510"
  },
  {
    "name": "Uzer",
    "code": "07327",
    "epci_code": "240700617",
    "departement_code": "07",
    "region_code": "84",
    "postal_code": "07110"
  },
  {
    "name": "Vagnas",
    "code": "07328",
    "epci_code": "200039808",
    "departement_code": "07",
    "region_code": "84",
    "postal_code": "07150"
  },
  {
    "name": "Valgorge",
    "code": "07329",
    "epci_code": "240700302",
    "departement_code": "07",
    "region_code": "84",
    "postal_code": "07110"
  },
  {
    "name": "Vallon-Pont-d’Arc",
    "code": "07330",
    "epci_code": "200039808",
    "departement_code": "07",
    "region_code": "84",
    "postal_code": "07150"
  },
  {
    "name": "Vals-les-Bains",
    "code": "07331",
    "epci_code": "200073245",
    "departement_code": "07",
    "region_code": "84",
    "postal_code": "07600"
  },
  {
    "name": "Valvignères",
    "code": "07332",
    "epci_code": "200071405",
    "departement_code": "07",
    "region_code": "84",
    "postal_code": "07400"
  },
  {
    "name": "Vanosc",
    "code": "07333",
    "epci_code": "200072015",
    "departement_code": "07",
    "region_code": "84",
    "postal_code": "07690"
  },
  {
    "name": "Les Vans",
    "code": "07334",
    "epci_code": "200039832",
    "departement_code": "07",
    "region_code": "84",
    "postal_code": "07140"
  },
  {
    "name": "Vaudevant",
    "code": "07335",
    "epci_code": "200073096",
    "departement_code": "07",
    "region_code": "84",
    "postal_code": "07410"
  },
  {
    "name": "Vernon",
    "code": "07336",
    "epci_code": "240700302",
    "departement_code": "07",
    "region_code": "84",
    "postal_code": "07260"
  },
  {
    "name": "Vernosc-lès-Annonay",
    "code": "07337",
    "epci_code": "200072015",
    "departement_code": "07",
    "region_code": "84",
    "postal_code": "07430"
  },
  {
    "name": "Vernoux-en-Vivarais",
    "code": "07338",
    "epci_code": "200071413",
    "departement_code": "07",
    "region_code": "84",
    "postal_code": "07240"
  },
  {
    "name": "Vesseaux",
    "code": "07339",
    "epci_code": "200073245",
    "departement_code": "07",
    "region_code": "84",
    "postal_code": "07200"
  },
  {
    "name": "Veyras",
    "code": "07340",
    "epci_code": "200071413",
    "departement_code": "07",
    "region_code": "84",
    "postal_code": "07000"
  },
  {
    "name": "Villeneuve-de-Berg",
    "code": "07341",
    "epci_code": "240700815",
    "departement_code": "07",
    "region_code": "84",
    "postal_code": "07170"
  },
  {
    "name": "Villevocance",
    "code": "07342",
    "epci_code": "200072015",
    "departement_code": "07",
    "region_code": "84",
    "postal_code": "07690"
  },
  {
    "name": "Vinezac",
    "code": "07343",
    "epci_code": "200073245",
    "departement_code": "07",
    "region_code": "84",
    "postal_code": "07110"
  },
  {
    "name": "Vinzieux",
    "code": "07344",
    "epci_code": "200072015",
    "departement_code": "07",
    "region_code": "84",
    "postal_code": "07340"
  },
  {
    "name": "Vion",
    "code": "07345",
    "epci_code": "200073096",
    "departement_code": "07",
    "region_code": "84",
    "postal_code": "07610"
  },
  {
    "name": "Viviers",
    "code": "07346",
    "epci_code": "240700864",
    "departement_code": "07",
    "region_code": "84",
    "postal_code": "07220"
  },
  {
    "name": "Vocance",
    "code": "07347",
    "epci_code": "200072015",
    "departement_code": "07",
    "region_code": "84",
    "postal_code": "07690"
  },
  {
    "name": "Vogüé",
    "code": "07348",
    "epci_code": "200039808",
    "departement_code": "07",
    "region_code": "84",
    "postal_code": "07200"
  },
  {
    "name": "La Voulte-sur-Rhône",
    "code": "07349",
    "epci_code": "200071413",
    "departement_code": "07",
    "region_code": "84",
    "postal_code": "07800"
  }
]