[
  {
    "name": "Argol",
    "code": "29001",
    "epci_code": "200066868",
    "departement_code": "29",
    "region_code": "53",
    "postal_code": "29560"
  },
  {
    "name": "Arzano",
    "code": "29002",
    "epci_code": "242900694",
    "departement_code": "29",
    "region_code": "53",
    "postal_code": "29300"
  },
  {
    "name": "Audierne",
    "code": "29003",
    "epci_code": "242900629",
    "departement_code": "29",
    "region_code": "53",
    "postal_code": "29770"
  },
  {
    "name": "Bannalec",
    "code": "29004",
    "epci_code": "242900694",
    "departement_code": "29",
    "region_code": "53",
    "postal_code": "29380"
  },
  {
    "name": "Baye",
    "code": "29005",
    "epci_code": "242900694",
    "departement_code": "29",
    "region_code": "53",
    "postal_code": "29300"
  },
  {
    "name": "Bénodet",
    "code": "29006",
    "epci_code": "242900660",
    "departement_code": "29",
    "region_code": "53",
    "postal_code": "29950"
  },
  {
    "name": "Berrien",
    "code": "29007",
    "epci_code": "200067197",
    "departement_code": "29",
    "region_code": "53",
    "postal_code": "29690"
  },
  {
    "name": "Beuzec-Cap-Sizun",
    "code": "29008",
    "epci_code": "242900629",
    "departement_code": "29",
    "region_code": "53",
    "postal_code": "29790"
  },
  {
    "name": "Bodilis",
    "code": "29010",
    "epci_code": "242900751",
    "departement_code": "29",
    "region_code": "53",
    "postal_code": "29400"
  },
  {
    "name": "Bohars",
    "code": "29011",
    "epci_code": "242900314",
    "departement_code": "29",
    "region_code": "53",
    "postal_code": "29820"
  },
  {
    "name": "Bolazec",
    "code": "29012",
    "epci_code": "200067197",
    "departement_code": "29",
    "region_code": "53",
    "postal_code": "29640"
  },
  {
    "name": "Botmeur",
    "code": "29013",
    "epci_code": "200067197",
    "departement_code": "29",
    "region_code": "53",
    "postal_code": "29690"
  },
  {
    "name": "Botsorhel",
    "code": "29014",
    "epci_code": "242900835",
    "departement_code": "29",
    "region_code": "53",
    "postal_code": "29650"
  },
  {
    "name": "Bourg-Blanc",
    "code": "29015",
    "epci_code": "242900553",
    "departement_code": "29",
    "region_code": "53",
    "postal_code": "29860"
  },
  {
    "name": "Brasparts",
    "code": "29016",
    "epci_code": "200067197",
    "departement_code": "29",
    "region_code": "53",
    "postal_code": "29190"
  },
  {
    "name": "Brélès",
    "code": "29017",
    "epci_code": "242900074",
    "departement_code": "29",
    "region_code": "53",
    "postal_code": "29810"
  },
  {
    "name": "Brennilis",
    "code": "29018",
    "epci_code": "200067197",
    "departement_code": "29",
    "region_code": "53",
    "postal_code": "29690"
  },
  {
    "name": "Brest",
    "code": "29019",
    "epci_code": "242900314",
    "departement_code": "29",
    "region_code": "53",
    "postal_code": "29200"
  },
  {
    "name": "Briec",
    "code": "29020",
    "epci_code": "200068120",
    "departement_code": "29",
    "region_code": "53",
    "postal_code": "29510"
  },
  {
    "name": "Plounéour-Brignogan-plages",
    "code": "29021",
    "epci_code": "242900793",
    "departement_code": "29",
    "region_code": "53",
    "postal_code": "29890"
  },
  {
    "name": "Camaret-sur-Mer",
    "code": "29022",
    "epci_code": "200066868",
    "departement_code": "29",
    "region_code": "53",
    "postal_code": "29570"
  },
  {
    "name": "Carantec",
    "code": "29023",
    "epci_code": "242900835",
    "departement_code": "29",
    "region_code": "53",
    "postal_code": "29660"
  },
  {
    "name": "Carhaix-Plouguer",
    "code": "29024",
    "epci_code": "242900744",
    "departement_code": "29",
    "region_code": "53",
    "postal_code": "29270"
  },
  {
    "name": "Cast",
    "code": "29025",
    "epci_code": "200067247",
    "departement_code": "29",
    "region_code": "53",
    "postal_code": "29150"
  },
  {
    "name": "Châteaulin",
    "code": "29026",
    "epci_code": "200067247",
    "departement_code": "29",
    "region_code": "53",
    "postal_code": "29150"
  },
  {
    "name": "Châteauneuf-du-Faou",
    "code": "29027",
    "epci_code": "242900561",
    "departement_code": "29",
    "region_code": "53",
    "postal_code": "29520"
  },
  {
    "name": "Cléden-Cap-Sizun",
    "code": "29028",
    "epci_code": "242900629",
    "departement_code": "29",
    "region_code": "53",
    "postal_code": "29770"
  },
  {
    "name": "Cléden-Poher",
    "code": "29029",
    "epci_code": "242900744",
    "departement_code": "29",
    "region_code": "53",
    "postal_code": "29270"
  },
  {
    "name": "Cléder",
    "code": "29030",
    "epci_code": "200067072",
    "departement_code": "29",
    "region_code": "53",
    "postal_code": "29233"
  },
  {
    "name": "Clohars-Carnoët",
    "code": "29031",
    "epci_code": "242900694",
    "departement_code": "29",
    "region_code": "53",
    "postal_code": "29360"
  },
  {
    "name": "Clohars-Fouesnant",
    "code": "29032",
    "epci_code": "242900660",
    "departement_code": "29",
    "region_code": "53",
    "postal_code": "29950"
  },
  {
    "name": "Le Cloître-Pleyben",
    "code": "29033",
    "epci_code": "200067247",
    "departement_code": "29",
    "region_code": "53",
    "postal_code": "29190"
  },
  {
    "name": "Le Cloître-Saint-Thégonnec",
    "code": "29034",
    "epci_code": "242900835",
    "departement_code": "29",
    "region_code": "53",
    "postal_code": "29410"
  },
  {
    "name": "Coat-Méal",
    "code": "29035",
    "epci_code": "242900553",
    "departement_code": "29",
    "region_code": "53",
    "postal_code": "29870"
  },
  {
    "name": "Collorec",
    "code": "29036",
    "epci_code": "242900561",
    "departement_code": "29",
    "region_code": "53",
    "postal_code": "29530"
  },
  {
    "name": "Combrit",
    "code": "29037",
    "epci_code": "242900702",
    "departement_code": "29",
    "region_code": "53",
    "postal_code": "29120"
  },
  {
    "name": "Commana",
    "code": "29038",
    "epci_code": "242900751",
    "departement_code": "29",
    "region_code": "53",
    "postal_code": "29450"
  },
  {
    "name": "Concarneau",
    "code": "29039",
    "epci_code": "242900769",
    "departement_code": "29",
    "region_code": "53",
    "postal_code": "29900"
  },
  {
    "name": "Le Conquet",
    "code": "29040",
    "epci_code": "242900074",
    "departement_code": "29",
    "region_code": "53",
    "postal_code": "29217"
  },
  {
    "name": "Coray",
    "code": "29041",
    "epci_code": "242900561",
    "departement_code": "29",
    "region_code": "53",
    "postal_code": "29370"
  },
  {
    "name": "Crozon",
    "code": "29042",
    "epci_code": "200066868",
    "departement_code": "29",
    "region_code": "53",
    "postal_code": "29160"
  },
  {
    "name": "Daoulas",
    "code": "29043",
    "epci_code": "242900801",
    "departement_code": "29",
    "region_code": "53",
    "postal_code": "29460"
  },
  {
    "name": "Dinéault",
    "code": "29044",
    "epci_code": "200067247",
    "departement_code": "29",
    "region_code": "53",
    "postal_code": "29150"
  },
  {
    "name": "Dirinon",
    "code": "29045",
    "epci_code": "242900801",
    "departement_code": "29",
    "region_code": "53",
    "postal_code": "29460"
  },
  {
    "name": "Douarnenez",
    "code": "29046",
    "epci_code": "242900645",
    "departement_code": "29",
    "region_code": "53",
    "postal_code": "29100"
  },
  {
    "name": "Le Drennec",
    "code": "29047",
    "epci_code": "242900553",
    "departement_code": "29",
    "region_code": "53",
    "postal_code": "29860"
  },
  {
    "name": "Edern",
    "code": "29048",
    "epci_code": "200068120",
    "departement_code": "29",
    "region_code": "53",
    "postal_code": "29510"
  },
  {
    "name": "Elliant",
    "code": "29049",
    "epci_code": "242900769",
    "departement_code": "29",
    "region_code": "53",
    "postal_code": "29370"
  },
  {
    "name": "Ergué-Gabéric",
    "code": "29051",
    "epci_code": "200068120",
    "departement_code": "29",
    "region_code": "53",
    "postal_code": "29500"
  },
  {
    "name": "Le Faou",
    "code": "29053",
    "epci_code": "200066868",
    "departement_code": "29",
    "region_code": "53",
    "postal_code": "29590"
  },
  {
    "name": "La Feuillée",
    "code": "29054",
    "epci_code": "200067197",
    "departement_code": "29",
    "region_code": "53",
    "postal_code": "29690"
  },
  {
    "name": "Le Folgoët",
    "code": "29055",
    "epci_code": "242900793",
    "departement_code": "29",
    "region_code": "53",
    "postal_code": "29260"
  },
  {
    "name": "La Forest-Landerneau",
    "code": "29056",
    "epci_code": "242900801",
    "departement_code": "29",
    "region_code": "53",
    "postal_code": "29800"
  },
  {
    "name": "La Forêt-Fouesnant",
    "code": "29057",
    "epci_code": "242900660",
    "departement_code": "29",
    "region_code": "53",
    "postal_code": "29940"
  },
  {
    "name": "Fouesnant",
    "code": "29058",
    "epci_code": "242900660",
    "departement_code": "29",
    "region_code": "53",
    "postal_code": "29170"
  },
  {
    "name": "Garlan",
    "code": "29059",
    "epci_code": "242900835",
    "departement_code": "29",
    "region_code": "53",
    "postal_code": "29610"
  },
  {
    "name": "Gouesnach",
    "code": "29060",
    "epci_code": "242900660",
    "departement_code": "29",
    "region_code": "53",
    "postal_code": "29950"
  },
  {
    "name": "Gouesnou",
    "code": "29061",
    "epci_code": "242900314",
    "departement_code": "29",
    "region_code": "53",
    "postal_code": "29850"
  },
  {
    "name": "Gouézec",
    "code": "29062",
    "epci_code": "200067247",
    "departement_code": "29",
    "region_code": "53",
    "postal_code": "29190"
  },
  {
    "name": "Goulien",
    "code": "29063",
    "epci_code": "242900629",
    "departement_code": "29",
    "region_code": "53",
    "postal_code": "29770"
  },
  {
    "name": "Goulven",
    "code": "29064",
    "epci_code": "242900793",
    "departement_code": "29",
    "region_code": "53",
    "postal_code": "29890"
  },
  {
    "name": "Gourlizon",
    "code": "29065",
    "epci_code": "242900710",
    "departement_code": "29",
    "region_code": "53",
    "postal_code": "29710"
  },
  {
    "name": "Guengat",
    "code": "29066",
    "epci_code": "200068120",
    "departement_code": "29",
    "region_code": "53",
    "postal_code": "29180"
  },
  {
    "name": "Guerlesquin",
    "code": "29067",
    "epci_code": "242900835",
    "departement_code": "29",
    "region_code": "53",
    "postal_code": "29650"
  },
  {
    "name": "Guiclan",
    "code": "29068",
    "epci_code": "242900751",
    "departement_code": "29",
    "region_code": "53",
    "postal_code": "29410"
  },
  {
    "name": "Guilers",
    "code": "29069",
    "epci_code": "242900314",
    "departement_code": "29",
    "region_code": "53",
    "postal_code": "29820"
  },
  {
    "name": "Guiler-sur-Goyen",
    "code": "29070",
    "epci_code": "242900710",
    "departement_code": "29",
    "region_code": "53",
    "postal_code": "29710"
  },
  {
    "name": "Guilligomarc’h",
    "code": "29071",
    "epci_code": "242900694",
    "departement_code": "29",
    "region_code": "53",
    "postal_code": "29300"
  },
  {
    "name": "Guilvinec",
    "code": "29072",
    "epci_code": "242900702",
    "departement_code": "29",
    "region_code": "53",
    "postal_code": "29730"
  },
  {
    "name": "Guimaëc",
    "code": "29073",
    "epci_code": "242900835",
    "departement_code": "29",
    "region_code": "53",
    "postal_code": "29620"
  },
  {
    "name": "Guimiliau",
    "code": "29074",
    "epci_code": "242900751",
    "departement_code": "29",
    "region_code": "53",
    "postal_code": "29400"
  },
  {
    "name": "Guipavas",
    "code": "29075",
    "epci_code": "242900314",
    "departement_code": "29",
    "region_code": "53",
    "postal_code": "29490"
  },
  {
    "name": "Milizac-Guipronvel",
    "code": "29076",
    "epci_code": "242900074",
    "departement_code": "29",
    "region_code": "53",
    "postal_code": "29290"
  },
  {
    "name": "Guissény",
    "code": "29077",
    "epci_code": "242900793",
    "departement_code": "29",
    "region_code": "53",
    "postal_code": "29880"
  },
  {
    "name": "Hanvec",
    "code": "29078",
    "epci_code": "242900801",
    "departement_code": "29",
    "region_code": "53",
    "postal_code": "29460"
  },
  {
    "name": "Henvic",
    "code": "29079",
    "epci_code": "242900835",
    "departement_code": "29",
    "region_code": "53",
    "postal_code": "29670"
  },
  {
    "name": "Hôpital-Camfrout",
    "code": "29080",
    "epci_code": "242900801",
    "departement_code": "29",
    "region_code": "53",
    "postal_code": "29460"
  },
  {
    "name": "Huelgoat",
    "code": "29081",
    "epci_code": "200067197",
    "departement_code": "29",
    "region_code": "53",
    "postal_code": "29690"
  },
  {
    "name": "Île-de-Batz",
    "code": "29082",
    "epci_code": "200067072",
    "departement_code": "29",
    "region_code": "53",
    "postal_code": "29253"
  },
  {
    "name": "Île-de-Sein",
    "code": "29083",
    "departement_code": "29",
    "region_code": "53",
    "postal_code": "29990"
  },
  {
    "name": "Île-Molène",
    "code": "29084",
    "epci_code": "242900074",
    "departement_code": "29",
    "region_code": "53",
    "postal_code": "29259"
  },
  {
    "name": "Île-Tudy",
    "code": "29085",
    "epci_code": "242900702",
    "departement_code": "29",
    "region_code": "53",
    "postal_code": "29980"
  },
  {
    "name": "Irvillac",
    "code": "29086",
    "epci_code": "242900801",
    "departement_code": "29",
    "region_code": "53",
    "postal_code": "29460"
  },
  {
    "name": "Le Juch",
    "code": "29087",
    "epci_code": "242900645",
    "departement_code": "29",
    "region_code": "53",
    "postal_code": "29100"
  },
  {
    "name": "Kergloff",
    "code": "29089",
    "epci_code": "242900744",
    "departement_code": "29",
    "region_code": "53",
    "postal_code": "29270"
  },
  {
    "name": "Kerlaz",
    "code": "29090",
    "epci_code": "242900645",
    "departement_code": "29",
    "region_code": "53",
    "postal_code": "29100"
  },
  {
    "name": "Kerlouan",
    "code": "29091",
    "epci_code": "242900793",
    "departement_code": "29",
    "region_code": "53",
    "postal_code": "29890"
  },
  {
    "name": "Kernilis",
    "code": "29093",
    "epci_code": "242900793",
    "departement_code": "29",
    "region_code": "53",
    "postal_code": "29260"
  },
  {
    "name": "Kernouës",
    "code": "29094",
    "epci_code": "242900793",
    "departement_code": "29",
    "region_code": "53",
    "postal_code": "29260"
  },
  {
    "name": "Kersaint-Plabennec",
    "code": "29095",
    "epci_code": "242900553",
    "departement_code": "29",
    "region_code": "53",
    "postal_code": "29860"
  },
  {
    "name": "Lampaul-Guimiliau",
    "code": "29097",
    "epci_code": "242900751",
    "departement_code": "29",
    "region_code": "53",
    "postal_code": "29400"
  },
  {
    "name": "Lampaul-Plouarzel",
    "code": "29098",
    "epci_code": "242900074",
    "departement_code": "29",
    "region_code": "53",
    "postal_code": "29810"
  },
  {
    "name": "Lampaul-Ploudalmézeau",
    "code": "29099",
    "epci_code": "242900074",
    "departement_code": "29",
    "region_code": "53",
    "postal_code": "29830"
  },
  {
    "name": "Lanarvily",
    "code": "29100",
    "epci_code": "242900793",
    "departement_code": "29",
    "region_code": "53",
    "postal_code": "29260"
  },
  {
    "name": "Landéda",
    "code": "29101",
    "epci_code": "242900553",
    "departement_code": "29",
    "region_code": "53",
    "postal_code": "29870"
  },
  {
    "name": "Landeleau",
    "code": "29102",
    "epci_code": "242900561",
    "departement_code": "29",
    "region_code": "53",
    "postal_code": "29530"
  },
  {
    "name": "Landerneau",
    "code": "29103",
    "epci_code": "242900801",
    "departement_code": "29",
    "region_code": "53",
    "postal_code": "29800"
  },
  {
    "name": "Landévennec",
    "code": "29104",
    "epci_code": "200066868",
    "departement_code": "29",
    "region_code": "53",
    "postal_code": "29560"
  },
  {
    "name": "Landivisiau",
    "code": "29105",
    "epci_code": "242900751",
    "departement_code": "29",
    "region_code": "53",
    "postal_code": "29400"
  },
  {
    "name": "Landrévarzec",
    "code": "29106",
    "epci_code": "200068120",
    "departement_code": "29",
    "region_code": "53",
    "postal_code": "29510"
  },
  {
    "name": "Landudal",
    "code": "29107",
    "epci_code": "200068120",
    "departement_code": "29",
    "region_code": "53",
    "postal_code": "29510"
  },
  {
    "name": "Landudec",
    "code": "29108",
    "epci_code": "242900710",
    "departement_code": "29",
    "region_code": "53",
    "postal_code": "29710"
  },
  {
    "name": "Landunvez",
    "code": "29109",
    "epci_code": "242900074",
    "departement_code": "29",
    "region_code": "53",
    "postal_code": "29840"
  },
  {
    "name": "Langolen",
    "code": "29110",
    "epci_code": "200068120",
    "departement_code": "29",
    "region_code": "53",
    "postal_code": "29510"
  },
  {
    "name": "Lanhouarneau",
    "code": "29111",
    "epci_code": "200067072",
    "departement_code": "29",
    "region_code": "53",
    "postal_code": "29430"
  },
  {
    "name": "Lanildut",
    "code": "29112",
    "epci_code": "242900074",
    "departement_code": "29",
    "region_code": "53",
    "postal_code": "29840"
  },
  {
    "name": "Lanmeur",
    "code": "29113",
    "epci_code": "242900835",
    "departement_code": "29",
    "region_code": "53",
    "postal_code": "29620"
  },
  {
    "name": "Lannéanou",
    "code": "29114",
    "epci_code": "242900835",
    "departement_code": "29",
    "region_code": "53",
    "postal_code": "29640"
  },
  {
    "name": "Lannédern",
    "code": "29115",
    "epci_code": "200067247",
    "departement_code": "29",
    "region_code": "53",
    "postal_code": "29190"
  },
  {
    "name": "Lanneuffret",
    "code": "29116",
    "epci_code": "242900801",
    "departement_code": "29",
    "region_code": "53",
    "postal_code": "29400"
  },
  {
    "name": "Lannilis",
    "code": "29117",
    "epci_code": "242900553",
    "departement_code": "29",
    "region_code": "53",
    "postal_code": "29870"
  },
  {
    "name": "Lanrivoaré",
    "code": "29119",
    "epci_code": "242900074",
    "departement_code": "29",
    "region_code": "53",
    "postal_code": "29290"
  },
  {
    "name": "Lanvéoc",
    "code": "29120",
    "epci_code": "200066868",
    "departement_code": "29",
    "region_code": "53",
    "postal_code": "29160"
  },
  {
    "name": "Laz",
    "code": "29122",
    "epci_code": "242900561",
    "departement_code": "29",
    "region_code": "53",
    "postal_code": "29520"
  },
  {
    "name": "Lennon",
    "code": "29123",
    "epci_code": "200067247",
    "departement_code": "29",
    "region_code": "53",
    "postal_code": "29190"
  },
  {
    "name": "Lesneven",
    "code": "29124",
    "epci_code": "242900793",
    "departement_code": "29",
    "region_code": "53",
    "postal_code": "29260"
  },
  {
    "name": "Leuhan",
    "code": "29125",
    "epci_code": "242900561",
    "departement_code": "29",
    "region_code": "53",
    "postal_code": "29390"
  },
  {
    "name": "Loc-Brévalaire",
    "code": "29126",
    "epci_code": "242900553",
    "departement_code": "29",
    "region_code": "53",
    "postal_code": "29260"
  },
  {
    "name": "Loc-Eguiner",
    "code": "29128",
    "epci_code": "242900751",
    "departement_code": "29",
    "region_code": "53",
    "postal_code": "29400"
  },
  {
    "name": "Locmaria-Plouzané",
    "code": "29130",
    "epci_code": "242900074",
    "departement_code": "29",
    "region_code": "53",
    "postal_code": "29280"
  },
  {
    "name": "Locmélar",
    "code": "29131",
    "epci_code": "242900751",
    "departement_code": "29",
    "region_code": "53",
    "postal_code": "29400"
  },
  {
    "name": "Locquénolé",
    "code": "29132",
    "epci_code": "242900835",
    "departement_code": "29",
    "region_code": "53",
    "postal_code": "29670"
  },
  {
    "name": "Locquirec",
    "code": "29133",
    "epci_code": "242900835",
    "departement_code": "29",
    "region_code": "53",
    "postal_code": "29241"
  },
  {
    "name": "Locronan",
    "code": "29134",
    "epci_code": "200068120",
    "departement_code": "29",
    "region_code": "53",
    "postal_code": "29180"
  },
  {
    "name": "Loctudy",
    "code": "29135",
    "epci_code": "242900702",
    "departement_code": "29",
    "region_code": "53",
    "postal_code": "29750"
  },
  {
    "name": "Locunolé",
    "code": "29136",
    "epci_code": "242900694",
    "departement_code": "29",
    "region_code": "53",
    "postal_code": "29310"
  },
  {
    "name": "Logonna-Daoulas",
    "code": "29137",
    "epci_code": "242900801",
    "departement_code": "29",
    "region_code": "53",
    "postal_code": "29460"
  },
  {
    "name": "Lopérec",
    "code": "29139",
    "epci_code": "200067197",
    "departement_code": "29",
    "region_code": "53",
    "postal_code": "29590"
  },
  {
    "name": "Loperhet",
    "code": "29140",
    "epci_code": "242900801",
    "departement_code": "29",
    "region_code": "53",
    "postal_code": "29470"
  },
  {
    "name": "Loqueffret",
    "code": "29141",
    "epci_code": "200067197",
    "departement_code": "29",
    "region_code": "53",
    "postal_code": "29530"
  },
  {
    "name": "Lothey",
    "code": "29142",
    "epci_code": "200067247",
    "departement_code": "29",
    "region_code": "53",
    "postal_code": "29190"
  },
  {
    "name": "Mahalon",
    "code": "29143",
    "epci_code": "242900629",
    "departement_code": "29",
    "region_code": "53",
    "postal_code": "29790"
  },
  {
    "name": "La Martyre",
    "code": "29144",
    "epci_code": "242900801",
    "departement_code": "29",
    "region_code": "53",
    "postal_code": "29800"
  },
  {
    "name": "Confort-Meilars",
    "code": "29145",
    "epci_code": "242900629",
    "departement_code": "29",
    "region_code": "53",
    "postal_code": "29790"
  },
  {
    "name": "Melgven",
    "code": "29146",
    "epci_code": "242900769",
    "departement_code": "29",
    "region_code": "53",
    "postal_code": "29140"
  },
  {
    "name": "Mellac",
    "code": "29147",
    "epci_code": "242900694",
    "departement_code": "29",
    "region_code": "53",
    "postal_code": "29300"
  },
  {
    "name": "Mespaul",
    "code": "29148",
    "epci_code": "200067072",
    "departement_code": "29",
    "region_code": "53",
    "postal_code": "29420"
  },
  {
    "name": "Moëlan-sur-Mer",
    "code": "29150",
    "epci_code": "242900694",
    "departement_code": "29",
    "region_code": "53",
    "postal_code": "29350"
  },
  {
    "name": "Morlaix",
    "code": "29151",
    "epci_code": "242900835",
    "departement_code": "29",
    "region_code": "53",
    "postal_code": "29600"
  },
  {
    "name": "Motreff",
    "code": "29152",
    "epci_code": "242900744",
    "departement_code": "29",
    "region_code": "53",
    "postal_code": "29270"
  },
  {
    "name": "Névez",
    "code": "29153",
    "epci_code": "242900769",
    "departement_code": "29",
    "region_code": "53",
    "postal_code": "29920"
  },
  {
    "name": "Ouessant",
    "code": "29155",
    "departement_code": "29",
    "region_code": "53",
    "postal_code": "29242"
  },
  {
    "name": "Pencran",
    "code": "29156",
    "epci_code": "242900801",
    "departement_code": "29",
    "region_code": "53",
    "postal_code": "29800"
  },
  {
    "name": "Penmarch",
    "code": "29158",
    "epci_code": "242900702",
    "departement_code": "29",
    "region_code": "53",
    "postal_code": "29760"
  },
  {
    "name": "Peumerit",
    "code": "29159",
    "epci_code": "242900710",
    "departement_code": "29",
    "region_code": "53",
    "postal_code": "29710"
  },
  {
    "name": "Plabennec",
    "code": "29160",
    "epci_code": "242900553",
    "departement_code": "29",
    "region_code": "53",
    "postal_code": "29860"
  },
  {
    "name": "Pleuven",
    "code": "29161",
    "epci_code": "242900660",
    "departement_code": "29",
    "region_code": "53",
    "postal_code": "29170"
  },
  {
    "name": "Pleyben",
    "code": "29162",
    "epci_code": "200067247",
    "departement_code": "29",
    "region_code": "53",
    "postal_code": "29190"
  },
  {
    "name": "Pleyber-Christ",
    "code": "29163",
    "epci_code": "242900835",
    "departement_code": "29",
    "region_code": "53",
    "postal_code": "29410"
  },
  {
    "name": "Plobannalec-Lesconil",
    "code": "29165",
    "epci_code": "242900702",
    "departement_code": "29",
    "region_code": "53",
    "postal_code": "29740"
  },
  {
    "name": "Ploéven",
    "code": "29166",
    "epci_code": "200067247",
    "departement_code": "29",
    "region_code": "53",
    "postal_code": "29550"
  },
  {
    "name": "Plogastel-Saint-Germain",
    "code": "29167",
    "epci_code": "242900710",
    "departement_code": "29",
    "region_code": "53",
    "postal_code": "29710"
  },
  {
    "name": "Plogoff",
    "code": "29168",
    "epci_code": "242900629",
    "departement_code": "29",
    "region_code": "53",
    "postal_code": "29770"
  },
  {
    "name": "Plogonnec",
    "code": "29169",
    "epci_code": "200068120",
    "departement_code": "29",
    "region_code": "53",
    "postal_code": "29180"
  },
  {
    "name": "Plomelin",
    "code": "29170",
    "epci_code": "200068120",
    "departement_code": "29",
    "region_code": "53",
    "postal_code": "29700"
  },
  {
    "name": "Plomeur",
    "code": "29171",
    "epci_code": "242900702",
    "departement_code": "29",
    "region_code": "53",
    "postal_code": "29120"
  },
  {
    "name": "Plomodiern",
    "code": "29172",
    "epci_code": "200067247",
    "departement_code": "29",
    "region_code": "53",
    "postal_code": "29550"
  },
  {
    "name": "Plonéis",
    "code": "29173",
    "epci_code": "200068120",
    "departement_code": "29",
    "region_code": "53",
    "postal_code": "29710"
  },
  {
    "name": "Plonéour-Lanvern",
    "code": "29174",
    "epci_code": "242900710",
    "departement_code": "29",
    "region_code": "53",
    "postal_code": "29720"
  },
  {
    "name": "Plonévez-du-Faou",
    "code": "29175",
    "epci_code": "242900561",
    "departement_code": "29",
    "region_code": "53",
    "postal_code": "29530"
  },
  {
    "name": "Plonévez-Porzay",
    "code": "29176",
    "epci_code": "200067247",
    "departement_code": "29",
    "region_code": "53",
    "postal_code": "29550"
  },
  {
    "name": "Plouarzel",
    "code": "29177",
    "epci_code": "242900074",
    "departement_code": "29",
    "region_code": "53",
    "postal_code": "29810"
  },
  {
    "name": "Ploudalmézeau",
    "code": "29178",
    "epci_code": "242900074",
    "departement_code": "29",
    "region_code": "53",
    "postal_code": "29830"
  },
  {
    "name": "Ploudaniel",
    "code": "29179",
    "epci_code": "242900793",
    "departement_code": "29",
    "region_code": "53",
    "postal_code": "29260"
  },
  {
    "name": "Ploudiry",
    "code": "29180",
    "epci_code": "242900801",
    "departement_code": "29",
    "region_code": "53",
    "postal_code": "29800"
  },
  {
    "name": "Plouédern",
    "code": "29181",
    "epci_code": "242900801",
    "departement_code": "29",
    "region_code": "53",
    "postal_code": "29800"
  },
  {
    "name": "Plouégat-Guérand",
    "code": "29182",
    "epci_code": "242900835",
    "departement_code": "29",
    "region_code": "53",
    "postal_code": "29620"
  },
  {
    "name": "Plouégat-Moysan",
    "code": "29183",
    "epci_code": "242900835",
    "departement_code": "29",
    "region_code": "53",
    "postal_code": "29650"
  },
  {
    "name": "Plouénan",
    "code": "29184",
    "epci_code": "200067072",
    "departement_code": "29",
    "region_code": "53",
    "postal_code": "29420"
  },
  {
    "name": "Plouescat",
    "code": "29185",
    "epci_code": "200067072",
    "departement_code": "29",
    "region_code": "53",
    "postal_code": "29430"
  },
  {
    "name": "Plouezoc’h",
    "code": "29186",
    "epci_code": "242900835",
    "departement_code": "29",
    "region_code": "53",
    "postal_code": "29252"
  },
  {
    "name": "Plougar",
    "code": "29187",
    "epci_code": "242900751",
    "departement_code": "29",
    "region_code": "53",
    "postal_code": "29440"
  },
  {
    "name": "Plougasnou",
    "code": "29188",
    "epci_code": "242900835",
    "departement_code": "29",
    "region_code": "53",
    "postal_code": "29630"
  },
  {
    "name": "Plougastel-Daoulas",
    "code": "29189",
    "epci_code": "242900314",
    "departement_code": "29",
    "region_code": "53",
    "postal_code": "29470"
  },
  {
    "name": "Plougonvelin",
    "code": "29190",
    "epci_code": "242900074",
    "departement_code": "29",
    "region_code": "53",
    "postal_code": "29217"
  },
  {
    "name": "Plougonven",
    "code": "29191",
    "epci_code": "242900835",
    "departement_code": "29",
    "region_code": "53",
    "postal_code": "29640"
  },
  {
    "name": "Plougoulm",
    "code": "29192",
    "epci_code": "200067072",
    "departement_code": "29",
    "region_code": "53",
    "postal_code": "29250"
  },
  {
    "name": "Plougourvest",
    "code": "29193",
    "epci_code": "242900751",
    "departement_code": "29",
    "region_code": "53",
    "postal_code": "29400"
  },
  {
    "name": "Plouguerneau",
    "code": "29195",
    "epci_code": "242900553",
    "departement_code": "29",
    "region_code": "53",
    "postal_code": "29880"
  },
  {
    "name": "Plouguin",
    "code": "29196",
    "epci_code": "242900553",
    "departement_code": "29",
    "region_code": "53",
    "postal_code": "29830"
  },
  {
    "name": "Plouhinec",
    "code": "29197",
    "epci_code": "242900629",
    "departement_code": "29",
    "region_code": "53",
    "postal_code": "29780"
  },
  {
    "name": "Plouider",
    "code": "29198",
    "epci_code": "242900793",
    "departement_code": "29",
    "region_code": "53",
    "postal_code": "29260"
  },
  {
    "name": "Plouigneau",
    "code": "29199",
    "epci_code": "242900835",
    "departement_code": "29",
    "region_code": "53",
    "postal_code": "29610"
  },
  {
    "name": "Plouigneau",
    "code": "29199",
    "epci_code": "242900835",
    "departement_code": "29",
    "region_code": "53",
    "postal_code": "29650"
  },
  {
    "name": "Ploumoguer",
    "code": "29201",
    "epci_code": "242900074",
    "departement_code": "29",
    "region_code": "53",
    "postal_code": "29810"
  },
  {
    "name": "Plounéour-Ménez",
    "code": "29202",
    "epci_code": "242900835",
    "departement_code": "29",
    "region_code": "53",
    "postal_code": "29410"
  },
  {
    "name": "Plounéventer",
    "code": "29204",
    "epci_code": "242900751",
    "departement_code": "29",
    "region_code": "53",
    "postal_code": "29400"
  },
  {
    "name": "Plounévézel",
    "code": "29205",
    "epci_code": "242900744",
    "departement_code": "29",
    "region_code": "53",
    "postal_code": "29270"
  },
  {
    "name": "Plounévez-Lochrist",
    "code": "29206",
    "epci_code": "200067072",
    "departement_code": "29",
    "region_code": "53",
    "postal_code": "29430"
  },
  {
    "name": "Plourin-lès-Morlaix",
    "code": "29207",
    "epci_code": "242900835",
    "departement_code": "29",
    "region_code": "53",
    "postal_code": "29600"
  },
  {
    "name": "Plourin",
    "code": "29208",
    "epci_code": "242900074",
    "departement_code": "29",
    "region_code": "53",
    "postal_code": "29830"
  },
  {
    "name": "Plouvien",
    "code": "29209",
    "epci_code": "242900553",
    "departement_code": "29",
    "region_code": "53",
    "postal_code": "29860"
  },
  {
    "name": "Plouvorn",
    "code": "29210",
    "epci_code": "242900751",
    "departement_code": "29",
    "region_code": "53",
    "postal_code": "29420"
  },
  {
    "name": "Plouyé",
    "code": "29211",
    "epci_code": "200067197",
    "departement_code": "29",
    "region_code": "53",
    "postal_code": "29690"
  },
  {
    "name": "Plouzané",
    "code": "29212",
    "epci_code": "242900314",
    "departement_code": "29",
    "region_code": "53",
    "postal_code": "29280"
  },
  {
    "name": "Plouzévédé",
    "code": "29213",
    "epci_code": "242900751",
    "departement_code": "29",
    "region_code": "53",
    "postal_code": "29440"
  },
  {
    "name": "Plovan",
    "code": "29214",
    "epci_code": "242900710",
    "departement_code": "29",
    "region_code": "53",
    "postal_code": "29720"
  },
  {
    "name": "Plozévet",
    "code": "29215",
    "epci_code": "242900710",
    "departement_code": "29",
    "region_code": "53",
    "postal_code": "29710"
  },
  {
    "name": "Pluguffan",
    "code": "29216",
    "epci_code": "200068120",
    "departement_code": "29",
    "region_code": "53",
    "postal_code": "29700"
  },
  {
    "name": "Pont-Aven",
    "code": "29217",
    "epci_code": "242900769",
    "departement_code": "29",
    "region_code": "53",
    "postal_code": "29930"
  },
  {
    "name": "Pont-Croix",
    "code": "29218",
    "epci_code": "242900629",
    "departement_code": "29",
    "region_code": "53",
    "postal_code": "29790"
  },
  {
    "name": "Pont-l’Abbé",
    "code": "29220",
    "epci_code": "242900702",
    "departement_code": "29",
    "region_code": "53",
    "postal_code": "29120"
  },
  {
    "name": "Porspoder",
    "code": "29221",
    "epci_code": "242900074",
    "departement_code": "29",
    "region_code": "53",
    "postal_code": "29840"
  },
  {
    "name": "Port-Launay",
    "code": "29222",
    "epci_code": "200067247",
    "departement_code": "29",
    "region_code": "53",
    "postal_code": "29150"
  },
  {
    "name": "Pouldergat",
    "code": "29224",
    "epci_code": "242900645",
    "departement_code": "29",
    "region_code": "53",
    "postal_code": "29100"
  },
  {
    "name": "Pouldreuzic",
    "code": "29225",
    "epci_code": "242900710",
    "departement_code": "29",
    "region_code": "53",
    "postal_code": "29710"
  },
  {
    "name": "Poullan-sur-Mer",
    "code": "29226",
    "epci_code": "242900645",
    "departement_code": "29",
    "region_code": "53",
    "postal_code": "29100"
  },
  {
    "name": "Poullaouen",
    "code": "29227",
    "epci_code": "242900744",
    "departement_code": "29",
    "region_code": "53",
    "postal_code": "29246"
  },
  {
    "name": "Poullaouen",
    "code": "29227",
    "epci_code": "242900744",
    "departement_code": "29",
    "region_code": "53",
    "postal_code": "29690"
  },
  {
    "name": "Primelin",
    "code": "29228",
    "epci_code": "242900629",
    "departement_code": "29",
    "region_code": "53",
    "postal_code": "29770"
  },
  {
    "name": "Quéménéven",
    "code": "29229",
    "epci_code": "200068120",
    "departement_code": "29",
    "region_code": "53",
    "postal_code": "29180"
  },
  {
    "name": "Querrien",
    "code": "29230",
    "epci_code": "242900694",
    "departement_code": "29",
    "region_code": "53",
    "postal_code": "29310"
  },
  {
    "name": "Quimper",
    "code": "29232",
    "epci_code": "200068120",
    "departement_code": "29",
    "region_code": "53",
    "postal_code": "29000"
  },
  {
    "name": "Quimperlé",
    "code": "29233",
    "epci_code": "242900694",
    "departement_code": "29",
    "region_code": "53",
    "postal_code": "29300"
  },
  {
    "name": "Rédené",
    "code": "29234",
    "epci_code": "242900694",
    "departement_code": "29",
    "region_code": "53",
    "postal_code": "29300"
  },
  {
    "name": "Le Relecq-Kerhuon",
    "code": "29235",
    "epci_code": "242900314",
    "departement_code": "29",
    "region_code": "53",
    "postal_code": "29480"
  },
  {
    "name": "Riec-sur-Bélon",
    "code": "29236",
    "epci_code": "242900694",
    "departement_code": "29",
    "region_code": "53",
    "postal_code": "29340"
  },
  {
    "name": "La Roche-Maurice",
    "code": "29237",
    "epci_code": "242900801",
    "departement_code": "29",
    "region_code": "53",
    "postal_code": "29800"
  },
  {
    "name": "Roscanvel",
    "code": "29238",
    "epci_code": "200066868",
    "departement_code": "29",
    "region_code": "53",
    "postal_code": "29570"
  },
  {
    "name": "Roscoff",
    "code": "29239",
    "epci_code": "200067072",
    "departement_code": "29",
    "region_code": "53",
    "postal_code": "29680"
  },
  {
    "name": "Rosnoën",
    "code": "29240",
    "epci_code": "200066868",
    "departement_code": "29",
    "region_code": "53",
    "postal_code": "29590"
  },
  {
    "name": "Rosporden",
    "code": "29241",
    "epci_code": "242900769",
    "departement_code": "29",
    "region_code": "53",
    "postal_code": "29140"
  },
  {
    "name": "Saint-Coulitz",
    "code": "29243",
    "epci_code": "200067247",
    "departement_code": "29",
    "region_code": "53",
    "postal_code": "29150"
  },
  {
    "name": "Saint-Derrien",
    "code": "29244",
    "epci_code": "242900751",
    "departement_code": "29",
    "region_code": "53",
    "postal_code": "29440"
  },
  {
    "name": "Saint-Divy",
    "code": "29245",
    "epci_code": "242900801",
    "departement_code": "29",
    "region_code": "53",
    "postal_code": "29800"
  },
  {
    "name": "Saint-Eloy",
    "code": "29246",
    "epci_code": "242900801",
    "departement_code": "29",
    "region_code": "53",
    "postal_code": "29460"
  },
  {
    "name": "Saint-Évarzec",
    "code": "29247",
    "epci_code": "242900660",
    "departement_code": "29",
    "region_code": "53",
    "postal_code": "29170"
  },
  {
    "name": "Saint-Frégant",
    "code": "29248",
    "epci_code": "242900793",
    "departement_code": "29",
    "region_code": "53",
    "postal_code": "29260"
  },
  {
    "name": "Saint-Goazec",
    "code": "29249",
    "epci_code": "242900561",
    "departement_code": "29",
    "region_code": "53",
    "postal_code": "29520"
  },
  {
    "name": "Saint-Hernin",
    "code": "29250",
    "epci_code": "242900744",
    "departement_code": "29",
    "region_code": "53",
    "postal_code": "29270"
  },
  {
    "name": "Saint-Jean-du-Doigt",
    "code": "29251",
    "epci_code": "242900835",
    "departement_code": "29",
    "region_code": "53",
    "postal_code": "29630"
  },
  {
    "name": "Saint-Jean-Trolimon",
    "code": "29252",
    "epci_code": "242900702",
    "departement_code": "29",
    "region_code": "53",
    "postal_code": "29120"
  },
  {
    "name": "Saint-Martin-des-Champs",
    "code": "29254",
    "epci_code": "242900835",
    "departement_code": "29",
    "region_code": "53",
    "postal_code": "29600"
  },
  {
    "name": "Saint-Méen",
    "code": "29255",
    "epci_code": "242900793",
    "departement_code": "29",
    "region_code": "53",
    "postal_code": "29260"
  },
  {
    "name": "Saint-Nic",
    "code": "29256",
    "epci_code": "200067247",
    "departement_code": "29",
    "region_code": "53",
    "postal_code": "29550"
  },
  {
    "name": "Saint-Pabu",
    "code": "29257",
    "epci_code": "242900553",
    "departement_code": "29",
    "region_code": "53",
    "postal_code": "29830"
  },
  {
    "name": "Saint-Pol-de-Léon",
    "code": "29259",
    "epci_code": "200067072",
    "departement_code": "29",
    "region_code": "53",
    "postal_code": "29250"
  },
  {
    "name": "Saint-Renan",
    "code": "29260",
    "epci_code": "242900074",
    "departement_code": "29",
    "region_code": "53",
    "postal_code": "29290"
  },
  {
    "name": "Saint-Rivoal",
    "code": "29261",
    "epci_code": "200067197",
    "departement_code": "29",
    "region_code": "53",
    "postal_code": "29190"
  },
  {
    "name": "Saint-Sauveur",
    "code": "29262",
    "epci_code": "242900751",
    "departement_code": "29",
    "region_code": "53",
    "postal_code": "29400"
  },
  {
    "name": "Saint-Ségal",
    "code": "29263",
    "epci_code": "200067247",
    "departement_code": "29",
    "region_code": "53",
    "postal_code": "29590"
  },
  {
    "name": "Saint-Servais",
    "code": "29264",
    "epci_code": "242900751",
    "departement_code": "29",
    "region_code": "53",
    "postal_code": "29400"
  },
  {
    "name": "Sainte-Sève",
    "code": "29265",
    "epci_code": "242900835",
    "departement_code": "29",
    "region_code": "53",
    "postal_code": "29600"
  },
  {
    "name": "Saint-Thégonnec Loc-Eguiner",
    "code": "29266",
    "epci_code": "242900835",
    "departement_code": "29",
    "region_code": "53",
    "postal_code": "29410"
  },
  {
    "name": "Saint-Thois",
    "code": "29267",
    "epci_code": "242900561",
    "departement_code": "29",
    "region_code": "53",
    "postal_code": "29520"
  },
  {
    "name": "Saint-Thonan",
    "code": "29268",
    "epci_code": "242900801",
    "departement_code": "29",
    "region_code": "53",
    "postal_code": "29800"
  },
  {
    "name": "Saint-Thurien",
    "code": "29269",
    "epci_code": "242900694",
    "departement_code": "29",
    "region_code": "53",
    "postal_code": "29380"
  },
  {
    "name": "Saint-Urbain",
    "code": "29270",
    "epci_code": "242900801",
    "departement_code": "29",
    "region_code": "53",
    "postal_code": "29800"
  },
  {
    "name": "Saint-Vougay",
    "code": "29271",
    "epci_code": "242900751",
    "departement_code": "29",
    "region_code": "53",
    "postal_code": "29440"
  },
  {
    "name": "Saint-Yvi",
    "code": "29272",
    "epci_code": "242900769",
    "departement_code": "29",
    "region_code": "53",
    "postal_code": "29140"
  },
  {
    "name": "Santec",
    "code": "29273",
    "epci_code": "200067072",
    "departement_code": "29",
    "region_code": "53",
    "postal_code": "29250"
  },
  {
    "name": "Scaër",
    "code": "29274",
    "epci_code": "242900694",
    "departement_code": "29",
    "region_code": "53",
    "postal_code": "29390"
  },
  {
    "name": "Scrignac",
    "code": "29275",
    "epci_code": "200067197",
    "departement_code": "29",
    "region_code": "53",
    "postal_code": "29640"
  },
  {
    "name": "Sibiril",
    "code": "29276",
    "epci_code": "200067072",
    "departement_code": "29",
    "region_code": "53",
    "postal_code": "29250"
  },
  {
    "name": "Sizun",
    "code": "29277",
    "epci_code": "242900751",
    "departement_code": "29",
    "region_code": "53",
    "postal_code": "29450"
  },
  {
    "name": "Spézet",
    "code": "29278",
    "epci_code": "242900561",
    "departement_code": "29",
    "region_code": "53",
    "postal_code": "29540"
  },
  {
    "name": "Taulé",
    "code": "29279",
    "epci_code": "242900835",
    "departement_code": "29",
    "region_code": "53",
    "postal_code": "29670"
  },
  {
    "name": "Telgruc-sur-Mer",
    "code": "29280",
    "epci_code": "200066868",
    "departement_code": "29",
    "region_code": "53",
    "postal_code": "29560"
  },
  {
    "name": "Tourch",
    "code": "29281",
    "epci_code": "242900769",
    "departement_code": "29",
    "region_code": "53",
    "postal_code": "29140"
  },
  {
    "name": "Trébabu",
    "code": "29282",
    "epci_code": "242900074",
    "departement_code": "29",
    "region_code": "53",
    "postal_code": "29217"
  },
  {
    "name": "Treffiagat",
    "code": "29284",
    "epci_code": "242900702",
    "departement_code": "29",
    "region_code": "53",
    "postal_code": "29730"
  },
  {
    "name": "Tréflaouénan",
    "code": "29285",
    "epci_code": "200067072",
    "departement_code": "29",
    "region_code": "53",
    "postal_code": "29440"
  },
  {
    "name": "Tréflévénez",
    "code": "29286",
    "epci_code": "242900801",
    "departement_code": "29",
    "region_code": "53",
    "postal_code": "29800"
  },
  {
    "name": "Tréflez",
    "code": "29287",
    "epci_code": "200067072",
    "departement_code": "29",
    "region_code": "53",
    "postal_code": "29430"
  },
  {
    "name": "Trégarantec",
    "code": "29288",
    "epci_code": "242900793",
    "departement_code": "29",
    "region_code": "53",
    "postal_code": "29260"
  },
  {
    "name": "Trégarvan",
    "code": "29289",
    "epci_code": "200067247",
    "departement_code": "29",
    "region_code": "53",
    "postal_code": "29560"
  },
  {
    "name": "Tréglonou",
    "code": "29290",
    "epci_code": "242900553",
    "departement_code": "29",
    "region_code": "53",
    "postal_code": "29870"
  },
  {
    "name": "Trégourez",
    "code": "29291",
    "epci_code": "242900561",
    "departement_code": "29",
    "region_code": "53",
    "postal_code": "29970"
  },
  {
    "name": "Tréguennec",
    "code": "29292",
    "epci_code": "242900702",
    "departement_code": "29",
    "region_code": "53",
    "postal_code": "29720"
  },
  {
    "name": "Trégunc",
    "code": "29293",
    "epci_code": "242900769",
    "departement_code": "29",
    "region_code": "53",
    "postal_code": "29910"
  },
  {
    "name": "Le Tréhou",
    "code": "29294",
    "epci_code": "242900801",
    "departement_code": "29",
    "region_code": "53",
    "postal_code": "29450"
  },
  {
    "name": "Trémaouézan",
    "code": "29295",
    "epci_code": "242900801",
    "departement_code": "29",
    "region_code": "53",
    "postal_code": "29800"
  },
  {
    "name": "Tréméoc",
    "code": "29296",
    "epci_code": "242900702",
    "departement_code": "29",
    "region_code": "53",
    "postal_code": "29120"
  },
  {
    "name": "Tréméven",
    "code": "29297",
    "epci_code": "242900694",
    "departement_code": "29",
    "region_code": "53",
    "postal_code": "29300"
  },
  {
    "name": "Tréogat",
    "code": "29298",
    "epci_code": "242900710",
    "departement_code": "29",
    "region_code": "53",
    "postal_code": "29720"
  },
  {
    "name": "Tréouergat",
    "code": "29299",
    "epci_code": "242900074",
    "departement_code": "29",
    "region_code": "53",
    "postal_code": "29290"
  },
  {
    "name": "Le Trévoux",
    "code": "29300",
    "epci_code": "242900694",
    "departement_code": "29",
    "region_code": "53",
    "postal_code": "29380"
  },
  {
    "name": "Trézilidé",
    "code": "29301",
    "epci_code": "242900751",
    "departement_code": "29",
    "region_code": "53",
    "postal_code": "29440"
  },
  {
    "name": "Pont-de-Buis-lès-Quimerch",
    "code": "29302",
    "epci_code": "200066868",
    "departement_code": "29",
    "region_code": "53",
    "postal_code": "29590"
  }
]