[
  {
    "name": "Abilly",
    "code": "37001",
    "epci_code": "200071587",
    "departement_code": "37",
    "region_code": "24",
    "postal_code": "37160"
  },
  {
    "name": "Ambillou",
    "code": "37002",
    "epci_code": "200072981",
    "departement_code": "37",
    "region_code": "24",
    "postal_code": "37340"
  },
  {
    "name": "Amboise",
    "code": "37003",
    "epci_code": "200043065",
    "departement_code": "37",
    "region_code": "24",
    "postal_code": "37400"
  },
  {
    "name": "Anché",
    "code": "37004",
    "epci_code": "200043081",
    "departement_code": "37",
    "region_code": "24",
    "postal_code": "37500"
  },
  {
    "name": "Antogny-le-Tillac",
    "code": "37005",
    "epci_code": "200072668",
    "departement_code": "37",
    "region_code": "24",
    "postal_code": "37800"
  },
  {
    "name": "Artannes-sur-Indre",
    "code": "37006",
    "epci_code": "200072650",
    "departement_code": "37",
    "region_code": "24",
    "postal_code": "37260"
  },
  {
    "name": "Assay",
    "code": "37007",
    "epci_code": "200072668",
    "departement_code": "37",
    "region_code": "24",
    "postal_code": "37120"
  },
  {
    "name": "Athée-sur-Cher",
    "code": "37008",
    "epci_code": "243700820",
    "departement_code": "37",
    "region_code": "24",
    "postal_code": "37270"
  },
  {
    "name": "Autrèche",
    "code": "37009",
    "epci_code": "243700499",
    "departement_code": "37",
    "region_code": "24",
    "postal_code": "37110"
  },
  {
    "name": "Auzouer-en-Touraine",
    "code": "37010",
    "epci_code": "243700499",
    "departement_code": "37",
    "region_code": "24",
    "postal_code": "37110"
  },
  {
    "name": "Avoine",
    "code": "37011",
    "epci_code": "200043081",
    "departement_code": "37",
    "region_code": "24",
    "postal_code": "37420"
  },
  {
    "name": "Avon-les-Roches",
    "code": "37012",
    "epci_code": "200072668",
    "departement_code": "37",
    "region_code": "24",
    "postal_code": "37220"
  },
  {
    "name": "Avrillé-les-Ponceaux",
    "code": "37013",
    "epci_code": "200072981",
    "departement_code": "37",
    "region_code": "24",
    "postal_code": "37340"
  },
  {
    "name": "Azay-le-Rideau",
    "code": "37014",
    "epci_code": "200072650",
    "departement_code": "37",
    "region_code": "24",
    "postal_code": "37190"
  },
  {
    "name": "Azay-sur-Cher",
    "code": "37015",
    "epci_code": "200073161",
    "departement_code": "37",
    "region_code": "24",
    "postal_code": "37270"
  },
  {
    "name": "Azay-sur-Indre",
    "code": "37016",
    "epci_code": "200071587",
    "departement_code": "37",
    "region_code": "24",
    "postal_code": "37310"
  },
  {
    "name": "Ballan-Miré",
    "code": "37018",
    "epci_code": "243700754",
    "departement_code": "37",
    "region_code": "24",
    "postal_code": "37510"
  },
  {
    "name": "Barrou",
    "code": "37019",
    "epci_code": "200071587",
    "departement_code": "37",
    "region_code": "24",
    "postal_code": "37350"
  },
  {
    "name": "Beaulieu-lès-Loches",
    "code": "37020",
    "epci_code": "200071587",
    "departement_code": "37",
    "region_code": "24",
    "postal_code": "37600"
  },
  {
    "name": "Beaumont-Louestault",
    "code": "37021",
    "epci_code": "200073237",
    "departement_code": "37",
    "region_code": "24",
    "postal_code": "37360"
  },
  {
    "name": "Beaumont-Louestault",
    "code": "37021",
    "epci_code": "200073237",
    "departement_code": "37",
    "region_code": "24",
    "postal_code": "37370"
  },
  {
    "name": "Beaumont-en-Véron",
    "code": "37022",
    "epci_code": "200043081",
    "departement_code": "37",
    "region_code": "24",
    "postal_code": "37420"
  },
  {
    "name": "Beaumont-Village",
    "code": "37023",
    "epci_code": "200071587",
    "departement_code": "37",
    "region_code": "24",
    "postal_code": "37460"
  },
  {
    "name": "Benais",
    "code": "37024",
    "epci_code": "200072981",
    "departement_code": "37",
    "region_code": "24",
    "postal_code": "37140"
  },
  {
    "name": "Berthenay",
    "code": "37025",
    "epci_code": "243700754",
    "departement_code": "37",
    "region_code": "24",
    "postal_code": "37510"
  },
  {
    "name": "Betz-le-Château",
    "code": "37026",
    "epci_code": "200071587",
    "departement_code": "37",
    "region_code": "24",
    "postal_code": "37600"
  },
  {
    "name": "Bléré",
    "code": "37027",
    "epci_code": "243700820",
    "departement_code": "37",
    "region_code": "24",
    "postal_code": "37150"
  },
  {
    "name": "Bossay-sur-Claise",
    "code": "37028",
    "epci_code": "200071587",
    "departement_code": "37",
    "region_code": "24",
    "postal_code": "37290"
  },
  {
    "name": "Bossée",
    "code": "37029",
    "epci_code": "200071587",
    "departement_code": "37",
    "region_code": "24",
    "postal_code": "37240"
  },
  {
    "name": "Le Boulay",
    "code": "37030",
    "epci_code": "243700499",
    "departement_code": "37",
    "region_code": "24",
    "postal_code": "37110"
  },
  {
    "name": "Bourgueil",
    "code": "37031",
    "epci_code": "200072981",
    "departement_code": "37",
    "region_code": "24",
    "postal_code": "37140"
  },
  {
    "name": "Bournan",
    "code": "37032",
    "epci_code": "200071587",
    "departement_code": "37",
    "region_code": "24",
    "postal_code": "37240"
  },
  {
    "name": "Boussay",
    "code": "37033",
    "epci_code": "200071587",
    "departement_code": "37",
    "region_code": "24",
    "postal_code": "37290"
  },
  {
    "name": "Braslou",
    "code": "37034",
    "epci_code": "200072668",
    "departement_code": "37",
    "region_code": "24",
    "postal_code": "37120"
  },
  {
    "name": "Braye-sous-Faye",
    "code": "37035",
    "epci_code": "200072668",
    "departement_code": "37",
    "region_code": "24",
    "postal_code": "37120"
  },
  {
    "name": "Braye-sur-Maulne",
    "code": "37036",
    "epci_code": "200072981",
    "departement_code": "37",
    "region_code": "24",
    "postal_code": "37330"
  },
  {
    "name": "Brèches",
    "code": "37037",
    "epci_code": "200072981",
    "departement_code": "37",
    "region_code": "24",
    "postal_code": "37330"
  },
  {
    "name": "Bréhémont",
    "code": "37038",
    "epci_code": "200072650",
    "departement_code": "37",
    "region_code": "24",
    "postal_code": "37130"
  },
  {
    "name": "Bridoré",
    "code": "37039",
    "epci_code": "200071587",
    "departement_code": "37",
    "region_code": "24",
    "postal_code": "37600"
  },
  {
    "name": "Brizay",
    "code": "37040",
    "epci_code": "200072668",
    "departement_code": "37",
    "region_code": "24",
    "postal_code": "37220"
  },
  {
    "name": "Bueil-en-Touraine",
    "code": "37041",
    "epci_code": "200073237",
    "departement_code": "37",
    "region_code": "24",
    "postal_code": "37370"
  },
  {
    "name": "Candes-Saint-Martin",
    "code": "37042",
    "epci_code": "200043081",
    "departement_code": "37",
    "region_code": "24",
    "postal_code": "37500"
  },
  {
    "name": "Cangey",
    "code": "37043",
    "epci_code": "200043065",
    "departement_code": "37",
    "region_code": "24",
    "postal_code": "37530"
  },
  {
    "name": "La Celle-Guenand",
    "code": "37044",
    "epci_code": "200071587",
    "departement_code": "37",
    "region_code": "24",
    "postal_code": "37350"
  },
  {
    "name": "La Celle-Saint-Avant",
    "code": "37045",
    "epci_code": "200071587",
    "departement_code": "37",
    "region_code": "24",
    "postal_code": "37160"
  },
  {
    "name": "Céré-la-Ronde",
    "code": "37046",
    "epci_code": "243700820",
    "departement_code": "37",
    "region_code": "24",
    "postal_code": "37460"
  },
  {
    "name": "Cerelles",
    "code": "37047",
    "epci_code": "200073237",
    "departement_code": "37",
    "region_code": "24",
    "postal_code": "37390"
  },
  {
    "name": "Chambon",
    "code": "37048",
    "epci_code": "200071587",
    "departement_code": "37",
    "region_code": "24",
    "postal_code": "37290"
  },
  {
    "name": "Chambourg-sur-Indre",
    "code": "37049",
    "epci_code": "200071587",
    "departement_code": "37",
    "region_code": "24",
    "postal_code": "37310"
  },
  {
    "name": "Chambray-lès-Tours",
    "code": "37050",
    "epci_code": "243700754",
    "departement_code": "37",
    "region_code": "24",
    "postal_code": "37170"
  },
  {
    "name": "Champigny-sur-Veude",
    "code": "37051",
    "epci_code": "200072668",
    "departement_code": "37",
    "region_code": "24",
    "postal_code": "37120"
  },
  {
    "name": "Chançay",
    "code": "37052",
    "epci_code": "200073161",
    "departement_code": "37",
    "region_code": "24",
    "postal_code": "37210"
  },
  {
    "name": "Chanceaux-près-Loches",
    "code": "37053",
    "epci_code": "200071587",
    "departement_code": "37",
    "region_code": "24",
    "postal_code": "37600"
  },
  {
    "name": "Chanceaux-sur-Choisille",
    "code": "37054",
    "epci_code": "243700754",
    "departement_code": "37",
    "region_code": "24",
    "postal_code": "37390"
  },
  {
    "name": "Channay-sur-Lathan",
    "code": "37055",
    "epci_code": "200072981",
    "departement_code": "37",
    "region_code": "24",
    "postal_code": "37330"
  },
  {
    "name": "La Chapelle-aux-Naux",
    "code": "37056",
    "epci_code": "200072650",
    "departement_code": "37",
    "region_code": "24",
    "postal_code": "37130"
  },
  {
    "name": "La Chapelle-Blanche-Saint-Martin",
    "code": "37057",
    "epci_code": "200071587",
    "departement_code": "37",
    "region_code": "24",
    "postal_code": "37240"
  },
  {
    "name": "La Chapelle-sur-Loire",
    "code": "37058",
    "epci_code": "200072981",
    "departement_code": "37",
    "region_code": "24",
    "postal_code": "37140"
  },
  {
    "name": "Charentilly",
    "code": "37059",
    "epci_code": "200073237",
    "departement_code": "37",
    "region_code": "24",
    "postal_code": "37390"
  },
  {
    "name": "Chargé",
    "code": "37060",
    "epci_code": "200043065",
    "departement_code": "37",
    "region_code": "24",
    "postal_code": "37530"
  },
  {
    "name": "Charnizay",
    "code": "37061",
    "epci_code": "200071587",
    "departement_code": "37",
    "region_code": "24",
    "postal_code": "37290"
  },
  {
    "name": "Château-la-Vallière",
    "code": "37062",
    "epci_code": "200072981",
    "departement_code": "37",
    "region_code": "24",
    "postal_code": "37330"
  },
  {
    "name": "Château-Renault",
    "code": "37063",
    "epci_code": "243700499",
    "departement_code": "37",
    "region_code": "24",
    "postal_code": "37110"
  },
  {
    "name": "Chaumussay",
    "code": "37064",
    "epci_code": "200071587",
    "departement_code": "37",
    "region_code": "24",
    "postal_code": "37350"
  },
  {
    "name": "Chaveignes",
    "code": "37065",
    "epci_code": "200072668",
    "departement_code": "37",
    "region_code": "24",
    "postal_code": "37120"
  },
  {
    "name": "Chédigny",
    "code": "37066",
    "epci_code": "200071587",
    "departement_code": "37",
    "region_code": "24",
    "postal_code": "37310"
  },
  {
    "name": "Cheillé",
    "code": "37067",
    "epci_code": "200072650",
    "departement_code": "37",
    "region_code": "24",
    "postal_code": "37190"
  },
  {
    "name": "Chemillé-sur-Dême",
    "code": "37068",
    "epci_code": "200073237",
    "departement_code": "37",
    "region_code": "24",
    "postal_code": "37370"
  },
  {
    "name": "Chemillé-sur-Indrois",
    "code": "37069",
    "epci_code": "200071587",
    "departement_code": "37",
    "region_code": "24",
    "postal_code": "37460"
  },
  {
    "name": "Chenonceaux",
    "code": "37070",
    "epci_code": "243700820",
    "departement_code": "37",
    "region_code": "24",
    "postal_code": "37150"
  },
  {
    "name": "Chezelles",
    "code": "37071",
    "epci_code": "200072668",
    "departement_code": "37",
    "region_code": "24",
    "postal_code": "37220"
  },
  {
    "name": "Chinon",
    "code": "37072",
    "epci_code": "200043081",
    "departement_code": "37",
    "region_code": "24",
    "postal_code": "37500"
  },
  {
    "name": "Chisseaux",
    "code": "37073",
    "epci_code": "243700820",
    "departement_code": "37",
    "region_code": "24",
    "postal_code": "37150"
  },
  {
    "name": "Chouzé-sur-Loire",
    "code": "37074",
    "epci_code": "200043081",
    "departement_code": "37",
    "region_code": "24",
    "postal_code": "37140"
  },
  {
    "name": "Cigogné",
    "code": "37075",
    "epci_code": "243700820",
    "departement_code": "37",
    "region_code": "24",
    "postal_code": "37310"
  },
  {
    "name": "Cinais",
    "code": "37076",
    "epci_code": "200043081",
    "departement_code": "37",
    "region_code": "24",
    "postal_code": "37500"
  },
  {
    "name": "Cinq-Mars-la-Pile",
    "code": "37077",
    "epci_code": "200072981",
    "departement_code": "37",
    "region_code": "24",
    "postal_code": "37130"
  },
  {
    "name": "Ciran",
    "code": "37078",
    "epci_code": "200071587",
    "departement_code": "37",
    "region_code": "24",
    "postal_code": "37240"
  },
  {
    "name": "Civray-de-Touraine",
    "code": "37079",
    "epci_code": "243700820",
    "departement_code": "37",
    "region_code": "24",
    "postal_code": "37150"
  },
  {
    "name": "Civray-sur-Esves",
    "code": "37080",
    "epci_code": "200071587",
    "departement_code": "37",
    "region_code": "24",
    "postal_code": "37160"
  },
  {
    "name": "Cléré-les-Pins",
    "code": "37081",
    "epci_code": "200072981",
    "departement_code": "37",
    "region_code": "24",
    "postal_code": "37340"
  },
  {
    "name": "Continvoir",
    "code": "37082",
    "epci_code": "200072981",
    "departement_code": "37",
    "region_code": "24",
    "postal_code": "37340"
  },
  {
    "name": "Cormery",
    "code": "37083",
    "epci_code": "200071587",
    "departement_code": "37",
    "region_code": "24",
    "postal_code": "37320"
  },
  {
    "name": "Couesmes",
    "code": "37084",
    "epci_code": "200072981",
    "departement_code": "37",
    "region_code": "24",
    "postal_code": "37330"
  },
  {
    "name": "Courçay",
    "code": "37085",
    "epci_code": "243700820",
    "departement_code": "37",
    "region_code": "24",
    "postal_code": "37310"
  },
  {
    "name": "Courcelles-de-Touraine",
    "code": "37086",
    "epci_code": "200072981",
    "departement_code": "37",
    "region_code": "24",
    "postal_code": "37330"
  },
  {
    "name": "Courcoué",
    "code": "37087",
    "epci_code": "200072668",
    "departement_code": "37",
    "region_code": "24",
    "postal_code": "37120"
  },
  {
    "name": "Couziers",
    "code": "37088",
    "epci_code": "200043081",
    "departement_code": "37",
    "region_code": "24",
    "postal_code": "37500"
  },
  {
    "name": "Cravant-les-Côteaux",
    "code": "37089",
    "epci_code": "200043081",
    "departement_code": "37",
    "region_code": "24",
    "postal_code": "37500"
  },
  {
    "name": "Crissay-sur-Manse",
    "code": "37090",
    "epci_code": "200072668",
    "departement_code": "37",
    "region_code": "24",
    "postal_code": "37220"
  },
  {
    "name": "La Croix-en-Touraine",
    "code": "37091",
    "epci_code": "243700820",
    "departement_code": "37",
    "region_code": "24",
    "postal_code": "37150"
  },
  {
    "name": "Crotelles",
    "code": "37092",
    "epci_code": "243700499",
    "departement_code": "37",
    "region_code": "24",
    "postal_code": "37380"
  },
  {
    "name": "Crouzilles",
    "code": "37093",
    "epci_code": "200072668",
    "departement_code": "37",
    "region_code": "24",
    "postal_code": "37220"
  },
  {
    "name": "Cussay",
    "code": "37094",
    "epci_code": "200071587",
    "departement_code": "37",
    "region_code": "24",
    "postal_code": "37240"
  },
  {
    "name": "Dame-Marie-les-Bois",
    "code": "37095",
    "epci_code": "243700499",
    "departement_code": "37",
    "region_code": "24",
    "postal_code": "37110"
  },
  {
    "name": "Dierre",
    "code": "37096",
    "epci_code": "243700820",
    "departement_code": "37",
    "region_code": "24",
    "postal_code": "37150"
  },
  {
    "name": "Dolus-le-Sec",
    "code": "37097",
    "epci_code": "200071587",
    "departement_code": "37",
    "region_code": "24",
    "postal_code": "37310"
  },
  {
    "name": "Draché",
    "code": "37098",
    "epci_code": "200071587",
    "departement_code": "37",
    "region_code": "24",
    "postal_code": "37800"
  },
  {
    "name": "Druye",
    "code": "37099",
    "epci_code": "243700754",
    "departement_code": "37",
    "region_code": "24",
    "postal_code": "37190"
  },
  {
    "name": "Épeigné-les-Bois",
    "code": "37100",
    "epci_code": "243700820",
    "departement_code": "37",
    "region_code": "24",
    "postal_code": "37150"
  },
  {
    "name": "Épeigné-sur-Dême",
    "code": "37101",
    "epci_code": "200073237",
    "departement_code": "37",
    "region_code": "24",
    "postal_code": "37370"
  },
  {
    "name": "Esves-le-Moutier",
    "code": "37103",
    "epci_code": "200071587",
    "departement_code": "37",
    "region_code": "24",
    "postal_code": "37240"
  },
  {
    "name": "Esvres",
    "code": "37104",
    "epci_code": "200072650",
    "departement_code": "37",
    "region_code": "24",
    "postal_code": "37320"
  },
  {
    "name": "Faye-la-Vineuse",
    "code": "37105",
    "epci_code": "200072668",
    "departement_code": "37",
    "region_code": "24",
    "postal_code": "37120"
  },
  {
    "name": "La Ferrière",
    "code": "37106",
    "epci_code": "243700499",
    "departement_code": "37",
    "region_code": "24",
    "postal_code": "37110"
  },
  {
    "name": "Ferrière-Larçon",
    "code": "37107",
    "epci_code": "200071587",
    "departement_code": "37",
    "region_code": "24",
    "postal_code": "37350"
  },
  {
    "name": "Ferrière-sur-Beaulieu",
    "code": "37108",
    "epci_code": "200071587",
    "departement_code": "37",
    "region_code": "24",
    "postal_code": "37600"
  },
  {
    "name": "Fondettes",
    "code": "37109",
    "epci_code": "243700754",
    "departement_code": "37",
    "region_code": "24",
    "postal_code": "37230"
  },
  {
    "name": "Francueil",
    "code": "37110",
    "epci_code": "243700820",
    "departement_code": "37",
    "region_code": "24",
    "postal_code": "37150"
  },
  {
    "name": "Genillé",
    "code": "37111",
    "epci_code": "200071587",
    "departement_code": "37",
    "region_code": "24",
    "postal_code": "37460"
  },
  {
    "name": "Gizeux",
    "code": "37112",
    "epci_code": "200072981",
    "departement_code": "37",
    "region_code": "24",
    "postal_code": "37340"
  },
  {
    "name": "Le Grand-Pressigny",
    "code": "37113",
    "epci_code": "200071587",
    "departement_code": "37",
    "region_code": "24",
    "postal_code": "37350"
  },
  {
    "name": "La Guerche",
    "code": "37114",
    "epci_code": "200071587",
    "departement_code": "37",
    "region_code": "24",
    "postal_code": "37350"
  },
  {
    "name": "Descartes",
    "code": "37115",
    "epci_code": "200071587",
    "departement_code": "37",
    "region_code": "24",
    "postal_code": "37160"
  },
  {
    "name": "Les Hermites",
    "code": "37116",
    "epci_code": "243700499",
    "departement_code": "37",
    "region_code": "24",
    "postal_code": "37110"
  },
  {
    "name": "Hommes",
    "code": "37117",
    "epci_code": "200072981",
    "departement_code": "37",
    "region_code": "24",
    "postal_code": "37340"
  },
  {
    "name": "Huismes",
    "code": "37118",
    "epci_code": "200043081",
    "departement_code": "37",
    "region_code": "24",
    "postal_code": "37420"
  },
  {
    "name": "L’Île-Bouchard",
    "code": "37119",
    "epci_code": "200072668",
    "departement_code": "37",
    "region_code": "24",
    "postal_code": "37220"
  },
  {
    "name": "Jaulnay",
    "code": "37121",
    "epci_code": "200072668",
    "departement_code": "37",
    "region_code": "24",
    "postal_code": "37120"
  },
  {
    "name": "Joué-lès-Tours",
    "code": "37122",
    "epci_code": "243700754",
    "departement_code": "37",
    "region_code": "24",
    "postal_code": "37300"
  },
  {
    "name": "Langeais",
    "code": "37123",
    "epci_code": "200072981",
    "departement_code": "37",
    "region_code": "24",
    "postal_code": "37130"
  },
  {
    "name": "Larçay",
    "code": "37124",
    "epci_code": "200073161",
    "departement_code": "37",
    "region_code": "24",
    "postal_code": "37270"
  },
  {
    "name": "Lémeré",
    "code": "37125",
    "epci_code": "200072668",
    "departement_code": "37",
    "region_code": "24",
    "postal_code": "37120"
  },
  {
    "name": "Lerné",
    "code": "37126",
    "epci_code": "200043081",
    "departement_code": "37",
    "region_code": "24",
    "postal_code": "37500"
  },
  {
    "name": "Le Liège",
    "code": "37127",
    "epci_code": "200071587",
    "departement_code": "37",
    "region_code": "24",
    "postal_code": "37460"
  },
  {
    "name": "Lignières-de-Touraine",
    "code": "37128",
    "epci_code": "200072650",
    "departement_code": "37",
    "region_code": "24",
    "postal_code": "37130"
  },
  {
    "name": "Ligré",
    "code": "37129",
    "epci_code": "200072668",
    "departement_code": "37",
    "region_code": "24",
    "postal_code": "37500"
  },
  {
    "name": "Ligueil",
    "code": "37130",
    "epci_code": "200071587",
    "departement_code": "37",
    "region_code": "24",
    "postal_code": "37240"
  },
  {
    "name": "Limeray",
    "code": "37131",
    "epci_code": "200043065",
    "departement_code": "37",
    "region_code": "24",
    "postal_code": "37530"
  },
  {
    "name": "Loches",
    "code": "37132",
    "epci_code": "200071587",
    "departement_code": "37",
    "region_code": "24",
    "postal_code": "37600"
  },
  {
    "name": "Loché-sur-Indrois",
    "code": "37133",
    "epci_code": "200071587",
    "departement_code": "37",
    "region_code": "24",
    "postal_code": "37460"
  },
  {
    "name": "Louans",
    "code": "37134",
    "epci_code": "200071587",
    "departement_code": "37",
    "region_code": "24",
    "postal_code": "37320"
  },
  {
    "name": "Le Louroux",
    "code": "37136",
    "epci_code": "200071587",
    "departement_code": "37",
    "region_code": "24",
    "postal_code": "37240"
  },
  {
    "name": "Lublé",
    "code": "37137",
    "epci_code": "200072981",
    "departement_code": "37",
    "region_code": "24",
    "postal_code": "37330"
  },
  {
    "name": "Lussault-sur-Loire",
    "code": "37138",
    "epci_code": "200043065",
    "departement_code": "37",
    "region_code": "24",
    "postal_code": "37400"
  },
  {
    "name": "Luynes",
    "code": "37139",
    "epci_code": "243700754",
    "departement_code": "37",
    "region_code": "24",
    "postal_code": "37230"
  },
  {
    "name": "Luzé",
    "code": "37140",
    "epci_code": "200072668",
    "departement_code": "37",
    "region_code": "24",
    "postal_code": "37120"
  },
  {
    "name": "Luzillé",
    "code": "37141",
    "epci_code": "243700820",
    "departement_code": "37",
    "region_code": "24",
    "postal_code": "37150"
  },
  {
    "name": "Maillé",
    "code": "37142",
    "epci_code": "200072668",
    "departement_code": "37",
    "region_code": "24",
    "postal_code": "37800"
  },
  {
    "name": "Manthelan",
    "code": "37143",
    "epci_code": "200071587",
    "departement_code": "37",
    "region_code": "24",
    "postal_code": "37240"
  },
  {
    "name": "Marçay",
    "code": "37144",
    "epci_code": "200043081",
    "departement_code": "37",
    "region_code": "24",
    "postal_code": "37500"
  },
  {
    "name": "Marcé-sur-Esves",
    "code": "37145",
    "epci_code": "200071587",
    "departement_code": "37",
    "region_code": "24",
    "postal_code": "37160"
  },
  {
    "name": "Marcilly-sur-Maulne",
    "code": "37146",
    "epci_code": "200072981",
    "departement_code": "37",
    "region_code": "24",
    "postal_code": "37330"
  },
  {
    "name": "Marcilly-sur-Vienne",
    "code": "37147",
    "epci_code": "200072668",
    "departement_code": "37",
    "region_code": "24",
    "postal_code": "37800"
  },
  {
    "name": "Marigny-Marmande",
    "code": "37148",
    "epci_code": "200072668",
    "departement_code": "37",
    "region_code": "24",
    "postal_code": "37120"
  },
  {
    "name": "Marray",
    "code": "37149",
    "epci_code": "200073237",
    "departement_code": "37",
    "region_code": "24",
    "postal_code": "37370"
  },
  {
    "name": "Mazières-de-Touraine",
    "code": "37150",
    "epci_code": "200072981",
    "departement_code": "37",
    "region_code": "24",
    "postal_code": "37130"
  },
  {
    "name": "La Membrolle-sur-Choisille",
    "code": "37151",
    "epci_code": "243700754",
    "departement_code": "37",
    "region_code": "24",
    "postal_code": "37390"
  },
  {
    "name": "Mettray",
    "code": "37152",
    "epci_code": "243700754",
    "departement_code": "37",
    "region_code": "24",
    "postal_code": "37390"
  },
  {
    "name": "Monnaie",
    "code": "37153",
    "epci_code": "200073161",
    "departement_code": "37",
    "region_code": "24",
    "postal_code": "37380"
  },
  {
    "name": "Montbazon",
    "code": "37154",
    "epci_code": "200072650",
    "departement_code": "37",
    "region_code": "24",
    "postal_code": "37250"
  },
  {
    "name": "Monthodon",
    "code": "37155",
    "epci_code": "243700499",
    "departement_code": "37",
    "region_code": "24",
    "postal_code": "37110"
  },
  {
    "name": "Montlouis-sur-Loire",
    "code": "37156",
    "epci_code": "200073161",
    "departement_code": "37",
    "region_code": "24",
    "postal_code": "37270"
  },
  {
    "name": "Montrésor",
    "code": "37157",
    "epci_code": "200071587",
    "departement_code": "37",
    "region_code": "24",
    "postal_code": "37460"
  },
  {
    "name": "Montreuil-en-Touraine",
    "code": "37158",
    "epci_code": "200043065",
    "departement_code": "37",
    "region_code": "24",
    "postal_code": "37530"
  },
  {
    "name": "Monts",
    "code": "37159",
    "epci_code": "200072650",
    "departement_code": "37",
    "region_code": "24",
    "postal_code": "37260"
  },
  {
    "name": "Morand",
    "code": "37160",
    "epci_code": "243700499",
    "departement_code": "37",
    "region_code": "24",
    "postal_code": "37110"
  },
  {
    "name": "Mosnes",
    "code": "37161",
    "epci_code": "200043065",
    "departement_code": "37",
    "region_code": "24",
    "postal_code": "37530"
  },
  {
    "name": "Mouzay",
    "code": "37162",
    "epci_code": "200071587",
    "departement_code": "37",
    "region_code": "24",
    "postal_code": "37600"
  },
  {
    "name": "Nazelles-Négron",
    "code": "37163",
    "epci_code": "200043065",
    "departement_code": "37",
    "region_code": "24",
    "postal_code": "37530"
  },
  {
    "name": "Neuil",
    "code": "37165",
    "epci_code": "200072668",
    "departement_code": "37",
    "region_code": "24",
    "postal_code": "37190"
  },
  {
    "name": "Neuillé-le-Lierre",
    "code": "37166",
    "epci_code": "200043065",
    "departement_code": "37",
    "region_code": "24",
    "postal_code": "37380"
  },
  {
    "name": "Neuillé-Pont-Pierre",
    "code": "37167",
    "epci_code": "200073237",
    "departement_code": "37",
    "region_code": "24",
    "postal_code": "37360"
  },
  {
    "name": "Neuilly-le-Brignon",
    "code": "37168",
    "epci_code": "200071587",
    "departement_code": "37",
    "region_code": "24",
    "postal_code": "37160"
  },
  {
    "name": "Neuville-sur-Brenne",
    "code": "37169",
    "epci_code": "243700499",
    "departement_code": "37",
    "region_code": "24",
    "postal_code": "37110"
  },
  {
    "name": "Neuvy-le-Roi",
    "code": "37170",
    "epci_code": "200073237",
    "departement_code": "37",
    "region_code": "24",
    "postal_code": "37370"
  },
  {
    "name": "Noizay",
    "code": "37171",
    "epci_code": "200043065",
    "departement_code": "37",
    "region_code": "24",
    "postal_code": "37210"
  },
  {
    "name": "Notre-Dame-d’Oé",
    "code": "37172",
    "epci_code": "243700754",
    "departement_code": "37",
    "region_code": "24",
    "postal_code": "37390"
  },
  {
    "name": "Nouans-les-Fontaines",
    "code": "37173",
    "epci_code": "200071587",
    "departement_code": "37",
    "region_code": "24",
    "postal_code": "37460"
  },
  {
    "name": "Nouâtre",
    "code": "37174",
    "epci_code": "200072668",
    "departement_code": "37",
    "region_code": "24",
    "postal_code": "37800"
  },
  {
    "name": "Nouzilly",
    "code": "37175",
    "epci_code": "243700499",
    "departement_code": "37",
    "region_code": "24",
    "postal_code": "37380"
  },
  {
    "name": "Noyant-de-Touraine",
    "code": "37176",
    "epci_code": "200072668",
    "departement_code": "37",
    "region_code": "24",
    "postal_code": "37800"
  },
  {
    "name": "Orbigny",
    "code": "37177",
    "epci_code": "200071587",
    "departement_code": "37",
    "region_code": "24",
    "postal_code": "37460"
  },
  {
    "name": "Panzoult",
    "code": "37178",
    "epci_code": "200072668",
    "departement_code": "37",
    "region_code": "24",
    "postal_code": "37220"
  },
  {
    "name": "Parçay-Meslay",
    "code": "37179",
    "epci_code": "243700754",
    "departement_code": "37",
    "region_code": "24",
    "postal_code": "37210"
  },
  {
    "name": "Parçay-sur-Vienne",
    "code": "37180",
    "epci_code": "200072668",
    "departement_code": "37",
    "region_code": "24",
    "postal_code": "37220"
  },
  {
    "name": "Paulmy",
    "code": "37181",
    "epci_code": "200071587",
    "departement_code": "37",
    "region_code": "24",
    "postal_code": "37350"
  },
  {
    "name": "Pernay",
    "code": "37182",
    "epci_code": "200073237",
    "departement_code": "37",
    "region_code": "24",
    "postal_code": "37230"
  },
  {
    "name": "Perrusson",
    "code": "37183",
    "epci_code": "200071587",
    "departement_code": "37",
    "region_code": "24",
    "postal_code": "37600"
  },
  {
    "name": "Le Petit-Pressigny",
    "code": "37184",
    "epci_code": "200071587",
    "departement_code": "37",
    "region_code": "24",
    "postal_code": "37350"
  },
  {
    "name": "Pocé-sur-Cisse",
    "code": "37185",
    "epci_code": "200043065",
    "departement_code": "37",
    "region_code": "24",
    "postal_code": "37530"
  },
  {
    "name": "Pont-de-Ruan",
    "code": "37186",
    "epci_code": "200072650",
    "departement_code": "37",
    "region_code": "24",
    "postal_code": "37260"
  },
  {
    "name": "Ports-sur-Vienne",
    "code": "37187",
    "epci_code": "200072668",
    "departement_code": "37",
    "region_code": "24",
    "postal_code": "37800"
  },
  {
    "name": "Pouzay",
    "code": "37188",
    "epci_code": "200072668",
    "departement_code": "37",
    "region_code": "24",
    "postal_code": "37800"
  },
  {
    "name": "Preuilly-sur-Claise",
    "code": "37189",
    "epci_code": "200071587",
    "departement_code": "37",
    "region_code": "24",
    "postal_code": "37290"
  },
  {
    "name": "Pussigny",
    "code": "37190",
    "epci_code": "200072668",
    "departement_code": "37",
    "region_code": "24",
    "postal_code": "37800"
  },
  {
    "name": "Razines",
    "code": "37191",
    "epci_code": "200072668",
    "departement_code": "37",
    "region_code": "24",
    "postal_code": "37120"
  },
  {
    "name": "Reignac-sur-Indre",
    "code": "37192",
    "epci_code": "200071587",
    "departement_code": "37",
    "region_code": "24",
    "postal_code": "37310"
  },
  {
    "name": "Restigné",
    "code": "37193",
    "epci_code": "200072981",
    "departement_code": "37",
    "region_code": "24",
    "postal_code": "37140"
  },
  {
    "name": "Reugny",
    "code": "37194",
    "epci_code": "200073161",
    "departement_code": "37",
    "region_code": "24",
    "postal_code": "37380"
  },
  {
    "name": "La Riche",
    "code": "37195",
    "epci_code": "243700754",
    "departement_code": "37",
    "region_code": "24",
    "postal_code": "37520"
  },
  {
    "name": "Richelieu",
    "code": "37196",
    "epci_code": "200072668",
    "departement_code": "37",
    "region_code": "24",
    "postal_code": "37120"
  },
  {
    "name": "Rigny-Ussé",
    "code": "37197",
    "epci_code": "200072650",
    "departement_code": "37",
    "region_code": "24",
    "postal_code": "37420"
  },
  {
    "name": "Rillé",
    "code": "37198",
    "epci_code": "200072981",
    "departement_code": "37",
    "region_code": "24",
    "postal_code": "37340"
  },
  {
    "name": "Rilly-sur-Vienne",
    "code": "37199",
    "epci_code": "200072668",
    "departement_code": "37",
    "region_code": "24",
    "postal_code": "37220"
  },
  {
    "name": "Rivarennes",
    "code": "37200",
    "epci_code": "200072650",
    "departement_code": "37",
    "region_code": "24",
    "postal_code": "37190"
  },
  {
    "name": "Rivière",
    "code": "37201",
    "epci_code": "200043081",
    "departement_code": "37",
    "region_code": "24",
    "postal_code": "37500"
  },
  {
    "name": "La Roche-Clermault",
    "code": "37202",
    "epci_code": "200043081",
    "departement_code": "37",
    "region_code": "24",
    "postal_code": "37500"
  },
  {
    "name": "Rochecorbon",
    "code": "37203",
    "epci_code": "243700754",
    "departement_code": "37",
    "region_code": "24",
    "postal_code": "37210"
  },
  {
    "name": "Rouziers-de-Touraine",
    "code": "37204",
    "epci_code": "200073237",
    "departement_code": "37",
    "region_code": "24",
    "postal_code": "37360"
  },
  {
    "name": "Saché",
    "code": "37205",
    "epci_code": "200072650",
    "departement_code": "37",
    "region_code": "24",
    "postal_code": "37190"
  },
  {
    "name": "Saint-Antoine-du-Rocher",
    "code": "37206",
    "epci_code": "200073237",
    "departement_code": "37",
    "region_code": "24",
    "postal_code": "37360"
  },
  {
    "name": "Saint-Aubin-le-Dépeint",
    "code": "37207",
    "epci_code": "200073237",
    "departement_code": "37",
    "region_code": "24",
    "postal_code": "37370"
  },
  {
    "name": "Saint-Avertin",
    "code": "37208",
    "epci_code": "243700754",
    "departement_code": "37",
    "region_code": "24",
    "postal_code": "37550"
  },
  {
    "name": "Saint-Benoît-la-Forêt",
    "code": "37210",
    "epci_code": "200043081",
    "departement_code": "37",
    "region_code": "24",
    "postal_code": "37500"
  },
  {
    "name": "Saint-Branchs",
    "code": "37211",
    "epci_code": "200072650",
    "departement_code": "37",
    "region_code": "24",
    "postal_code": "37320"
  },
  {
    "name": "Sainte-Catherine-de-Fierbois",
    "code": "37212",
    "epci_code": "200072650",
    "departement_code": "37",
    "region_code": "24",
    "postal_code": "37800"
  },
  {
    "name": "Saint-Christophe-sur-le-Nais",
    "code": "37213",
    "epci_code": "200073237",
    "departement_code": "37",
    "region_code": "24",
    "postal_code": "37370"
  },
  {
    "name": "Saint-Cyr-sur-Loire",
    "code": "37214",
    "epci_code": "243700754",
    "departement_code": "37",
    "region_code": "24",
    "postal_code": "37540"
  },
  {
    "name": "Saint-Épain",
    "code": "37216",
    "epci_code": "200072668",
    "departement_code": "37",
    "region_code": "24",
    "postal_code": "37800"
  },
  {
    "name": "Saint-Étienne-de-Chigny",
    "code": "37217",
    "epci_code": "243700754",
    "departement_code": "37",
    "region_code": "24",
    "postal_code": "37230"
  },
  {
    "name": "Saint-Flovier",
    "code": "37218",
    "epci_code": "200071587",
    "departement_code": "37",
    "region_code": "24",
    "postal_code": "37600"
  },
  {
    "name": "Saint-Genouph",
    "code": "37219",
    "epci_code": "243700754",
    "departement_code": "37",
    "region_code": "24",
    "postal_code": "37510"
  },
  {
    "name": "Saint-Germain-sur-Vienne",
    "code": "37220",
    "epci_code": "200043081",
    "departement_code": "37",
    "region_code": "24",
    "postal_code": "37500"
  },
  {
    "name": "Saint-Hippolyte",
    "code": "37221",
    "epci_code": "200071587",
    "departement_code": "37",
    "region_code": "24",
    "postal_code": "37600"
  },
  {
    "name": "Saint-Jean-Saint-Germain",
    "code": "37222",
    "epci_code": "200071587",
    "departement_code": "37",
    "region_code": "24",
    "postal_code": "37600"
  },
  {
    "name": "Saint-Laurent-de-Lin",
    "code": "37223",
    "epci_code": "200072981",
    "departement_code": "37",
    "region_code": "24",
    "postal_code": "37330"
  },
  {
    "name": "Saint-Laurent-en-Gâtines",
    "code": "37224",
    "epci_code": "243700499",
    "departement_code": "37",
    "region_code": "24",
    "postal_code": "37380"
  },
  {
    "name": "Saint-Martin-le-Beau",
    "code": "37225",
    "epci_code": "243700820",
    "departement_code": "37",
    "region_code": "24",
    "postal_code": "37270"
  },
  {
    "name": "Sainte-Maure-de-Touraine",
    "code": "37226",
    "epci_code": "200072668",
    "departement_code": "37",
    "region_code": "24",
    "postal_code": "37800"
  },
  {
    "name": "Saint-Nicolas-de-Bourgueil",
    "code": "37228",
    "epci_code": "200072981",
    "departement_code": "37",
    "region_code": "24",
    "postal_code": "37140"
  },
  {
    "name": "Saint-Nicolas-des-Motets",
    "code": "37229",
    "epci_code": "243700499",
    "departement_code": "37",
    "region_code": "24",
    "postal_code": "37110"
  },
  {
    "name": "Saint-Ouen-les-Vignes",
    "code": "37230",
    "epci_code": "200043065",
    "departement_code": "37",
    "region_code": "24",
    "postal_code": "37530"
  },
  {
    "name": "Saint-Paterne-Racan",
    "code": "37231",
    "epci_code": "200073237",
    "departement_code": "37",
    "region_code": "24",
    "postal_code": "37370"
  },
  {
    "name": "Coteaux-sur-Loire",
    "code": "37232",
    "epci_code": "200072981",
    "departement_code": "37",
    "region_code": "24",
    "postal_code": "37130"
  },
  {
    "name": "Coteaux-sur-Loire",
    "code": "37232",
    "epci_code": "200072981",
    "departement_code": "37",
    "region_code": "24",
    "postal_code": "37140"
  },
  {
    "name": "Saint-Pierre-des-Corps",
    "code": "37233",
    "epci_code": "243700754",
    "departement_code": "37",
    "region_code": "24",
    "postal_code": "37700"
  },
  {
    "name": "Saint-Quentin-sur-Indrois",
    "code": "37234",
    "epci_code": "200071587",
    "departement_code": "37",
    "region_code": "24",
    "postal_code": "37310"
  },
  {
    "name": "Saint-Règle",
    "code": "37236",
    "epci_code": "200043065",
    "departement_code": "37",
    "region_code": "24",
    "postal_code": "37530"
  },
  {
    "name": "Saint-Roch",
    "code": "37237",
    "epci_code": "200073237",
    "departement_code": "37",
    "region_code": "24",
    "postal_code": "37390"
  },
  {
    "name": "Saint-Senoch",
    "code": "37238",
    "epci_code": "200071587",
    "departement_code": "37",
    "region_code": "24",
    "postal_code": "37600"
  },
  {
    "name": "Saunay",
    "code": "37240",
    "epci_code": "243700499",
    "departement_code": "37",
    "region_code": "24",
    "postal_code": "37110"
  },
  {
    "name": "Savigné-sur-Lathan",
    "code": "37241",
    "epci_code": "200072981",
    "departement_code": "37",
    "region_code": "24",
    "postal_code": "37340"
  },
  {
    "name": "Savigny-en-Véron",
    "code": "37242",
    "epci_code": "200043081",
    "departement_code": "37",
    "region_code": "24",
    "postal_code": "37420"
  },
  {
    "name": "Savonnières",
    "code": "37243",
    "epci_code": "243700754",
    "departement_code": "37",
    "region_code": "24",
    "postal_code": "37510"
  },
  {
    "name": "Sazilly",
    "code": "37244",
    "epci_code": "200072668",
    "departement_code": "37",
    "region_code": "24",
    "postal_code": "37220"
  },
  {
    "name": "Semblançay",
    "code": "37245",
    "epci_code": "200073237",
    "departement_code": "37",
    "region_code": "24",
    "postal_code": "37360"
  },
  {
    "name": "Sennevières",
    "code": "37246",
    "epci_code": "200071587",
    "departement_code": "37",
    "region_code": "24",
    "postal_code": "37600"
  },
  {
    "name": "Sepmes",
    "code": "37247",
    "epci_code": "200071587",
    "departement_code": "37",
    "region_code": "24",
    "postal_code": "37800"
  },
  {
    "name": "Seuilly",
    "code": "37248",
    "epci_code": "200043081",
    "departement_code": "37",
    "region_code": "24",
    "postal_code": "37500"
  },
  {
    "name": "Sonzay",
    "code": "37249",
    "epci_code": "200073237",
    "departement_code": "37",
    "region_code": "24",
    "postal_code": "37360"
  },
  {
    "name": "Sorigny",
    "code": "37250",
    "epci_code": "200072650",
    "departement_code": "37",
    "region_code": "24",
    "postal_code": "37250"
  },
  {
    "name": "Souvigné",
    "code": "37251",
    "epci_code": "200072981",
    "departement_code": "37",
    "region_code": "24",
    "postal_code": "37330"
  },
  {
    "name": "Souvigny-de-Touraine",
    "code": "37252",
    "epci_code": "200043065",
    "departement_code": "37",
    "region_code": "24",
    "postal_code": "37530"
  },
  {
    "name": "Sublaines",
    "code": "37253",
    "epci_code": "243700820",
    "departement_code": "37",
    "region_code": "24",
    "postal_code": "37310"
  },
  {
    "name": "Tauxigny-Saint-Bauld",
    "code": "37254",
    "epci_code": "200071587",
    "departement_code": "37",
    "region_code": "24",
    "postal_code": "37310"
  },
  {
    "name": "Tavant",
    "code": "37255",
    "epci_code": "200072668",
    "departement_code": "37",
    "region_code": "24",
    "postal_code": "37220"
  },
  {
    "name": "Theneuil",
    "code": "37256",
    "epci_code": "200072668",
    "departement_code": "37",
    "region_code": "24",
    "postal_code": "37220"
  },
  {
    "name": "Thilouze",
    "code": "37257",
    "epci_code": "200072650",
    "departement_code": "37",
    "region_code": "24",
    "postal_code": "37260"
  },
  {
    "name": "Thizay",
    "code": "37258",
    "epci_code": "200043081",
    "departement_code": "37",
    "region_code": "24",
    "postal_code": "37500"
  },
  {
    "name": "Tournon-Saint-Pierre",
    "code": "37259",
    "epci_code": "200071587",
    "departement_code": "37",
    "region_code": "24",
    "postal_code": "37290"
  },
  {
    "name": "La Tour-Saint-Gelin",
    "code": "37260",
    "epci_code": "200072668",
    "departement_code": "37",
    "region_code": "24",
    "postal_code": "37120"
  },
  {
    "name": "Tours",
    "code": "37261",
    "epci_code": "243700754",
    "departement_code": "37",
    "region_code": "24",
    "postal_code": "37000"
  },
  {
    "name": "Tours",
    "code": "37261",
    "epci_code": "243700754",
    "departement_code": "37",
    "region_code": "24",
    "postal_code": "37100"
  },
  {
    "name": "Tours",
    "code": "37261",
    "epci_code": "243700754",
    "departement_code": "37",
    "region_code": "24",
    "postal_code": "37200"
  },
  {
    "name": "Trogues",
    "code": "37262",
    "epci_code": "200072668",
    "departement_code": "37",
    "region_code": "24",
    "postal_code": "37220"
  },
  {
    "name": "Truyes",
    "code": "37263",
    "epci_code": "200072650",
    "departement_code": "37",
    "region_code": "24",
    "postal_code": "37320"
  },
  {
    "name": "Vallères",
    "code": "37264",
    "epci_code": "200072650",
    "departement_code": "37",
    "region_code": "24",
    "postal_code": "37190"
  },
  {
    "name": "Varennes",
    "code": "37265",
    "epci_code": "200071587",
    "departement_code": "37",
    "region_code": "24",
    "postal_code": "37600"
  },
  {
    "name": "Veigné",
    "code": "37266",
    "epci_code": "200072650",
    "departement_code": "37",
    "region_code": "24",
    "postal_code": "37250"
  },
  {
    "name": "Véretz",
    "code": "37267",
    "epci_code": "200073161",
    "departement_code": "37",
    "region_code": "24",
    "postal_code": "37270"
  },
  {
    "name": "Verneuil-le-Château",
    "code": "37268",
    "epci_code": "200072668",
    "departement_code": "37",
    "region_code": "24",
    "postal_code": "37120"
  },
  {
    "name": "Verneuil-sur-Indre",
    "code": "37269",
    "epci_code": "200071587",
    "departement_code": "37",
    "region_code": "24",
    "postal_code": "37600"
  },
  {
    "name": "Vernou-sur-Brenne",
    "code": "37270",
    "epci_code": "200073161",
    "departement_code": "37",
    "region_code": "24",
    "postal_code": "37210"
  },
  {
    "name": "Villaines-les-Rochers",
    "code": "37271",
    "epci_code": "200072650",
    "departement_code": "37",
    "region_code": "24",
    "postal_code": "37190"
  },
  {
    "name": "Villandry",
    "code": "37272",
    "epci_code": "243700754",
    "departement_code": "37",
    "region_code": "24",
    "postal_code": "37510"
  },
  {
    "name": "La Ville-aux-Dames",
    "code": "37273",
    "epci_code": "200073161",
    "departement_code": "37",
    "region_code": "24",
    "postal_code": "37700"
  },
  {
    "name": "Villebourg",
    "code": "37274",
    "epci_code": "200073237",
    "departement_code": "37",
    "region_code": "24",
    "postal_code": "37370"
  },
  {
    "name": "Villedômain",
    "code": "37275",
    "epci_code": "200071587",
    "departement_code": "37",
    "region_code": "24",
    "postal_code": "37460"
  },
  {
    "name": "Villedômer",
    "code": "37276",
    "epci_code": "243700499",
    "departement_code": "37",
    "region_code": "24",
    "postal_code": "37110"
  },
  {
    "name": "Villeloin-Coulangé",
    "code": "37277",
    "epci_code": "200071587",
    "departement_code": "37",
    "region_code": "24",
    "postal_code": "37460"
  },
  {
    "name": "Villeperdue",
    "code": "37278",
    "epci_code": "200072650",
    "departement_code": "37",
    "region_code": "24",
    "postal_code": "37260"
  },
  {
    "name": "Villiers-au-Bouin",
    "code": "37279",
    "epci_code": "200072981",
    "departement_code": "37",
    "region_code": "24",
    "postal_code": "37330"
  },
  {
    "name": "Vou",
    "code": "37280",
    "epci_code": "200071587",
    "departement_code": "37",
    "region_code": "24",
    "postal_code": "37240"
  },
  {
    "name": "Vouvray",
    "code": "37281",
    "epci_code": "200073161",
    "departement_code": "37",
    "region_code": "24",
    "postal_code": "37210"
  },
  {
    "name": "Yzeures-sur-Creuse",
    "code": "37282",
    "epci_code": "200071587",
    "departement_code": "37",
    "region_code": "24",
    "postal_code": "37290"
  }
]