[
  {
    "name": "Ailleville",
    "code": "10002",
    "epci_code": "241000405",
    "departement_code": "10",
    "region_code": "44",
    "postal_code": "10200"
  },
  {
    "name": "Aix-Villemaur-Pâlis",
    "code": "10003",
    "epci_code": "241000447",
    "departement_code": "10",
    "region_code": "44",
    "postal_code": "10160"
  },
  {
    "name": "Aix-Villemaur-Pâlis",
    "code": "10003",
    "epci_code": "241000447",
    "departement_code": "10",
    "region_code": "44",
    "postal_code": "10190"
  },
  {
    "name": "Allibaudières",
    "code": "10004",
    "epci_code": "200071777",
    "departement_code": "10",
    "region_code": "44",
    "postal_code": "10700"
  },
  {
    "name": "Amance",
    "code": "10005",
    "epci_code": "200066892",
    "departement_code": "10",
    "region_code": "44",
    "postal_code": "10140"
  },
  {
    "name": "Arcis-sur-Aube",
    "code": "10006",
    "epci_code": "200071777",
    "departement_code": "10",
    "region_code": "44",
    "postal_code": "10700"
  },
  {
    "name": "Arconville",
    "code": "10007",
    "epci_code": "241000405",
    "departement_code": "10",
    "region_code": "44",
    "postal_code": "10200"
  },
  {
    "name": "Argançon",
    "code": "10008",
    "epci_code": "200066892",
    "departement_code": "10",
    "region_code": "44",
    "postal_code": "10140"
  },
  {
    "name": "Arrelles",
    "code": "10009",
    "epci_code": "200069003",
    "departement_code": "10",
    "region_code": "44",
    "postal_code": "10340"
  },
  {
    "name": "Arrembécourt",
    "code": "10010",
    "epci_code": "200040137",
    "departement_code": "10",
    "region_code": "44",
    "postal_code": "10330"
  },
  {
    "name": "Arrentières",
    "code": "10011",
    "epci_code": "241000405",
    "departement_code": "10",
    "region_code": "44",
    "postal_code": "10200"
  },
  {
    "name": "Arsonval",
    "code": "10012",
    "epci_code": "241000405",
    "departement_code": "10",
    "region_code": "44",
    "postal_code": "10200"
  },
  {
    "name": "Assenay",
    "code": "10013",
    "epci_code": "200069250",
    "departement_code": "10",
    "region_code": "44",
    "postal_code": "10320"
  },
  {
    "name": "Assencières",
    "code": "10014",
    "epci_code": "241000223",
    "departement_code": "10",
    "region_code": "44",
    "postal_code": "10220"
  },
  {
    "name": "Aubeterre",
    "code": "10015",
    "epci_code": "200069250",
    "departement_code": "10",
    "region_code": "44",
    "postal_code": "10150"
  },
  {
    "name": "Aulnay",
    "code": "10017",
    "epci_code": "200040137",
    "departement_code": "10",
    "region_code": "44",
    "postal_code": "10240"
  },
  {
    "name": "Auxon",
    "code": "10018",
    "epci_code": "200071041",
    "departement_code": "10",
    "region_code": "44",
    "postal_code": "10130"
  },
  {
    "name": "Val-d’Auzon",
    "code": "10019",
    "epci_code": "241000223",
    "departement_code": "10",
    "region_code": "44",
    "postal_code": "10220"
  },
  {
    "name": "Avant-lès-Marcilly",
    "code": "10020",
    "epci_code": "241000488",
    "departement_code": "10",
    "region_code": "44",
    "postal_code": "10400"
  },
  {
    "name": "Avant-lès-Ramerupt",
    "code": "10021",
    "epci_code": "241000223",
    "departement_code": "10",
    "region_code": "44",
    "postal_code": "10240"
  },
  {
    "name": "Avirey-Lingey",
    "code": "10022",
    "epci_code": "200069003",
    "departement_code": "10",
    "region_code": "44",
    "postal_code": "10340"
  },
  {
    "name": "Avon-la-Pèze",
    "code": "10023",
    "epci_code": "241000488",
    "departement_code": "10",
    "region_code": "44",
    "postal_code": "10290"
  },
  {
    "name": "Avreuil",
    "code": "10024",
    "epci_code": "200071041",
    "departement_code": "10",
    "region_code": "44",
    "postal_code": "10130"
  },
  {
    "name": "Bagneux-la-Fosse",
    "code": "10025",
    "epci_code": "200069003",
    "departement_code": "10",
    "region_code": "44",
    "postal_code": "10340"
  },
  {
    "name": "Bailly-le-Franc",
    "code": "10026",
    "epci_code": "200040137",
    "departement_code": "10",
    "region_code": "44",
    "postal_code": "10330"
  },
  {
    "name": "Balignicourt",
    "code": "10027",
    "epci_code": "200040137",
    "departement_code": "10",
    "region_code": "44",
    "postal_code": "10330"
  },
  {
    "name": "Balnot-la-Grange",
    "code": "10028",
    "epci_code": "200071041",
    "departement_code": "10",
    "region_code": "44",
    "postal_code": "10210"
  },
  {
    "name": "Balnot-sur-Laignes",
    "code": "10029",
    "epci_code": "200069003",
    "departement_code": "10",
    "region_code": "44",
    "postal_code": "10110"
  },
  {
    "name": "Barberey-Saint-Sulpice",
    "code": "10030",
    "epci_code": "200069250",
    "departement_code": "10",
    "region_code": "44",
    "postal_code": "10600"
  },
  {
    "name": "Barbuise",
    "code": "10031",
    "epci_code": "200006716",
    "departement_code": "10",
    "region_code": "44",
    "postal_code": "10400"
  },
  {
    "name": "Baroville",
    "code": "10032",
    "epci_code": "241000405",
    "departement_code": "10",
    "region_code": "44",
    "postal_code": "10200"
  },
  {
    "name": "Bar-sur-Aube",
    "code": "10033",
    "epci_code": "241000405",
    "departement_code": "10",
    "region_code": "44",
    "postal_code": "10200"
  },
  {
    "name": "Bar-sur-Seine",
    "code": "10034",
    "epci_code": "200069003",
    "departement_code": "10",
    "region_code": "44",
    "postal_code": "10110"
  },
  {
    "name": "Bayel",
    "code": "10035",
    "epci_code": "241000405",
    "departement_code": "10",
    "region_code": "44",
    "postal_code": "10310"
  },
  {
    "name": "Bercenay-en-Othe",
    "code": "10037",
    "epci_code": "241000447",
    "departement_code": "10",
    "region_code": "44",
    "postal_code": "10190"
  },
  {
    "name": "Bercenay-le-Hayer",
    "code": "10038",
    "epci_code": "241000488",
    "departement_code": "10",
    "region_code": "44",
    "postal_code": "10290"
  },
  {
    "name": "Bergères",
    "code": "10039",
    "epci_code": "241000405",
    "departement_code": "10",
    "region_code": "44",
    "postal_code": "10200"
  },
  {
    "name": "Bernon",
    "code": "10040",
    "epci_code": "200071041",
    "departement_code": "10",
    "region_code": "44",
    "postal_code": "10130"
  },
  {
    "name": "Bertignolles",
    "code": "10041",
    "epci_code": "200069003",
    "departement_code": "10",
    "region_code": "44",
    "postal_code": "10110"
  },
  {
    "name": "Bérulle",
    "code": "10042",
    "epci_code": "241000447",
    "departement_code": "10",
    "region_code": "44",
    "postal_code": "10160"
  },
  {
    "name": "Bessy",
    "code": "10043",
    "epci_code": "200070126",
    "departement_code": "10",
    "region_code": "44",
    "postal_code": "10170"
  },
  {
    "name": "Bétignicourt",
    "code": "10044",
    "epci_code": "200040137",
    "departement_code": "10",
    "region_code": "44",
    "postal_code": "10500"
  },
  {
    "name": "Beurey",
    "code": "10045",
    "epci_code": "200066892",
    "departement_code": "10",
    "region_code": "44",
    "postal_code": "10140"
  },
  {
    "name": "Blaincourt-sur-Aube",
    "code": "10046",
    "epci_code": "200040137",
    "departement_code": "10",
    "region_code": "44",
    "postal_code": "10500"
  },
  {
    "name": "Blignicourt",
    "code": "10047",
    "epci_code": "200040137",
    "departement_code": "10",
    "region_code": "44",
    "postal_code": "10500"
  },
  {
    "name": "Bligny",
    "code": "10048",
    "epci_code": "241000405",
    "departement_code": "10",
    "region_code": "44",
    "postal_code": "10200"
  },
  {
    "name": "Les Bordes-Aumont",
    "code": "10049",
    "epci_code": "200069250",
    "departement_code": "10",
    "region_code": "44",
    "postal_code": "10800"
  },
  {
    "name": "Bossancourt",
    "code": "10050",
    "epci_code": "200066892",
    "departement_code": "10",
    "region_code": "44",
    "postal_code": "10140"
  },
  {
    "name": "Bouilly",
    "code": "10051",
    "epci_code": "200069250",
    "departement_code": "10",
    "region_code": "44",
    "postal_code": "10320"
  },
  {
    "name": "Boulages",
    "code": "10052",
    "epci_code": "200070126",
    "departement_code": "10",
    "region_code": "44",
    "postal_code": "10380"
  },
  {
    "name": "Bouranton",
    "code": "10053",
    "epci_code": "200069250",
    "departement_code": "10",
    "region_code": "44",
    "postal_code": "10270"
  },
  {
    "name": "Bourdenay",
    "code": "10054",
    "epci_code": "241000488",
    "departement_code": "10",
    "region_code": "44",
    "postal_code": "10290"
  },
  {
    "name": "Bourguignons",
    "code": "10055",
    "epci_code": "200069003",
    "departement_code": "10",
    "region_code": "44",
    "postal_code": "10110"
  },
  {
    "name": "Bouy-Luxembourg",
    "code": "10056",
    "epci_code": "241000223",
    "departement_code": "10",
    "region_code": "44",
    "postal_code": "10220"
  },
  {
    "name": "Bouy-sur-Orvin",
    "code": "10057",
    "epci_code": "200006716",
    "departement_code": "10",
    "region_code": "44",
    "postal_code": "10400"
  },
  {
    "name": "Bragelogne-Beauvoir",
    "code": "10058",
    "epci_code": "200069003",
    "departement_code": "10",
    "region_code": "44",
    "postal_code": "10340"
  },
  {
    "name": "Braux",
    "code": "10059",
    "epci_code": "200040137",
    "departement_code": "10",
    "region_code": "44",
    "postal_code": "10500"
  },
  {
    "name": "Bréviandes",
    "code": "10060",
    "epci_code": "200069250",
    "departement_code": "10",
    "region_code": "44",
    "postal_code": "10450"
  },
  {
    "name": "Brévonnes",
    "code": "10061",
    "epci_code": "241000223",
    "departement_code": "10",
    "region_code": "44",
    "postal_code": "10220"
  },
  {
    "name": "Briel-sur-Barse",
    "code": "10062",
    "epci_code": "200069003",
    "departement_code": "10",
    "region_code": "44",
    "postal_code": "10140"
  },
  {
    "name": "Brienne-la-Vieille",
    "code": "10063",
    "epci_code": "200040137",
    "departement_code": "10",
    "region_code": "44",
    "postal_code": "10500"
  },
  {
    "name": "Brienne-le-Château",
    "code": "10064",
    "epci_code": "200040137",
    "departement_code": "10",
    "region_code": "44",
    "postal_code": "10500"
  },
  {
    "name": "Brillecourt",
    "code": "10065",
    "epci_code": "200071777",
    "departement_code": "10",
    "region_code": "44",
    "postal_code": "10240"
  },
  {
    "name": "Bucey-en-Othe",
    "code": "10066",
    "epci_code": "200069250",
    "departement_code": "10",
    "region_code": "44",
    "postal_code": "10190"
  },
  {
    "name": "Buchères",
    "code": "10067",
    "epci_code": "200069250",
    "departement_code": "10",
    "region_code": "44",
    "postal_code": "10800"
  },
  {
    "name": "Buxeuil",
    "code": "10068",
    "epci_code": "200069003",
    "departement_code": "10",
    "region_code": "44",
    "postal_code": "10110"
  },
  {
    "name": "Buxières-sur-Arce",
    "code": "10069",
    "epci_code": "200069003",
    "departement_code": "10",
    "region_code": "44",
    "postal_code": "10110"
  },
  {
    "name": "Celles-sur-Ource",
    "code": "10070",
    "epci_code": "200069003",
    "departement_code": "10",
    "region_code": "44",
    "postal_code": "10110"
  },
  {
    "name": "Chacenay",
    "code": "10071",
    "epci_code": "200069003",
    "departement_code": "10",
    "region_code": "44",
    "postal_code": "10110"
  },
  {
    "name": "La Chaise",
    "code": "10072",
    "epci_code": "200066892",
    "departement_code": "10",
    "region_code": "44",
    "postal_code": "10500"
  },
  {
    "name": "Chalette-sur-Voire",
    "code": "10073",
    "epci_code": "200040137",
    "departement_code": "10",
    "region_code": "44",
    "postal_code": "10500"
  },
  {
    "name": "Chamoy",
    "code": "10074",
    "epci_code": "200071041",
    "departement_code": "10",
    "region_code": "44",
    "postal_code": "10130"
  },
  {
    "name": "Champfleury",
    "code": "10075",
    "epci_code": "200070126",
    "departement_code": "10",
    "region_code": "44",
    "postal_code": "10700"
  },
  {
    "name": "Champignol-lez-Mondeville",
    "code": "10076",
    "epci_code": "241000405",
    "departement_code": "10",
    "region_code": "44",
    "postal_code": "10200"
  },
  {
    "name": "Champigny-sur-Aube",
    "code": "10077",
    "epci_code": "200071777",
    "departement_code": "10",
    "region_code": "44",
    "postal_code": "10700"
  },
  {
    "name": "Champ-sur-Barse",
    "code": "10078",
    "epci_code": "200066892",
    "departement_code": "10",
    "region_code": "44",
    "postal_code": "10140"
  },
  {
    "name": "Channes",
    "code": "10079",
    "epci_code": "200069003",
    "departement_code": "10",
    "region_code": "44",
    "postal_code": "10340"
  },
  {
    "name": "Chaource",
    "code": "10080",
    "epci_code": "200071041",
    "departement_code": "10",
    "region_code": "44",
    "postal_code": "10210"
  },
  {
    "name": "La Chapelle-Saint-Luc",
    "code": "10081",
    "epci_code": "200069250",
    "departement_code": "10",
    "region_code": "44",
    "postal_code": "10600"
  },
  {
    "name": "Chapelle-Vallon",
    "code": "10082",
    "epci_code": "200070126",
    "departement_code": "10",
    "region_code": "44",
    "postal_code": "10700"
  },
  {
    "name": "Chappes",
    "code": "10083",
    "epci_code": "200069003",
    "departement_code": "10",
    "region_code": "44",
    "postal_code": "10260"
  },
  {
    "name": "Charmont-sous-Barbuise",
    "code": "10084",
    "epci_code": "241000223",
    "departement_code": "10",
    "region_code": "44",
    "postal_code": "10150"
  },
  {
    "name": "Charmoy",
    "code": "10085",
    "epci_code": "241000488",
    "departement_code": "10",
    "region_code": "44",
    "postal_code": "10290"
  },
  {
    "name": "Charny-le-Bachot",
    "code": "10086",
    "epci_code": "200070126",
    "departement_code": "10",
    "region_code": "44",
    "postal_code": "10380"
  },
  {
    "name": "Chaserey",
    "code": "10087",
    "epci_code": "200071041",
    "departement_code": "10",
    "region_code": "44",
    "postal_code": "10210"
  },
  {
    "name": "Châtres",
    "code": "10089",
    "epci_code": "200070126",
    "departement_code": "10",
    "region_code": "44",
    "postal_code": "10510"
  },
  {
    "name": "Chauchigny",
    "code": "10090",
    "epci_code": "200070126",
    "departement_code": "10",
    "region_code": "44",
    "postal_code": "10170"
  },
  {
    "name": "Chaudrey",
    "code": "10091",
    "epci_code": "200071777",
    "departement_code": "10",
    "region_code": "44",
    "postal_code": "10240"
  },
  {
    "name": "Chauffour-lès-Bailly",
    "code": "10092",
    "epci_code": "200069003",
    "departement_code": "10",
    "region_code": "44",
    "postal_code": "10110"
  },
  {
    "name": "Chaumesnil",
    "code": "10093",
    "epci_code": "200066892",
    "departement_code": "10",
    "region_code": "44",
    "postal_code": "10500"
  },
  {
    "name": "Chavanges",
    "code": "10094",
    "epci_code": "200040137",
    "departement_code": "10",
    "region_code": "44",
    "postal_code": "10330"
  },
  {
    "name": "Le Chêne",
    "code": "10095",
    "epci_code": "200071777",
    "departement_code": "10",
    "region_code": "44",
    "postal_code": "10700"
  },
  {
    "name": "Chennegy",
    "code": "10096",
    "epci_code": "241000447",
    "departement_code": "10",
    "region_code": "44",
    "postal_code": "10190"
  },
  {
    "name": "Chervey",
    "code": "10097",
    "epci_code": "200069003",
    "departement_code": "10",
    "region_code": "44",
    "postal_code": "10110"
  },
  {
    "name": "Chesley",
    "code": "10098",
    "epci_code": "200071041",
    "departement_code": "10",
    "region_code": "44",
    "postal_code": "10210"
  },
  {
    "name": "Chessy-les-Prés",
    "code": "10099",
    "epci_code": "200071041",
    "departement_code": "10",
    "region_code": "44",
    "postal_code": "10130"
  },
  {
    "name": "Clérey",
    "code": "10100",
    "epci_code": "200069250",
    "departement_code": "10",
    "region_code": "44",
    "postal_code": "10390"
  },
  {
    "name": "Coclois",
    "code": "10101",
    "epci_code": "200071777",
    "departement_code": "10",
    "region_code": "44",
    "postal_code": "10240"
  },
  {
    "name": "Colombé-la-Fosse",
    "code": "10102",
    "epci_code": "200066892",
    "departement_code": "10",
    "region_code": "44",
    "postal_code": "10200"
  },
  {
    "name": "Colombé-le-Sec",
    "code": "10103",
    "epci_code": "241000405",
    "departement_code": "10",
    "region_code": "44",
    "postal_code": "10200"
  },
  {
    "name": "Cormost",
    "code": "10104",
    "epci_code": "200069250",
    "departement_code": "10",
    "region_code": "44",
    "postal_code": "10800"
  },
  {
    "name": "Courcelles-sur-Voire",
    "code": "10105",
    "epci_code": "200040137",
    "departement_code": "10",
    "region_code": "44",
    "postal_code": "10500"
  },
  {
    "name": "Courceroy",
    "code": "10106",
    "epci_code": "200006716",
    "departement_code": "10",
    "region_code": "44",
    "postal_code": "10400"
  },
  {
    "name": "Coursan-en-Othe",
    "code": "10107",
    "epci_code": "200071041",
    "departement_code": "10",
    "region_code": "44",
    "postal_code": "10130"
  },
  {
    "name": "Courtaoult",
    "code": "10108",
    "epci_code": "200071041",
    "departement_code": "10",
    "region_code": "44",
    "postal_code": "10130"
  },
  {
    "name": "Courtenot",
    "code": "10109",
    "epci_code": "200069003",
    "departement_code": "10",
    "region_code": "44",
    "postal_code": "10260"
  },
  {
    "name": "Courteranges",
    "code": "10110",
    "epci_code": "200069250",
    "departement_code": "10",
    "region_code": "44",
    "postal_code": "10270"
  },
  {
    "name": "Courteron",
    "code": "10111",
    "epci_code": "200069003",
    "departement_code": "10",
    "region_code": "44",
    "postal_code": "10250"
  },
  {
    "name": "Coussegrey",
    "code": "10112",
    "epci_code": "200071041",
    "departement_code": "10",
    "region_code": "44",
    "postal_code": "10210"
  },
  {
    "name": "Couvignon",
    "code": "10113",
    "epci_code": "241000405",
    "departement_code": "10",
    "region_code": "44",
    "postal_code": "10200"
  },
  {
    "name": "Crancey",
    "code": "10114",
    "epci_code": "200000545",
    "departement_code": "10",
    "region_code": "44",
    "postal_code": "10100"
  },
  {
    "name": "Creney-près-Troyes",
    "code": "10115",
    "epci_code": "200069250",
    "departement_code": "10",
    "region_code": "44",
    "postal_code": "10150"
  },
  {
    "name": "Crésantignes",
    "code": "10116",
    "epci_code": "200069250",
    "departement_code": "10",
    "region_code": "44",
    "postal_code": "10320"
  },
  {
    "name": "Crespy-le-Neuf",
    "code": "10117",
    "epci_code": "200066892",
    "departement_code": "10",
    "region_code": "44",
    "postal_code": "10500"
  },
  {
    "name": "Les Croûtes",
    "code": "10118",
    "epci_code": "200071041",
    "departement_code": "10",
    "region_code": "44",
    "postal_code": "10130"
  },
  {
    "name": "Cunfin",
    "code": "10119",
    "epci_code": "200069003",
    "departement_code": "10",
    "region_code": "44",
    "postal_code": "10360"
  },
  {
    "name": "Cussangy",
    "code": "10120",
    "epci_code": "200071041",
    "departement_code": "10",
    "region_code": "44",
    "postal_code": "10210"
  },
  {
    "name": "Dampierre",
    "code": "10121",
    "epci_code": "200071777",
    "departement_code": "10",
    "region_code": "44",
    "postal_code": "10240"
  },
  {
    "name": "Davrey",
    "code": "10122",
    "epci_code": "200071041",
    "departement_code": "10",
    "region_code": "44",
    "postal_code": "10130"
  },
  {
    "name": "Dienville",
    "code": "10123",
    "epci_code": "200040137",
    "departement_code": "10",
    "region_code": "44",
    "postal_code": "10500"
  },
  {
    "name": "Dierrey-Saint-Julien",
    "code": "10124",
    "epci_code": "241000488",
    "departement_code": "10",
    "region_code": "44",
    "postal_code": "10190"
  },
  {
    "name": "Dierrey-Saint-Pierre",
    "code": "10125",
    "epci_code": "200069250",
    "departement_code": "10",
    "region_code": "44",
    "postal_code": "10190"
  },
  {
    "name": "Dolancourt",
    "code": "10126",
    "epci_code": "200066892",
    "departement_code": "10",
    "region_code": "44",
    "postal_code": "10200"
  },
  {
    "name": "Dommartin-le-Coq",
    "code": "10127",
    "epci_code": "200071777",
    "departement_code": "10",
    "region_code": "44",
    "postal_code": "10240"
  },
  {
    "name": "Donnement",
    "code": "10128",
    "epci_code": "200040137",
    "departement_code": "10",
    "region_code": "44",
    "postal_code": "10330"
  },
  {
    "name": "Dosches",
    "code": "10129",
    "epci_code": "241000223",
    "departement_code": "10",
    "region_code": "44",
    "postal_code": "10220"
  },
  {
    "name": "Dosnon",
    "code": "10130",
    "epci_code": "200071777",
    "departement_code": "10",
    "region_code": "44",
    "postal_code": "10700"
  },
  {
    "name": "Droupt-Saint-Basle",
    "code": "10131",
    "epci_code": "200070126",
    "departement_code": "10",
    "region_code": "44",
    "postal_code": "10170"
  },
  {
    "name": "Droupt-Sainte-Marie",
    "code": "10132",
    "epci_code": "200070126",
    "departement_code": "10",
    "region_code": "44",
    "postal_code": "10170"
  },
  {
    "name": "Eaux-Puiseaux",
    "code": "10133",
    "epci_code": "200071041",
    "departement_code": "10",
    "region_code": "44",
    "postal_code": "10130"
  },
  {
    "name": "Échemines",
    "code": "10134",
    "epci_code": "241000488",
    "departement_code": "10",
    "region_code": "44",
    "postal_code": "10350"
  },
  {
    "name": "Éclance",
    "code": "10135",
    "epci_code": "200066892",
    "departement_code": "10",
    "region_code": "44",
    "postal_code": "10200"
  },
  {
    "name": "Éguilly-sous-Bois",
    "code": "10136",
    "epci_code": "200069003",
    "departement_code": "10",
    "region_code": "44",
    "postal_code": "10110"
  },
  {
    "name": "Engente",
    "code": "10137",
    "epci_code": "241000405",
    "departement_code": "10",
    "region_code": "44",
    "postal_code": "10200"
  },
  {
    "name": "Épagne",
    "code": "10138",
    "epci_code": "200040137",
    "departement_code": "10",
    "region_code": "44",
    "postal_code": "10500"
  },
  {
    "name": "Épothémont",
    "code": "10139",
    "epci_code": "200066892",
    "departement_code": "10",
    "region_code": "44",
    "postal_code": "10500"
  },
  {
    "name": "Ervy-le-Châtel",
    "code": "10140",
    "epci_code": "200071041",
    "departement_code": "10",
    "region_code": "44",
    "postal_code": "10130"
  },
  {
    "name": "Essoyes",
    "code": "10141",
    "epci_code": "200069003",
    "departement_code": "10",
    "region_code": "44",
    "postal_code": "10360"
  },
  {
    "name": "Estissac",
    "code": "10142",
    "epci_code": "200069250",
    "departement_code": "10",
    "region_code": "44",
    "postal_code": "10190"
  },
  {
    "name": "Étourvy",
    "code": "10143",
    "epci_code": "200071041",
    "departement_code": "10",
    "region_code": "44",
    "postal_code": "10210"
  },
  {
    "name": "Étrelles-sur-Aube",
    "code": "10144",
    "epci_code": "200070126",
    "departement_code": "10",
    "region_code": "44",
    "postal_code": "10170"
  },
  {
    "name": "Faux-Villecerf",
    "code": "10145",
    "epci_code": "241000488",
    "departement_code": "10",
    "region_code": "44",
    "postal_code": "10290"
  },
  {
    "name": "Fay-lès-Marcilly",
    "code": "10146",
    "epci_code": "241000488",
    "departement_code": "10",
    "region_code": "44",
    "postal_code": "10290"
  },
  {
    "name": "Fays-la-Chapelle",
    "code": "10147",
    "epci_code": "200069250",
    "departement_code": "10",
    "region_code": "44",
    "postal_code": "10320"
  },
  {
    "name": "Ferreux-Quincey",
    "code": "10148",
    "epci_code": "200006716",
    "departement_code": "10",
    "region_code": "44",
    "postal_code": "10400"
  },
  {
    "name": "Feuges",
    "code": "10149",
    "epci_code": "200069250",
    "departement_code": "10",
    "region_code": "44",
    "postal_code": "10150"
  },
  {
    "name": "Fontaine",
    "code": "10150",
    "epci_code": "241000405",
    "departement_code": "10",
    "region_code": "44",
    "postal_code": "10200"
  },
  {
    "name": "Fontaine-les-Grès",
    "code": "10151",
    "epci_code": "200070126",
    "departement_code": "10",
    "region_code": "44",
    "postal_code": "10280"
  },
  {
    "name": "Fontaine-Mâcon",
    "code": "10153",
    "epci_code": "200006716",
    "departement_code": "10",
    "region_code": "44",
    "postal_code": "10400"
  },
  {
    "name": "Fontenay-de-Bossery",
    "code": "10154",
    "epci_code": "200006716",
    "departement_code": "10",
    "region_code": "44",
    "postal_code": "10400"
  },
  {
    "name": "Fontette",
    "code": "10155",
    "epci_code": "200069003",
    "departement_code": "10",
    "region_code": "44",
    "postal_code": "10360"
  },
  {
    "name": "Fontvannes",
    "code": "10156",
    "epci_code": "200069250",
    "departement_code": "10",
    "region_code": "44",
    "postal_code": "10190"
  },
  {
    "name": "La Fosse-Corduan",
    "code": "10157",
    "epci_code": "241000488",
    "departement_code": "10",
    "region_code": "44",
    "postal_code": "10100"
  },
  {
    "name": "Fouchères",
    "code": "10158",
    "epci_code": "200069003",
    "departement_code": "10",
    "region_code": "44",
    "postal_code": "10260"
  },
  {
    "name": "Fralignes",
    "code": "10159",
    "epci_code": "200069003",
    "departement_code": "10",
    "region_code": "44",
    "postal_code": "10110"
  },
  {
    "name": "Fravaux",
    "code": "10160",
    "epci_code": "241000405",
    "departement_code": "10",
    "region_code": "44",
    "postal_code": "10200"
  },
  {
    "name": "Fresnay",
    "code": "10161",
    "epci_code": "200066892",
    "departement_code": "10",
    "region_code": "44",
    "postal_code": "10200"
  },
  {
    "name": "Fresnoy-le-Château",
    "code": "10162",
    "epci_code": "200069250",
    "departement_code": "10",
    "region_code": "44",
    "postal_code": "10270"
  },
  {
    "name": "Fuligny",
    "code": "10163",
    "epci_code": "200066892",
    "departement_code": "10",
    "region_code": "44",
    "postal_code": "10200"
  },
  {
    "name": "Gélannes",
    "code": "10164",
    "epci_code": "200000545",
    "departement_code": "10",
    "region_code": "44",
    "postal_code": "10100"
  },
  {
    "name": "Géraudot",
    "code": "10165",
    "epci_code": "241000223",
    "departement_code": "10",
    "region_code": "44",
    "postal_code": "10220"
  },
  {
    "name": "Les Grandes-Chapelles",
    "code": "10166",
    "epci_code": "200070126",
    "departement_code": "10",
    "region_code": "44",
    "postal_code": "10170"
  },
  {
    "name": "Grandville",
    "code": "10167",
    "epci_code": "200071777",
    "departement_code": "10",
    "region_code": "44",
    "postal_code": "10700"
  },
  {
    "name": "Les Granges",
    "code": "10168",
    "epci_code": "200071041",
    "departement_code": "10",
    "region_code": "44",
    "postal_code": "10210"
  },
  {
    "name": "Gumery",
    "code": "10169",
    "epci_code": "200006716",
    "departement_code": "10",
    "region_code": "44",
    "postal_code": "10400"
  },
  {
    "name": "Gyé-sur-Seine",
    "code": "10170",
    "epci_code": "200069003",
    "departement_code": "10",
    "region_code": "44",
    "postal_code": "10250"
  },
  {
    "name": "Hampigny",
    "code": "10171",
    "epci_code": "200040137",
    "departement_code": "10",
    "region_code": "44",
    "postal_code": "10500"
  },
  {
    "name": "Herbisse",
    "code": "10172",
    "epci_code": "200071777",
    "departement_code": "10",
    "region_code": "44",
    "postal_code": "10700"
  },
  {
    "name": "Isle-Aumont",
    "code": "10173",
    "epci_code": "200069250",
    "departement_code": "10",
    "region_code": "44",
    "postal_code": "10800"
  },
  {
    "name": "Isle-Aubigny",
    "code": "10174",
    "epci_code": "200071777",
    "departement_code": "10",
    "region_code": "44",
    "postal_code": "10240"
  },
  {
    "name": "Jasseines",
    "code": "10175",
    "epci_code": "200040137",
    "departement_code": "10",
    "region_code": "44",
    "postal_code": "10330"
  },
  {
    "name": "Jaucourt",
    "code": "10176",
    "epci_code": "241000405",
    "departement_code": "10",
    "region_code": "44",
    "postal_code": "10200"
  },
  {
    "name": "Javernant",
    "code": "10177",
    "epci_code": "200069250",
    "departement_code": "10",
    "region_code": "44",
    "postal_code": "10320"
  },
  {
    "name": "Jessains",
    "code": "10178",
    "epci_code": "200066892",
    "departement_code": "10",
    "region_code": "44",
    "postal_code": "10140"
  },
  {
    "name": "Jeugny",
    "code": "10179",
    "epci_code": "200069250",
    "departement_code": "10",
    "region_code": "44",
    "postal_code": "10320"
  },
  {
    "name": "Joncreuil",
    "code": "10180",
    "epci_code": "200040137",
    "departement_code": "10",
    "region_code": "44",
    "postal_code": "10330"
  },
  {
    "name": "Jully-sur-Sarce",
    "code": "10181",
    "epci_code": "200069003",
    "departement_code": "10",
    "region_code": "44",
    "postal_code": "10260"
  },
  {
    "name": "Juvancourt",
    "code": "10182",
    "epci_code": "241000405",
    "departement_code": "10",
    "region_code": "44",
    "postal_code": "10310"
  },
  {
    "name": "Juvanzé",
    "code": "10183",
    "epci_code": "200040137",
    "departement_code": "10",
    "region_code": "44",
    "postal_code": "10140"
  },
  {
    "name": "Juzanvigny",
    "code": "10184",
    "epci_code": "200066892",
    "departement_code": "10",
    "region_code": "44",
    "postal_code": "10500"
  },
  {
    "name": "Lagesse",
    "code": "10185",
    "epci_code": "200071041",
    "departement_code": "10",
    "region_code": "44",
    "postal_code": "10210"
  },
  {
    "name": "Laines-aux-Bois",
    "code": "10186",
    "epci_code": "200069250",
    "departement_code": "10",
    "region_code": "44",
    "postal_code": "10120"
  },
  {
    "name": "Landreville",
    "code": "10187",
    "epci_code": "200069003",
    "departement_code": "10",
    "region_code": "44",
    "postal_code": "10110"
  },
  {
    "name": "Lantages",
    "code": "10188",
    "epci_code": "200071041",
    "departement_code": "10",
    "region_code": "44",
    "postal_code": "10210"
  },
  {
    "name": "Lassicourt",
    "code": "10189",
    "epci_code": "200040137",
    "departement_code": "10",
    "region_code": "44",
    "postal_code": "10500"
  },
  {
    "name": "Laubressel",
    "code": "10190",
    "epci_code": "200069250",
    "departement_code": "10",
    "region_code": "44",
    "postal_code": "10270"
  },
  {
    "name": "Lavau",
    "code": "10191",
    "epci_code": "200069250",
    "departement_code": "10",
    "region_code": "44",
    "postal_code": "10150"
  },
  {
    "name": "Lentilles",
    "code": "10192",
    "epci_code": "200040137",
    "departement_code": "10",
    "region_code": "44",
    "postal_code": "10330"
  },
  {
    "name": "Lesmont",
    "code": "10193",
    "epci_code": "200040137",
    "departement_code": "10",
    "region_code": "44",
    "postal_code": "10500"
  },
  {
    "name": "Lévigny",
    "code": "10194",
    "epci_code": "200066892",
    "departement_code": "10",
    "region_code": "44",
    "postal_code": "10200"
  },
  {
    "name": "Lhuître",
    "code": "10195",
    "epci_code": "200071777",
    "departement_code": "10",
    "region_code": "44",
    "postal_code": "10700"
  },
  {
    "name": "Lignières",
    "code": "10196",
    "epci_code": "200071041",
    "departement_code": "10",
    "region_code": "44",
    "postal_code": "10130"
  },
  {
    "name": "Lignol-le-Château",
    "code": "10197",
    "epci_code": "241000405",
    "departement_code": "10",
    "region_code": "44",
    "postal_code": "10200"
  },
  {
    "name": "Lirey",
    "code": "10198",
    "epci_code": "200069250",
    "departement_code": "10",
    "region_code": "44",
    "postal_code": "10320"
  },
  {
    "name": "Loches-sur-Ource",
    "code": "10199",
    "epci_code": "200069003",
    "departement_code": "10",
    "region_code": "44",
    "postal_code": "10110"
  },
  {
    "name": "La Loge-aux-Chèvres",
    "code": "10200",
    "epci_code": "200066892",
    "departement_code": "10",
    "region_code": "44",
    "postal_code": "10140"
  },
  {
    "name": "La Loge-Pomblin",
    "code": "10201",
    "epci_code": "200071041",
    "departement_code": "10",
    "region_code": "44",
    "postal_code": "10210"
  },
  {
    "name": "Les Loges-Margueron",
    "code": "10202",
    "epci_code": "200071041",
    "departement_code": "10",
    "region_code": "44",
    "postal_code": "10210"
  },
  {
    "name": "Longchamp-sur-Aujon",
    "code": "10203",
    "epci_code": "241000405",
    "departement_code": "10",
    "region_code": "44",
    "postal_code": "10310"
  },
  {
    "name": "Longeville-sur-Mogne",
    "code": "10204",
    "epci_code": "200069250",
    "departement_code": "10",
    "region_code": "44",
    "postal_code": "10320"
  },
  {
    "name": "Longpré-le-Sec",
    "code": "10205",
    "epci_code": "200066892",
    "departement_code": "10",
    "region_code": "44",
    "postal_code": "10140"
  },
  {
    "name": "Longsols",
    "code": "10206",
    "epci_code": "241000223",
    "departement_code": "10",
    "region_code": "44",
    "postal_code": "10240"
  },
  {
    "name": "Longueville-sur-Aube",
    "code": "10207",
    "epci_code": "200070126",
    "departement_code": "10",
    "region_code": "44",
    "postal_code": "10170"
  },
  {
    "name": "La Louptière-Thénard",
    "code": "10208",
    "epci_code": "200006716",
    "departement_code": "10",
    "region_code": "44",
    "postal_code": "10400"
  },
  {
    "name": "Lusigny-sur-Barse",
    "code": "10209",
    "epci_code": "200069250",
    "departement_code": "10",
    "region_code": "44",
    "postal_code": "10270"
  },
  {
    "name": "Luyères",
    "code": "10210",
    "epci_code": "241000223",
    "departement_code": "10",
    "region_code": "44",
    "postal_code": "10150"
  },
  {
    "name": "Macey",
    "code": "10211",
    "epci_code": "200069250",
    "departement_code": "10",
    "region_code": "44",
    "postal_code": "10300"
  },
  {
    "name": "Machy",
    "code": "10212",
    "epci_code": "200069250",
    "departement_code": "10",
    "region_code": "44",
    "postal_code": "10320"
  },
  {
    "name": "Magnant",
    "code": "10213",
    "epci_code": "200069003",
    "departement_code": "10",
    "region_code": "44",
    "postal_code": "10110"
  },
  {
    "name": "Magnicourt",
    "code": "10214",
    "epci_code": "200040137",
    "departement_code": "10",
    "region_code": "44",
    "postal_code": "10240"
  },
  {
    "name": "Magny-Fouchard",
    "code": "10215",
    "epci_code": "200066892",
    "departement_code": "10",
    "region_code": "44",
    "postal_code": "10140"
  },
  {
    "name": "Mailly-le-Camp",
    "code": "10216",
    "epci_code": "200071777",
    "departement_code": "10",
    "region_code": "44",
    "postal_code": "10230"
  },
  {
    "name": "Maison-des-Champs",
    "code": "10217",
    "epci_code": "200066892",
    "departement_code": "10",
    "region_code": "44",
    "postal_code": "10140"
  },
  {
    "name": "Maisons-lès-Chaource",
    "code": "10218",
    "epci_code": "200071041",
    "departement_code": "10",
    "region_code": "44",
    "postal_code": "10210"
  },
  {
    "name": "Maisons-lès-Soulaines",
    "code": "10219",
    "epci_code": "200066892",
    "departement_code": "10",
    "region_code": "44",
    "postal_code": "10200"
  },
  {
    "name": "Maizières-la-Grande-Paroisse",
    "code": "10220",
    "epci_code": "200000545",
    "departement_code": "10",
    "region_code": "44",
    "postal_code": "10510"
  },
  {
    "name": "Maizières-lès-Brienne",
    "code": "10221",
    "epci_code": "200040137",
    "departement_code": "10",
    "region_code": "44",
    "postal_code": "10500"
  },
  {
    "name": "Maraye-en-Othe",
    "code": "10222",
    "epci_code": "241000447",
    "departement_code": "10",
    "region_code": "44",
    "postal_code": "10160"
  },
  {
    "name": "Marcilly-le-Hayer",
    "code": "10223",
    "epci_code": "241000488",
    "departement_code": "10",
    "region_code": "44",
    "postal_code": "10290"
  },
  {
    "name": "Marigny-le-Châtel",
    "code": "10224",
    "epci_code": "241000488",
    "departement_code": "10",
    "region_code": "44",
    "postal_code": "10350"
  },
  {
    "name": "Marnay-sur-Seine",
    "code": "10225",
    "epci_code": "200006716",
    "departement_code": "10",
    "region_code": "44",
    "postal_code": "10400"
  },
  {
    "name": "Marolles-lès-Bailly",
    "code": "10226",
    "epci_code": "200069003",
    "departement_code": "10",
    "region_code": "44",
    "postal_code": "10110"
  },
  {
    "name": "Marolles-sous-Lignières",
    "code": "10227",
    "epci_code": "200071041",
    "departement_code": "10",
    "region_code": "44",
    "postal_code": "10130"
  },
  {
    "name": "Mathaux",
    "code": "10228",
    "epci_code": "200040137",
    "departement_code": "10",
    "region_code": "44",
    "postal_code": "10500"
  },
  {
    "name": "Maupas",
    "code": "10229",
    "epci_code": "200069250",
    "departement_code": "10",
    "region_code": "44",
    "postal_code": "10320"
  },
  {
    "name": "Mergey",
    "code": "10230",
    "epci_code": "200069250",
    "departement_code": "10",
    "region_code": "44",
    "postal_code": "10600"
  },
  {
    "name": "Le Mériot",
    "code": "10231",
    "epci_code": "200006716",
    "departement_code": "10",
    "region_code": "44",
    "postal_code": "10400"
  },
  {
    "name": "Merrey-sur-Arce",
    "code": "10232",
    "epci_code": "200069003",
    "departement_code": "10",
    "region_code": "44",
    "postal_code": "10110"
  },
  {
    "name": "Méry-sur-Seine",
    "code": "10233",
    "epci_code": "200070126",
    "departement_code": "10",
    "region_code": "44",
    "postal_code": "10170"
  },
  {
    "name": "Mesgrigny",
    "code": "10234",
    "epci_code": "200070126",
    "departement_code": "10",
    "region_code": "44",
    "postal_code": "10170"
  },
  {
    "name": "Mesnil-la-Comtesse",
    "code": "10235",
    "epci_code": "200071777",
    "departement_code": "10",
    "region_code": "44",
    "postal_code": "10700"
  },
  {
    "name": "Mesnil-Lettre",
    "code": "10236",
    "epci_code": "200071777",
    "departement_code": "10",
    "region_code": "44",
    "postal_code": "10240"
  },
  {
    "name": "Mesnil-Saint-Loup",
    "code": "10237",
    "epci_code": "241000488",
    "departement_code": "10",
    "region_code": "44",
    "postal_code": "10190"
  },
  {
    "name": "Mesnil-Saint-Père",
    "code": "10238",
    "epci_code": "200069250",
    "departement_code": "10",
    "region_code": "44",
    "postal_code": "10140"
  },
  {
    "name": "Mesnil-Sellières",
    "code": "10239",
    "epci_code": "241000223",
    "departement_code": "10",
    "region_code": "44",
    "postal_code": "10220"
  },
  {
    "name": "Messon",
    "code": "10240",
    "epci_code": "200069250",
    "departement_code": "10",
    "region_code": "44",
    "postal_code": "10190"
  },
  {
    "name": "Metz-Robert",
    "code": "10241",
    "epci_code": "200071041",
    "departement_code": "10",
    "region_code": "44",
    "postal_code": "10210"
  },
  {
    "name": "Meurville",
    "code": "10242",
    "epci_code": "241000405",
    "departement_code": "10",
    "region_code": "44",
    "postal_code": "10200"
  },
  {
    "name": "Molins-sur-Aube",
    "code": "10243",
    "epci_code": "200040137",
    "departement_code": "10",
    "region_code": "44",
    "postal_code": "10500"
  },
  {
    "name": "Montaulin",
    "code": "10245",
    "epci_code": "200069250",
    "departement_code": "10",
    "region_code": "44",
    "postal_code": "10270"
  },
  {
    "name": "Montceaux-lès-Vaudes",
    "code": "10246",
    "epci_code": "200069250",
    "departement_code": "10",
    "region_code": "44",
    "postal_code": "10260"
  },
  {
    "name": "Montfey",
    "code": "10247",
    "epci_code": "200071041",
    "departement_code": "10",
    "region_code": "44",
    "postal_code": "10130"
  },
  {
    "name": "Montgueux",
    "code": "10248",
    "epci_code": "200069250",
    "departement_code": "10",
    "region_code": "44",
    "postal_code": "10300"
  },
  {
    "name": "Montiéramey",
    "code": "10249",
    "epci_code": "200069250",
    "departement_code": "10",
    "region_code": "44",
    "postal_code": "10270"
  },
  {
    "name": "Montier-en-l’Isle",
    "code": "10250",
    "epci_code": "241000405",
    "departement_code": "10",
    "region_code": "44",
    "postal_code": "10200"
  },
  {
    "name": "Montigny-les-Monts",
    "code": "10251",
    "epci_code": "200071041",
    "departement_code": "10",
    "region_code": "44",
    "postal_code": "10130"
  },
  {
    "name": "Montmartin-le-Haut",
    "code": "10252",
    "epci_code": "200066892",
    "departement_code": "10",
    "region_code": "44",
    "postal_code": "10140"
  },
  {
    "name": "Montmorency-Beaufort",
    "code": "10253",
    "epci_code": "200040137",
    "departement_code": "10",
    "region_code": "44",
    "postal_code": "10330"
  },
  {
    "name": "Montpothier",
    "code": "10254",
    "epci_code": "200006716",
    "departement_code": "10",
    "region_code": "44",
    "postal_code": "10400"
  },
  {
    "name": "Montreuil-sur-Barse",
    "code": "10255",
    "epci_code": "200069250",
    "departement_code": "10",
    "region_code": "44",
    "postal_code": "10270"
  },
  {
    "name": "Montsuzain",
    "code": "10256",
    "epci_code": "200069250",
    "departement_code": "10",
    "region_code": "44",
    "postal_code": "10150"
  },
  {
    "name": "Morembert",
    "code": "10257",
    "epci_code": "200071777",
    "departement_code": "10",
    "region_code": "44",
    "postal_code": "10240"
  },
  {
    "name": "Morvilliers",
    "code": "10258",
    "epci_code": "200066892",
    "departement_code": "10",
    "region_code": "44",
    "postal_code": "10500"
  },
  {
    "name": "La Motte-Tilly",
    "code": "10259",
    "epci_code": "200006716",
    "departement_code": "10",
    "region_code": "44",
    "postal_code": "10400"
  },
  {
    "name": "Moussey",
    "code": "10260",
    "epci_code": "200069250",
    "departement_code": "10",
    "region_code": "44",
    "postal_code": "10800"
  },
  {
    "name": "Mussy-sur-Seine",
    "code": "10261",
    "epci_code": "200069003",
    "departement_code": "10",
    "region_code": "44",
    "postal_code": "10250"
  },
  {
    "name": "Neuville-sur-Seine",
    "code": "10262",
    "epci_code": "200069003",
    "departement_code": "10",
    "region_code": "44",
    "postal_code": "10250"
  },
  {
    "name": "Neuville-sur-Vanne",
    "code": "10263",
    "epci_code": "241000447",
    "departement_code": "10",
    "region_code": "44",
    "postal_code": "10190"
  },
  {
    "name": "Noé-les-Mallets",
    "code": "10264",
    "epci_code": "200069003",
    "departement_code": "10",
    "region_code": "44",
    "postal_code": "10360"
  },
  {
    "name": "Les Noës-près-Troyes",
    "code": "10265",
    "epci_code": "200069250",
    "departement_code": "10",
    "region_code": "44",
    "postal_code": "10420"
  },
  {
    "name": "Nogent-en-Othe",
    "code": "10266",
    "epci_code": "241000447",
    "departement_code": "10",
    "region_code": "44",
    "postal_code": "10160"
  },
  {
    "name": "Nogent-sur-Aube",
    "code": "10267",
    "epci_code": "200071777",
    "departement_code": "10",
    "region_code": "44",
    "postal_code": "10240"
  },
  {
    "name": "Nogent-sur-Seine",
    "code": "10268",
    "epci_code": "200006716",
    "departement_code": "10",
    "region_code": "44",
    "postal_code": "10400"
  },
  {
    "name": "Nozay",
    "code": "10269",
    "epci_code": "200071777",
    "departement_code": "10",
    "region_code": "44",
    "postal_code": "10700"
  },
  {
    "name": "Onjon",
    "code": "10270",
    "epci_code": "241000223",
    "departement_code": "10",
    "region_code": "44",
    "postal_code": "10220"
  },
  {
    "name": "Origny-le-Sec",
    "code": "10271",
    "epci_code": "241000488",
    "departement_code": "10",
    "region_code": "44",
    "postal_code": "10510"
  },
  {
    "name": "Ormes",
    "code": "10272",
    "epci_code": "200071777",
    "departement_code": "10",
    "region_code": "44",
    "postal_code": "10700"
  },
  {
    "name": "Ortillon",
    "code": "10273",
    "epci_code": "200071777",
    "departement_code": "10",
    "region_code": "44",
    "postal_code": "10700"
  },
  {
    "name": "Orvilliers-Saint-Julien",
    "code": "10274",
    "epci_code": "241000488",
    "departement_code": "10",
    "region_code": "44",
    "postal_code": "10170"
  },
  {
    "name": "Ossey-les-Trois-Maisons",
    "code": "10275",
    "epci_code": "241000488",
    "departement_code": "10",
    "region_code": "44",
    "postal_code": "10100"
  },
  {
    "name": "Paisy-Cosdon",
    "code": "10276",
    "epci_code": "241000447",
    "departement_code": "10",
    "region_code": "44",
    "postal_code": "10160"
  },
  {
    "name": "Pargues",
    "code": "10278",
    "epci_code": "200071041",
    "departement_code": "10",
    "region_code": "44",
    "postal_code": "10210"
  },
  {
    "name": "Pars-lès-Chavanges",
    "code": "10279",
    "epci_code": "200040137",
    "departement_code": "10",
    "region_code": "44",
    "postal_code": "10330"
  },
  {
    "name": "Pars-lès-Romilly",
    "code": "10280",
    "epci_code": "200000545",
    "departement_code": "10",
    "region_code": "44",
    "postal_code": "10100"
  },
  {
    "name": "Le Pavillon-Sainte-Julie",
    "code": "10281",
    "epci_code": "200069250",
    "departement_code": "10",
    "region_code": "44",
    "postal_code": "10350"
  },
  {
    "name": "Payns",
    "code": "10282",
    "epci_code": "200069250",
    "departement_code": "10",
    "region_code": "44",
    "postal_code": "10600"
  },
  {
    "name": "Pel-et-Der",
    "code": "10283",
    "epci_code": "200040137",
    "departement_code": "10",
    "region_code": "44",
    "postal_code": "10500"
  },
  {
    "name": "Périgny-la-Rose",
    "code": "10284",
    "epci_code": "200006716",
    "departement_code": "10",
    "region_code": "44",
    "postal_code": "10400"
  },
  {
    "name": "Perthes-lès-Brienne",
    "code": "10285",
    "epci_code": "200040137",
    "departement_code": "10",
    "region_code": "44",
    "postal_code": "10500"
  },
  {
    "name": "Petit-Mesnil",
    "code": "10286",
    "epci_code": "200066892",
    "departement_code": "10",
    "region_code": "44",
    "postal_code": "10500"
  },
  {
    "name": "Piney",
    "code": "10287",
    "epci_code": "241000223",
    "departement_code": "10",
    "region_code": "44",
    "postal_code": "10220"
  },
  {
    "name": "Plaines-Saint-Lange",
    "code": "10288",
    "epci_code": "200069003",
    "departement_code": "10",
    "region_code": "44",
    "postal_code": "10250"
  },
  {
    "name": "Plancy-l’Abbaye",
    "code": "10289",
    "epci_code": "200070126",
    "departement_code": "10",
    "region_code": "44",
    "postal_code": "10380"
  },
  {
    "name": "Planty",
    "code": "10290",
    "epci_code": "241000447",
    "departement_code": "10",
    "region_code": "44",
    "postal_code": "10160"
  },
  {
    "name": "Plessis-Barbuise",
    "code": "10291",
    "epci_code": "200006716",
    "departement_code": "10",
    "region_code": "44",
    "postal_code": "10400"
  },
  {
    "name": "Poivres",
    "code": "10293",
    "epci_code": "200071777",
    "departement_code": "10",
    "region_code": "44",
    "postal_code": "10700"
  },
  {
    "name": "Poligny",
    "code": "10294",
    "epci_code": "200069003",
    "departement_code": "10",
    "region_code": "44",
    "postal_code": "10110"
  },
  {
    "name": "Polisot",
    "code": "10295",
    "epci_code": "200069003",
    "departement_code": "10",
    "region_code": "44",
    "postal_code": "10110"
  },
  {
    "name": "Polisy",
    "code": "10296",
    "epci_code": "200069003",
    "departement_code": "10",
    "region_code": "44",
    "postal_code": "10110"
  },
  {
    "name": "Pont-Sainte-Marie",
    "code": "10297",
    "epci_code": "200069250",
    "departement_code": "10",
    "region_code": "44",
    "postal_code": "10150"
  },
  {
    "name": "Pont-sur-Seine",
    "code": "10298",
    "epci_code": "200006716",
    "departement_code": "10",
    "region_code": "44",
    "postal_code": "10400"
  },
  {
    "name": "Pouan-les-Vallées",
    "code": "10299",
    "epci_code": "200071777",
    "departement_code": "10",
    "region_code": "44",
    "postal_code": "10700"
  },
  {
    "name": "Pougy",
    "code": "10300",
    "epci_code": "241000223",
    "departement_code": "10",
    "region_code": "44",
    "postal_code": "10240"
  },
  {
    "name": "Pouy-sur-Vannes",
    "code": "10301",
    "epci_code": "241000488",
    "departement_code": "10",
    "region_code": "44",
    "postal_code": "10290"
  },
  {
    "name": "Praslin",
    "code": "10302",
    "epci_code": "200071041",
    "departement_code": "10",
    "region_code": "44",
    "postal_code": "10210"
  },
  {
    "name": "Précy-Notre-Dame",
    "code": "10303",
    "epci_code": "200040137",
    "departement_code": "10",
    "region_code": "44",
    "postal_code": "10500"
  },
  {
    "name": "Précy-Saint-Martin",
    "code": "10304",
    "epci_code": "200040137",
    "departement_code": "10",
    "region_code": "44",
    "postal_code": "10500"
  },
  {
    "name": "Prémierfait",
    "code": "10305",
    "epci_code": "200070126",
    "departement_code": "10",
    "region_code": "44",
    "postal_code": "10170"
  },
  {
    "name": "Proverville",
    "code": "10306",
    "epci_code": "241000405",
    "departement_code": "10",
    "region_code": "44",
    "postal_code": "10200"
  },
  {
    "name": "Prugny",
    "code": "10307",
    "epci_code": "200069250",
    "departement_code": "10",
    "region_code": "44",
    "postal_code": "10190"
  },
  {
    "name": "Prunay-Belleville",
    "code": "10308",
    "epci_code": "241000488",
    "departement_code": "10",
    "region_code": "44",
    "postal_code": "10350"
  },
  {
    "name": "Prusy",
    "code": "10309",
    "epci_code": "200071041",
    "departement_code": "10",
    "region_code": "44",
    "postal_code": "10210"
  },
  {
    "name": "Puits-et-Nuisement",
    "code": "10310",
    "epci_code": "200066892",
    "departement_code": "10",
    "region_code": "44",
    "postal_code": "10140"
  },
  {
    "name": "Racines",
    "code": "10312",
    "epci_code": "200071041",
    "departement_code": "10",
    "region_code": "44",
    "postal_code": "10130"
  },
  {
    "name": "Radonvilliers",
    "code": "10313",
    "epci_code": "200040137",
    "departement_code": "10",
    "region_code": "44",
    "postal_code": "10500"
  },
  {
    "name": "Ramerupt",
    "code": "10314",
    "epci_code": "200071777",
    "departement_code": "10",
    "region_code": "44",
    "postal_code": "10240"
  },
  {
    "name": "Rances",
    "code": "10315",
    "epci_code": "200040137",
    "departement_code": "10",
    "region_code": "44",
    "postal_code": "10500"
  },
  {
    "name": "Rhèges",
    "code": "10316",
    "epci_code": "200070126",
    "departement_code": "10",
    "region_code": "44",
    "postal_code": "10170"
  },
  {
    "name": "Les Riceys",
    "code": "10317",
    "epci_code": "200069003",
    "departement_code": "10",
    "region_code": "44",
    "postal_code": "10340"
  },
  {
    "name": "Rigny-la-Nonneuse",
    "code": "10318",
    "epci_code": "241000488",
    "departement_code": "10",
    "region_code": "44",
    "postal_code": "10290"
  },
  {
    "name": "Rigny-le-Ferron",
    "code": "10319",
    "epci_code": "241000447",
    "departement_code": "10",
    "region_code": "44",
    "postal_code": "10160"
  },
  {
    "name": "Rilly-Sainte-Syre",
    "code": "10320",
    "epci_code": "200070126",
    "departement_code": "10",
    "region_code": "44",
    "postal_code": "10280"
  },
  {
    "name": "La Rivière-de-Corps",
    "code": "10321",
    "epci_code": "200069250",
    "departement_code": "10",
    "region_code": "44",
    "postal_code": "10440"
  },
  {
    "name": "Romilly-sur-Seine",
    "code": "10323",
    "epci_code": "200000545",
    "departement_code": "10",
    "region_code": "44",
    "postal_code": "10100"
  },
  {
    "name": "Roncenay",
    "code": "10324",
    "epci_code": "200069250",
    "departement_code": "10",
    "region_code": "44",
    "postal_code": "10320"
  },
  {
    "name": "Rosières-près-Troyes",
    "code": "10325",
    "epci_code": "200069250",
    "departement_code": "10",
    "region_code": "44",
    "postal_code": "10430"
  },
  {
    "name": "Rosnay-l’Hôpital",
    "code": "10326",
    "epci_code": "200040137",
    "departement_code": "10",
    "region_code": "44",
    "postal_code": "10500"
  },
  {
    "name": "La Rothière",
    "code": "10327",
    "epci_code": "200066892",
    "departement_code": "10",
    "region_code": "44",
    "postal_code": "10500"
  },
  {
    "name": "Rouilly-Sacey",
    "code": "10328",
    "epci_code": "241000223",
    "departement_code": "10",
    "region_code": "44",
    "postal_code": "10220"
  },
  {
    "name": "Rouilly-Saint-Loup",
    "code": "10329",
    "epci_code": "200069250",
    "departement_code": "10",
    "region_code": "44",
    "postal_code": "10800"
  },
  {
    "name": "Rouvres-les-Vignes",
    "code": "10330",
    "epci_code": "241000405",
    "departement_code": "10",
    "region_code": "44",
    "postal_code": "10200"
  },
  {
    "name": "Rumilly-lès-Vaudes",
    "code": "10331",
    "epci_code": "200069003",
    "departement_code": "10",
    "region_code": "44",
    "postal_code": "10260"
  },
  {
    "name": "Ruvigny",
    "code": "10332",
    "epci_code": "200069250",
    "departement_code": "10",
    "region_code": "44",
    "postal_code": "10410"
  },
  {
    "name": "Saint-André-les-Vergers",
    "code": "10333",
    "epci_code": "200069250",
    "departement_code": "10",
    "region_code": "44",
    "postal_code": "10120"
  },
  {
    "name": "Saint-Aubin",
    "code": "10334",
    "epci_code": "200006716",
    "departement_code": "10",
    "region_code": "44",
    "postal_code": "10400"
  },
  {
    "name": "Saint-Benoist-sur-Vanne",
    "code": "10335",
    "epci_code": "241000447",
    "departement_code": "10",
    "region_code": "44",
    "postal_code": "10160"
  },
  {
    "name": "Saint-Benoît-sur-Seine",
    "code": "10336",
    "epci_code": "200069250",
    "departement_code": "10",
    "region_code": "44",
    "postal_code": "10180"
  },
  {
    "name": "Saint-Christophe-Dodinicourt",
    "code": "10337",
    "epci_code": "200040137",
    "departement_code": "10",
    "region_code": "44",
    "postal_code": "10500"
  },
  {
    "name": "Saint-Étienne-sous-Barbuise",
    "code": "10338",
    "epci_code": "200071777",
    "departement_code": "10",
    "region_code": "44",
    "postal_code": "10700"
  },
  {
    "name": "Saint-Flavy",
    "code": "10339",
    "epci_code": "241000488",
    "departement_code": "10",
    "region_code": "44",
    "postal_code": "10350"
  },
  {
    "name": "Saint-Germain",
    "code": "10340",
    "epci_code": "200069250",
    "departement_code": "10",
    "region_code": "44",
    "postal_code": "10120"
  },
  {
    "name": "Saint-Hilaire-sous-Romilly",
    "code": "10341",
    "epci_code": "200000545",
    "departement_code": "10",
    "region_code": "44",
    "postal_code": "10100"
  },
  {
    "name": "Saint-Jean-de-Bonneval",
    "code": "10342",
    "epci_code": "200069250",
    "departement_code": "10",
    "region_code": "44",
    "postal_code": "10320"
  },
  {
    "name": "Saint-Julien-les-Villas",
    "code": "10343",
    "epci_code": "200069250",
    "departement_code": "10",
    "region_code": "44",
    "postal_code": "10800"
  },
  {
    "name": "Saint-Léger-près-Troyes",
    "code": "10344",
    "epci_code": "200069250",
    "departement_code": "10",
    "region_code": "44",
    "postal_code": "10800"
  },
  {
    "name": "Saint-Léger-sous-Brienne",
    "code": "10345",
    "epci_code": "200040137",
    "departement_code": "10",
    "region_code": "44",
    "postal_code": "10500"
  },
  {
    "name": "Saint-Léger-sous-Margerie",
    "code": "10346",
    "epci_code": "200040137",
    "departement_code": "10",
    "region_code": "44",
    "postal_code": "10330"
  },
  {
    "name": "Saint-Loup-de-Buffigny",
    "code": "10347",
    "epci_code": "241000488",
    "departement_code": "10",
    "region_code": "44",
    "postal_code": "10100"
  },
  {
    "name": "Saint-Lupien",
    "code": "10348",
    "epci_code": "241000488",
    "departement_code": "10",
    "region_code": "44",
    "postal_code": "10350"
  },
  {
    "name": "Saint-Lyé",
    "code": "10349",
    "epci_code": "200069250",
    "departement_code": "10",
    "region_code": "44",
    "postal_code": "10180"
  },
  {
    "name": "Saint-Mards-en-Othe",
    "code": "10350",
    "epci_code": "241000447",
    "departement_code": "10",
    "region_code": "44",
    "postal_code": "10160"
  },
  {
    "name": "Saint-Martin-de-Bossenay",
    "code": "10351",
    "epci_code": "241000488",
    "departement_code": "10",
    "region_code": "44",
    "postal_code": "10100"
  },
  {
    "name": "Sainte-Maure",
    "code": "10352",
    "epci_code": "200069250",
    "departement_code": "10",
    "region_code": "44",
    "postal_code": "10150"
  },
  {
    "name": "Saint-Mesmin",
    "code": "10353",
    "epci_code": "200070126",
    "departement_code": "10",
    "region_code": "44",
    "postal_code": "10280"
  },
  {
    "name": "Saint-Nabord-sur-Aube",
    "code": "10354",
    "epci_code": "200071777",
    "departement_code": "10",
    "region_code": "44",
    "postal_code": "10700"
  },
  {
    "name": "Saint-Nicolas-la-Chapelle",
    "code": "10355",
    "epci_code": "200006716",
    "departement_code": "10",
    "region_code": "44",
    "postal_code": "10400"
  },
  {
    "name": "Saint-Oulph",
    "code": "10356",
    "epci_code": "200070126",
    "departement_code": "10",
    "region_code": "44",
    "postal_code": "10170"
  },
  {
    "name": "Saint-Parres-aux-Tertres",
    "code": "10357",
    "epci_code": "200069250",
    "departement_code": "10",
    "region_code": "44",
    "postal_code": "10410"
  },
  {
    "name": "Saint-Parres-lès-Vaudes",
    "code": "10358",
    "epci_code": "200069003",
    "departement_code": "10",
    "region_code": "44",
    "postal_code": "10260"
  },
  {
    "name": "Saint-Phal",
    "code": "10359",
    "epci_code": "200071041",
    "departement_code": "10",
    "region_code": "44",
    "postal_code": "10130"
  },
  {
    "name": "Saint-Pouange",
    "code": "10360",
    "epci_code": "200069250",
    "departement_code": "10",
    "region_code": "44",
    "postal_code": "10120"
  },
  {
    "name": "Saint-Remy-sous-Barbuise",
    "code": "10361",
    "epci_code": "200071777",
    "departement_code": "10",
    "region_code": "44",
    "postal_code": "10700"
  },
  {
    "name": "Sainte-Savine",
    "code": "10362",
    "epci_code": "200069250",
    "departement_code": "10",
    "region_code": "44",
    "postal_code": "10300"
  },
  {
    "name": "Saint-Thibault",
    "code": "10363",
    "epci_code": "200069250",
    "departement_code": "10",
    "region_code": "44",
    "postal_code": "10800"
  },
  {
    "name": "Saint-Usage",
    "code": "10364",
    "epci_code": "200069003",
    "departement_code": "10",
    "region_code": "44",
    "postal_code": "10360"
  },
  {
    "name": "Salon",
    "code": "10365",
    "epci_code": "200070126",
    "departement_code": "10",
    "region_code": "44",
    "postal_code": "10700"
  },
  {
    "name": "Saulcy",
    "code": "10366",
    "epci_code": "200066892",
    "departement_code": "10",
    "region_code": "44",
    "postal_code": "10200"
  },
  {
    "name": "La Saulsotte",
    "code": "10367",
    "epci_code": "200006716",
    "departement_code": "10",
    "region_code": "44",
    "postal_code": "10400"
  },
  {
    "name": "Savières",
    "code": "10368",
    "epci_code": "200070126",
    "departement_code": "10",
    "region_code": "44",
    "postal_code": "10600"
  },
  {
    "name": "Semoine",
    "code": "10369",
    "epci_code": "200071777",
    "departement_code": "10",
    "region_code": "44",
    "postal_code": "10700"
  },
  {
    "name": "Soligny-les-Étangs",
    "code": "10370",
    "epci_code": "200006716",
    "departement_code": "10",
    "region_code": "44",
    "postal_code": "10400"
  },
  {
    "name": "Sommeval",
    "code": "10371",
    "epci_code": "200069250",
    "departement_code": "10",
    "region_code": "44",
    "postal_code": "10320"
  },
  {
    "name": "Soulaines-Dhuys",
    "code": "10372",
    "epci_code": "200066892",
    "departement_code": "10",
    "region_code": "44",
    "postal_code": "10200"
  },
  {
    "name": "Souligny",
    "code": "10373",
    "epci_code": "200069250",
    "departement_code": "10",
    "region_code": "44",
    "postal_code": "10320"
  },
  {
    "name": "Spoy",
    "code": "10374",
    "epci_code": "241000405",
    "departement_code": "10",
    "region_code": "44",
    "postal_code": "10200"
  },
  {
    "name": "Thennelières",
    "code": "10375",
    "epci_code": "200069250",
    "departement_code": "10",
    "region_code": "44",
    "postal_code": "10410"
  },
  {
    "name": "Thieffrain",
    "code": "10376",
    "epci_code": "200069003",
    "departement_code": "10",
    "region_code": "44",
    "postal_code": "10140"
  },
  {
    "name": "Thil",
    "code": "10377",
    "epci_code": "200066892",
    "departement_code": "10",
    "region_code": "44",
    "postal_code": "10200"
  },
  {
    "name": "Thors",
    "code": "10378",
    "epci_code": "200066892",
    "departement_code": "10",
    "region_code": "44",
    "postal_code": "10200"
  },
  {
    "name": "Torcy-le-Grand",
    "code": "10379",
    "epci_code": "200071777",
    "departement_code": "10",
    "region_code": "44",
    "postal_code": "10700"
  },
  {
    "name": "Torcy-le-Petit",
    "code": "10380",
    "epci_code": "200071777",
    "departement_code": "10",
    "region_code": "44",
    "postal_code": "10700"
  },
  {
    "name": "Torvilliers",
    "code": "10381",
    "epci_code": "200069250",
    "departement_code": "10",
    "region_code": "44",
    "postal_code": "10440"
  },
  {
    "name": "Traînel",
    "code": "10382",
    "epci_code": "200006716",
    "departement_code": "10",
    "region_code": "44",
    "postal_code": "10400"
  },
  {
    "name": "Trancault",
    "code": "10383",
    "epci_code": "241000488",
    "departement_code": "10",
    "region_code": "44",
    "postal_code": "10290"
  },
  {
    "name": "Trannes",
    "code": "10384",
    "epci_code": "200066892",
    "departement_code": "10",
    "region_code": "44",
    "postal_code": "10140"
  },
  {
    "name": "Trouans",
    "code": "10386",
    "epci_code": "200071777",
    "departement_code": "10",
    "region_code": "44",
    "postal_code": "10700"
  },
  {
    "name": "Troyes",
    "code": "10387",
    "epci_code": "200069250",
    "departement_code": "10",
    "region_code": "44",
    "postal_code": "10000"
  },
  {
    "name": "Turgy",
    "code": "10388",
    "epci_code": "200071041",
    "departement_code": "10",
    "region_code": "44",
    "postal_code": "10210"
  },
  {
    "name": "Unienville",
    "code": "10389",
    "epci_code": "200040137",
    "departement_code": "10",
    "region_code": "44",
    "postal_code": "10140"
  },
  {
    "name": "Urville",
    "code": "10390",
    "epci_code": "241000405",
    "departement_code": "10",
    "region_code": "44",
    "postal_code": "10200"
  },
  {
    "name": "Vailly",
    "code": "10391",
    "epci_code": "200069250",
    "departement_code": "10",
    "region_code": "44",
    "postal_code": "10150"
  },
  {
    "name": "Vallant-Saint-Georges",
    "code": "10392",
    "epci_code": "200070126",
    "departement_code": "10",
    "region_code": "44",
    "postal_code": "10170"
  },
  {
    "name": "Vallentigny",
    "code": "10393",
    "epci_code": "200040137",
    "departement_code": "10",
    "region_code": "44",
    "postal_code": "10500"
  },
  {
    "name": "Vallières",
    "code": "10394",
    "epci_code": "200071041",
    "departement_code": "10",
    "region_code": "44",
    "postal_code": "10210"
  },
  {
    "name": "Vanlay",
    "code": "10395",
    "epci_code": "200071041",
    "departement_code": "10",
    "region_code": "44",
    "postal_code": "10210"
  },
  {
    "name": "Vauchassis",
    "code": "10396",
    "epci_code": "200069250",
    "departement_code": "10",
    "region_code": "44",
    "postal_code": "10190"
  },
  {
    "name": "Vauchonvilliers",
    "code": "10397",
    "epci_code": "200066892",
    "departement_code": "10",
    "region_code": "44",
    "postal_code": "10140"
  },
  {
    "name": "Vaucogne",
    "code": "10398",
    "epci_code": "200071777",
    "departement_code": "10",
    "region_code": "44",
    "postal_code": "10240"
  },
  {
    "name": "Vaudes",
    "code": "10399",
    "epci_code": "200069003",
    "departement_code": "10",
    "region_code": "44",
    "postal_code": "10260"
  },
  {
    "name": "Vaupoisson",
    "code": "10400",
    "epci_code": "200071777",
    "departement_code": "10",
    "region_code": "44",
    "postal_code": "10700"
  },
  {
    "name": "Vendeuvre-sur-Barse",
    "code": "10401",
    "epci_code": "200066892",
    "departement_code": "10",
    "region_code": "44",
    "postal_code": "10140"
  },
  {
    "name": "La Vendue-Mignot",
    "code": "10402",
    "epci_code": "200069250",
    "departement_code": "10",
    "region_code": "44",
    "postal_code": "10800"
  },
  {
    "name": "Vernonvilliers",
    "code": "10403",
    "epci_code": "200066892",
    "departement_code": "10",
    "region_code": "44",
    "postal_code": "10200"
  },
  {
    "name": "Verpillières-sur-Ource",
    "code": "10404",
    "epci_code": "200069003",
    "departement_code": "10",
    "region_code": "44",
    "postal_code": "10360"
  },
  {
    "name": "Verricourt",
    "code": "10405",
    "epci_code": "200071777",
    "departement_code": "10",
    "region_code": "44",
    "postal_code": "10240"
  },
  {
    "name": "Verrières",
    "code": "10406",
    "epci_code": "200069250",
    "departement_code": "10",
    "region_code": "44",
    "postal_code": "10390"
  },
  {
    "name": "Viâpres-le-Petit",
    "code": "10408",
    "epci_code": "200070126",
    "departement_code": "10",
    "region_code": "44",
    "postal_code": "10380"
  },
  {
    "name": "Villacerf",
    "code": "10409",
    "epci_code": "200069250",
    "departement_code": "10",
    "region_code": "44",
    "postal_code": "10600"
  },
  {
    "name": "Villadin",
    "code": "10410",
    "epci_code": "241000488",
    "departement_code": "10",
    "region_code": "44",
    "postal_code": "10290"
  },
  {
    "name": "La Ville-aux-Bois",
    "code": "10411",
    "epci_code": "200066892",
    "departement_code": "10",
    "region_code": "44",
    "postal_code": "10500"
  },
  {
    "name": "Villechétif",
    "code": "10412",
    "epci_code": "200069250",
    "departement_code": "10",
    "region_code": "44",
    "postal_code": "10410"
  },
  {
    "name": "Villeloup",
    "code": "10414",
    "epci_code": "200069250",
    "departement_code": "10",
    "region_code": "44",
    "postal_code": "10350"
  },
  {
    "name": "Villemereuil",
    "code": "10416",
    "epci_code": "200069250",
    "departement_code": "10",
    "region_code": "44",
    "postal_code": "10800"
  },
  {
    "name": "Villemoiron-en-Othe",
    "code": "10417",
    "epci_code": "241000447",
    "departement_code": "10",
    "region_code": "44",
    "postal_code": "10160"
  },
  {
    "name": "Villemorien",
    "code": "10418",
    "epci_code": "200069003",
    "departement_code": "10",
    "region_code": "44",
    "postal_code": "10110"
  },
  {
    "name": "Villemoyenne",
    "code": "10419",
    "epci_code": "200069003",
    "departement_code": "10",
    "region_code": "44",
    "postal_code": "10260"
  },
  {
    "name": "Villenauxe-la-Grande",
    "code": "10420",
    "epci_code": "200006716",
    "departement_code": "10",
    "region_code": "44",
    "postal_code": "10370"
  },
  {
    "name": "La Villeneuve-au-Châtelot",
    "code": "10421",
    "epci_code": "200006716",
    "departement_code": "10",
    "region_code": "44",
    "postal_code": "10400"
  },
  {
    "name": "Villeneuve-au-Chemin",
    "code": "10422",
    "epci_code": "200071041",
    "departement_code": "10",
    "region_code": "44",
    "postal_code": "10130"
  },
  {
    "name": "La Villeneuve-au-Chêne",
    "code": "10423",
    "epci_code": "200066892",
    "departement_code": "10",
    "region_code": "44",
    "postal_code": "10140"
  },
  {
    "name": "Villeret",
    "code": "10424",
    "epci_code": "200040137",
    "departement_code": "10",
    "region_code": "44",
    "postal_code": "10330"
  },
  {
    "name": "Villery",
    "code": "10425",
    "epci_code": "200069250",
    "departement_code": "10",
    "region_code": "44",
    "postal_code": "10320"
  },
  {
    "name": "Ville-sous-la-Ferté",
    "code": "10426",
    "epci_code": "241000405",
    "departement_code": "10",
    "region_code": "44",
    "postal_code": "10310"
  },
  {
    "name": "Ville-sur-Arce",
    "code": "10427",
    "epci_code": "200069003",
    "departement_code": "10",
    "region_code": "44",
    "postal_code": "10110"
  },
  {
    "name": "Ville-sur-Terre",
    "code": "10428",
    "epci_code": "200066892",
    "departement_code": "10",
    "region_code": "44",
    "postal_code": "10200"
  },
  {
    "name": "Villette-sur-Aube",
    "code": "10429",
    "epci_code": "200071777",
    "departement_code": "10",
    "region_code": "44",
    "postal_code": "10700"
  },
  {
    "name": "Villiers-Herbisse",
    "code": "10430",
    "epci_code": "200071777",
    "departement_code": "10",
    "region_code": "44",
    "postal_code": "10700"
  },
  {
    "name": "Villiers-le-Bois",
    "code": "10431",
    "epci_code": "200071041",
    "departement_code": "10",
    "region_code": "44",
    "postal_code": "10210"
  },
  {
    "name": "Villiers-sous-Praslin",
    "code": "10432",
    "epci_code": "200071041",
    "departement_code": "10",
    "region_code": "44",
    "postal_code": "10210"
  },
  {
    "name": "Villy-en-Trodes",
    "code": "10433",
    "epci_code": "200069003",
    "departement_code": "10",
    "region_code": "44",
    "postal_code": "10140"
  },
  {
    "name": "Villy-le-Bois",
    "code": "10434",
    "epci_code": "200069250",
    "departement_code": "10",
    "region_code": "44",
    "postal_code": "10800"
  },
  {
    "name": "Villy-le-Maréchal",
    "code": "10435",
    "epci_code": "200069250",
    "departement_code": "10",
    "region_code": "44",
    "postal_code": "10800"
  },
  {
    "name": "Vinets",
    "code": "10436",
    "epci_code": "200071777",
    "departement_code": "10",
    "region_code": "44",
    "postal_code": "10700"
  },
  {
    "name": "Virey-sous-Bar",
    "code": "10437",
    "epci_code": "200069003",
    "departement_code": "10",
    "region_code": "44",
    "postal_code": "10260"
  },
  {
    "name": "Vitry-le-Croisé",
    "code": "10438",
    "epci_code": "200069003",
    "departement_code": "10",
    "region_code": "44",
    "postal_code": "10110"
  },
  {
    "name": "Viviers-sur-Artaut",
    "code": "10439",
    "epci_code": "200069003",
    "departement_code": "10",
    "region_code": "44",
    "postal_code": "10110"
  },
  {
    "name": "Voigny",
    "code": "10440",
    "epci_code": "241000405",
    "departement_code": "10",
    "region_code": "44",
    "postal_code": "10200"
  },
  {
    "name": "Vosnon",
    "code": "10441",
    "epci_code": "200071041",
    "departement_code": "10",
    "region_code": "44",
    "postal_code": "10130"
  },
  {
    "name": "Voué",
    "code": "10442",
    "epci_code": "200071777",
    "departement_code": "10",
    "region_code": "44",
    "postal_code": "10150"
  },
  {
    "name": "Vougrey",
    "code": "10443",
    "epci_code": "200071041",
    "departement_code": "10",
    "region_code": "44",
    "postal_code": "10210"
  },
  {
    "name": "Vulaines",
    "code": "10444",
    "epci_code": "241000447",
    "departement_code": "10",
    "region_code": "44",
    "postal_code": "10160"
  },
  {
    "name": "Yèvres-le-Petit",
    "code": "10445",
    "epci_code": "200040137",
    "departement_code": "10",
    "region_code": "44",
    "postal_code": "10500"
  }
]