[
  {
    "name": "Les Abrets en Dauphiné",
    "code": "38001",
    "epci_code": "200068567",
    "departement_code": "38",
    "region_code": "84",
    "postal_code": "38490"
  },
  {
    "name": "Les Adrets",
    "code": "38002",
    "epci_code": "200018166",
    "departement_code": "38",
    "region_code": "84",
    "postal_code": "38190"
  },
  {
    "name": "Agnin",
    "code": "38003",
    "epci_code": "200085751",
    "departement_code": "38",
    "region_code": "84",
    "postal_code": "38150"
  },
  {
    "name": "L’Albenc",
    "code": "38004",
    "epci_code": "200070431",
    "departement_code": "38",
    "region_code": "84",
    "postal_code": "38470"
  },
  {
    "name": "Allemond",
    "code": "38005",
    "epci_code": "243800745",
    "departement_code": "38",
    "region_code": "84",
    "postal_code": "38114"
  },
  {
    "name": "Allevard",
    "code": "38006",
    "epci_code": "200018166",
    "departement_code": "38",
    "region_code": "84",
    "postal_code": "38580"
  },
  {
    "name": "Ambel",
    "code": "38008",
    "epci_code": "200040657",
    "departement_code": "38",
    "region_code": "84",
    "postal_code": "38970"
  },
  {
    "name": "Anjou",
    "code": "38009",
    "epci_code": "200085751",
    "departement_code": "38",
    "region_code": "84",
    "postal_code": "38150"
  },
  {
    "name": "Annoisin-Chatelans",
    "code": "38010",
    "epci_code": "200068542",
    "departement_code": "38",
    "region_code": "84",
    "postal_code": "38460"
  },
  {
    "name": "Anthon",
    "code": "38011",
    "epci_code": "243800935",
    "departement_code": "38",
    "region_code": "84",
    "postal_code": "38280"
  },
  {
    "name": "Aoste",
    "code": "38012",
    "epci_code": "200068567",
    "departement_code": "38",
    "region_code": "84",
    "postal_code": "38490"
  },
  {
    "name": "Apprieu",
    "code": "38013",
    "epci_code": "243801073",
    "departement_code": "38",
    "region_code": "84",
    "postal_code": "38140"
  },
  {
    "name": "Artas",
    "code": "38015",
    "epci_code": "200059392",
    "departement_code": "38",
    "region_code": "84",
    "postal_code": "38440"
  },
  {
    "name": "Assieu",
    "code": "38017",
    "epci_code": "200085751",
    "departement_code": "38",
    "region_code": "84",
    "postal_code": "38150"
  },
  {
    "name": "Auberives-en-Royans",
    "code": "38018",
    "epci_code": "200070431",
    "departement_code": "38",
    "region_code": "84",
    "postal_code": "38680"
  },
  {
    "name": "Auberives-sur-Varèze",
    "code": "38019",
    "epci_code": "200085751",
    "departement_code": "38",
    "region_code": "84",
    "postal_code": "38550"
  },
  {
    "name": "Auris",
    "code": "38020",
    "epci_code": "243800745",
    "departement_code": "38",
    "region_code": "84",
    "postal_code": "38142"
  },
  {
    "name": "Les Avenières Veyrins-Thuellin",
    "code": "38022",
    "epci_code": "200068542",
    "departement_code": "38",
    "region_code": "84",
    "postal_code": "38630"
  },
  {
    "name": "Avignonet",
    "code": "38023",
    "epci_code": "200030658",
    "departement_code": "38",
    "region_code": "84",
    "postal_code": "38650"
  },
  {
    "name": "La Balme-les-Grottes",
    "code": "38026",
    "epci_code": "200068542",
    "departement_code": "38",
    "region_code": "84",
    "postal_code": "38390"
  },
  {
    "name": "Barraux",
    "code": "38027",
    "epci_code": "200018166",
    "departement_code": "38",
    "region_code": "84",
    "postal_code": "38530"
  },
  {
    "name": "La Bâtie-Montgascon",
    "code": "38029",
    "epci_code": "200068567",
    "departement_code": "38",
    "region_code": "84",
    "postal_code": "38110"
  },
  {
    "name": "Beaucroissant",
    "code": "38030",
    "epci_code": "243801073",
    "departement_code": "38",
    "region_code": "84",
    "postal_code": "38140"
  },
  {
    "name": "Beaufin",
    "code": "38031",
    "epci_code": "200040657",
    "departement_code": "38",
    "region_code": "84",
    "postal_code": "38970"
  },
  {
    "name": "Beaufort",
    "code": "38032",
    "epci_code": "200059392",
    "departement_code": "38",
    "region_code": "84",
    "postal_code": "38270"
  },
  {
    "name": "Beaulieu",
    "code": "38033",
    "epci_code": "200070431",
    "departement_code": "38",
    "region_code": "84",
    "postal_code": "38470"
  },
  {
    "name": "Beaurepaire",
    "code": "38034",
    "epci_code": "200085751",
    "departement_code": "38",
    "region_code": "84",
    "postal_code": "38270"
  },
  {
    "name": "Beauvoir-de-Marc",
    "code": "38035",
    "epci_code": "200059392",
    "departement_code": "38",
    "region_code": "84",
    "postal_code": "38440"
  },
  {
    "name": "Beauvoir-en-Royans",
    "code": "38036",
    "epci_code": "200070431",
    "departement_code": "38",
    "region_code": "84",
    "postal_code": "38160"
  },
  {
    "name": "Bellegarde-Poussieu",
    "code": "38037",
    "epci_code": "200085751",
    "departement_code": "38",
    "region_code": "84",
    "postal_code": "38270"
  },
  {
    "name": "Belmont",
    "code": "38038",
    "epci_code": "200068567",
    "departement_code": "38",
    "region_code": "84",
    "postal_code": "38690"
  },
  {
    "name": "Bernin",
    "code": "38039",
    "epci_code": "200018166",
    "departement_code": "38",
    "region_code": "84",
    "postal_code": "38190"
  },
  {
    "name": "Besse",
    "code": "38040",
    "epci_code": "243800745",
    "departement_code": "38",
    "region_code": "84",
    "postal_code": "38142"
  },
  {
    "name": "Bessins",
    "code": "38041",
    "epci_code": "200070431",
    "departement_code": "38",
    "region_code": "84",
    "postal_code": "38160"
  },
  {
    "name": "Bévenais",
    "code": "38042",
    "epci_code": "243801073",
    "departement_code": "38",
    "region_code": "84",
    "postal_code": "38690"
  },
  {
    "name": "Bilieu",
    "code": "38043",
    "epci_code": "243800984",
    "departement_code": "38",
    "region_code": "84",
    "postal_code": "38850"
  },
  {
    "name": "Biol",
    "code": "38044",
    "epci_code": "200068567",
    "departement_code": "38",
    "region_code": "84",
    "postal_code": "38690"
  },
  {
    "name": "Biviers",
    "code": "38045",
    "epci_code": "200018166",
    "departement_code": "38",
    "region_code": "84",
    "postal_code": "38330"
  },
  {
    "name": "Bizonnes",
    "code": "38046",
    "epci_code": "243801073",
    "departement_code": "38",
    "region_code": "84",
    "postal_code": "38690"
  },
  {
    "name": "Blandin",
    "code": "38047",
    "epci_code": "200068567",
    "departement_code": "38",
    "region_code": "84",
    "postal_code": "38730"
  },
  {
    "name": "Bonnefamille",
    "code": "38048",
    "epci_code": "243801255",
    "departement_code": "38",
    "region_code": "84",
    "postal_code": "38090"
  },
  {
    "name": "Bossieu",
    "code": "38049",
    "epci_code": "200059392",
    "departement_code": "38",
    "region_code": "84",
    "postal_code": "38260"
  },
  {
    "name": "Le Bouchage",
    "code": "38050",
    "epci_code": "200068542",
    "departement_code": "38",
    "region_code": "84",
    "postal_code": "38510"
  },
  {
    "name": "Bougé-Chambalud",
    "code": "38051",
    "epci_code": "200085751",
    "departement_code": "38",
    "region_code": "84",
    "postal_code": "38150"
  },
  {
    "name": "Le Bourg-d’Oisans",
    "code": "38052",
    "epci_code": "243800745",
    "departement_code": "38",
    "region_code": "84",
    "postal_code": "38520"
  },
  {
    "name": "Bourgoin-Jallieu",
    "code": "38053",
    "epci_code": "243800604",
    "departement_code": "38",
    "region_code": "84",
    "postal_code": "38300"
  },
  {
    "name": "Bouvesse-Quirieu",
    "code": "38054",
    "epci_code": "200068542",
    "departement_code": "38",
    "region_code": "84",
    "postal_code": "38390"
  },
  {
    "name": "Brangues",
    "code": "38055",
    "epci_code": "200068542",
    "departement_code": "38",
    "region_code": "84",
    "postal_code": "38510"
  },
  {
    "name": "Bressieux",
    "code": "38056",
    "epci_code": "200059392",
    "departement_code": "38",
    "region_code": "84",
    "postal_code": "38870"
  },
  {
    "name": "Bresson",
    "code": "38057",
    "epci_code": "200040715",
    "departement_code": "38",
    "region_code": "84",
    "postal_code": "38320"
  },
  {
    "name": "Brézins",
    "code": "38058",
    "epci_code": "200059392",
    "departement_code": "38",
    "region_code": "84",
    "postal_code": "38590"
  },
  {
    "name": "Brié-et-Angonnes",
    "code": "38059",
    "epci_code": "200040715",
    "departement_code": "38",
    "region_code": "84",
    "postal_code": "38320"
  },
  {
    "name": "Brion",
    "code": "38060",
    "epci_code": "200059392",
    "departement_code": "38",
    "region_code": "84",
    "postal_code": "38590"
  },
  {
    "name": "La Buisse",
    "code": "38061",
    "epci_code": "243800984",
    "departement_code": "38",
    "region_code": "84",
    "postal_code": "38500"
  },
  {
    "name": "La Buissière",
    "code": "38062",
    "epci_code": "200018166",
    "departement_code": "38",
    "region_code": "84",
    "postal_code": "38530"
  },
  {
    "name": "Burcin",
    "code": "38063",
    "epci_code": "243801073",
    "departement_code": "38",
    "region_code": "84",
    "postal_code": "38690"
  },
  {
    "name": "Cessieu",
    "code": "38064",
    "epci_code": "200068567",
    "departement_code": "38",
    "region_code": "84",
    "postal_code": "38110"
  },
  {
    "name": "Châbons",
    "code": "38065",
    "epci_code": "243801073",
    "departement_code": "38",
    "region_code": "84",
    "postal_code": "38690"
  },
  {
    "name": "Chalon",
    "code": "38066",
    "epci_code": "200085751",
    "departement_code": "38",
    "region_code": "84",
    "postal_code": "38122"
  },
  {
    "name": "Chamagnieu",
    "code": "38067",
    "epci_code": "200068542",
    "departement_code": "38",
    "region_code": "84",
    "postal_code": "38460"
  },
  {
    "name": "Champagnier",
    "code": "38068",
    "epci_code": "200040715",
    "departement_code": "38",
    "region_code": "84",
    "postal_code": "38800"
  },
  {
    "name": "Champier",
    "code": "38069",
    "epci_code": "200059392",
    "departement_code": "38",
    "region_code": "84",
    "postal_code": "38260"
  },
  {
    "name": "Le Champ-près-Froges",
    "code": "38070",
    "epci_code": "200018166",
    "departement_code": "38",
    "region_code": "84",
    "postal_code": "38190"
  },
  {
    "name": "Champ-sur-Drac",
    "code": "38071",
    "epci_code": "200040715",
    "departement_code": "38",
    "region_code": "84",
    "postal_code": "38560"
  },
  {
    "name": "Chanas",
    "code": "38072",
    "epci_code": "200085751",
    "departement_code": "38",
    "region_code": "84",
    "postal_code": "38150"
  },
  {
    "name": "Chantepérier",
    "code": "38073",
    "epci_code": "200040657",
    "departement_code": "38",
    "region_code": "84",
    "postal_code": "38740"
  },
  {
    "name": "Chantesse",
    "code": "38074",
    "epci_code": "200070431",
    "departement_code": "38",
    "region_code": "84",
    "postal_code": "38470"
  },
  {
    "name": "Chapareillan",
    "code": "38075",
    "epci_code": "200018166",
    "departement_code": "38",
    "region_code": "84",
    "postal_code": "38530"
  },
  {
    "name": "La Chapelle-de-la-Tour",
    "code": "38076",
    "epci_code": "200068567",
    "departement_code": "38",
    "region_code": "84",
    "postal_code": "38110"
  },
  {
    "name": "La Chapelle-de-Surieu",
    "code": "38077",
    "epci_code": "200085751",
    "departement_code": "38",
    "region_code": "84",
    "postal_code": "38150"
  },
  {
    "name": "La Chapelle-du-Bard",
    "code": "38078",
    "epci_code": "200018166",
    "departement_code": "38",
    "region_code": "84",
    "postal_code": "38580"
  },
  {
    "name": "Charancieu",
    "code": "38080",
    "epci_code": "243800984",
    "departement_code": "38",
    "region_code": "84",
    "postal_code": "38490"
  },
  {
    "name": "Charantonnay",
    "code": "38081",
    "epci_code": "243801255",
    "departement_code": "38",
    "region_code": "84",
    "postal_code": "38790"
  },
  {
    "name": "Charavines",
    "code": "38082",
    "epci_code": "243800984",
    "departement_code": "38",
    "region_code": "84",
    "postal_code": "38850"
  },
  {
    "name": "Charette",
    "code": "38083",
    "epci_code": "200068542",
    "departement_code": "38",
    "region_code": "84",
    "postal_code": "38390"
  },
  {
    "name": "Charnècles",
    "code": "38084",
    "epci_code": "243800984",
    "departement_code": "38",
    "region_code": "84",
    "postal_code": "38140"
  },
  {
    "name": "Charvieu-Chavagneux",
    "code": "38085",
    "epci_code": "243800935",
    "departement_code": "38",
    "region_code": "84",
    "postal_code": "38230"
  },
  {
    "name": "Chasselay",
    "code": "38086",
    "epci_code": "200070431",
    "departement_code": "38",
    "region_code": "84",
    "postal_code": "38470"
  },
  {
    "name": "Chasse-sur-Rhône",
    "code": "38087",
    "epci_code": "200077014",
    "departement_code": "38",
    "region_code": "84",
    "postal_code": "38670"
  },
  {
    "name": "Chassignieu",
    "code": "38089",
    "epci_code": "200068567",
    "departement_code": "38",
    "region_code": "84",
    "postal_code": "38730"
  },
  {
    "name": "Château-Bernard",
    "code": "38090",
    "epci_code": "200030658",
    "departement_code": "38",
    "region_code": "84",
    "postal_code": "38650"
  },
  {
    "name": "Châteauvilain",
    "code": "38091",
    "epci_code": "243800604",
    "departement_code": "38",
    "region_code": "84",
    "postal_code": "38300"
  },
  {
    "name": "Châtelus",
    "code": "38092",
    "epci_code": "200070431",
    "departement_code": "38",
    "region_code": "84",
    "postal_code": "38680"
  },
  {
    "name": "Châtenay",
    "code": "38093",
    "epci_code": "200059392",
    "departement_code": "38",
    "region_code": "84",
    "postal_code": "38980"
  },
  {
    "name": "Châtonnay",
    "code": "38094",
    "epci_code": "200059392",
    "departement_code": "38",
    "region_code": "84",
    "postal_code": "38440"
  },
  {
    "name": "Chatte",
    "code": "38095",
    "epci_code": "200070431",
    "departement_code": "38",
    "region_code": "84",
    "postal_code": "38160"
  },
  {
    "name": "Chavanoz",
    "code": "38097",
    "epci_code": "243800935",
    "departement_code": "38",
    "region_code": "84",
    "postal_code": "38230"
  },
  {
    "name": "Chélieu",
    "code": "38098",
    "epci_code": "200068567",
    "departement_code": "38",
    "region_code": "84",
    "postal_code": "38730"
  },
  {
    "name": "Chevrières",
    "code": "38099",
    "epci_code": "200070431",
    "departement_code": "38",
    "region_code": "84",
    "postal_code": "38160"
  },
  {
    "name": "Le Cheylas",
    "code": "38100",
    "epci_code": "200018166",
    "departement_code": "38",
    "region_code": "84",
    "postal_code": "38570"
  },
  {
    "name": "Cheyssieu",
    "code": "38101",
    "epci_code": "200085751",
    "departement_code": "38",
    "region_code": "84",
    "postal_code": "38550"
  },
  {
    "name": "Chèzeneuve",
    "code": "38102",
    "epci_code": "243800604",
    "departement_code": "38",
    "region_code": "84",
    "postal_code": "38300"
  },
  {
    "name": "Chichilianne",
    "code": "38103",
    "epci_code": "200030658",
    "departement_code": "38",
    "region_code": "84",
    "postal_code": "38930"
  },
  {
    "name": "Chimilin",
    "code": "38104",
    "epci_code": "200068567",
    "departement_code": "38",
    "region_code": "84",
    "postal_code": "38490"
  },
  {
    "name": "Chirens",
    "code": "38105",
    "epci_code": "243800984",
    "departement_code": "38",
    "region_code": "84",
    "postal_code": "38850"
  },
  {
    "name": "Cholonge",
    "code": "38106",
    "epci_code": "200040657",
    "departement_code": "38",
    "region_code": "84",
    "postal_code": "38220"
  },
  {
    "name": "Chonas-l’Amballan",
    "code": "38107",
    "epci_code": "200077014",
    "departement_code": "38",
    "region_code": "84",
    "postal_code": "38121"
  },
  {
    "name": "Choranche",
    "code": "38108",
    "epci_code": "200070431",
    "departement_code": "38",
    "region_code": "84",
    "postal_code": "38680"
  },
  {
    "name": "Chozeau",
    "code": "38109",
    "epci_code": "200068542",
    "departement_code": "38",
    "region_code": "84",
    "postal_code": "38460"
  },
  {
    "name": "Chuzelles",
    "code": "38110",
    "epci_code": "200077014",
    "departement_code": "38",
    "region_code": "84",
    "postal_code": "38200"
  },
  {
    "name": "Claix",
    "code": "38111",
    "epci_code": "200040715",
    "departement_code": "38",
    "region_code": "84",
    "postal_code": "38640"
  },
  {
    "name": "Clavans-en-Haut-Oisans",
    "code": "38112",
    "epci_code": "243800745",
    "departement_code": "38",
    "region_code": "84",
    "postal_code": "38142"
  },
  {
    "name": "Clelles",
    "code": "38113",
    "epci_code": "200030658",
    "departement_code": "38",
    "region_code": "84",
    "postal_code": "38930"
  },
  {
    "name": "Clonas-sur-Varèze",
    "code": "38114",
    "epci_code": "200085751",
    "departement_code": "38",
    "region_code": "84",
    "postal_code": "38550"
  },
  {
    "name": "Saint-Martin-de-la-Cluze",
    "code": "38115",
    "epci_code": "200030658",
    "departement_code": "38",
    "region_code": "84",
    "postal_code": "38650"
  },
  {
    "name": "Cognet",
    "code": "38116",
    "epci_code": "200040657",
    "departement_code": "38",
    "region_code": "84",
    "postal_code": "38350"
  },
  {
    "name": "Cognin-les-Gorges",
    "code": "38117",
    "epci_code": "200070431",
    "departement_code": "38",
    "region_code": "84",
    "postal_code": "38470"
  },
  {
    "name": "Colombe",
    "code": "38118",
    "epci_code": "243801073",
    "departement_code": "38",
    "region_code": "84",
    "postal_code": "38690"
  },
  {
    "name": "La Combe-de-Lancey",
    "code": "38120",
    "epci_code": "200018166",
    "departement_code": "38",
    "region_code": "84",
    "postal_code": "38190"
  },
  {
    "name": "Corbelin",
    "code": "38124",
    "epci_code": "200068542",
    "departement_code": "38",
    "region_code": "84",
    "postal_code": "38630"
  },
  {
    "name": "Corenc",
    "code": "38126",
    "epci_code": "200040715",
    "departement_code": "38",
    "region_code": "84",
    "postal_code": "38700"
  },
  {
    "name": "Cornillon-en-Trièves",
    "code": "38127",
    "epci_code": "200030658",
    "departement_code": "38",
    "region_code": "84",
    "postal_code": "38710"
  },
  {
    "name": "Corps",
    "code": "38128",
    "epci_code": "200040657",
    "departement_code": "38",
    "region_code": "84",
    "postal_code": "38970"
  },
  {
    "name": "Corrençon-en-Vercors",
    "code": "38129",
    "epci_code": "243801024",
    "departement_code": "38",
    "region_code": "84",
    "postal_code": "38250"
  },
  {
    "name": "La Côte-Saint-André",
    "code": "38130",
    "epci_code": "200059392",
    "departement_code": "38",
    "region_code": "84",
    "postal_code": "38260"
  },
  {
    "name": "Les Côtes-d’Arey",
    "code": "38131",
    "epci_code": "200077014",
    "departement_code": "38",
    "region_code": "84",
    "postal_code": "38138"
  },
  {
    "name": "Les Côtes-de-Corps",
    "code": "38132",
    "epci_code": "200040657",
    "departement_code": "38",
    "region_code": "84",
    "postal_code": "38970"
  },
  {
    "name": "Coublevie",
    "code": "38133",
    "epci_code": "243800984",
    "departement_code": "38",
    "region_code": "84",
    "postal_code": "38500"
  },
  {
    "name": "Cour-et-Buis",
    "code": "38134",
    "epci_code": "200085751",
    "departement_code": "38",
    "region_code": "84",
    "postal_code": "38122"
  },
  {
    "name": "Courtenay",
    "code": "38135",
    "epci_code": "200068542",
    "departement_code": "38",
    "region_code": "84",
    "postal_code": "38510"
  },
  {
    "name": "Crachier",
    "code": "38136",
    "epci_code": "243800604",
    "departement_code": "38",
    "region_code": "84",
    "postal_code": "38300"
  },
  {
    "name": "Cras",
    "code": "38137",
    "epci_code": "200070431",
    "departement_code": "38",
    "region_code": "84",
    "postal_code": "38210"
  },
  {
    "name": "Crémieu",
    "code": "38138",
    "epci_code": "200068542",
    "departement_code": "38",
    "region_code": "84",
    "postal_code": "38460"
  },
  {
    "name": "Creys-Mépieu",
    "code": "38139",
    "epci_code": "200068542",
    "departement_code": "38",
    "region_code": "84",
    "postal_code": "38510"
  },
  {
    "name": "Crolles",
    "code": "38140",
    "epci_code": "200018166",
    "departement_code": "38",
    "region_code": "84",
    "postal_code": "38920"
  },
  {
    "name": "Culin",
    "code": "38141",
    "epci_code": "200059392",
    "departement_code": "38",
    "region_code": "84",
    "postal_code": "38300"
  },
  {
    "name": "Diémoz",
    "code": "38144",
    "epci_code": "243801255",
    "departement_code": "38",
    "region_code": "84",
    "postal_code": "38790"
  },
  {
    "name": "Dizimieu",
    "code": "38146",
    "epci_code": "200068542",
    "departement_code": "38",
    "region_code": "84",
    "postal_code": "38460"
  },
  {
    "name": "Doissin",
    "code": "38147",
    "epci_code": "200068567",
    "departement_code": "38",
    "region_code": "84",
    "postal_code": "38730"
  },
  {
    "name": "Dolomieu",
    "code": "38148",
    "epci_code": "200068567",
    "departement_code": "38",
    "region_code": "84",
    "postal_code": "38110"
  },
  {
    "name": "Domarin",
    "code": "38149",
    "epci_code": "243800604",
    "departement_code": "38",
    "region_code": "84",
    "postal_code": "38300"
  },
  {
    "name": "Domène",
    "code": "38150",
    "epci_code": "200040715",
    "departement_code": "38",
    "region_code": "84",
    "postal_code": "38420"
  },
  {
    "name": "Échirolles",
    "code": "38151",
    "epci_code": "200040715",
    "departement_code": "38",
    "region_code": "84",
    "postal_code": "38130"
  },
  {
    "name": "Eclose-Badinières",
    "code": "38152",
    "epci_code": "243800604",
    "departement_code": "38",
    "region_code": "84",
    "postal_code": "38300"
  },
  {
    "name": "Engins",
    "code": "38153",
    "epci_code": "243801024",
    "departement_code": "38",
    "region_code": "84",
    "postal_code": "38360"
  },
  {
    "name": "Entraigues",
    "code": "38154",
    "epci_code": "200040657",
    "departement_code": "38",
    "region_code": "84",
    "postal_code": "38740"
  },
  {
    "name": "Entre-deux-Guiers",
    "code": "38155",
    "epci_code": "200040111",
    "departement_code": "38",
    "region_code": "84",
    "postal_code": "38380"
  },
  {
    "name": "Les Éparres",
    "code": "38156",
    "epci_code": "243800604",
    "departement_code": "38",
    "region_code": "84",
    "postal_code": "38300"
  },
  {
    "name": "Estrablin",
    "code": "38157",
    "epci_code": "200077014",
    "departement_code": "38",
    "region_code": "84",
    "postal_code": "38780"
  },
  {
    "name": "Eybens",
    "code": "38158",
    "epci_code": "200040715",
    "departement_code": "38",
    "region_code": "84",
    "postal_code": "38320"
  },
  {
    "name": "Eydoche",
    "code": "38159",
    "epci_code": "243801073",
    "departement_code": "38",
    "region_code": "84",
    "postal_code": "38690"
  },
  {
    "name": "Eyzin-Pinet",
    "code": "38160",
    "epci_code": "200077014",
    "departement_code": "38",
    "region_code": "84",
    "postal_code": "38780"
  },
  {
    "name": "Faramans",
    "code": "38161",
    "epci_code": "200059392",
    "departement_code": "38",
    "region_code": "84",
    "postal_code": "38260"
  },
  {
    "name": "Faverges-de-la-Tour",
    "code": "38162",
    "epci_code": "200068567",
    "departement_code": "38",
    "region_code": "84",
    "postal_code": "38110"
  },
  {
    "name": "Le Haut-Bréda",
    "code": "38163",
    "epci_code": "200018166",
    "departement_code": "38",
    "region_code": "84",
    "postal_code": "38580"
  },
  {
    "name": "La Flachère",
    "code": "38166",
    "epci_code": "200018166",
    "departement_code": "38",
    "region_code": "84",
    "postal_code": "38530"
  },
  {
    "name": "Flachères",
    "code": "38167",
    "epci_code": "243801073",
    "departement_code": "38",
    "region_code": "84",
    "postal_code": "38690"
  },
  {
    "name": "Fontaine",
    "code": "38169",
    "epci_code": "200040715",
    "departement_code": "38",
    "region_code": "84",
    "postal_code": "38600"
  },
  {
    "name": "Fontanil-Cornillon",
    "code": "38170",
    "epci_code": "200040715",
    "departement_code": "38",
    "region_code": "84",
    "postal_code": "38120"
  },
  {
    "name": "La Forteresse",
    "code": "38171",
    "epci_code": "200059392",
    "departement_code": "38",
    "region_code": "84",
    "postal_code": "38590"
  },
  {
    "name": "Four",
    "code": "38172",
    "epci_code": "243800604",
    "departement_code": "38",
    "region_code": "84",
    "postal_code": "38080"
  },
  {
    "name": "Le Freney-d’Oisans",
    "code": "38173",
    "epci_code": "243800745",
    "departement_code": "38",
    "region_code": "84",
    "postal_code": "38142"
  },
  {
    "name": "La Frette",
    "code": "38174",
    "epci_code": "200059392",
    "departement_code": "38",
    "region_code": "84",
    "postal_code": "38260"
  },
  {
    "name": "Froges",
    "code": "38175",
    "epci_code": "200018166",
    "departement_code": "38",
    "region_code": "84",
    "postal_code": "38190"
  },
  {
    "name": "Frontonas",
    "code": "38176",
    "epci_code": "200068542",
    "departement_code": "38",
    "region_code": "84",
    "postal_code": "38290"
  },
  {
    "name": "La Garde",
    "code": "38177",
    "epci_code": "243800745",
    "departement_code": "38",
    "region_code": "84",
    "postal_code": "38520"
  },
  {
    "name": "Gières",
    "code": "38179",
    "epci_code": "200040715",
    "departement_code": "38",
    "region_code": "84",
    "postal_code": "38610"
  },
  {
    "name": "Gillonnay",
    "code": "38180",
    "epci_code": "200059392",
    "departement_code": "38",
    "region_code": "84",
    "postal_code": "38260"
  },
  {
    "name": "Goncelin",
    "code": "38181",
    "epci_code": "200018166",
    "departement_code": "38",
    "region_code": "84",
    "postal_code": "38570"
  },
  {
    "name": "Le Grand-Lemps",
    "code": "38182",
    "epci_code": "243801073",
    "departement_code": "38",
    "region_code": "84",
    "postal_code": "38690"
  },
  {
    "name": "Granieu",
    "code": "38183",
    "epci_code": "200068567",
    "departement_code": "38",
    "region_code": "84",
    "postal_code": "38490"
  },
  {
    "name": "Grenay",
    "code": "38184",
    "epci_code": "243801255",
    "departement_code": "38",
    "region_code": "84",
    "postal_code": "38540"
  },
  {
    "name": "Grenoble",
    "code": "38185",
    "epci_code": "200040715",
    "departement_code": "38",
    "region_code": "84",
    "postal_code": "38000"
  },
  {
    "name": "Grenoble",
    "code": "38185",
    "epci_code": "200040715",
    "departement_code": "38",
    "region_code": "84",
    "postal_code": "38100"
  },
  {
    "name": "Gresse-en-Vercors",
    "code": "38186",
    "epci_code": "200030658",
    "departement_code": "38",
    "region_code": "84",
    "postal_code": "38650"
  },
  {
    "name": "Le Gua",
    "code": "38187",
    "epci_code": "200040715",
    "departement_code": "38",
    "region_code": "84",
    "postal_code": "38450"
  },
  {
    "name": "Herbeys",
    "code": "38188",
    "epci_code": "200040715",
    "departement_code": "38",
    "region_code": "84",
    "postal_code": "38320"
  },
  {
    "name": "Heyrieux",
    "code": "38189",
    "epci_code": "243801255",
    "departement_code": "38",
    "region_code": "84",
    "postal_code": "38540"
  },
  {
    "name": "Hières-sur-Amby",
    "code": "38190",
    "epci_code": "200068542",
    "departement_code": "38",
    "region_code": "84",
    "postal_code": "38118"
  },
  {
    "name": "Huez",
    "code": "38191",
    "epci_code": "243800745",
    "departement_code": "38",
    "region_code": "84",
    "postal_code": "38750"
  },
  {
    "name": "Hurtières",
    "code": "38192",
    "epci_code": "200018166",
    "departement_code": "38",
    "region_code": "84",
    "postal_code": "38570"
  },
  {
    "name": "L’Isle-d’Abeau",
    "code": "38193",
    "epci_code": "243800604",
    "departement_code": "38",
    "region_code": "84",
    "postal_code": "38080"
  },
  {
    "name": "Izeaux",
    "code": "38194",
    "epci_code": "243801073",
    "departement_code": "38",
    "region_code": "84",
    "postal_code": "38140"
  },
  {
    "name": "Izeron",
    "code": "38195",
    "epci_code": "200070431",
    "departement_code": "38",
    "region_code": "84",
    "postal_code": "38160"
  },
  {
    "name": "Janneyrias",
    "code": "38197",
    "epci_code": "243800935",
    "departement_code": "38",
    "region_code": "84",
    "postal_code": "38280"
  },
  {
    "name": "Jarcieu",
    "code": "38198",
    "epci_code": "200085751",
    "departement_code": "38",
    "region_code": "84",
    "postal_code": "38270"
  },
  {
    "name": "Jardin",
    "code": "38199",
    "epci_code": "200077014",
    "departement_code": "38",
    "region_code": "84",
    "postal_code": "38200"
  },
  {
    "name": "Jarrie",
    "code": "38200",
    "epci_code": "200040715",
    "departement_code": "38",
    "region_code": "84",
    "postal_code": "38560"
  },
  {
    "name": "Laffrey",
    "code": "38203",
    "epci_code": "200040657",
    "departement_code": "38",
    "region_code": "84",
    "postal_code": "38220"
  },
  {
    "name": "Lalley",
    "code": "38204",
    "epci_code": "200030658",
    "departement_code": "38",
    "region_code": "84",
    "postal_code": "38930"
  },
  {
    "name": "Lans-en-Vercors",
    "code": "38205",
    "epci_code": "243801024",
    "departement_code": "38",
    "region_code": "84",
    "postal_code": "38250"
  },
  {
    "name": "Laval-en-Belledonne",
    "code": "38206",
    "epci_code": "200018166",
    "departement_code": "38",
    "region_code": "84",
    "postal_code": "38190"
  },
  {
    "name": "Lavaldens",
    "code": "38207",
    "epci_code": "200040657",
    "departement_code": "38",
    "region_code": "84",
    "postal_code": "38350"
  },
  {
    "name": "Lavars",
    "code": "38208",
    "epci_code": "200030658",
    "departement_code": "38",
    "region_code": "84",
    "postal_code": "38710"
  },
  {
    "name": "Lentiol",
    "code": "38209",
    "epci_code": "200059392",
    "departement_code": "38",
    "region_code": "84",
    "postal_code": "38270"
  },
  {
    "name": "Leyrieu",
    "code": "38210",
    "epci_code": "200068542",
    "departement_code": "38",
    "region_code": "84",
    "postal_code": "38460"
  },
  {
    "name": "Lieudieu",
    "code": "38211",
    "epci_code": "200059392",
    "departement_code": "38",
    "region_code": "84",
    "postal_code": "38440"
  },
  {
    "name": "Livet-et-Gavet",
    "code": "38212",
    "epci_code": "243800745",
    "departement_code": "38",
    "region_code": "84",
    "postal_code": "38220"
  },
  {
    "name": "Longechenal",
    "code": "38213",
    "epci_code": "200059392",
    "departement_code": "38",
    "region_code": "84",
    "postal_code": "38690"
  },
  {
    "name": "Lumbin",
    "code": "38214",
    "epci_code": "200018166",
    "departement_code": "38",
    "region_code": "84",
    "postal_code": "38660"
  },
  {
    "name": "Luzinay",
    "code": "38215",
    "epci_code": "200077014",
    "departement_code": "38",
    "region_code": "84",
    "postal_code": "38200"
  },
  {
    "name": "Malleval-en-Vercors",
    "code": "38216",
    "epci_code": "200070431",
    "departement_code": "38",
    "region_code": "84",
    "postal_code": "38470"
  },
  {
    "name": "Marcieu",
    "code": "38217",
    "epci_code": "200040657",
    "departement_code": "38",
    "region_code": "84",
    "postal_code": "38350"
  },
  {
    "name": "Marcilloles",
    "code": "38218",
    "epci_code": "200059392",
    "departement_code": "38",
    "region_code": "84",
    "postal_code": "38260"
  },
  {
    "name": "Marcollin",
    "code": "38219",
    "epci_code": "200059392",
    "departement_code": "38",
    "region_code": "84",
    "postal_code": "38270"
  },
  {
    "name": "Marnans",
    "code": "38221",
    "epci_code": "200059392",
    "departement_code": "38",
    "region_code": "84",
    "postal_code": "38980"
  },
  {
    "name": "Massieu",
    "code": "38222",
    "epci_code": "243800984",
    "departement_code": "38",
    "region_code": "84",
    "postal_code": "38620"
  },
  {
    "name": "Maubec",
    "code": "38223",
    "epci_code": "243800604",
    "departement_code": "38",
    "region_code": "84",
    "postal_code": "38300"
  },
  {
    "name": "Mayres-Savel",
    "code": "38224",
    "epci_code": "200040657",
    "departement_code": "38",
    "region_code": "84",
    "postal_code": "38350"
  },
  {
    "name": "Autrans-Méaudre en Vercors",
    "code": "38225",
    "epci_code": "243801024",
    "departement_code": "38",
    "region_code": "84",
    "postal_code": "38112"
  },
  {
    "name": "Autrans-Méaudre en Vercors",
    "code": "38225",
    "epci_code": "243801024",
    "departement_code": "38",
    "region_code": "84",
    "postal_code": "38880"
  },
  {
    "name": "Mens",
    "code": "38226",
    "epci_code": "200030658",
    "departement_code": "38",
    "region_code": "84",
    "postal_code": "38710"
  },
  {
    "name": "Merlas",
    "code": "38228",
    "epci_code": "243800984",
    "departement_code": "38",
    "region_code": "84",
    "postal_code": "38620"
  },
  {
    "name": "Meylan",
    "code": "38229",
    "epci_code": "200040715",
    "departement_code": "38",
    "region_code": "84",
    "postal_code": "38240"
  },
  {
    "name": "Meyrié",
    "code": "38230",
    "epci_code": "243800604",
    "departement_code": "38",
    "region_code": "84",
    "postal_code": "38300"
  },
  {
    "name": "Meyrieu-les-Étangs",
    "code": "38231",
    "epci_code": "200059392",
    "departement_code": "38",
    "region_code": "84",
    "postal_code": "38440"
  },
  {
    "name": "Meyssiez",
    "code": "38232",
    "epci_code": "200077014",
    "departement_code": "38",
    "region_code": "84",
    "postal_code": "38440"
  },
  {
    "name": "Miribel-Lanchâtre",
    "code": "38235",
    "epci_code": "200040715",
    "departement_code": "38",
    "region_code": "84",
    "postal_code": "38450"
  },
  {
    "name": "Miribel-les-Échelles",
    "code": "38236",
    "epci_code": "200040111",
    "departement_code": "38",
    "region_code": "84",
    "postal_code": "38380"
  },
  {
    "name": "Mizoën",
    "code": "38237",
    "epci_code": "243800745",
    "departement_code": "38",
    "region_code": "84",
    "postal_code": "38142"
  },
  {
    "name": "Moidieu-Détourbe",
    "code": "38238",
    "epci_code": "200077014",
    "departement_code": "38",
    "region_code": "84",
    "postal_code": "38440"
  },
  {
    "name": "Moirans",
    "code": "38239",
    "epci_code": "243800984",
    "departement_code": "38",
    "region_code": "84",
    "postal_code": "38430"
  },
  {
    "name": "Moissieu-sur-Dolon",
    "code": "38240",
    "epci_code": "200085751",
    "departement_code": "38",
    "region_code": "84",
    "postal_code": "38270"
  },
  {
    "name": "Monestier-d’Ambel",
    "code": "38241",
    "epci_code": "200040657",
    "departement_code": "38",
    "region_code": "84",
    "postal_code": "38970"
  },
  {
    "name": "Monestier-de-Clermont",
    "code": "38242",
    "epci_code": "200030658",
    "departement_code": "38",
    "region_code": "84",
    "postal_code": "38650"
  },
  {
    "name": "Monestier-du-Percy",
    "code": "38243",
    "epci_code": "200030658",
    "departement_code": "38",
    "region_code": "84",
    "postal_code": "38930"
  },
  {
    "name": "Monsteroux-Milieu",
    "code": "38244",
    "epci_code": "200085751",
    "departement_code": "38",
    "region_code": "84",
    "postal_code": "38122"
  },
  {
    "name": "Montagne",
    "code": "38245",
    "epci_code": "200070431",
    "departement_code": "38",
    "region_code": "84",
    "postal_code": "38160"
  },
  {
    "name": "Montagnieu",
    "code": "38246",
    "epci_code": "200068567",
    "departement_code": "38",
    "region_code": "84",
    "postal_code": "38110"
  },
  {
    "name": "Montalieu-Vercieu",
    "code": "38247",
    "epci_code": "200068542",
    "departement_code": "38",
    "region_code": "84",
    "postal_code": "38390"
  },
  {
    "name": "Montaud",
    "code": "38248",
    "epci_code": "200070431",
    "departement_code": "38",
    "region_code": "84",
    "postal_code": "38210"
  },
  {
    "name": "Montbonnot-Saint-Martin",
    "code": "38249",
    "epci_code": "200018166",
    "departement_code": "38",
    "region_code": "84",
    "postal_code": "38330"
  },
  {
    "name": "Montcarra",
    "code": "38250",
    "epci_code": "200068542",
    "departement_code": "38",
    "region_code": "84",
    "postal_code": "38890"
  },
  {
    "name": "Montchaboud",
    "code": "38252",
    "epci_code": "200040715",
    "departement_code": "38",
    "region_code": "84",
    "postal_code": "38220"
  },
  {
    "name": "Les Deux Alpes",
    "code": "38253",
    "epci_code": "243800745",
    "departement_code": "38",
    "region_code": "84",
    "postal_code": "38520"
  },
  {
    "name": "Les Deux Alpes",
    "code": "38253",
    "epci_code": "243800745",
    "departement_code": "38",
    "region_code": "84",
    "postal_code": "38860"
  },
  {
    "name": "Monteynard",
    "code": "38254",
    "epci_code": "200040657",
    "departement_code": "38",
    "region_code": "84",
    "postal_code": "38770"
  },
  {
    "name": "Montfalcon",
    "code": "38255",
    "epci_code": "200059392",
    "departement_code": "38",
    "region_code": "84",
    "postal_code": "38940"
  },
  {
    "name": "Montferrat",
    "code": "38256",
    "epci_code": "243800984",
    "departement_code": "38",
    "region_code": "84",
    "postal_code": "38620"
  },
  {
    "name": "Montrevel",
    "code": "38257",
    "epci_code": "200068567",
    "departement_code": "38",
    "region_code": "84",
    "postal_code": "38690"
  },
  {
    "name": "Mont-Saint-Martin",
    "code": "38258",
    "epci_code": "200040715",
    "departement_code": "38",
    "region_code": "84",
    "postal_code": "38120"
  },
  {
    "name": "Montseveroux",
    "code": "38259",
    "epci_code": "200085751",
    "departement_code": "38",
    "region_code": "84",
    "postal_code": "38122"
  },
  {
    "name": "Moras",
    "code": "38260",
    "epci_code": "200068542",
    "departement_code": "38",
    "region_code": "84",
    "postal_code": "38460"
  },
  {
    "name": "Morestel",
    "code": "38261",
    "epci_code": "200068542",
    "departement_code": "38",
    "region_code": "84",
    "postal_code": "38510"
  },
  {
    "name": "Morette",
    "code": "38263",
    "epci_code": "200070431",
    "departement_code": "38",
    "region_code": "84",
    "postal_code": "38210"
  },
  {
    "name": "La Morte",
    "code": "38264",
    "epci_code": "200040657",
    "departement_code": "38",
    "region_code": "84",
    "postal_code": "38350"
  },
  {
    "name": "La Motte-d’Aveillans",
    "code": "38265",
    "epci_code": "200040657",
    "departement_code": "38",
    "region_code": "84",
    "postal_code": "38770"
  },
  {
    "name": "La Motte-Saint-Martin",
    "code": "38266",
    "epci_code": "200040657",
    "departement_code": "38",
    "region_code": "84",
    "postal_code": "38770"
  },
  {
    "name": "Mottier",
    "code": "38267",
    "epci_code": "200059392",
    "departement_code": "38",
    "region_code": "84",
    "postal_code": "38260"
  },
  {
    "name": "Le Moutaret",
    "code": "38268",
    "epci_code": "200018166",
    "departement_code": "38",
    "region_code": "84",
    "postal_code": "38580"
  },
  {
    "name": "La Mure",
    "code": "38269",
    "epci_code": "200040657",
    "departement_code": "38",
    "region_code": "84",
    "postal_code": "38350"
  },
  {
    "name": "La Murette",
    "code": "38270",
    "epci_code": "243800984",
    "departement_code": "38",
    "region_code": "84",
    "postal_code": "38140"
  },
  {
    "name": "Murianette",
    "code": "38271",
    "epci_code": "200040715",
    "departement_code": "38",
    "region_code": "84",
    "postal_code": "38420"
  },
  {
    "name": "Murinais",
    "code": "38272",
    "epci_code": "200070431",
    "departement_code": "38",
    "region_code": "84",
    "postal_code": "38160"
  },
  {
    "name": "Nantes-en-Ratier",
    "code": "38273",
    "epci_code": "200040657",
    "departement_code": "38",
    "region_code": "84",
    "postal_code": "38350"
  },
  {
    "name": "Serre-Nerpol",
    "code": "38275",
    "epci_code": "200070431",
    "departement_code": "38",
    "region_code": "84",
    "postal_code": "38470"
  },
  {
    "name": "Nivolas-Vermelle",
    "code": "38276",
    "epci_code": "243800604",
    "departement_code": "38",
    "region_code": "84",
    "postal_code": "38300"
  },
  {
    "name": "Notre-Dame-de-Commiers",
    "code": "38277",
    "epci_code": "200040715",
    "departement_code": "38",
    "region_code": "84",
    "postal_code": "38450"
  },
  {
    "name": "Notre-Dame-de-l’Osier",
    "code": "38278",
    "epci_code": "200070431",
    "departement_code": "38",
    "region_code": "84",
    "postal_code": "38470"
  },
  {
    "name": "Notre-Dame-de-Mésage",
    "code": "38279",
    "epci_code": "200040715",
    "departement_code": "38",
    "region_code": "84",
    "postal_code": "38220"
  },
  {
    "name": "Notre-Dame-de-Vaulx",
    "code": "38280",
    "epci_code": "200040657",
    "departement_code": "38",
    "region_code": "84",
    "postal_code": "38144"
  },
  {
    "name": "Noyarey",
    "code": "38281",
    "epci_code": "200040715",
    "departement_code": "38",
    "region_code": "84",
    "postal_code": "38360"
  },
  {
    "name": "Optevoz",
    "code": "38282",
    "epci_code": "200068542",
    "departement_code": "38",
    "region_code": "84",
    "postal_code": "38460"
  },
  {
    "name": "Oris-en-Rattier",
    "code": "38283",
    "epci_code": "200040657",
    "departement_code": "38",
    "region_code": "84",
    "postal_code": "38350"
  },
  {
    "name": "Ornacieux-Balbins",
    "code": "38284",
    "epci_code": "200059392",
    "departement_code": "38",
    "region_code": "84",
    "postal_code": "38260"
  },
  {
    "name": "Ornon",
    "code": "38285",
    "epci_code": "243800745",
    "departement_code": "38",
    "region_code": "84",
    "postal_code": "38520"
  },
  {
    "name": "Oulles",
    "code": "38286",
    "epci_code": "243800745",
    "departement_code": "38",
    "region_code": "84",
    "postal_code": "38520"
  },
  {
    "name": "Oyeu",
    "code": "38287",
    "epci_code": "243801073",
    "departement_code": "38",
    "region_code": "84",
    "postal_code": "38690"
  },
  {
    "name": "Oytier-Saint-Oblas",
    "code": "38288",
    "epci_code": "243801255",
    "departement_code": "38",
    "region_code": "84",
    "postal_code": "38780"
  },
  {
    "name": "Oz",
    "code": "38289",
    "epci_code": "243800745",
    "departement_code": "38",
    "region_code": "84",
    "postal_code": "38114"
  },
  {
    "name": "Pact",
    "code": "38290",
    "epci_code": "200085751",
    "departement_code": "38",
    "region_code": "84",
    "postal_code": "38270"
  },
  {
    "name": "Pajay",
    "code": "38291",
    "epci_code": "200059392",
    "departement_code": "38",
    "region_code": "84",
    "postal_code": "38260"
  },
  {
    "name": "Villages du Lac de Paladru",
    "code": "38292",
    "epci_code": "243800984",
    "departement_code": "38",
    "region_code": "84",
    "postal_code": "38730"
  },
  {
    "name": "Villages du Lac de Paladru",
    "code": "38292",
    "epci_code": "243800984",
    "departement_code": "38",
    "region_code": "84",
    "postal_code": "38850"
  },
  {
    "name": "Panossas",
    "code": "38294",
    "epci_code": "200068542",
    "departement_code": "38",
    "region_code": "84",
    "postal_code": "38460"
  },
  {
    "name": "Parmilieu",
    "code": "38295",
    "epci_code": "200068542",
    "departement_code": "38",
    "region_code": "84",
    "postal_code": "38390"
  },
  {
    "name": "Le Passage",
    "code": "38296",
    "epci_code": "200068567",
    "departement_code": "38",
    "region_code": "84",
    "postal_code": "38490"
  },
  {
    "name": "Arandon-Passins",
    "code": "38297",
    "epci_code": "200068542",
    "departement_code": "38",
    "region_code": "84",
    "postal_code": "38510"
  },
  {
    "name": "Le Péage-de-Roussillon",
    "code": "38298",
    "epci_code": "200085751",
    "departement_code": "38",
    "region_code": "84",
    "postal_code": "38550"
  },
  {
    "name": "Pellafol",
    "code": "38299",
    "epci_code": "200040657",
    "departement_code": "38",
    "region_code": "84",
    "postal_code": "38970"
  },
  {
    "name": "Penol",
    "code": "38300",
    "epci_code": "200059392",
    "departement_code": "38",
    "region_code": "84",
    "postal_code": "38260"
  },
  {
    "name": "Le Percy",
    "code": "38301",
    "epci_code": "200030658",
    "departement_code": "38",
    "region_code": "84",
    "postal_code": "38930"
  },
  {
    "name": "La Pierre",
    "code": "38303",
    "epci_code": "200018166",
    "departement_code": "38",
    "region_code": "84",
    "postal_code": "38570"
  },
  {
    "name": "Pierre-Châtel",
    "code": "38304",
    "epci_code": "200040657",
    "departement_code": "38",
    "region_code": "84",
    "postal_code": "38119"
  },
  {
    "name": "Pisieu",
    "code": "38307",
    "epci_code": "200085751",
    "departement_code": "38",
    "region_code": "84",
    "postal_code": "38270"
  },
  {
    "name": "Plan",
    "code": "38308",
    "epci_code": "200059392",
    "departement_code": "38",
    "region_code": "84",
    "postal_code": "38590"
  },
  {
    "name": "Poisat",
    "code": "38309",
    "epci_code": "200040715",
    "departement_code": "38",
    "region_code": "84",
    "postal_code": "38320"
  },
  {
    "name": "Poliénas",
    "code": "38310",
    "epci_code": "200070431",
    "departement_code": "38",
    "region_code": "84",
    "postal_code": "38210"
  },
  {
    "name": "Pommier-de-Beaurepaire",
    "code": "38311",
    "epci_code": "200085751",
    "departement_code": "38",
    "region_code": "84",
    "postal_code": "38260"
  },
  {
    "name": "Ponsonnas",
    "code": "38313",
    "epci_code": "200040657",
    "departement_code": "38",
    "region_code": "84",
    "postal_code": "38350"
  },
  {
    "name": "Pontcharra",
    "code": "38314",
    "epci_code": "200018166",
    "departement_code": "38",
    "region_code": "84",
    "postal_code": "38530"
  },
  {
    "name": "Le Pont-de-Beauvoisin",
    "code": "38315",
    "epci_code": "200068567",
    "departement_code": "38",
    "region_code": "84",
    "postal_code": "38480"
  },
  {
    "name": "Pont-de-Chéruy",
    "code": "38316",
    "epci_code": "243800935",
    "departement_code": "38",
    "region_code": "84",
    "postal_code": "38230"
  },
  {
    "name": "Le Pont-de-Claix",
    "code": "38317",
    "epci_code": "200040715",
    "departement_code": "38",
    "region_code": "84",
    "postal_code": "38800"
  },
  {
    "name": "Pont-Évêque",
    "code": "38318",
    "epci_code": "200077014",
    "departement_code": "38",
    "region_code": "84",
    "postal_code": "38780"
  },
  {
    "name": "Pont-en-Royans",
    "code": "38319",
    "epci_code": "200070431",
    "departement_code": "38",
    "region_code": "84",
    "postal_code": "38680"
  },
  {
    "name": "Porcieu-Amblagnieu",
    "code": "38320",
    "epci_code": "200068542",
    "departement_code": "38",
    "region_code": "84",
    "postal_code": "38390"
  },
  {
    "name": "Prébois",
    "code": "38321",
    "epci_code": "200030658",
    "departement_code": "38",
    "region_code": "84",
    "postal_code": "38710"
  },
  {
    "name": "Presles",
    "code": "38322",
    "epci_code": "200070431",
    "departement_code": "38",
    "region_code": "84",
    "postal_code": "38680"
  },
  {
    "name": "Pressins",
    "code": "38323",
    "epci_code": "200068567",
    "departement_code": "38",
    "region_code": "84",
    "postal_code": "38480"
  },
  {
    "name": "Primarette",
    "code": "38324",
    "epci_code": "200085751",
    "departement_code": "38",
    "region_code": "84",
    "postal_code": "38270"
  },
  {
    "name": "Proveysieux",
    "code": "38325",
    "epci_code": "200040715",
    "departement_code": "38",
    "region_code": "84",
    "postal_code": "38120"
  },
  {
    "name": "Prunières",
    "code": "38326",
    "epci_code": "200040657",
    "departement_code": "38",
    "region_code": "84",
    "postal_code": "38350"
  },
  {
    "name": "Quaix-en-Chartreuse",
    "code": "38328",
    "epci_code": "200040715",
    "departement_code": "38",
    "region_code": "84",
    "postal_code": "38950"
  },
  {
    "name": "Quet-en-Beaumont",
    "code": "38329",
    "epci_code": "200040657",
    "departement_code": "38",
    "region_code": "84",
    "postal_code": "38970"
  },
  {
    "name": "Quincieu",
    "code": "38330",
    "epci_code": "200070431",
    "departement_code": "38",
    "region_code": "84",
    "postal_code": "38470"
  },
  {
    "name": "Réaumont",
    "code": "38331",
    "epci_code": "243800984",
    "departement_code": "38",
    "region_code": "84",
    "postal_code": "38140"
  },
  {
    "name": "Renage",
    "code": "38332",
    "epci_code": "243801073",
    "departement_code": "38",
    "region_code": "84",
    "postal_code": "38140"
  },
  {
    "name": "Rencurel",
    "code": "38333",
    "epci_code": "200070431",
    "departement_code": "38",
    "region_code": "84",
    "postal_code": "38680"
  },
  {
    "name": "Revel",
    "code": "38334",
    "epci_code": "200018166",
    "departement_code": "38",
    "region_code": "84",
    "postal_code": "38420"
  },
  {
    "name": "Revel-Tourdan",
    "code": "38335",
    "epci_code": "200085751",
    "departement_code": "38",
    "region_code": "84",
    "postal_code": "38270"
  },
  {
    "name": "Reventin-Vaugris",
    "code": "38336",
    "epci_code": "200077014",
    "departement_code": "38",
    "region_code": "84",
    "postal_code": "38121"
  },
  {
    "name": "Rives",
    "code": "38337",
    "epci_code": "243800984",
    "departement_code": "38",
    "region_code": "84",
    "postal_code": "38140"
  },
  {
    "name": "La Rivière",
    "code": "38338",
    "epci_code": "200070431",
    "departement_code": "38",
    "region_code": "84",
    "postal_code": "38210"
  },
  {
    "name": "Roche",
    "code": "38339",
    "epci_code": "243801255",
    "departement_code": "38",
    "region_code": "84",
    "postal_code": "38090"
  },
  {
    "name": "Les Roches-de-Condrieu",
    "code": "38340",
    "epci_code": "200085751",
    "departement_code": "38",
    "region_code": "84",
    "postal_code": "38370"
  },
  {
    "name": "Rochetoirin",
    "code": "38341",
    "epci_code": "200068567",
    "departement_code": "38",
    "region_code": "84",
    "postal_code": "38110"
  },
  {
    "name": "Roissard",
    "code": "38342",
    "epci_code": "200030658",
    "departement_code": "38",
    "region_code": "84",
    "postal_code": "38650"
  },
  {
    "name": "Romagnieu",
    "code": "38343",
    "epci_code": "200068567",
    "departement_code": "38",
    "region_code": "84",
    "postal_code": "38480"
  },
  {
    "name": "Roussillon",
    "code": "38344",
    "epci_code": "200085751",
    "departement_code": "38",
    "region_code": "84",
    "postal_code": "38150"
  },
  {
    "name": "Rovon",
    "code": "38345",
    "epci_code": "200070431",
    "departement_code": "38",
    "region_code": "84",
    "postal_code": "38470"
  },
  {
    "name": "Royas",
    "code": "38346",
    "epci_code": "200059392",
    "departement_code": "38",
    "region_code": "84",
    "postal_code": "38440"
  },
  {
    "name": "Roybon",
    "code": "38347",
    "epci_code": "200059392",
    "departement_code": "38",
    "region_code": "84",
    "postal_code": "38940"
  },
  {
    "name": "Ruy-Montceau",
    "code": "38348",
    "epci_code": "243800604",
    "departement_code": "38",
    "region_code": "84",
    "postal_code": "38300"
  },
  {
    "name": "Sablons",
    "code": "38349",
    "epci_code": "200085751",
    "departement_code": "38",
    "region_code": "84",
    "postal_code": "38550"
  },
  {
    "name": "Sainte-Agnès",
    "code": "38350",
    "epci_code": "200018166",
    "departement_code": "38",
    "region_code": "84",
    "postal_code": "38190"
  },
  {
    "name": "Saint-Agnin-sur-Bion",
    "code": "38351",
    "epci_code": "200059392",
    "departement_code": "38",
    "region_code": "84",
    "postal_code": "38300"
  },
  {
    "name": "Saint-Alban-de-Roche",
    "code": "38352",
    "epci_code": "243800604",
    "departement_code": "38",
    "region_code": "84",
    "postal_code": "38080"
  },
  {
    "name": "Saint-Alban-du-Rhône",
    "code": "38353",
    "epci_code": "200085751",
    "departement_code": "38",
    "region_code": "84",
    "postal_code": "38370"
  },
  {
    "name": "Saint-Albin-de-Vaulserre",
    "code": "38354",
    "epci_code": "200068567",
    "departement_code": "38",
    "region_code": "84",
    "postal_code": "38480"
  },
  {
    "name": "Saint-Andéol",
    "code": "38355",
    "epci_code": "200030658",
    "departement_code": "38",
    "region_code": "84",
    "postal_code": "38650"
  },
  {
    "name": "Saint-André-en-Royans",
    "code": "38356",
    "epci_code": "200070431",
    "departement_code": "38",
    "region_code": "84",
    "postal_code": "38680"
  },
  {
    "name": "Saint-André-le-Gaz",
    "code": "38357",
    "epci_code": "200068567",
    "departement_code": "38",
    "region_code": "84",
    "postal_code": "38490"
  },
  {
    "name": "Sainte-Anne-sur-Gervonde",
    "code": "38358",
    "epci_code": "200059392",
    "departement_code": "38",
    "region_code": "84",
    "postal_code": "38440"
  },
  {
    "name": "Saint Antoine l’Abbaye",
    "code": "38359",
    "epci_code": "200070431",
    "departement_code": "38",
    "region_code": "84",
    "postal_code": "38160"
  },
  {
    "name": "Saint-Appolinard",
    "code": "38360",
    "epci_code": "200070431",
    "departement_code": "38",
    "region_code": "84",
    "postal_code": "38160"
  },
  {
    "name": "Saint-Arey",
    "code": "38361",
    "epci_code": "200040657",
    "departement_code": "38",
    "region_code": "84",
    "postal_code": "38350"
  },
  {
    "name": "Saint-Aupre",
    "code": "38362",
    "epci_code": "243800984",
    "departement_code": "38",
    "region_code": "84",
    "postal_code": "38960"
  },
  {
    "name": "Saint-Barthélemy",
    "code": "38363",
    "epci_code": "200085751",
    "departement_code": "38",
    "region_code": "84",
    "postal_code": "38270"
  },
  {
    "name": "Saint-Barthélemy-de-Séchilienne",
    "code": "38364",
    "epci_code": "200040715",
    "departement_code": "38",
    "region_code": "84",
    "postal_code": "38220"
  },
  {
    "name": "Saint-Baudille-de-la-Tour",
    "code": "38365",
    "epci_code": "200068542",
    "departement_code": "38",
    "region_code": "84",
    "postal_code": "38118"
  },
  {
    "name": "Saint-Baudille-et-Pipet",
    "code": "38366",
    "epci_code": "200030658",
    "departement_code": "38",
    "region_code": "84",
    "postal_code": "38710"
  },
  {
    "name": "Saint-Blaise-du-Buis",
    "code": "38368",
    "epci_code": "243800984",
    "departement_code": "38",
    "region_code": "84",
    "postal_code": "38140"
  },
  {
    "name": "Sainte-Blandine",
    "code": "38369",
    "epci_code": "200068567",
    "departement_code": "38",
    "region_code": "84",
    "postal_code": "38110"
  },
  {
    "name": "Saint-Bonnet-de-Chavagne",
    "code": "38370",
    "epci_code": "200070431",
    "departement_code": "38",
    "region_code": "84",
    "postal_code": "38840"
  },
  {
    "name": "Saint-Bueil",
    "code": "38372",
    "epci_code": "243800984",
    "departement_code": "38",
    "region_code": "84",
    "postal_code": "38620"
  },
  {
    "name": "Saint-Cassien",
    "code": "38373",
    "epci_code": "243800984",
    "departement_code": "38",
    "region_code": "84",
    "postal_code": "38500"
  },
  {
    "name": "Saint-Chef",
    "code": "38374",
    "epci_code": "200068542",
    "departement_code": "38",
    "region_code": "84",
    "postal_code": "38890"
  },
  {
    "name": "Saint-Christophe-en-Oisans",
    "code": "38375",
    "epci_code": "243800745",
    "departement_code": "38",
    "region_code": "84",
    "postal_code": "38520"
  },
  {
    "name": "Saint-Christophe-sur-Guiers",
    "code": "38376",
    "epci_code": "200040111",
    "departement_code": "38",
    "region_code": "84",
    "postal_code": "38380"
  },
  {
    "name": "Saint-Clair-de-la-Tour",
    "code": "38377",
    "epci_code": "200068567",
    "departement_code": "38",
    "region_code": "84",
    "postal_code": "38110"
  },
  {
    "name": "Saint-Clair-du-Rhône",
    "code": "38378",
    "epci_code": "200085751",
    "departement_code": "38",
    "region_code": "84",
    "postal_code": "38370"
  },
  {
    "name": "Saint-Clair-sur-Galaure",
    "code": "38379",
    "epci_code": "200059392",
    "departement_code": "38",
    "region_code": "84",
    "postal_code": "38940"
  },
  {
    "name": "Saint-Didier-de-Bizonnes",
    "code": "38380",
    "epci_code": "243801073",
    "departement_code": "38",
    "region_code": "84",
    "postal_code": "38690"
  },
  {
    "name": "Saint-Didier-de-la-Tour",
    "code": "38381",
    "epci_code": "200068567",
    "departement_code": "38",
    "region_code": "84",
    "postal_code": "38110"
  },
  {
    "name": "Saint-Égrève",
    "code": "38382",
    "epci_code": "200040715",
    "departement_code": "38",
    "region_code": "84",
    "postal_code": "38120"
  },
  {
    "name": "Saint-Étienne-de-Crossey",
    "code": "38383",
    "epci_code": "243800984",
    "departement_code": "38",
    "region_code": "84",
    "postal_code": "38960"
  },
  {
    "name": "Saint-Étienne-de-Saint-Geoirs",
    "code": "38384",
    "epci_code": "200059392",
    "departement_code": "38",
    "region_code": "84",
    "postal_code": "38590"
  },
  {
    "name": "Saint-Geoire-en-Valdaine",
    "code": "38386",
    "epci_code": "243800984",
    "departement_code": "38",
    "region_code": "84",
    "postal_code": "38620"
  },
  {
    "name": "Saint-Geoirs",
    "code": "38387",
    "epci_code": "200059392",
    "departement_code": "38",
    "region_code": "84",
    "postal_code": "38590"
  },
  {
    "name": "Saint-Georges-de-Commiers",
    "code": "38388",
    "epci_code": "200040715",
    "departement_code": "38",
    "region_code": "84",
    "postal_code": "38450"
  },
  {
    "name": "Saint-Georges-d’Espéranche",
    "code": "38389",
    "epci_code": "243801255",
    "departement_code": "38",
    "region_code": "84",
    "postal_code": "38790"
  },
  {
    "name": "Saint-Gervais",
    "code": "38390",
    "epci_code": "200070431",
    "departement_code": "38",
    "region_code": "84",
    "postal_code": "38470"
  },
  {
    "name": "Saint-Guillaume",
    "code": "38391",
    "epci_code": "200030658",
    "departement_code": "38",
    "region_code": "84",
    "postal_code": "38650"
  },
  {
    "name": "Saint-Hilaire-de-Brens",
    "code": "38392",
    "epci_code": "200068542",
    "departement_code": "38",
    "region_code": "84",
    "postal_code": "38460"
  },
  {
    "name": "Saint-Hilaire-de-la-Côte",
    "code": "38393",
    "epci_code": "200059392",
    "departement_code": "38",
    "region_code": "84",
    "postal_code": "38260"
  },
  {
    "name": "Saint-Hilaire-du-Rosier",
    "code": "38394",
    "epci_code": "200070431",
    "departement_code": "38",
    "region_code": "84",
    "postal_code": "38840"
  },
  {
    "name": "Plateau-des-Petites-Roches",
    "code": "38395",
    "epci_code": "200018166",
    "departement_code": "38",
    "region_code": "84",
    "postal_code": "38660"
  },
  {
    "name": "Saint-Honoré",
    "code": "38396",
    "epci_code": "200040657",
    "departement_code": "38",
    "region_code": "84",
    "postal_code": "38350"
  },
  {
    "name": "Saint-Ismier",
    "code": "38397",
    "epci_code": "200018166",
    "departement_code": "38",
    "region_code": "84",
    "postal_code": "38330"
  },
  {
    "name": "Saint-Jean-d’Avelanne",
    "code": "38398",
    "epci_code": "200068567",
    "departement_code": "38",
    "region_code": "84",
    "postal_code": "38480"
  },
  {
    "name": "Saint-Jean-de-Bournay",
    "code": "38399",
    "epci_code": "200059392",
    "departement_code": "38",
    "region_code": "84",
    "postal_code": "38440"
  },
  {
    "name": "Saint-Jean-de-Moirans",
    "code": "38400",
    "epci_code": "243800984",
    "departement_code": "38",
    "region_code": "84",
    "postal_code": "38430"
  },
  {
    "name": "Saint-Jean-de-Soudain",
    "code": "38401",
    "epci_code": "200068567",
    "departement_code": "38",
    "region_code": "84",
    "postal_code": "38110"
  },
  {
    "name": "Saint-Jean-de-Vaulx",
    "code": "38402",
    "epci_code": "200040657",
    "departement_code": "38",
    "region_code": "84",
    "postal_code": "38220"
  },
  {
    "name": "Saint-Jean-d’Hérans",
    "code": "38403",
    "epci_code": "200030658",
    "departement_code": "38",
    "region_code": "84",
    "postal_code": "38710"
  },
  {
    "name": "Saint-Jean-le-Vieux",
    "code": "38404",
    "epci_code": "200018166",
    "departement_code": "38",
    "region_code": "84",
    "postal_code": "38420"
  },
  {
    "name": "Saint-Joseph-de-Rivière",
    "code": "38405",
    "epci_code": "200040111",
    "departement_code": "38",
    "region_code": "84",
    "postal_code": "38134"
  },
  {
    "name": "Saint-Julien-de-l’Herms",
    "code": "38406",
    "epci_code": "200085751",
    "departement_code": "38",
    "region_code": "84",
    "postal_code": "38122"
  },
  {
    "name": "La Sure en Chartreuse",
    "code": "38407",
    "epci_code": "243800984",
    "departement_code": "38",
    "region_code": "84",
    "postal_code": "38134"
  },
  {
    "name": "La Sure en Chartreuse",
    "code": "38407",
    "epci_code": "243800984",
    "departement_code": "38",
    "region_code": "84",
    "postal_code": "38340"
  },
  {
    "name": "Saint-Just-Chaleyssin",
    "code": "38408",
    "epci_code": "243801255",
    "departement_code": "38",
    "region_code": "84",
    "postal_code": "38540"
  },
  {
    "name": "Saint-Just-de-Claix",
    "code": "38409",
    "epci_code": "200070431",
    "departement_code": "38",
    "region_code": "84",
    "postal_code": "38680"
  },
  {
    "name": "Saint-Lattier",
    "code": "38410",
    "epci_code": "200070431",
    "departement_code": "38",
    "region_code": "84",
    "postal_code": "38840"
  },
  {
    "name": "Saint-Laurent-du-Pont",
    "code": "38412",
    "epci_code": "200040111",
    "departement_code": "38",
    "region_code": "84",
    "postal_code": "38380"
  },
  {
    "name": "Saint-Laurent-en-Beaumont",
    "code": "38413",
    "epci_code": "200040657",
    "departement_code": "38",
    "region_code": "84",
    "postal_code": "38350"
  },
  {
    "name": "Sainte-Luce",
    "code": "38414",
    "epci_code": "200040657",
    "departement_code": "38",
    "region_code": "84",
    "postal_code": "38970"
  },
  {
    "name": "Saint-Marcel-Bel-Accueil",
    "code": "38415",
    "epci_code": "200068542",
    "departement_code": "38",
    "region_code": "84",
    "postal_code": "38080"
  },
  {
    "name": "Saint-Marcellin",
    "code": "38416",
    "epci_code": "200070431",
    "departement_code": "38",
    "region_code": "84",
    "postal_code": "38160"
  },
  {
    "name": "Sainte-Marie-d’Alloix",
    "code": "38417",
    "epci_code": "200018166",
    "departement_code": "38",
    "region_code": "84",
    "postal_code": "38660"
  },
  {
    "name": "Sainte-Marie-du-Mont",
    "code": "38418",
    "epci_code": "200018166",
    "departement_code": "38",
    "region_code": "84",
    "postal_code": "38660"
  },
  {
    "name": "Saint-Martin-de-Clelles",
    "code": "38419",
    "epci_code": "200030658",
    "departement_code": "38",
    "region_code": "84",
    "postal_code": "38930"
  },
  {
    "name": "Saint-Martin-de-Vaulserre",
    "code": "38420",
    "epci_code": "200068567",
    "departement_code": "38",
    "region_code": "84",
    "postal_code": "38480"
  },
  {
    "name": "Saint-Martin-d’Hères",
    "code": "38421",
    "epci_code": "200040715",
    "departement_code": "38",
    "region_code": "84",
    "postal_code": "38400"
  },
  {
    "name": "Saint-Martin-d’Uriage",
    "code": "38422",
    "epci_code": "200018166",
    "departement_code": "38",
    "region_code": "84",
    "postal_code": "38410"
  },
  {
    "name": "Saint-Martin-le-Vinoux",
    "code": "38423",
    "epci_code": "200040715",
    "departement_code": "38",
    "region_code": "84",
    "postal_code": "38950"
  },
  {
    "name": "Saint-Maurice-en-Trièves",
    "code": "38424",
    "epci_code": "200030658",
    "departement_code": "38",
    "region_code": "84",
    "postal_code": "38930"
  },
  {
    "name": "Saint-Maurice-l’Exil",
    "code": "38425",
    "epci_code": "200085751",
    "departement_code": "38",
    "region_code": "84",
    "postal_code": "38550"
  },
  {
    "name": "Saint-Maximin",
    "code": "38426",
    "epci_code": "200018166",
    "departement_code": "38",
    "region_code": "84",
    "postal_code": "38530"
  },
  {
    "name": "Saint-Michel-de-Saint-Geoirs",
    "code": "38427",
    "epci_code": "200059392",
    "departement_code": "38",
    "region_code": "84",
    "postal_code": "38590"
  },
  {
    "name": "Saint-Michel-en-Beaumont",
    "code": "38428",
    "epci_code": "200040657",
    "departement_code": "38",
    "region_code": "84",
    "postal_code": "38350"
  },
  {
    "name": "Saint-Michel-les-Portes",
    "code": "38429",
    "epci_code": "200030658",
    "departement_code": "38",
    "region_code": "84",
    "postal_code": "38650"
  },
  {
    "name": "Saint-Mury-Monteymond",
    "code": "38430",
    "epci_code": "200018166",
    "departement_code": "38",
    "region_code": "84",
    "postal_code": "38190"
  },
  {
    "name": "Saint-Nazaire-les-Eymes",
    "code": "38431",
    "epci_code": "200018166",
    "departement_code": "38",
    "region_code": "84",
    "postal_code": "38330"
  },
  {
    "name": "Saint-Nicolas-de-Macherin",
    "code": "38432",
    "epci_code": "243800984",
    "departement_code": "38",
    "region_code": "84",
    "postal_code": "38500"
  },
  {
    "name": "Saint-Nizier-du-Moucherotte",
    "code": "38433",
    "epci_code": "243801024",
    "departement_code": "38",
    "region_code": "84",
    "postal_code": "38250"
  },
  {
    "name": "Saint-Ondras",
    "code": "38434",
    "epci_code": "200068567",
    "departement_code": "38",
    "region_code": "84",
    "postal_code": "38490"
  },
  {
    "name": "Saint-Paul-de-Varces",
    "code": "38436",
    "epci_code": "200040715",
    "departement_code": "38",
    "region_code": "84",
    "postal_code": "38760"
  },
  {
    "name": "Saint-Paul-d’Izeaux",
    "code": "38437",
    "epci_code": "200059392",
    "departement_code": "38",
    "region_code": "84",
    "postal_code": "38140"
  },
  {
    "name": "Saint-Paul-lès-Monestier",
    "code": "38438",
    "epci_code": "200030658",
    "departement_code": "38",
    "region_code": "84",
    "postal_code": "38650"
  },
  {
    "name": "Crêts en Belledonne",
    "code": "38439",
    "epci_code": "200018166",
    "departement_code": "38",
    "region_code": "84",
    "postal_code": "38570"
  },
  {
    "name": "Crêts en Belledonne",
    "code": "38439",
    "epci_code": "200018166",
    "departement_code": "38",
    "region_code": "84",
    "postal_code": "38830"
  },
  {
    "name": "Saint-Pierre-de-Bressieux",
    "code": "38440",
    "epci_code": "200059392",
    "departement_code": "38",
    "region_code": "84",
    "postal_code": "38870"
  },
  {
    "name": "Saint-Pierre-de-Chartreuse",
    "code": "38442",
    "epci_code": "200040111",
    "departement_code": "38",
    "region_code": "84",
    "postal_code": "38380"
  },
  {
    "name": "Saint-Pierre-de-Chérennes",
    "code": "38443",
    "epci_code": "200070431",
    "departement_code": "38",
    "region_code": "84",
    "postal_code": "38160"
  },
  {
    "name": "Saint-Pierre-de-Méaroz",
    "code": "38444",
    "epci_code": "200040657",
    "departement_code": "38",
    "region_code": "84",
    "postal_code": "38350"
  },
  {
    "name": "Saint-Pierre-de-Mésage",
    "code": "38445",
    "epci_code": "200040715",
    "departement_code": "38",
    "region_code": "84",
    "postal_code": "38220"
  },
  {
    "name": "Saint-Pierre-d’Entremont",
    "code": "38446",
    "epci_code": "200040111",
    "departement_code": "38",
    "region_code": "84",
    "postal_code": "38380"
  },
  {
    "name": "Saint-Prim",
    "code": "38448",
    "epci_code": "200085751",
    "departement_code": "38",
    "region_code": "84",
    "postal_code": "38370"
  },
  {
    "name": "Saint-Quentin-Fallavier",
    "code": "38449",
    "epci_code": "243800604",
    "departement_code": "38",
    "region_code": "84",
    "postal_code": "38070"
  },
  {
    "name": "Saint-Quentin-sur-Isère",
    "code": "38450",
    "epci_code": "200070431",
    "departement_code": "38",
    "region_code": "84",
    "postal_code": "38210"
  },
  {
    "name": "Saint-Romain-de-Jalionas",
    "code": "38451",
    "epci_code": "200068542",
    "departement_code": "38",
    "region_code": "84",
    "postal_code": "38460"
  },
  {
    "name": "Saint-Romain-de-Surieu",
    "code": "38452",
    "epci_code": "200085751",
    "departement_code": "38",
    "region_code": "84",
    "postal_code": "38150"
  },
  {
    "name": "Saint-Romans",
    "code": "38453",
    "epci_code": "200070431",
    "departement_code": "38",
    "region_code": "84",
    "postal_code": "38160"
  },
  {
    "name": "Saint-Sauveur",
    "code": "38454",
    "epci_code": "200070431",
    "departement_code": "38",
    "region_code": "84",
    "postal_code": "38160"
  },
  {
    "name": "Saint-Savin",
    "code": "38455",
    "epci_code": "243800604",
    "departement_code": "38",
    "region_code": "84",
    "postal_code": "38300"
  },
  {
    "name": "Châtel-en-Trièves",
    "code": "38456",
    "epci_code": "200030658",
    "departement_code": "38",
    "region_code": "84",
    "postal_code": "38710"
  },
  {
    "name": "Saint-Siméon-de-Bressieux",
    "code": "38457",
    "epci_code": "200059392",
    "departement_code": "38",
    "region_code": "84",
    "postal_code": "38870"
  },
  {
    "name": "Saint-Sorlin-de-Morestel",
    "code": "38458",
    "epci_code": "200068542",
    "departement_code": "38",
    "region_code": "84",
    "postal_code": "38510"
  },
  {
    "name": "Saint-Sorlin-de-Vienne",
    "code": "38459",
    "epci_code": "200077014",
    "departement_code": "38",
    "region_code": "84",
    "postal_code": "38200"
  },
  {
    "name": "Saint-Sulpice-des-Rivoires",
    "code": "38460",
    "epci_code": "243800984",
    "departement_code": "38",
    "region_code": "84",
    "postal_code": "38620"
  },
  {
    "name": "Saint-Théoffrey",
    "code": "38462",
    "epci_code": "200040657",
    "departement_code": "38",
    "region_code": "84",
    "postal_code": "38119"
  },
  {
    "name": "Saint-Vérand",
    "code": "38463",
    "epci_code": "200070431",
    "departement_code": "38",
    "region_code": "84",
    "postal_code": "38160"
  },
  {
    "name": "Saint-Victor-de-Cessieu",
    "code": "38464",
    "epci_code": "200068567",
    "departement_code": "38",
    "region_code": "84",
    "postal_code": "38110"
  },
  {
    "name": "Saint-Victor-de-Morestel",
    "code": "38465",
    "epci_code": "200068542",
    "departement_code": "38",
    "region_code": "84",
    "postal_code": "38510"
  },
  {
    "name": "Saint-Vincent-de-Mercuze",
    "code": "38466",
    "epci_code": "200018166",
    "departement_code": "38",
    "region_code": "84",
    "postal_code": "38660"
  },
  {
    "name": "Salagnon",
    "code": "38467",
    "epci_code": "200068542",
    "departement_code": "38",
    "region_code": "84",
    "postal_code": "38890"
  },
  {
    "name": "Salaise-sur-Sanne",
    "code": "38468",
    "epci_code": "200085751",
    "departement_code": "38",
    "region_code": "84",
    "postal_code": "38150"
  },
  {
    "name": "La Salette-Fallavaux",
    "code": "38469",
    "epci_code": "200040657",
    "departement_code": "38",
    "region_code": "84",
    "postal_code": "38970"
  },
  {
    "name": "La Salle-en-Beaumont",
    "code": "38470",
    "epci_code": "200040657",
    "departement_code": "38",
    "region_code": "84",
    "postal_code": "38350"
  },
  {
    "name": "Le Sappey-en-Chartreuse",
    "code": "38471",
    "epci_code": "200040715",
    "departement_code": "38",
    "region_code": "84",
    "postal_code": "38700"
  },
  {
    "name": "Sarcenas",
    "code": "38472",
    "epci_code": "200040715",
    "departement_code": "38",
    "region_code": "84",
    "postal_code": "38700"
  },
  {
    "name": "Sardieu",
    "code": "38473",
    "epci_code": "200059392",
    "departement_code": "38",
    "region_code": "84",
    "postal_code": "38260"
  },
  {
    "name": "Sassenage",
    "code": "38474",
    "epci_code": "200040715",
    "departement_code": "38",
    "region_code": "84",
    "postal_code": "38360"
  },
  {
    "name": "Satolas-et-Bonce",
    "code": "38475",
    "epci_code": "243800604",
    "departement_code": "38",
    "region_code": "84",
    "postal_code": "38290"
  },
  {
    "name": "Savas-Mépin",
    "code": "38476",
    "epci_code": "200059392",
    "departement_code": "38",
    "region_code": "84",
    "postal_code": "38440"
  },
  {
    "name": "Séchilienne",
    "code": "38478",
    "epci_code": "200040715",
    "departement_code": "38",
    "region_code": "84",
    "postal_code": "38220"
  },
  {
    "name": "Porte-des-Bonnevaux",
    "code": "38479",
    "epci_code": "200059392",
    "departement_code": "38",
    "region_code": "84",
    "postal_code": "38260"
  },
  {
    "name": "Septème",
    "code": "38480",
    "epci_code": "200077014",
    "departement_code": "38",
    "region_code": "84",
    "postal_code": "38780"
  },
  {
    "name": "Sérézin-de-la-Tour",
    "code": "38481",
    "epci_code": "243800604",
    "departement_code": "38",
    "region_code": "84",
    "postal_code": "38300"
  },
  {
    "name": "Sermérieu",
    "code": "38483",
    "epci_code": "200068542",
    "departement_code": "38",
    "region_code": "84",
    "postal_code": "38510"
  },
  {
    "name": "Serpaize",
    "code": "38484",
    "epci_code": "200077014",
    "departement_code": "38",
    "region_code": "84",
    "postal_code": "38200"
  },
  {
    "name": "Seyssinet-Pariset",
    "code": "38485",
    "epci_code": "200040715",
    "departement_code": "38",
    "region_code": "84",
    "postal_code": "38170"
  },
  {
    "name": "Seyssins",
    "code": "38486",
    "epci_code": "200040715",
    "departement_code": "38",
    "region_code": "84",
    "postal_code": "38180"
  },
  {
    "name": "Seyssuel",
    "code": "38487",
    "epci_code": "200077014",
    "departement_code": "38",
    "region_code": "84",
    "postal_code": "38200"
  },
  {
    "name": "Siccieu-Saint-Julien-et-Carisieu",
    "code": "38488",
    "epci_code": "200068542",
    "departement_code": "38",
    "region_code": "84",
    "postal_code": "38460"
  },
  {
    "name": "Siévoz",
    "code": "38489",
    "epci_code": "200040657",
    "departement_code": "38",
    "region_code": "84",
    "postal_code": "38350"
  },
  {
    "name": "Sillans",
    "code": "38490",
    "epci_code": "200059392",
    "departement_code": "38",
    "region_code": "84",
    "postal_code": "38590"
  },
  {
    "name": "Sinard",
    "code": "38492",
    "epci_code": "200030658",
    "departement_code": "38",
    "region_code": "84",
    "postal_code": "38650"
  },
  {
    "name": "Soleymieu",
    "code": "38494",
    "epci_code": "200068542",
    "departement_code": "38",
    "region_code": "84",
    "postal_code": "38460"
  },
  {
    "name": "La Sône",
    "code": "38495",
    "epci_code": "200070431",
    "departement_code": "38",
    "region_code": "84",
    "postal_code": "38840"
  },
  {
    "name": "Sonnay",
    "code": "38496",
    "epci_code": "200085751",
    "departement_code": "38",
    "region_code": "84",
    "postal_code": "38150"
  },
  {
    "name": "Sousville",
    "code": "38497",
    "epci_code": "200040657",
    "departement_code": "38",
    "region_code": "84",
    "postal_code": "38350"
  },
  {
    "name": "Succieu",
    "code": "38498",
    "epci_code": "243800604",
    "departement_code": "38",
    "region_code": "84",
    "postal_code": "38300"
  },
  {
    "name": "Susville",
    "code": "38499",
    "epci_code": "200040657",
    "departement_code": "38",
    "region_code": "84",
    "postal_code": "38350"
  },
  {
    "name": "Têche",
    "code": "38500",
    "epci_code": "200070431",
    "departement_code": "38",
    "region_code": "84",
    "postal_code": "38470"
  },
  {
    "name": "Tencin",
    "code": "38501",
    "epci_code": "200018166",
    "departement_code": "38",
    "region_code": "84",
    "postal_code": "38570"
  },
  {
    "name": "La Terrasse",
    "code": "38503",
    "epci_code": "200018166",
    "departement_code": "38",
    "region_code": "84",
    "postal_code": "38660"
  },
  {
    "name": "Theys",
    "code": "38504",
    "epci_code": "200018166",
    "departement_code": "38",
    "region_code": "84",
    "postal_code": "38570"
  },
  {
    "name": "Thodure",
    "code": "38505",
    "epci_code": "200059392",
    "departement_code": "38",
    "region_code": "84",
    "postal_code": "38260"
  },
  {
    "name": "Tignieu-Jameyzieu",
    "code": "38507",
    "epci_code": "200068542",
    "departement_code": "38",
    "region_code": "84",
    "postal_code": "38230"
  },
  {
    "name": "Torchefelon",
    "code": "38508",
    "epci_code": "200068567",
    "departement_code": "38",
    "region_code": "84",
    "postal_code": "38690"
  },
  {
    "name": "La Tour-du-Pin",
    "code": "38509",
    "epci_code": "200068567",
    "departement_code": "38",
    "region_code": "84",
    "postal_code": "38110"
  },
  {
    "name": "Le Touvet",
    "code": "38511",
    "epci_code": "200018166",
    "departement_code": "38",
    "region_code": "84",
    "postal_code": "38660"
  },
  {
    "name": "Tramolé",
    "code": "38512",
    "epci_code": "200059392",
    "departement_code": "38",
    "region_code": "84",
    "postal_code": "38300"
  },
  {
    "name": "Treffort",
    "code": "38513",
    "epci_code": "200030658",
    "departement_code": "38",
    "region_code": "84",
    "postal_code": "38650"
  },
  {
    "name": "Tréminis",
    "code": "38514",
    "epci_code": "200030658",
    "departement_code": "38",
    "region_code": "84",
    "postal_code": "38710"
  },
  {
    "name": "Trept",
    "code": "38515",
    "epci_code": "200068542",
    "departement_code": "38",
    "region_code": "84",
    "postal_code": "38460"
  },
  {
    "name": "La Tronche",
    "code": "38516",
    "epci_code": "200040715",
    "departement_code": "38",
    "region_code": "84",
    "postal_code": "38700"
  },
  {
    "name": "Tullins",
    "code": "38517",
    "epci_code": "243800984",
    "departement_code": "38",
    "region_code": "84",
    "postal_code": "38210"
  },
  {
    "name": "Valbonnais",
    "code": "38518",
    "epci_code": "200040657",
    "departement_code": "38",
    "region_code": "84",
    "postal_code": "38740"
  },
  {
    "name": "Valencin",
    "code": "38519",
    "epci_code": "243801255",
    "departement_code": "38",
    "region_code": "84",
    "postal_code": "38540"
  },
  {
    "name": "Valencogne",
    "code": "38520",
    "epci_code": "200068567",
    "departement_code": "38",
    "region_code": "84",
    "postal_code": "38730"
  },
  {
    "name": "La Valette",
    "code": "38521",
    "epci_code": "200040657",
    "departement_code": "38",
    "region_code": "84",
    "postal_code": "38350"
  },
  {
    "name": "Valjouffrey",
    "code": "38522",
    "epci_code": "200040657",
    "departement_code": "38",
    "region_code": "84",
    "postal_code": "38740"
  },
  {
    "name": "Varacieux",
    "code": "38523",
    "epci_code": "200070431",
    "departement_code": "38",
    "region_code": "84",
    "postal_code": "38470"
  },
  {
    "name": "Varces-Allières-et-Risset",
    "code": "38524",
    "epci_code": "200040715",
    "departement_code": "38",
    "region_code": "84",
    "postal_code": "38760"
  },
  {
    "name": "Vasselin",
    "code": "38525",
    "epci_code": "200068542",
    "departement_code": "38",
    "region_code": "84",
    "postal_code": "38890"
  },
  {
    "name": "Vatilieu",
    "code": "38526",
    "epci_code": "200070431",
    "departement_code": "38",
    "region_code": "84",
    "postal_code": "38470"
  },
  {
    "name": "Vaujany",
    "code": "38527",
    "epci_code": "243800745",
    "departement_code": "38",
    "region_code": "84",
    "postal_code": "38114"
  },
  {
    "name": "Vaulnaveys-le-Bas",
    "code": "38528",
    "epci_code": "200040715",
    "departement_code": "38",
    "region_code": "84",
    "postal_code": "38410"
  },
  {
    "name": "Vaulnaveys-le-Haut",
    "code": "38529",
    "epci_code": "200040715",
    "departement_code": "38",
    "region_code": "84",
    "postal_code": "38410"
  },
  {
    "name": "Vaulx-Milieu",
    "code": "38530",
    "epci_code": "243800604",
    "departement_code": "38",
    "region_code": "84",
    "postal_code": "38090"
  },
  {
    "name": "Velanne",
    "code": "38531",
    "epci_code": "243800984",
    "departement_code": "38",
    "region_code": "84",
    "postal_code": "38620"
  },
  {
    "name": "Vénérieu",
    "code": "38532",
    "epci_code": "200068542",
    "departement_code": "38",
    "region_code": "84",
    "postal_code": "38460"
  },
  {
    "name": "Venon",
    "code": "38533",
    "epci_code": "200040715",
    "departement_code": "38",
    "region_code": "84",
    "postal_code": "38610"
  },
  {
    "name": "Vernas",
    "code": "38535",
    "epci_code": "200068542",
    "departement_code": "38",
    "region_code": "84",
    "postal_code": "38460"
  },
  {
    "name": "Vernioz",
    "code": "38536",
    "epci_code": "200085751",
    "departement_code": "38",
    "region_code": "84",
    "postal_code": "38150"
  },
  {
    "name": "La Verpillière",
    "code": "38537",
    "epci_code": "243800604",
    "departement_code": "38",
    "region_code": "84",
    "postal_code": "38290"
  },
  {
    "name": "Le Versoud",
    "code": "38538",
    "epci_code": "200018166",
    "departement_code": "38",
    "region_code": "84",
    "postal_code": "38420"
  },
  {
    "name": "Vertrieu",
    "code": "38539",
    "epci_code": "200068542",
    "departement_code": "38",
    "region_code": "84",
    "postal_code": "38390"
  },
  {
    "name": "Veurey-Voroize",
    "code": "38540",
    "epci_code": "200040715",
    "departement_code": "38",
    "region_code": "84",
    "postal_code": "38113"
  },
  {
    "name": "Veyssilieu",
    "code": "38542",
    "epci_code": "200068542",
    "departement_code": "38",
    "region_code": "84",
    "postal_code": "38460"
  },
  {
    "name": "Vézeronce-Curtin",
    "code": "38543",
    "epci_code": "200068542",
    "departement_code": "38",
    "region_code": "84",
    "postal_code": "38510"
  },
  {
    "name": "Vienne",
    "code": "38544",
    "epci_code": "200077014",
    "departement_code": "38",
    "region_code": "84",
    "postal_code": "38200"
  },
  {
    "name": "Vif",
    "code": "38545",
    "epci_code": "200040715",
    "departement_code": "38",
    "region_code": "84",
    "postal_code": "38450"
  },
  {
    "name": "Vignieu",
    "code": "38546",
    "epci_code": "200068542",
    "departement_code": "38",
    "region_code": "84",
    "postal_code": "38890"
  },
  {
    "name": "Villard-Bonnot",
    "code": "38547",
    "epci_code": "200018166",
    "departement_code": "38",
    "region_code": "84",
    "postal_code": "38190"
  },
  {
    "name": "Villard-de-Lans",
    "code": "38548",
    "epci_code": "243801024",
    "departement_code": "38",
    "region_code": "84",
    "postal_code": "38250"
  },
  {
    "name": "Villard-Notre-Dame",
    "code": "38549",
    "epci_code": "243800745",
    "departement_code": "38",
    "region_code": "84",
    "postal_code": "38520"
  },
  {
    "name": "Villard-Reculas",
    "code": "38550",
    "epci_code": "243800745",
    "departement_code": "38",
    "region_code": "84",
    "postal_code": "38114"
  },
  {
    "name": "Villard-Reymond",
    "code": "38551",
    "epci_code": "243800745",
    "departement_code": "38",
    "region_code": "84",
    "postal_code": "38520"
  },
  {
    "name": "Villard-Saint-Christophe",
    "code": "38552",
    "epci_code": "200040657",
    "departement_code": "38",
    "region_code": "84",
    "postal_code": "38119"
  },
  {
    "name": "Villefontaine",
    "code": "38553",
    "epci_code": "243800604",
    "departement_code": "38",
    "region_code": "84",
    "postal_code": "38090"
  },
  {
    "name": "Villemoirieu",
    "code": "38554",
    "epci_code": "200068542",
    "departement_code": "38",
    "region_code": "84",
    "postal_code": "38460"
  },
  {
    "name": "Villeneuve-de-Marc",
    "code": "38555",
    "epci_code": "200059392",
    "departement_code": "38",
    "region_code": "84",
    "postal_code": "38440"
  },
  {
    "name": "Ville-sous-Anjou",
    "code": "38556",
    "epci_code": "200085751",
    "departement_code": "38",
    "region_code": "84",
    "postal_code": "38150"
  },
  {
    "name": "Villette-d’Anthon",
    "code": "38557",
    "epci_code": "243800935",
    "departement_code": "38",
    "region_code": "84",
    "postal_code": "38280"
  },
  {
    "name": "Villette-de-Vienne",
    "code": "38558",
    "epci_code": "200077014",
    "departement_code": "38",
    "region_code": "84",
    "postal_code": "38200"
  },
  {
    "name": "Vinay",
    "code": "38559",
    "epci_code": "200070431",
    "departement_code": "38",
    "region_code": "84",
    "postal_code": "38470"
  },
  {
    "name": "Val-de-Virieu",
    "code": "38560",
    "epci_code": "200068567",
    "departement_code": "38",
    "region_code": "84",
    "postal_code": "38730"
  },
  {
    "name": "Viriville",
    "code": "38561",
    "epci_code": "200059392",
    "departement_code": "38",
    "region_code": "84",
    "postal_code": "38980"
  },
  {
    "name": "Vizille",
    "code": "38562",
    "epci_code": "200040715",
    "departement_code": "38",
    "region_code": "84",
    "postal_code": "38220"
  },
  {
    "name": "Voiron",
    "code": "38563",
    "epci_code": "243800984",
    "departement_code": "38",
    "region_code": "84",
    "postal_code": "38500"
  },
  {
    "name": "Voissant",
    "code": "38564",
    "epci_code": "243800984",
    "departement_code": "38",
    "region_code": "84",
    "postal_code": "38620"
  },
  {
    "name": "Voreppe",
    "code": "38565",
    "epci_code": "243800984",
    "departement_code": "38",
    "region_code": "84",
    "postal_code": "38340"
  },
  {
    "name": "Vourey",
    "code": "38566",
    "epci_code": "243800984",
    "departement_code": "38",
    "region_code": "84",
    "postal_code": "38210"
  },
  {
    "name": "Chamrousse",
    "code": "38567",
    "epci_code": "200018166",
    "departement_code": "38",
    "region_code": "84",
    "postal_code": "38410"
  }
]