[
  {
    "name": "Adast",
    "code": "65001",
    "epci_code": "200070811",
    "departement_code": "65",
    "region_code": "76",
    "postal_code": "65260"
  },
  {
    "name": "Adé",
    "code": "65002",
    "epci_code": "200069300",
    "departement_code": "65",
    "region_code": "76",
    "postal_code": "65100"
  },
  {
    "name": "Adervielle-Pouchergues",
    "code": "65003",
    "epci_code": "246500573",
    "departement_code": "65",
    "region_code": "76",
    "postal_code": "65240"
  },
  {
    "name": "Agos-Vidalos",
    "code": "65004",
    "epci_code": "200070811",
    "departement_code": "65",
    "region_code": "76",
    "postal_code": "65400"
  },
  {
    "name": "Allier",
    "code": "65005",
    "epci_code": "200069300",
    "departement_code": "65",
    "region_code": "76",
    "postal_code": "65360"
  },
  {
    "name": "Ancizan",
    "code": "65006",
    "epci_code": "246500573",
    "departement_code": "65",
    "region_code": "76",
    "postal_code": "65440"
  },
  {
    "name": "Andrest",
    "code": "65007",
    "epci_code": "200072106",
    "departement_code": "65",
    "region_code": "76",
    "postal_code": "65390"
  },
  {
    "name": "Anères",
    "code": "65009",
    "epci_code": "200070829",
    "departement_code": "65",
    "region_code": "76",
    "postal_code": "65150"
  },
  {
    "name": "Angos",
    "code": "65010",
    "epci_code": "200069300",
    "departement_code": "65",
    "region_code": "76",
    "postal_code": "65690"
  },
  {
    "name": "Les Angles",
    "code": "65011",
    "epci_code": "200069300",
    "departement_code": "65",
    "region_code": "76",
    "postal_code": "65100"
  },
  {
    "name": "Anla",
    "code": "65012",
    "epci_code": "200070829",
    "departement_code": "65",
    "region_code": "76",
    "postal_code": "65370"
  },
  {
    "name": "Ansost",
    "code": "65013",
    "epci_code": "200072106",
    "departement_code": "65",
    "region_code": "76",
    "postal_code": "65140"
  },
  {
    "name": "Antichan",
    "code": "65014",
    "epci_code": "200070829",
    "departement_code": "65",
    "region_code": "76",
    "postal_code": "65370"
  },
  {
    "name": "Antin",
    "code": "65015",
    "epci_code": "200070795",
    "departement_code": "65",
    "region_code": "76",
    "postal_code": "65220"
  },
  {
    "name": "Antist",
    "code": "65016",
    "epci_code": "246500482",
    "departement_code": "65",
    "region_code": "76",
    "postal_code": "65200"
  },
  {
    "name": "Aragnouet",
    "code": "65017",
    "epci_code": "246500573",
    "departement_code": "65",
    "region_code": "76",
    "postal_code": "65170"
  },
  {
    "name": "Arbéost",
    "code": "65018",
    "epci_code": "246401756",
    "departement_code": "65",
    "region_code": "76",
    "postal_code": "65560"
  },
  {
    "name": "Arcizac-Adour",
    "code": "65019",
    "epci_code": "200069300",
    "departement_code": "65",
    "region_code": "76",
    "postal_code": "65360"
  },
  {
    "name": "Arcizac-ez-Angles",
    "code": "65020",
    "epci_code": "200069300",
    "departement_code": "65",
    "region_code": "76",
    "postal_code": "65100"
  },
  {
    "name": "Arcizans-Avant",
    "code": "65021",
    "epci_code": "200070811",
    "departement_code": "65",
    "region_code": "76",
    "postal_code": "65400"
  },
  {
    "name": "Arcizans-Dessus",
    "code": "65022",
    "epci_code": "200070811",
    "departement_code": "65",
    "region_code": "76",
    "postal_code": "65400"
  },
  {
    "name": "Ardengost",
    "code": "65023",
    "epci_code": "246500573",
    "departement_code": "65",
    "region_code": "76",
    "postal_code": "65240"
  },
  {
    "name": "Argelès-Bagnères",
    "code": "65024",
    "epci_code": "246500482",
    "departement_code": "65",
    "region_code": "76",
    "postal_code": "65200"
  },
  {
    "name": "Argelès-Gazost",
    "code": "65025",
    "epci_code": "200070811",
    "departement_code": "65",
    "region_code": "76",
    "postal_code": "65400"
  },
  {
    "name": "Aries-Espénan",
    "code": "65026",
    "epci_code": "200070795",
    "departement_code": "65",
    "region_code": "76",
    "postal_code": "65230"
  },
  {
    "name": "Arné",
    "code": "65028",
    "epci_code": "200070787",
    "departement_code": "65",
    "region_code": "76",
    "postal_code": "65670"
  },
  {
    "name": "Arras-en-Lavedan",
    "code": "65029",
    "epci_code": "200070811",
    "departement_code": "65",
    "region_code": "76",
    "postal_code": "65400"
  },
  {
    "name": "Arreau",
    "code": "65031",
    "epci_code": "246500573",
    "departement_code": "65",
    "region_code": "76",
    "postal_code": "65240"
  },
  {
    "name": "Arrens-Marsous",
    "code": "65032",
    "epci_code": "200070811",
    "departement_code": "65",
    "region_code": "76",
    "postal_code": "65400"
  },
  {
    "name": "Arrodets-ez-Angles",
    "code": "65033",
    "epci_code": "200069300",
    "departement_code": "65",
    "region_code": "76",
    "postal_code": "65100"
  },
  {
    "name": "Arrodets",
    "code": "65034",
    "epci_code": "200070787",
    "departement_code": "65",
    "region_code": "76",
    "postal_code": "65130"
  },
  {
    "name": "Artagnan",
    "code": "65035",
    "epci_code": "200072106",
    "departement_code": "65",
    "region_code": "76",
    "postal_code": "65500"
  },
  {
    "name": "Artalens-Souin",
    "code": "65036",
    "epci_code": "200070811",
    "departement_code": "65",
    "region_code": "76",
    "postal_code": "65400"
  },
  {
    "name": "Artiguemy",
    "code": "65037",
    "epci_code": "200070787",
    "departement_code": "65",
    "region_code": "76",
    "postal_code": "65130"
  },
  {
    "name": "Artigues",
    "code": "65038",
    "epci_code": "200069300",
    "departement_code": "65",
    "region_code": "76",
    "postal_code": "65100"
  },
  {
    "name": "Aspin-Aure",
    "code": "65039",
    "epci_code": "246500573",
    "departement_code": "65",
    "region_code": "76",
    "postal_code": "65240"
  },
  {
    "name": "Aspin-en-Lavedan",
    "code": "65040",
    "epci_code": "200069300",
    "departement_code": "65",
    "region_code": "76",
    "postal_code": "65100"
  },
  {
    "name": "Asque",
    "code": "65041",
    "epci_code": "200070787",
    "departement_code": "65",
    "region_code": "76",
    "postal_code": "65130"
  },
  {
    "name": "Asté",
    "code": "65042",
    "epci_code": "246500482",
    "departement_code": "65",
    "region_code": "76",
    "postal_code": "65200"
  },
  {
    "name": "Astugue",
    "code": "65043",
    "epci_code": "246500482",
    "departement_code": "65",
    "region_code": "76",
    "postal_code": "65200"
  },
  {
    "name": "Aubarède",
    "code": "65044",
    "epci_code": "200070803",
    "departement_code": "65",
    "region_code": "76",
    "postal_code": "65350"
  },
  {
    "name": "Aucun",
    "code": "65045",
    "epci_code": "200070811",
    "departement_code": "65",
    "region_code": "76",
    "postal_code": "65400"
  },
  {
    "name": "Aulon",
    "code": "65046",
    "epci_code": "246500573",
    "departement_code": "65",
    "region_code": "76",
    "postal_code": "65240"
  },
  {
    "name": "Aureilhan",
    "code": "65047",
    "epci_code": "200069300",
    "departement_code": "65",
    "region_code": "76",
    "postal_code": "65800"
  },
  {
    "name": "Aurensan",
    "code": "65048",
    "epci_code": "200069300",
    "departement_code": "65",
    "region_code": "76",
    "postal_code": "65390"
  },
  {
    "name": "Auriébat",
    "code": "65049",
    "epci_code": "200072106",
    "departement_code": "65",
    "region_code": "76",
    "postal_code": "65700"
  },
  {
    "name": "Avajan",
    "code": "65050",
    "epci_code": "246500573",
    "departement_code": "65",
    "region_code": "76",
    "postal_code": "65240"
  },
  {
    "name": "Aventignan",
    "code": "65051",
    "epci_code": "200070829",
    "departement_code": "65",
    "region_code": "76",
    "postal_code": "65660"
  },
  {
    "name": "Averan",
    "code": "65052",
    "epci_code": "200069300",
    "departement_code": "65",
    "region_code": "76",
    "postal_code": "65380"
  },
  {
    "name": "Aveux",
    "code": "65053",
    "epci_code": "200070829",
    "departement_code": "65",
    "region_code": "76",
    "postal_code": "65370"
  },
  {
    "name": "Avezac-Prat-Lahitte",
    "code": "65054",
    "epci_code": "200070787",
    "departement_code": "65",
    "region_code": "76",
    "postal_code": "65130"
  },
  {
    "name": "Ayros-Arbouix",
    "code": "65055",
    "epci_code": "200070811",
    "departement_code": "65",
    "region_code": "76",
    "postal_code": "65400"
  },
  {
    "name": "Ayzac-Ost",
    "code": "65056",
    "epci_code": "200070811",
    "departement_code": "65",
    "region_code": "76",
    "postal_code": "65400"
  },
  {
    "name": "Azereix",
    "code": "65057",
    "epci_code": "200069300",
    "departement_code": "65",
    "region_code": "76",
    "postal_code": "65380"
  },
  {
    "name": "Azet",
    "code": "65058",
    "epci_code": "246500573",
    "departement_code": "65",
    "region_code": "76",
    "postal_code": "65170"
  },
  {
    "name": "Bagnères-de-Bigorre",
    "code": "65059",
    "epci_code": "246500482",
    "departement_code": "65",
    "region_code": "76",
    "postal_code": "65200"
  },
  {
    "name": "Bagnères-de-Bigorre",
    "code": "65059",
    "epci_code": "246500482",
    "departement_code": "65",
    "region_code": "76",
    "postal_code": "65710"
  },
  {
    "name": "Banios",
    "code": "65060",
    "epci_code": "246500482",
    "departement_code": "65",
    "region_code": "76",
    "postal_code": "65200"
  },
  {
    "name": "Barbachen",
    "code": "65061",
    "epci_code": "200072106",
    "departement_code": "65",
    "region_code": "76",
    "postal_code": "65140"
  },
  {
    "name": "Barbazan-Debat",
    "code": "65062",
    "epci_code": "200069300",
    "departement_code": "65",
    "region_code": "76",
    "postal_code": "65690"
  },
  {
    "name": "Barbazan-Dessus",
    "code": "65063",
    "epci_code": "200070803",
    "departement_code": "65",
    "region_code": "76",
    "postal_code": "65360"
  },
  {
    "name": "Bareilles",
    "code": "65064",
    "epci_code": "246500573",
    "departement_code": "65",
    "region_code": "76",
    "postal_code": "65240"
  },
  {
    "name": "Barlest",
    "code": "65065",
    "epci_code": "200069300",
    "departement_code": "65",
    "region_code": "76",
    "postal_code": "65100"
  },
  {
    "name": "Barrancoueu",
    "code": "65066",
    "epci_code": "246500573",
    "departement_code": "65",
    "region_code": "76",
    "postal_code": "65240"
  },
  {
    "name": "Barry",
    "code": "65067",
    "epci_code": "200069300",
    "departement_code": "65",
    "region_code": "76",
    "postal_code": "65380"
  },
  {
    "name": "Barthe",
    "code": "65068",
    "epci_code": "200070795",
    "departement_code": "65",
    "region_code": "76",
    "postal_code": "65230"
  },
  {
    "name": "La Barthe-de-Neste",
    "code": "65069",
    "epci_code": "200070787",
    "departement_code": "65",
    "region_code": "76",
    "postal_code": "65250"
  },
  {
    "name": "Bartrès",
    "code": "65070",
    "epci_code": "200069300",
    "departement_code": "65",
    "region_code": "76",
    "postal_code": "65100"
  },
  {
    "name": "Batsère",
    "code": "65071",
    "epci_code": "200070787",
    "departement_code": "65",
    "region_code": "76",
    "postal_code": "65130"
  },
  {
    "name": "Bazet",
    "code": "65072",
    "epci_code": "200069300",
    "departement_code": "65",
    "region_code": "76",
    "postal_code": "65460"
  },
  {
    "name": "Bazillac",
    "code": "65073",
    "epci_code": "200072106",
    "departement_code": "65",
    "region_code": "76",
    "postal_code": "65140"
  },
  {
    "name": "Bazordan",
    "code": "65074",
    "epci_code": "200070795",
    "departement_code": "65",
    "region_code": "76",
    "postal_code": "65670"
  },
  {
    "name": "Bazus-Aure",
    "code": "65075",
    "epci_code": "246500573",
    "departement_code": "65",
    "region_code": "76",
    "postal_code": "65170"
  },
  {
    "name": "Bazus-Neste",
    "code": "65076",
    "epci_code": "200070787",
    "departement_code": "65",
    "region_code": "76",
    "postal_code": "65250"
  },
  {
    "name": "Beaucens",
    "code": "65077",
    "epci_code": "200070811",
    "departement_code": "65",
    "region_code": "76",
    "postal_code": "65400"
  },
  {
    "name": "Beaudéan",
    "code": "65078",
    "epci_code": "246500482",
    "departement_code": "65",
    "region_code": "76",
    "postal_code": "65710"
  },
  {
    "name": "Bégole",
    "code": "65079",
    "epci_code": "200070803",
    "departement_code": "65",
    "region_code": "76",
    "postal_code": "65190"
  },
  {
    "name": "Bénac",
    "code": "65080",
    "epci_code": "200069300",
    "departement_code": "65",
    "region_code": "76",
    "postal_code": "65380"
  },
  {
    "name": "Benqué-Molère",
    "code": "65081",
    "epci_code": "200070787",
    "departement_code": "65",
    "region_code": "76",
    "postal_code": "65130"
  },
  {
    "name": "Berbérust-Lias",
    "code": "65082",
    "epci_code": "200069300",
    "departement_code": "65",
    "region_code": "76",
    "postal_code": "65100"
  },
  {
    "name": "Bernac-Debat",
    "code": "65083",
    "epci_code": "200069300",
    "departement_code": "65",
    "region_code": "76",
    "postal_code": "65360"
  },
  {
    "name": "Bernac-Dessus",
    "code": "65084",
    "epci_code": "200069300",
    "departement_code": "65",
    "region_code": "76",
    "postal_code": "65360"
  },
  {
    "name": "Bernadets-Debat",
    "code": "65085",
    "epci_code": "200070795",
    "departement_code": "65",
    "region_code": "76",
    "postal_code": "65220"
  },
  {
    "name": "Bernadets-Dessus",
    "code": "65086",
    "epci_code": "200070803",
    "departement_code": "65",
    "region_code": "76",
    "postal_code": "65190"
  },
  {
    "name": "Bertren",
    "code": "65087",
    "epci_code": "200070829",
    "departement_code": "65",
    "region_code": "76",
    "postal_code": "65370"
  },
  {
    "name": "Betbèze",
    "code": "65088",
    "epci_code": "200070795",
    "departement_code": "65",
    "region_code": "76",
    "postal_code": "65230"
  },
  {
    "name": "Betpouey",
    "code": "65089",
    "epci_code": "200070811",
    "departement_code": "65",
    "region_code": "76",
    "postal_code": "65120"
  },
  {
    "name": "Betpouy",
    "code": "65090",
    "epci_code": "200070795",
    "departement_code": "65",
    "region_code": "76",
    "postal_code": "65230"
  },
  {
    "name": "Bettes",
    "code": "65091",
    "epci_code": "246500482",
    "departement_code": "65",
    "region_code": "76",
    "postal_code": "65130"
  },
  {
    "name": "Beyrède-Jumet-Camous",
    "code": "65092",
    "epci_code": "246500573",
    "departement_code": "65",
    "region_code": "76",
    "postal_code": "65410"
  },
  {
    "name": "Bize",
    "code": "65093",
    "epci_code": "200070829",
    "departement_code": "65",
    "region_code": "76",
    "postal_code": "65150"
  },
  {
    "name": "Bizous",
    "code": "65094",
    "epci_code": "200070829",
    "departement_code": "65",
    "region_code": "76",
    "postal_code": "65150"
  },
  {
    "name": "Bonnefont",
    "code": "65095",
    "epci_code": "200070795",
    "departement_code": "65",
    "region_code": "76",
    "postal_code": "65220"
  },
  {
    "name": "Bonnemazon",
    "code": "65096",
    "epci_code": "200070787",
    "departement_code": "65",
    "region_code": "76",
    "postal_code": "65130"
  },
  {
    "name": "Bonrepos",
    "code": "65097",
    "epci_code": "200070787",
    "departement_code": "65",
    "region_code": "76",
    "postal_code": "65330"
  },
  {
    "name": "Boô-Silhen",
    "code": "65098",
    "epci_code": "200070811",
    "departement_code": "65",
    "region_code": "76",
    "postal_code": "65400"
  },
  {
    "name": "Bordères-Louron",
    "code": "65099",
    "epci_code": "246500573",
    "departement_code": "65",
    "region_code": "76",
    "postal_code": "65590"
  },
  {
    "name": "Bordères-sur-l’Échez",
    "code": "65100",
    "epci_code": "200069300",
    "departement_code": "65",
    "region_code": "76",
    "postal_code": "65320"
  },
  {
    "name": "Bordes",
    "code": "65101",
    "epci_code": "200070803",
    "departement_code": "65",
    "region_code": "76",
    "postal_code": "65190"
  },
  {
    "name": "Bouilh-Devant",
    "code": "65102",
    "epci_code": "200072106",
    "departement_code": "65",
    "region_code": "76",
    "postal_code": "65140"
  },
  {
    "name": "Bouilh-Péreuilh",
    "code": "65103",
    "epci_code": "200070803",
    "departement_code": "65",
    "region_code": "76",
    "postal_code": "65350"
  },
  {
    "name": "Boulin",
    "code": "65104",
    "epci_code": "200070803",
    "departement_code": "65",
    "region_code": "76",
    "postal_code": "65350"
  },
  {
    "name": "Bourg-de-Bigorre",
    "code": "65105",
    "epci_code": "200070787",
    "departement_code": "65",
    "region_code": "76",
    "postal_code": "65130"
  },
  {
    "name": "Bourisp",
    "code": "65106",
    "epci_code": "246500573",
    "departement_code": "65",
    "region_code": "76",
    "postal_code": "65170"
  },
  {
    "name": "Bourréac",
    "code": "65107",
    "epci_code": "200069300",
    "departement_code": "65",
    "region_code": "76",
    "postal_code": "65100"
  },
  {
    "name": "Bours",
    "code": "65108",
    "epci_code": "200069300",
    "departement_code": "65",
    "region_code": "76",
    "postal_code": "65460"
  },
  {
    "name": "Bramevaque",
    "code": "65109",
    "epci_code": "200070829",
    "departement_code": "65",
    "region_code": "76",
    "postal_code": "65370"
  },
  {
    "name": "Bugard",
    "code": "65110",
    "epci_code": "200070795",
    "departement_code": "65",
    "region_code": "76",
    "postal_code": "65220"
  },
  {
    "name": "Bulan",
    "code": "65111",
    "epci_code": "200070787",
    "departement_code": "65",
    "region_code": "76",
    "postal_code": "65130"
  },
  {
    "name": "Bun",
    "code": "65112",
    "epci_code": "200070811",
    "departement_code": "65",
    "region_code": "76",
    "postal_code": "65400"
  },
  {
    "name": "Burg",
    "code": "65113",
    "epci_code": "200070803",
    "departement_code": "65",
    "region_code": "76",
    "postal_code": "65190"
  },
  {
    "name": "Buzon",
    "code": "65114",
    "epci_code": "200072106",
    "departement_code": "65",
    "region_code": "76",
    "postal_code": "65140"
  },
  {
    "name": "Cabanac",
    "code": "65115",
    "epci_code": "200070803",
    "departement_code": "65",
    "region_code": "76",
    "postal_code": "65350"
  },
  {
    "name": "Cadéac",
    "code": "65116",
    "epci_code": "246500573",
    "departement_code": "65",
    "region_code": "76",
    "postal_code": "65240"
  },
  {
    "name": "Cadeilhan-Trachère",
    "code": "65117",
    "epci_code": "246500573",
    "departement_code": "65",
    "region_code": "76",
    "postal_code": "65170"
  },
  {
    "name": "Caharet",
    "code": "65118",
    "epci_code": "200070803",
    "departement_code": "65",
    "region_code": "76",
    "postal_code": "65190"
  },
  {
    "name": "Caixon",
    "code": "65119",
    "epci_code": "200072106",
    "departement_code": "65",
    "region_code": "76",
    "postal_code": "65500"
  },
  {
    "name": "Calavanté",
    "code": "65120",
    "epci_code": "200070803",
    "departement_code": "65",
    "region_code": "76",
    "postal_code": "65190"
  },
  {
    "name": "Camalès",
    "code": "65121",
    "epci_code": "200072106",
    "departement_code": "65",
    "region_code": "76",
    "postal_code": "65500"
  },
  {
    "name": "Campan",
    "code": "65123",
    "epci_code": "246500482",
    "departement_code": "65",
    "region_code": "76",
    "postal_code": "65710"
  },
  {
    "name": "Camparan",
    "code": "65124",
    "epci_code": "246500573",
    "departement_code": "65",
    "region_code": "76",
    "postal_code": "65170"
  },
  {
    "name": "Campistrous",
    "code": "65125",
    "epci_code": "200070787",
    "departement_code": "65",
    "region_code": "76",
    "postal_code": "65300"
  },
  {
    "name": "Campuzan",
    "code": "65126",
    "epci_code": "200070795",
    "departement_code": "65",
    "region_code": "76",
    "postal_code": "65230"
  },
  {
    "name": "Capvern",
    "code": "65127",
    "epci_code": "200070787",
    "departement_code": "65",
    "region_code": "76",
    "postal_code": "65130"
  },
  {
    "name": "Castelbajac",
    "code": "65128",
    "epci_code": "200070787",
    "departement_code": "65",
    "region_code": "76",
    "postal_code": "65330"
  },
  {
    "name": "Castelnau-Magnoac",
    "code": "65129",
    "epci_code": "200070795",
    "departement_code": "65",
    "region_code": "76",
    "postal_code": "65230"
  },
  {
    "name": "Castelnau-Rivière-Basse",
    "code": "65130",
    "epci_code": "200072106",
    "departement_code": "65",
    "region_code": "76",
    "postal_code": "65700"
  },
  {
    "name": "Castelvieilh",
    "code": "65131",
    "epci_code": "200070803",
    "departement_code": "65",
    "region_code": "76",
    "postal_code": "65350"
  },
  {
    "name": "Castéra-Lanusse",
    "code": "65132",
    "epci_code": "200070803",
    "departement_code": "65",
    "region_code": "76",
    "postal_code": "65190"
  },
  {
    "name": "Castéra-Lou",
    "code": "65133",
    "epci_code": "200070803",
    "departement_code": "65",
    "region_code": "76",
    "postal_code": "65350"
  },
  {
    "name": "Casterets",
    "code": "65134",
    "epci_code": "200070795",
    "departement_code": "65",
    "region_code": "76",
    "postal_code": "65230"
  },
  {
    "name": "Castillon",
    "code": "65135",
    "epci_code": "200070787",
    "departement_code": "65",
    "region_code": "76",
    "postal_code": "65130"
  },
  {
    "name": "Caubous",
    "code": "65136",
    "epci_code": "200070795",
    "departement_code": "65",
    "region_code": "76",
    "postal_code": "65230"
  },
  {
    "name": "Caussade-Rivière",
    "code": "65137",
    "epci_code": "200072106",
    "departement_code": "65",
    "region_code": "76",
    "postal_code": "65700"
  },
  {
    "name": "Cauterets",
    "code": "65138",
    "epci_code": "200070811",
    "departement_code": "65",
    "region_code": "76",
    "postal_code": "65110"
  },
  {
    "name": "Cazarilh",
    "code": "65139",
    "epci_code": "200070829",
    "departement_code": "65",
    "region_code": "76",
    "postal_code": "65370"
  },
  {
    "name": "Cazaux-Debat",
    "code": "65140",
    "epci_code": "246500573",
    "departement_code": "65",
    "region_code": "76",
    "postal_code": "65590"
  },
  {
    "name": "Cazaux-Fréchet-Anéran-Camors",
    "code": "65141",
    "epci_code": "246500573",
    "departement_code": "65",
    "region_code": "76",
    "postal_code": "65240"
  },
  {
    "name": "Chelle-Debat",
    "code": "65142",
    "epci_code": "200070803",
    "departement_code": "65",
    "region_code": "76",
    "postal_code": "65350"
  },
  {
    "name": "Chelle-Spou",
    "code": "65143",
    "epci_code": "200070787",
    "departement_code": "65",
    "region_code": "76",
    "postal_code": "65130"
  },
  {
    "name": "Cheust",
    "code": "65144",
    "epci_code": "200069300",
    "departement_code": "65",
    "region_code": "76",
    "postal_code": "65100"
  },
  {
    "name": "Chèze",
    "code": "65145",
    "epci_code": "200070811",
    "departement_code": "65",
    "region_code": "76",
    "postal_code": "65120"
  },
  {
    "name": "Chis",
    "code": "65146",
    "epci_code": "200069300",
    "departement_code": "65",
    "region_code": "76",
    "postal_code": "65800"
  },
  {
    "name": "Cieutat",
    "code": "65147",
    "epci_code": "246500482",
    "departement_code": "65",
    "region_code": "76",
    "postal_code": "65200"
  },
  {
    "name": "Cizos",
    "code": "65148",
    "epci_code": "200070795",
    "departement_code": "65",
    "region_code": "76",
    "postal_code": "65230"
  },
  {
    "name": "Clarac",
    "code": "65149",
    "epci_code": "200070803",
    "departement_code": "65",
    "region_code": "76",
    "postal_code": "65190"
  },
  {
    "name": "Clarens",
    "code": "65150",
    "epci_code": "200070787",
    "departement_code": "65",
    "region_code": "76",
    "postal_code": "65300"
  },
  {
    "name": "Collongues",
    "code": "65151",
    "epci_code": "200070803",
    "departement_code": "65",
    "region_code": "76",
    "postal_code": "65350"
  },
  {
    "name": "Coussan",
    "code": "65153",
    "epci_code": "200070803",
    "departement_code": "65",
    "region_code": "76",
    "postal_code": "65350"
  },
  {
    "name": "Créchets",
    "code": "65154",
    "epci_code": "200070829",
    "departement_code": "65",
    "region_code": "76",
    "postal_code": "65370"
  },
  {
    "name": "Devèze",
    "code": "65155",
    "epci_code": "200070795",
    "departement_code": "65",
    "region_code": "76",
    "postal_code": "65230"
  },
  {
    "name": "Dours",
    "code": "65156",
    "epci_code": "200070803",
    "departement_code": "65",
    "region_code": "76",
    "postal_code": "65350"
  },
  {
    "name": "Ens",
    "code": "65157",
    "epci_code": "246500573",
    "departement_code": "65",
    "region_code": "76",
    "postal_code": "65170"
  },
  {
    "name": "Esbareich",
    "code": "65158",
    "epci_code": "200070829",
    "departement_code": "65",
    "region_code": "76",
    "postal_code": "65370"
  },
  {
    "name": "Escala",
    "code": "65159",
    "epci_code": "200070787",
    "departement_code": "65",
    "region_code": "76",
    "postal_code": "65250"
  },
  {
    "name": "Escaunets",
    "code": "65160",
    "epci_code": "200072106",
    "departement_code": "65",
    "region_code": "76",
    "postal_code": "65500"
  },
  {
    "name": "Escondeaux",
    "code": "65161",
    "epci_code": "200072106",
    "departement_code": "65",
    "region_code": "76",
    "postal_code": "65140"
  },
  {
    "name": "Esconnets",
    "code": "65162",
    "epci_code": "200070787",
    "departement_code": "65",
    "region_code": "76",
    "postal_code": "65130"
  },
  {
    "name": "Escots",
    "code": "65163",
    "epci_code": "200070787",
    "departement_code": "65",
    "region_code": "76",
    "postal_code": "65130"
  },
  {
    "name": "Escoubès-Pouts",
    "code": "65164",
    "epci_code": "200069300",
    "departement_code": "65",
    "region_code": "76",
    "postal_code": "65100"
  },
  {
    "name": "Esparros",
    "code": "65165",
    "epci_code": "200070787",
    "departement_code": "65",
    "region_code": "76",
    "postal_code": "65130"
  },
  {
    "name": "Espèche",
    "code": "65166",
    "epci_code": "200070787",
    "departement_code": "65",
    "region_code": "76",
    "postal_code": "65130"
  },
  {
    "name": "Espieilh",
    "code": "65167",
    "epci_code": "200070787",
    "departement_code": "65",
    "region_code": "76",
    "postal_code": "65130"
  },
  {
    "name": "Esquièze-Sère",
    "code": "65168",
    "epci_code": "200070811",
    "departement_code": "65",
    "region_code": "76",
    "postal_code": "65120"
  },
  {
    "name": "Estaing",
    "code": "65169",
    "epci_code": "200070811",
    "departement_code": "65",
    "region_code": "76",
    "postal_code": "65400"
  },
  {
    "name": "Estampures",
    "code": "65170",
    "epci_code": "200070795",
    "departement_code": "65",
    "region_code": "76",
    "postal_code": "65220"
  },
  {
    "name": "Estarvielle",
    "code": "65171",
    "epci_code": "246500573",
    "departement_code": "65",
    "region_code": "76",
    "postal_code": "65240"
  },
  {
    "name": "Estensan",
    "code": "65172",
    "epci_code": "246500573",
    "departement_code": "65",
    "region_code": "76",
    "postal_code": "65170"
  },
  {
    "name": "Esterre",
    "code": "65173",
    "epci_code": "200070811",
    "departement_code": "65",
    "region_code": "76",
    "postal_code": "65120"
  },
  {
    "name": "Estirac",
    "code": "65174",
    "epci_code": "200072106",
    "departement_code": "65",
    "region_code": "76",
    "postal_code": "65700"
  },
  {
    "name": "Ferrère",
    "code": "65175",
    "epci_code": "200070829",
    "departement_code": "65",
    "region_code": "76",
    "postal_code": "65370"
  },
  {
    "name": "Ferrières",
    "code": "65176",
    "epci_code": "246401756",
    "departement_code": "65",
    "region_code": "76",
    "postal_code": "65560"
  },
  {
    "name": "Fontrailles",
    "code": "65177",
    "epci_code": "200070795",
    "departement_code": "65",
    "region_code": "76",
    "postal_code": "65220"
  },
  {
    "name": "Fréchède",
    "code": "65178",
    "epci_code": "200070795",
    "departement_code": "65",
    "region_code": "76",
    "postal_code": "65220"
  },
  {
    "name": "Fréchendets",
    "code": "65179",
    "epci_code": "200070787",
    "departement_code": "65",
    "region_code": "76",
    "postal_code": "65130"
  },
  {
    "name": "Fréchet-Aure",
    "code": "65180",
    "epci_code": "246500573",
    "departement_code": "65",
    "region_code": "76",
    "postal_code": "65240"
  },
  {
    "name": "Fréchou-Fréchet",
    "code": "65181",
    "epci_code": "200070803",
    "departement_code": "65",
    "region_code": "76",
    "postal_code": "65190"
  },
  {
    "name": "Gaillagos",
    "code": "65182",
    "epci_code": "200070811",
    "departement_code": "65",
    "region_code": "76",
    "postal_code": "65400"
  },
  {
    "name": "Galan",
    "code": "65183",
    "epci_code": "200070787",
    "departement_code": "65",
    "region_code": "76",
    "postal_code": "65330"
  },
  {
    "name": "Galez",
    "code": "65184",
    "epci_code": "200070787",
    "departement_code": "65",
    "region_code": "76",
    "postal_code": "65330"
  },
  {
    "name": "Gardères",
    "code": "65185",
    "epci_code": "200069300",
    "departement_code": "65",
    "region_code": "76",
    "postal_code": "65320"
  },
  {
    "name": "Gaudent",
    "code": "65186",
    "epci_code": "200070829",
    "departement_code": "65",
    "region_code": "76",
    "postal_code": "65370"
  },
  {
    "name": "Gaussan",
    "code": "65187",
    "epci_code": "200070795",
    "departement_code": "65",
    "region_code": "76",
    "postal_code": "65670"
  },
  {
    "name": "Gayan",
    "code": "65189",
    "epci_code": "200069300",
    "departement_code": "65",
    "region_code": "76",
    "postal_code": "65320"
  },
  {
    "name": "Gazave",
    "code": "65190",
    "epci_code": "200070787",
    "departement_code": "65",
    "region_code": "76",
    "postal_code": "65250"
  },
  {
    "name": "Gazost",
    "code": "65191",
    "epci_code": "200069300",
    "departement_code": "65",
    "region_code": "76",
    "postal_code": "65100"
  },
  {
    "name": "Gavarnie-Gèdre",
    "code": "65192",
    "epci_code": "200070811",
    "departement_code": "65",
    "region_code": "76",
    "postal_code": "65120"
  },
  {
    "name": "Gembrie",
    "code": "65193",
    "epci_code": "200070829",
    "departement_code": "65",
    "region_code": "76",
    "postal_code": "65370"
  },
  {
    "name": "Générest",
    "code": "65194",
    "epci_code": "200070829",
    "departement_code": "65",
    "region_code": "76",
    "postal_code": "65150"
  },
  {
    "name": "Génos",
    "code": "65195",
    "epci_code": "246500573",
    "departement_code": "65",
    "region_code": "76",
    "postal_code": "65240"
  },
  {
    "name": "Gensac",
    "code": "65196",
    "epci_code": "200072106",
    "departement_code": "65",
    "region_code": "76",
    "postal_code": "65140"
  },
  {
    "name": "Ger",
    "code": "65197",
    "epci_code": "200069300",
    "departement_code": "65",
    "region_code": "76",
    "postal_code": "65100"
  },
  {
    "name": "Gerde",
    "code": "65198",
    "epci_code": "246500482",
    "departement_code": "65",
    "region_code": "76",
    "postal_code": "65200"
  },
  {
    "name": "Germ",
    "code": "65199",
    "epci_code": "246500573",
    "departement_code": "65",
    "region_code": "76",
    "postal_code": "65240"
  },
  {
    "name": "Germs-sur-l’Oussouet",
    "code": "65200",
    "epci_code": "200069300",
    "departement_code": "65",
    "region_code": "76",
    "postal_code": "65200"
  },
  {
    "name": "Geu",
    "code": "65201",
    "epci_code": "200069300",
    "departement_code": "65",
    "region_code": "76",
    "postal_code": "65100"
  },
  {
    "name": "Gez",
    "code": "65202",
    "epci_code": "200070811",
    "departement_code": "65",
    "region_code": "76",
    "postal_code": "65400"
  },
  {
    "name": "Gez-ez-Angles",
    "code": "65203",
    "epci_code": "200069300",
    "departement_code": "65",
    "region_code": "76",
    "postal_code": "65100"
  },
  {
    "name": "Gonez",
    "code": "65204",
    "epci_code": "200070803",
    "departement_code": "65",
    "region_code": "76",
    "postal_code": "65350"
  },
  {
    "name": "Gouaux",
    "code": "65205",
    "epci_code": "246500573",
    "departement_code": "65",
    "region_code": "76",
    "postal_code": "65240"
  },
  {
    "name": "Goudon",
    "code": "65206",
    "epci_code": "200070803",
    "departement_code": "65",
    "region_code": "76",
    "postal_code": "65190"
  },
  {
    "name": "Gourgue",
    "code": "65207",
    "epci_code": "200070787",
    "departement_code": "65",
    "region_code": "76",
    "postal_code": "65130"
  },
  {
    "name": "Grailhen",
    "code": "65208",
    "epci_code": "246500573",
    "departement_code": "65",
    "region_code": "76",
    "postal_code": "65170"
  },
  {
    "name": "Grézian",
    "code": "65209",
    "epci_code": "246500573",
    "departement_code": "65",
    "region_code": "76",
    "postal_code": "65240"
  },
  {
    "name": "Grust",
    "code": "65210",
    "epci_code": "200070811",
    "departement_code": "65",
    "region_code": "76",
    "postal_code": "65120"
  },
  {
    "name": "Guchan",
    "code": "65211",
    "epci_code": "246500573",
    "departement_code": "65",
    "region_code": "76",
    "postal_code": "65170"
  },
  {
    "name": "Guchen",
    "code": "65212",
    "epci_code": "246500573",
    "departement_code": "65",
    "region_code": "76",
    "postal_code": "65240"
  },
  {
    "name": "Guizerix",
    "code": "65213",
    "epci_code": "200070795",
    "departement_code": "65",
    "region_code": "76",
    "postal_code": "65230"
  },
  {
    "name": "Hachan",
    "code": "65214",
    "epci_code": "200070795",
    "departement_code": "65",
    "region_code": "76",
    "postal_code": "65230"
  },
  {
    "name": "Hagedet",
    "code": "65215",
    "epci_code": "200072106",
    "departement_code": "65",
    "region_code": "76",
    "postal_code": "65700"
  },
  {
    "name": "Hauban",
    "code": "65216",
    "epci_code": "246500482",
    "departement_code": "65",
    "region_code": "76",
    "postal_code": "65200"
  },
  {
    "name": "Hautaget",
    "code": "65217",
    "epci_code": "200070829",
    "departement_code": "65",
    "region_code": "76",
    "postal_code": "65150"
  },
  {
    "name": "Hèches",
    "code": "65218",
    "epci_code": "200070787",
    "departement_code": "65",
    "region_code": "76",
    "postal_code": "65250"
  },
  {
    "name": "Hères",
    "code": "65219",
    "epci_code": "200072106",
    "departement_code": "65",
    "region_code": "76",
    "postal_code": "65700"
  },
  {
    "name": "Hibarette",
    "code": "65220",
    "epci_code": "200069300",
    "departement_code": "65",
    "region_code": "76",
    "postal_code": "65380"
  },
  {
    "name": "Hiis",
    "code": "65221",
    "epci_code": "246500482",
    "departement_code": "65",
    "region_code": "76",
    "postal_code": "65200"
  },
  {
    "name": "Hitte",
    "code": "65222",
    "epci_code": "246500482",
    "departement_code": "65",
    "region_code": "76",
    "postal_code": "65190"
  },
  {
    "name": "Horgues",
    "code": "65223",
    "epci_code": "200069300",
    "departement_code": "65",
    "region_code": "76",
    "postal_code": "65310"
  },
  {
    "name": "Houeydets",
    "code": "65224",
    "epci_code": "200070787",
    "departement_code": "65",
    "region_code": "76",
    "postal_code": "65330"
  },
  {
    "name": "Hourc",
    "code": "65225",
    "epci_code": "200070803",
    "departement_code": "65",
    "region_code": "76",
    "postal_code": "65350"
  },
  {
    "name": "Ibos",
    "code": "65226",
    "epci_code": "200069300",
    "departement_code": "65",
    "region_code": "76",
    "postal_code": "65420"
  },
  {
    "name": "Ilhet",
    "code": "65228",
    "epci_code": "246500573",
    "departement_code": "65",
    "region_code": "76",
    "postal_code": "65410"
  },
  {
    "name": "Ilheu",
    "code": "65229",
    "epci_code": "200070829",
    "departement_code": "65",
    "region_code": "76",
    "postal_code": "65370"
  },
  {
    "name": "Izaourt",
    "code": "65230",
    "epci_code": "200070829",
    "departement_code": "65",
    "region_code": "76",
    "postal_code": "65370"
  },
  {
    "name": "Izaux",
    "code": "65231",
    "epci_code": "200070787",
    "departement_code": "65",
    "region_code": "76",
    "postal_code": "65250"
  },
  {
    "name": "Jacque",
    "code": "65232",
    "epci_code": "200070803",
    "departement_code": "65",
    "region_code": "76",
    "postal_code": "65350"
  },
  {
    "name": "Jarret",
    "code": "65233",
    "epci_code": "200069300",
    "departement_code": "65",
    "region_code": "76",
    "postal_code": "65100"
  },
  {
    "name": "Jézeau",
    "code": "65234",
    "epci_code": "246500573",
    "departement_code": "65",
    "region_code": "76",
    "postal_code": "65240"
  },
  {
    "name": "Juillan",
    "code": "65235",
    "epci_code": "200069300",
    "departement_code": "65",
    "region_code": "76",
    "postal_code": "65290"
  },
  {
    "name": "Julos",
    "code": "65236",
    "epci_code": "200069300",
    "departement_code": "65",
    "region_code": "76",
    "postal_code": "65100"
  },
  {
    "name": "Juncalas",
    "code": "65237",
    "epci_code": "200069300",
    "departement_code": "65",
    "region_code": "76",
    "postal_code": "65100"
  },
  {
    "name": "Labassère",
    "code": "65238",
    "epci_code": "246500482",
    "departement_code": "65",
    "region_code": "76",
    "postal_code": "65200"
  },
  {
    "name": "Labastide",
    "code": "65239",
    "epci_code": "200070787",
    "departement_code": "65",
    "region_code": "76",
    "postal_code": "65130"
  },
  {
    "name": "Labatut-Rivière",
    "code": "65240",
    "epci_code": "200072106",
    "departement_code": "65",
    "region_code": "76",
    "postal_code": "65700"
  },
  {
    "name": "Laborde",
    "code": "65241",
    "epci_code": "200070787",
    "departement_code": "65",
    "region_code": "76",
    "postal_code": "65130"
  },
  {
    "name": "Lacassagne",
    "code": "65242",
    "epci_code": "200072106",
    "departement_code": "65",
    "region_code": "76",
    "postal_code": "65140"
  },
  {
    "name": "Lafitole",
    "code": "65243",
    "epci_code": "200072106",
    "departement_code": "65",
    "region_code": "76",
    "postal_code": "65700"
  },
  {
    "name": "Lagarde",
    "code": "65244",
    "epci_code": "200069300",
    "departement_code": "65",
    "region_code": "76",
    "postal_code": "65320"
  },
  {
    "name": "Lagrange",
    "code": "65245",
    "epci_code": "200070787",
    "departement_code": "65",
    "region_code": "76",
    "postal_code": "65300"
  },
  {
    "name": "Arrayou-Lahitte",
    "code": "65247",
    "epci_code": "200069300",
    "departement_code": "65",
    "region_code": "76",
    "postal_code": "65100"
  },
  {
    "name": "Lahitte-Toupière",
    "code": "65248",
    "epci_code": "200072106",
    "departement_code": "65",
    "region_code": "76",
    "postal_code": "65700"
  },
  {
    "name": "Lalanne",
    "code": "65249",
    "epci_code": "200070795",
    "departement_code": "65",
    "region_code": "76",
    "postal_code": "65230"
  },
  {
    "name": "Lalanne-Trie",
    "code": "65250",
    "epci_code": "200070795",
    "departement_code": "65",
    "region_code": "76",
    "postal_code": "65220"
  },
  {
    "name": "Laloubère",
    "code": "65251",
    "epci_code": "200069300",
    "departement_code": "65",
    "region_code": "76",
    "postal_code": "65310"
  },
  {
    "name": "Lamarque-Pontacq",
    "code": "65252",
    "epci_code": "200069300",
    "departement_code": "65",
    "region_code": "76",
    "postal_code": "65380"
  },
  {
    "name": "Lamarque-Rustaing",
    "code": "65253",
    "epci_code": "200070795",
    "departement_code": "65",
    "region_code": "76",
    "postal_code": "65220"
  },
  {
    "name": "Laméac",
    "code": "65254",
    "epci_code": "200072106",
    "departement_code": "65",
    "region_code": "76",
    "postal_code": "65140"
  },
  {
    "name": "Lançon",
    "code": "65255",
    "epci_code": "246500573",
    "departement_code": "65",
    "region_code": "76",
    "postal_code": "65240"
  },
  {
    "name": "Lanespède",
    "code": "65256",
    "epci_code": "200070803",
    "departement_code": "65",
    "region_code": "76",
    "postal_code": "65190"
  },
  {
    "name": "Lanne",
    "code": "65257",
    "epci_code": "200069300",
    "departement_code": "65",
    "region_code": "76",
    "postal_code": "65380"
  },
  {
    "name": "Lannemezan",
    "code": "65258",
    "epci_code": "200070787",
    "departement_code": "65",
    "region_code": "76",
    "postal_code": "65300"
  },
  {
    "name": "Lansac",
    "code": "65259",
    "epci_code": "200070803",
    "departement_code": "65",
    "region_code": "76",
    "postal_code": "65350"
  },
  {
    "name": "Lapeyre",
    "code": "65260",
    "epci_code": "200070795",
    "departement_code": "65",
    "region_code": "76",
    "postal_code": "65220"
  },
  {
    "name": "Laran",
    "code": "65261",
    "epci_code": "200070795",
    "departement_code": "65",
    "region_code": "76",
    "postal_code": "65670"
  },
  {
    "name": "Larreule",
    "code": "65262",
    "epci_code": "200072106",
    "departement_code": "65",
    "region_code": "76",
    "postal_code": "65700"
  },
  {
    "name": "Larroque",
    "code": "65263",
    "epci_code": "200070795",
    "departement_code": "65",
    "region_code": "76",
    "postal_code": "65230"
  },
  {
    "name": "Lascazères",
    "code": "65264",
    "epci_code": "200072106",
    "departement_code": "65",
    "region_code": "76",
    "postal_code": "65700"
  },
  {
    "name": "Laslades",
    "code": "65265",
    "epci_code": "200070803",
    "departement_code": "65",
    "region_code": "76",
    "postal_code": "65350"
  },
  {
    "name": "Lassales",
    "code": "65266",
    "epci_code": "200070795",
    "departement_code": "65",
    "region_code": "76",
    "postal_code": "65670"
  },
  {
    "name": "Lau-Balagnas",
    "code": "65267",
    "epci_code": "200070811",
    "departement_code": "65",
    "region_code": "76",
    "postal_code": "65400"
  },
  {
    "name": "Layrisse",
    "code": "65268",
    "epci_code": "200069300",
    "departement_code": "65",
    "region_code": "76",
    "postal_code": "65380"
  },
  {
    "name": "Lescurry",
    "code": "65269",
    "epci_code": "200072106",
    "departement_code": "65",
    "region_code": "76",
    "postal_code": "65140"
  },
  {
    "name": "Lespouey",
    "code": "65270",
    "epci_code": "200070803",
    "departement_code": "65",
    "region_code": "76",
    "postal_code": "65190"
  },
  {
    "name": "Lézignan",
    "code": "65271",
    "epci_code": "200069300",
    "departement_code": "65",
    "region_code": "76",
    "postal_code": "65100"
  },
  {
    "name": "Lhez",
    "code": "65272",
    "epci_code": "200070803",
    "departement_code": "65",
    "region_code": "76",
    "postal_code": "65190"
  },
  {
    "name": "Liac",
    "code": "65273",
    "epci_code": "200072106",
    "departement_code": "65",
    "region_code": "76",
    "postal_code": "65140"
  },
  {
    "name": "Libaros",
    "code": "65274",
    "epci_code": "200070787",
    "departement_code": "65",
    "region_code": "76",
    "postal_code": "65330"
  },
  {
    "name": "Lies",
    "code": "65275",
    "epci_code": "246500482",
    "departement_code": "65",
    "region_code": "76",
    "postal_code": "65200"
  },
  {
    "name": "Lizos",
    "code": "65276",
    "epci_code": "200070803",
    "departement_code": "65",
    "region_code": "76",
    "postal_code": "65350"
  },
  {
    "name": "Lombrès",
    "code": "65277",
    "epci_code": "200070829",
    "departement_code": "65",
    "region_code": "76",
    "postal_code": "65150"
  },
  {
    "name": "Lomné",
    "code": "65278",
    "epci_code": "200070787",
    "departement_code": "65",
    "region_code": "76",
    "postal_code": "65130"
  },
  {
    "name": "Lortet",
    "code": "65279",
    "epci_code": "200070787",
    "departement_code": "65",
    "region_code": "76",
    "postal_code": "65250"
  },
  {
    "name": "Loubajac",
    "code": "65280",
    "epci_code": "200069300",
    "departement_code": "65",
    "region_code": "76",
    "postal_code": "65100"
  },
  {
    "name": "Loucrup",
    "code": "65281",
    "epci_code": "200069300",
    "departement_code": "65",
    "region_code": "76",
    "postal_code": "65200"
  },
  {
    "name": "Loudenvielle",
    "code": "65282",
    "epci_code": "246500573",
    "departement_code": "65",
    "region_code": "76",
    "postal_code": "65240"
  },
  {
    "name": "Loudenvielle",
    "code": "65282",
    "epci_code": "246500573",
    "departement_code": "65",
    "region_code": "76",
    "postal_code": "65510"
  },
  {
    "name": "Loudervielle",
    "code": "65283",
    "epci_code": "246500573",
    "departement_code": "65",
    "region_code": "76",
    "postal_code": "65240"
  },
  {
    "name": "Louey",
    "code": "65284",
    "epci_code": "200069300",
    "departement_code": "65",
    "region_code": "76",
    "postal_code": "65290"
  },
  {
    "name": "Louit",
    "code": "65285",
    "epci_code": "200070803",
    "departement_code": "65",
    "region_code": "76",
    "postal_code": "65350"
  },
  {
    "name": "Lourdes",
    "code": "65286",
    "epci_code": "200069300",
    "departement_code": "65",
    "region_code": "76",
    "postal_code": "65100"
  },
  {
    "name": "Loures-Barousse",
    "code": "65287",
    "epci_code": "200070829",
    "departement_code": "65",
    "region_code": "76",
    "postal_code": "65370"
  },
  {
    "name": "Lubret-Saint-Luc",
    "code": "65288",
    "epci_code": "200070795",
    "departement_code": "65",
    "region_code": "76",
    "postal_code": "65220"
  },
  {
    "name": "Luby-Betmont",
    "code": "65289",
    "epci_code": "200070795",
    "departement_code": "65",
    "region_code": "76",
    "postal_code": "65220"
  },
  {
    "name": "Luc",
    "code": "65290",
    "epci_code": "200070803",
    "departement_code": "65",
    "region_code": "76",
    "postal_code": "65190"
  },
  {
    "name": "Lugagnan",
    "code": "65291",
    "epci_code": "200069300",
    "departement_code": "65",
    "region_code": "76",
    "postal_code": "65100"
  },
  {
    "name": "Luquet",
    "code": "65292",
    "epci_code": "200069300",
    "departement_code": "65",
    "region_code": "76",
    "postal_code": "65320"
  },
  {
    "name": "Lustar",
    "code": "65293",
    "epci_code": "200070795",
    "departement_code": "65",
    "region_code": "76",
    "postal_code": "65220"
  },
  {
    "name": "Lutilhous",
    "code": "65294",
    "epci_code": "200070787",
    "departement_code": "65",
    "region_code": "76",
    "postal_code": "65300"
  },
  {
    "name": "Luz-Saint-Sauveur",
    "code": "65295",
    "epci_code": "200070811",
    "departement_code": "65",
    "region_code": "76",
    "postal_code": "65120"
  },
  {
    "name": "Madiran",
    "code": "65296",
    "epci_code": "200072106",
    "departement_code": "65",
    "region_code": "76",
    "postal_code": "65700"
  },
  {
    "name": "Mansan",
    "code": "65297",
    "epci_code": "200072106",
    "departement_code": "65",
    "region_code": "76",
    "postal_code": "65140"
  },
  {
    "name": "Marquerie",
    "code": "65298",
    "epci_code": "200070803",
    "departement_code": "65",
    "region_code": "76",
    "postal_code": "65350"
  },
  {
    "name": "Marsac",
    "code": "65299",
    "epci_code": "200072106",
    "departement_code": "65",
    "region_code": "76",
    "postal_code": "65500"
  },
  {
    "name": "Marsas",
    "code": "65300",
    "epci_code": "246500482",
    "departement_code": "65",
    "region_code": "76",
    "postal_code": "65200"
  },
  {
    "name": "Marseillan",
    "code": "65301",
    "epci_code": "200070803",
    "departement_code": "65",
    "region_code": "76",
    "postal_code": "65350"
  },
  {
    "name": "Mascaras",
    "code": "65303",
    "epci_code": "200070803",
    "departement_code": "65",
    "region_code": "76",
    "postal_code": "65190"
  },
  {
    "name": "Maubourguet",
    "code": "65304",
    "epci_code": "200072106",
    "departement_code": "65",
    "region_code": "76",
    "postal_code": "65700"
  },
  {
    "name": "Mauléon-Barousse",
    "code": "65305",
    "epci_code": "200070829",
    "departement_code": "65",
    "region_code": "76",
    "postal_code": "65370"
  },
  {
    "name": "Mauvezin",
    "code": "65306",
    "epci_code": "200070787",
    "departement_code": "65",
    "region_code": "76",
    "postal_code": "65130"
  },
  {
    "name": "Mazères-de-Neste",
    "code": "65307",
    "epci_code": "200070829",
    "departement_code": "65",
    "region_code": "76",
    "postal_code": "65150"
  },
  {
    "name": "Mazerolles",
    "code": "65308",
    "epci_code": "200070795",
    "departement_code": "65",
    "region_code": "76",
    "postal_code": "65220"
  },
  {
    "name": "Mazouau",
    "code": "65309",
    "epci_code": "200070787",
    "departement_code": "65",
    "region_code": "76",
    "postal_code": "65250"
  },
  {
    "name": "Mérilheu",
    "code": "65310",
    "epci_code": "246500482",
    "departement_code": "65",
    "region_code": "76",
    "postal_code": "65200"
  },
  {
    "name": "Mingot",
    "code": "65311",
    "epci_code": "200072106",
    "departement_code": "65",
    "region_code": "76",
    "postal_code": "65140"
  },
  {
    "name": "Momères",
    "code": "65313",
    "epci_code": "200069300",
    "departement_code": "65",
    "region_code": "76",
    "postal_code": "65360"
  },
  {
    "name": "Monfaucon",
    "code": "65314",
    "epci_code": "200072106",
    "departement_code": "65",
    "region_code": "76",
    "postal_code": "65140"
  },
  {
    "name": "Monléon-Magnoac",
    "code": "65315",
    "epci_code": "200070795",
    "departement_code": "65",
    "region_code": "76",
    "postal_code": "65670"
  },
  {
    "name": "Monlong",
    "code": "65316",
    "epci_code": "200070795",
    "departement_code": "65",
    "region_code": "76",
    "postal_code": "65670"
  },
  {
    "name": "Mont",
    "code": "65317",
    "epci_code": "246500573",
    "departement_code": "65",
    "region_code": "76",
    "postal_code": "65240"
  },
  {
    "name": "Montastruc",
    "code": "65318",
    "epci_code": "200070787",
    "departement_code": "65",
    "region_code": "76",
    "postal_code": "65330"
  },
  {
    "name": "Montégut",
    "code": "65319",
    "epci_code": "200070829",
    "departement_code": "65",
    "region_code": "76",
    "postal_code": "65150"
  },
  {
    "name": "Montgaillard",
    "code": "65320",
    "epci_code": "246500482",
    "departement_code": "65",
    "region_code": "76",
    "postal_code": "65200"
  },
  {
    "name": "Montignac",
    "code": "65321",
    "epci_code": "200069300",
    "departement_code": "65",
    "region_code": "76",
    "postal_code": "65690"
  },
  {
    "name": "Montoussé",
    "code": "65322",
    "epci_code": "200070787",
    "departement_code": "65",
    "region_code": "76",
    "postal_code": "65250"
  },
  {
    "name": "Montsérié",
    "code": "65323",
    "epci_code": "200070829",
    "departement_code": "65",
    "region_code": "76",
    "postal_code": "65150"
  },
  {
    "name": "Moulédous",
    "code": "65324",
    "epci_code": "200070803",
    "departement_code": "65",
    "region_code": "76",
    "postal_code": "65190"
  },
  {
    "name": "Moumoulous",
    "code": "65325",
    "epci_code": "200072106",
    "departement_code": "65",
    "region_code": "76",
    "postal_code": "65140"
  },
  {
    "name": "Mun",
    "code": "65326",
    "epci_code": "200070803",
    "departement_code": "65",
    "region_code": "76",
    "postal_code": "65350"
  },
  {
    "name": "Nestier",
    "code": "65327",
    "epci_code": "200070829",
    "departement_code": "65",
    "region_code": "76",
    "postal_code": "65150"
  },
  {
    "name": "Neuilh",
    "code": "65328",
    "epci_code": "246500482",
    "departement_code": "65",
    "region_code": "76",
    "postal_code": "65200"
  },
  {
    "name": "Nistos",
    "code": "65329",
    "epci_code": "200070829",
    "departement_code": "65",
    "region_code": "76",
    "postal_code": "65150"
  },
  {
    "name": "Nouilhan",
    "code": "65330",
    "epci_code": "200072106",
    "departement_code": "65",
    "region_code": "76",
    "postal_code": "65500"
  },
  {
    "name": "Odos",
    "code": "65331",
    "epci_code": "200069300",
    "departement_code": "65",
    "region_code": "76",
    "postal_code": "65310"
  },
  {
    "name": "Oléac-Debat",
    "code": "65332",
    "epci_code": "200070803",
    "departement_code": "65",
    "region_code": "76",
    "postal_code": "65350"
  },
  {
    "name": "Oléac-Dessus",
    "code": "65333",
    "epci_code": "200070803",
    "departement_code": "65",
    "region_code": "76",
    "postal_code": "65190"
  },
  {
    "name": "Omex",
    "code": "65334",
    "epci_code": "200069300",
    "departement_code": "65",
    "region_code": "76",
    "postal_code": "65100"
  },
  {
    "name": "Ordizan",
    "code": "65335",
    "epci_code": "246500482",
    "departement_code": "65",
    "region_code": "76",
    "postal_code": "65200"
  },
  {
    "name": "Organ",
    "code": "65336",
    "epci_code": "200070795",
    "departement_code": "65",
    "region_code": "76",
    "postal_code": "65230"
  },
  {
    "name": "Orieux",
    "code": "65337",
    "epci_code": "200070803",
    "departement_code": "65",
    "region_code": "76",
    "postal_code": "65190"
  },
  {
    "name": "Orignac",
    "code": "65338",
    "epci_code": "246500482",
    "departement_code": "65",
    "region_code": "76",
    "postal_code": "65200"
  },
  {
    "name": "Orincles",
    "code": "65339",
    "epci_code": "200069300",
    "departement_code": "65",
    "region_code": "76",
    "postal_code": "65380"
  },
  {
    "name": "Orleix",
    "code": "65340",
    "epci_code": "200069300",
    "departement_code": "65",
    "region_code": "76",
    "postal_code": "65800"
  },
  {
    "name": "Oroix",
    "code": "65341",
    "epci_code": "200072106",
    "departement_code": "65",
    "region_code": "76",
    "postal_code": "65320"
  },
  {
    "name": "Osmets",
    "code": "65342",
    "epci_code": "200070795",
    "departement_code": "65",
    "region_code": "76",
    "postal_code": "65350"
  },
  {
    "name": "Ossen",
    "code": "65343",
    "epci_code": "200069300",
    "departement_code": "65",
    "region_code": "76",
    "postal_code": "65100"
  },
  {
    "name": "Ossun",
    "code": "65344",
    "epci_code": "200069300",
    "departement_code": "65",
    "region_code": "76",
    "postal_code": "65380"
  },
  {
    "name": "Ossun-ez-Angles",
    "code": "65345",
    "epci_code": "200069300",
    "departement_code": "65",
    "region_code": "76",
    "postal_code": "65100"
  },
  {
    "name": "Oueilloux",
    "code": "65346",
    "epci_code": "200070803",
    "departement_code": "65",
    "region_code": "76",
    "postal_code": "65190"
  },
  {
    "name": "Ourde",
    "code": "65347",
    "epci_code": "200070829",
    "departement_code": "65",
    "region_code": "76",
    "postal_code": "65370"
  },
  {
    "name": "Ourdis-Cotdoussan",
    "code": "65348",
    "epci_code": "200069300",
    "departement_code": "65",
    "region_code": "76",
    "postal_code": "65100"
  },
  {
    "name": "Ourdon",
    "code": "65349",
    "epci_code": "200069300",
    "departement_code": "65",
    "region_code": "76",
    "postal_code": "65100"
  },
  {
    "name": "Oursbelille",
    "code": "65350",
    "epci_code": "200069300",
    "departement_code": "65",
    "region_code": "76",
    "postal_code": "65490"
  },
  {
    "name": "Ousté",
    "code": "65351",
    "epci_code": "200069300",
    "departement_code": "65",
    "region_code": "76",
    "postal_code": "65100"
  },
  {
    "name": "Ouzous",
    "code": "65352",
    "epci_code": "200070811",
    "departement_code": "65",
    "region_code": "76",
    "postal_code": "65400"
  },
  {
    "name": "Ozon",
    "code": "65353",
    "epci_code": "200070803",
    "departement_code": "65",
    "region_code": "76",
    "postal_code": "65190"
  },
  {
    "name": "Pailhac",
    "code": "65354",
    "epci_code": "246500573",
    "departement_code": "65",
    "region_code": "76",
    "postal_code": "65240"
  },
  {
    "name": "Paréac",
    "code": "65355",
    "epci_code": "200069300",
    "departement_code": "65",
    "region_code": "76",
    "postal_code": "65100"
  },
  {
    "name": "Péré",
    "code": "65356",
    "epci_code": "200070787",
    "departement_code": "65",
    "region_code": "76",
    "postal_code": "65130"
  },
  {
    "name": "Peyraube",
    "code": "65357",
    "epci_code": "200070803",
    "departement_code": "65",
    "region_code": "76",
    "postal_code": "65190"
  },
  {
    "name": "Peyret-Saint-André",
    "code": "65358",
    "epci_code": "200070795",
    "departement_code": "65",
    "region_code": "76",
    "postal_code": "65230"
  },
  {
    "name": "Peyriguère",
    "code": "65359",
    "epci_code": "200070803",
    "departement_code": "65",
    "region_code": "76",
    "postal_code": "65350"
  },
  {
    "name": "Peyrouse",
    "code": "65360",
    "epci_code": "200069300",
    "departement_code": "65",
    "region_code": "76",
    "postal_code": "65270"
  },
  {
    "name": "Peyrun",
    "code": "65361",
    "epci_code": "200072106",
    "departement_code": "65",
    "region_code": "76",
    "postal_code": "65140"
  },
  {
    "name": "Pierrefitte-Nestalas",
    "code": "65362",
    "epci_code": "200070811",
    "departement_code": "65",
    "region_code": "76",
    "postal_code": "65260"
  },
  {
    "name": "Pinas",
    "code": "65363",
    "epci_code": "200070787",
    "departement_code": "65",
    "region_code": "76",
    "postal_code": "65300"
  },
  {
    "name": "Pintac",
    "code": "65364",
    "epci_code": "200072106",
    "departement_code": "65",
    "region_code": "76",
    "postal_code": "65320"
  },
  {
    "name": "Poueyferré",
    "code": "65366",
    "epci_code": "200069300",
    "departement_code": "65",
    "region_code": "76",
    "postal_code": "65100"
  },
  {
    "name": "Poumarous",
    "code": "65367",
    "epci_code": "200070803",
    "departement_code": "65",
    "region_code": "76",
    "postal_code": "65190"
  },
  {
    "name": "Pouy",
    "code": "65368",
    "epci_code": "200070795",
    "departement_code": "65",
    "region_code": "76",
    "postal_code": "65230"
  },
  {
    "name": "Pouyastruc",
    "code": "65369",
    "epci_code": "200070803",
    "departement_code": "65",
    "region_code": "76",
    "postal_code": "65350"
  },
  {
    "name": "Pouzac",
    "code": "65370",
    "epci_code": "246500482",
    "departement_code": "65",
    "region_code": "76",
    "postal_code": "65200"
  },
  {
    "name": "Préchac",
    "code": "65371",
    "epci_code": "200070811",
    "departement_code": "65",
    "region_code": "76",
    "postal_code": "65400"
  },
  {
    "name": "Pujo",
    "code": "65372",
    "epci_code": "200072106",
    "departement_code": "65",
    "region_code": "76",
    "postal_code": "65500"
  },
  {
    "name": "Puntous",
    "code": "65373",
    "epci_code": "200070795",
    "departement_code": "65",
    "region_code": "76",
    "postal_code": "65230"
  },
  {
    "name": "Puydarrieux",
    "code": "65374",
    "epci_code": "200070795",
    "departement_code": "65",
    "region_code": "76",
    "postal_code": "65220"
  },
  {
    "name": "Rabastens-de-Bigorre",
    "code": "65375",
    "epci_code": "200072106",
    "departement_code": "65",
    "region_code": "76",
    "postal_code": "65140"
  },
  {
    "name": "Recurt",
    "code": "65376",
    "epci_code": "200070787",
    "departement_code": "65",
    "region_code": "76",
    "postal_code": "65330"
  },
  {
    "name": "Réjaumont",
    "code": "65377",
    "epci_code": "200070787",
    "departement_code": "65",
    "region_code": "76",
    "postal_code": "65300"
  },
  {
    "name": "Ricaud",
    "code": "65378",
    "epci_code": "200070803",
    "departement_code": "65",
    "region_code": "76",
    "postal_code": "65190"
  },
  {
    "name": "Ris",
    "code": "65379",
    "epci_code": "246500573",
    "departement_code": "65",
    "region_code": "76",
    "postal_code": "65590"
  },
  {
    "name": "Sabalos",
    "code": "65380",
    "epci_code": "200070803",
    "departement_code": "65",
    "region_code": "76",
    "postal_code": "65350"
  },
  {
    "name": "Sabarros",
    "code": "65381",
    "epci_code": "200070787",
    "departement_code": "65",
    "region_code": "76",
    "postal_code": "65330"
  },
  {
    "name": "Sacoué",
    "code": "65382",
    "epci_code": "200070829",
    "departement_code": "65",
    "region_code": "76",
    "postal_code": "65370"
  },
  {
    "name": "Sadournin",
    "code": "65383",
    "epci_code": "200070795",
    "departement_code": "65",
    "region_code": "76",
    "postal_code": "65220"
  },
  {
    "name": "Sailhan",
    "code": "65384",
    "epci_code": "246500573",
    "departement_code": "65",
    "region_code": "76",
    "postal_code": "65170"
  },
  {
    "name": "Saint-Arroman",
    "code": "65385",
    "epci_code": "200070787",
    "departement_code": "65",
    "region_code": "76",
    "postal_code": "65250"
  },
  {
    "name": "Saint-Créac",
    "code": "65386",
    "epci_code": "200069300",
    "departement_code": "65",
    "region_code": "76",
    "postal_code": "65100"
  },
  {
    "name": "Saint-Lanne",
    "code": "65387",
    "epci_code": "200072106",
    "departement_code": "65",
    "region_code": "76",
    "postal_code": "65700"
  },
  {
    "name": "Saint-Lary-Soulan",
    "code": "65388",
    "epci_code": "246500573",
    "departement_code": "65",
    "region_code": "76",
    "postal_code": "65170"
  },
  {
    "name": "Saint-Laurent-de-Neste",
    "code": "65389",
    "epci_code": "200070829",
    "departement_code": "65",
    "region_code": "76",
    "postal_code": "65150"
  },
  {
    "name": "Saint-Lézer",
    "code": "65390",
    "epci_code": "200072106",
    "departement_code": "65",
    "region_code": "76",
    "postal_code": "65500"
  },
  {
    "name": "Sainte-Marie",
    "code": "65391",
    "epci_code": "200070829",
    "departement_code": "65",
    "region_code": "76",
    "postal_code": "65370"
  },
  {
    "name": "Saint-Martin",
    "code": "65392",
    "epci_code": "200069300",
    "departement_code": "65",
    "region_code": "76",
    "postal_code": "65360"
  },
  {
    "name": "Saint-Pastous",
    "code": "65393",
    "epci_code": "200070811",
    "departement_code": "65",
    "region_code": "76",
    "postal_code": "65400"
  },
  {
    "name": "Saint-Paul",
    "code": "65394",
    "epci_code": "200070829",
    "departement_code": "65",
    "region_code": "76",
    "postal_code": "65150"
  },
  {
    "name": "Saint-Pé-de-Bigorre",
    "code": "65395",
    "epci_code": "200069300",
    "departement_code": "65",
    "region_code": "76",
    "postal_code": "65270"
  },
  {
    "name": "Saint-Savin",
    "code": "65396",
    "epci_code": "200070811",
    "departement_code": "65",
    "region_code": "76",
    "postal_code": "65400"
  },
  {
    "name": "Saint-Sever-de-Rustan",
    "code": "65397",
    "epci_code": "200072106",
    "departement_code": "65",
    "region_code": "76",
    "postal_code": "65140"
  },
  {
    "name": "Saléchan",
    "code": "65398",
    "epci_code": "200070829",
    "departement_code": "65",
    "region_code": "76",
    "postal_code": "65370"
  },
  {
    "name": "Saligos",
    "code": "65399",
    "epci_code": "200070811",
    "departement_code": "65",
    "region_code": "76",
    "postal_code": "65120"
  },
  {
    "name": "Salles",
    "code": "65400",
    "epci_code": "200070811",
    "departement_code": "65",
    "region_code": "76",
    "postal_code": "65400"
  },
  {
    "name": "Salles-Adour",
    "code": "65401",
    "epci_code": "200069300",
    "departement_code": "65",
    "region_code": "76",
    "postal_code": "65360"
  },
  {
    "name": "Samuran",
    "code": "65402",
    "epci_code": "200070829",
    "departement_code": "65",
    "region_code": "76",
    "postal_code": "65370"
  },
  {
    "name": "Sanous",
    "code": "65403",
    "epci_code": "200072106",
    "departement_code": "65",
    "region_code": "76",
    "postal_code": "65500"
  },
  {
    "name": "Sariac-Magnoac",
    "code": "65404",
    "epci_code": "200070795",
    "departement_code": "65",
    "region_code": "76",
    "postal_code": "65230"
  },
  {
    "name": "Sarlabous",
    "code": "65405",
    "epci_code": "200070787",
    "departement_code": "65",
    "region_code": "76",
    "postal_code": "65130"
  },
  {
    "name": "Sarniguet",
    "code": "65406",
    "epci_code": "200069300",
    "departement_code": "65",
    "region_code": "76",
    "postal_code": "65390"
  },
  {
    "name": "Sarp",
    "code": "65407",
    "epci_code": "200070829",
    "departement_code": "65",
    "region_code": "76",
    "postal_code": "65370"
  },
  {
    "name": "Sarrancolin",
    "code": "65408",
    "epci_code": "246500573",
    "departement_code": "65",
    "region_code": "76",
    "postal_code": "65410"
  },
  {
    "name": "Sarriac-Bigorre",
    "code": "65409",
    "epci_code": "200072106",
    "departement_code": "65",
    "region_code": "76",
    "postal_code": "65140"
  },
  {
    "name": "Sarrouilles",
    "code": "65410",
    "epci_code": "200069300",
    "departement_code": "65",
    "region_code": "76",
    "postal_code": "65600"
  },
  {
    "name": "Sassis",
    "code": "65411",
    "epci_code": "200070811",
    "departement_code": "65",
    "region_code": "76",
    "postal_code": "65120"
  },
  {
    "name": "Sauveterre",
    "code": "65412",
    "epci_code": "200072106",
    "departement_code": "65",
    "region_code": "76",
    "postal_code": "65700"
  },
  {
    "name": "Sazos",
    "code": "65413",
    "epci_code": "200070811",
    "departement_code": "65",
    "region_code": "76",
    "postal_code": "65120"
  },
  {
    "name": "Ségalas",
    "code": "65414",
    "epci_code": "200072106",
    "departement_code": "65",
    "region_code": "76",
    "postal_code": "65140"
  },
  {
    "name": "Ségus",
    "code": "65415",
    "epci_code": "200069300",
    "departement_code": "65",
    "region_code": "76",
    "postal_code": "65100"
  },
  {
    "name": "Seich",
    "code": "65416",
    "epci_code": "200070829",
    "departement_code": "65",
    "region_code": "76",
    "postal_code": "65150"
  },
  {
    "name": "Séméac",
    "code": "65417",
    "epci_code": "200069300",
    "departement_code": "65",
    "region_code": "76",
    "postal_code": "65600"
  },
  {
    "name": "Sénac",
    "code": "65418",
    "epci_code": "200072106",
    "departement_code": "65",
    "region_code": "76",
    "postal_code": "65140"
  },
  {
    "name": "Sentous",
    "code": "65419",
    "epci_code": "200070787",
    "departement_code": "65",
    "region_code": "76",
    "postal_code": "65330"
  },
  {
    "name": "Sère-en-Lavedan",
    "code": "65420",
    "epci_code": "200070811",
    "departement_code": "65",
    "region_code": "76",
    "postal_code": "65400"
  },
  {
    "name": "Sère-Lanso",
    "code": "65421",
    "epci_code": "200069300",
    "departement_code": "65",
    "region_code": "76",
    "postal_code": "65100"
  },
  {
    "name": "Séron",
    "code": "65422",
    "epci_code": "200069300",
    "departement_code": "65",
    "region_code": "76",
    "postal_code": "65320"
  },
  {
    "name": "Sère-Rustaing",
    "code": "65423",
    "epci_code": "200070795",
    "departement_code": "65",
    "region_code": "76",
    "postal_code": "65220"
  },
  {
    "name": "Sers",
    "code": "65424",
    "epci_code": "200070811",
    "departement_code": "65",
    "region_code": "76",
    "postal_code": "65120"
  },
  {
    "name": "Siarrouy",
    "code": "65425",
    "epci_code": "200072106",
    "departement_code": "65",
    "region_code": "76",
    "postal_code": "65500"
  },
  {
    "name": "Sinzos",
    "code": "65426",
    "epci_code": "200070803",
    "departement_code": "65",
    "region_code": "76",
    "postal_code": "65190"
  },
  {
    "name": "Siradan",
    "code": "65427",
    "epci_code": "200070829",
    "departement_code": "65",
    "region_code": "76",
    "postal_code": "65370"
  },
  {
    "name": "Sireix",
    "code": "65428",
    "epci_code": "200070811",
    "departement_code": "65",
    "region_code": "76",
    "postal_code": "65400"
  },
  {
    "name": "Sombrun",
    "code": "65429",
    "epci_code": "200072106",
    "departement_code": "65",
    "region_code": "76",
    "postal_code": "65700"
  },
  {
    "name": "Soréac",
    "code": "65430",
    "epci_code": "200070803",
    "departement_code": "65",
    "region_code": "76",
    "postal_code": "65350"
  },
  {
    "name": "Sost",
    "code": "65431",
    "epci_code": "200070829",
    "departement_code": "65",
    "region_code": "76",
    "postal_code": "65370"
  },
  {
    "name": "Soublecause",
    "code": "65432",
    "epci_code": "200072106",
    "departement_code": "65",
    "region_code": "76",
    "postal_code": "65700"
  },
  {
    "name": "Soues",
    "code": "65433",
    "epci_code": "200069300",
    "departement_code": "65",
    "region_code": "76",
    "postal_code": "65430"
  },
  {
    "name": "Soulom",
    "code": "65435",
    "epci_code": "200070811",
    "departement_code": "65",
    "region_code": "76",
    "postal_code": "65260"
  },
  {
    "name": "Souyeaux",
    "code": "65436",
    "epci_code": "200070803",
    "departement_code": "65",
    "region_code": "76",
    "postal_code": "65350"
  },
  {
    "name": "Tajan",
    "code": "65437",
    "epci_code": "200070787",
    "departement_code": "65",
    "region_code": "76",
    "postal_code": "65300"
  },
  {
    "name": "Talazac",
    "code": "65438",
    "epci_code": "200072106",
    "departement_code": "65",
    "region_code": "76",
    "postal_code": "65500"
  },
  {
    "name": "Tarasteix",
    "code": "65439",
    "epci_code": "200072106",
    "departement_code": "65",
    "region_code": "76",
    "postal_code": "65320"
  },
  {
    "name": "Tarbes",
    "code": "65440",
    "epci_code": "200069300",
    "departement_code": "65",
    "region_code": "76",
    "postal_code": "65000"
  },
  {
    "name": "Thèbe",
    "code": "65441",
    "epci_code": "200070829",
    "departement_code": "65",
    "region_code": "76",
    "postal_code": "65370"
  },
  {
    "name": "Thermes-Magnoac",
    "code": "65442",
    "epci_code": "200070795",
    "departement_code": "65",
    "region_code": "76",
    "postal_code": "65230"
  },
  {
    "name": "Thuy",
    "code": "65443",
    "epci_code": "200070803",
    "departement_code": "65",
    "region_code": "76",
    "postal_code": "65350"
  },
  {
    "name": "Tibiran-Jaunac",
    "code": "65444",
    "epci_code": "200070829",
    "departement_code": "65",
    "region_code": "76",
    "postal_code": "65150"
  },
  {
    "name": "Tilhouse",
    "code": "65445",
    "epci_code": "200070787",
    "departement_code": "65",
    "region_code": "76",
    "postal_code": "65130"
  },
  {
    "name": "Tostat",
    "code": "65446",
    "epci_code": "200072106",
    "departement_code": "65",
    "region_code": "76",
    "postal_code": "65140"
  },
  {
    "name": "Tournay",
    "code": "65447",
    "epci_code": "200070803",
    "departement_code": "65",
    "region_code": "76",
    "postal_code": "65190"
  },
  {
    "name": "Tournous-Darré",
    "code": "65448",
    "epci_code": "200070795",
    "departement_code": "65",
    "region_code": "76",
    "postal_code": "65220"
  },
  {
    "name": "Tournous-Devant",
    "code": "65449",
    "epci_code": "200070787",
    "departement_code": "65",
    "region_code": "76",
    "postal_code": "65330"
  },
  {
    "name": "Tramezaïgues",
    "code": "65450",
    "epci_code": "246500573",
    "departement_code": "65",
    "region_code": "76",
    "postal_code": "65170"
  },
  {
    "name": "Trébons",
    "code": "65451",
    "epci_code": "246500482",
    "departement_code": "65",
    "region_code": "76",
    "postal_code": "65200"
  },
  {
    "name": "Trie-sur-Baïse",
    "code": "65452",
    "epci_code": "200070795",
    "departement_code": "65",
    "region_code": "76",
    "postal_code": "65220"
  },
  {
    "name": "Troubat",
    "code": "65453",
    "epci_code": "200070829",
    "departement_code": "65",
    "region_code": "76",
    "postal_code": "65370"
  },
  {
    "name": "Trouley-Labarthe",
    "code": "65454",
    "epci_code": "200072106",
    "departement_code": "65",
    "region_code": "76",
    "postal_code": "65140"
  },
  {
    "name": "Tuzaguet",
    "code": "65455",
    "epci_code": "200070829",
    "departement_code": "65",
    "region_code": "76",
    "postal_code": "65150"
  },
  {
    "name": "Uglas",
    "code": "65456",
    "epci_code": "200070787",
    "departement_code": "65",
    "region_code": "76",
    "postal_code": "65300"
  },
  {
    "name": "Ugnouas",
    "code": "65457",
    "epci_code": "200072106",
    "departement_code": "65",
    "region_code": "76",
    "postal_code": "65140"
  },
  {
    "name": "Uz",
    "code": "65458",
    "epci_code": "200070811",
    "departement_code": "65",
    "region_code": "76",
    "postal_code": "65400"
  },
  {
    "name": "Uzer",
    "code": "65459",
    "epci_code": "246500482",
    "departement_code": "65",
    "region_code": "76",
    "postal_code": "65200"
  },
  {
    "name": "Vic-en-Bigorre",
    "code": "65460",
    "epci_code": "200072106",
    "departement_code": "65",
    "region_code": "76",
    "postal_code": "65500"
  },
  {
    "name": "Vidou",
    "code": "65461",
    "epci_code": "200070795",
    "departement_code": "65",
    "region_code": "76",
    "postal_code": "65220"
  },
  {
    "name": "Vidouze",
    "code": "65462",
    "epci_code": "200072106",
    "departement_code": "65",
    "region_code": "76",
    "postal_code": "65700"
  },
  {
    "name": "Viella",
    "code": "65463",
    "epci_code": "200070811",
    "departement_code": "65",
    "region_code": "76",
    "postal_code": "65120"
  },
  {
    "name": "Vielle-Adour",
    "code": "65464",
    "epci_code": "200069300",
    "departement_code": "65",
    "region_code": "76",
    "postal_code": "65360"
  },
  {
    "name": "Vielle-Aure",
    "code": "65465",
    "epci_code": "246500573",
    "departement_code": "65",
    "region_code": "76",
    "postal_code": "65170"
  },
  {
    "name": "Vielle-Louron",
    "code": "65466",
    "epci_code": "246500573",
    "departement_code": "65",
    "region_code": "76",
    "postal_code": "65240"
  },
  {
    "name": "Vier-Bordes",
    "code": "65467",
    "epci_code": "200070811",
    "departement_code": "65",
    "region_code": "76",
    "postal_code": "65400"
  },
  {
    "name": "Vieuzos",
    "code": "65468",
    "epci_code": "200070795",
    "departement_code": "65",
    "region_code": "76",
    "postal_code": "65230"
  },
  {
    "name": "Viey",
    "code": "65469",
    "epci_code": "200070811",
    "departement_code": "65",
    "region_code": "76",
    "postal_code": "65120"
  },
  {
    "name": "Viger",
    "code": "65470",
    "epci_code": "200069300",
    "departement_code": "65",
    "region_code": "76",
    "postal_code": "65100"
  },
  {
    "name": "Vignec",
    "code": "65471",
    "epci_code": "246500573",
    "departement_code": "65",
    "region_code": "76",
    "postal_code": "65170"
  },
  {
    "name": "Villefranque",
    "code": "65472",
    "epci_code": "200072106",
    "departement_code": "65",
    "region_code": "76",
    "postal_code": "65700"
  },
  {
    "name": "Villelongue",
    "code": "65473",
    "epci_code": "200070811",
    "departement_code": "65",
    "region_code": "76",
    "postal_code": "65260"
  },
  {
    "name": "Villembits",
    "code": "65474",
    "epci_code": "200070795",
    "departement_code": "65",
    "region_code": "76",
    "postal_code": "65220"
  },
  {
    "name": "Villemur",
    "code": "65475",
    "epci_code": "200070795",
    "departement_code": "65",
    "region_code": "76",
    "postal_code": "65230"
  },
  {
    "name": "Villenave-près-Béarn",
    "code": "65476",
    "epci_code": "200072106",
    "departement_code": "65",
    "region_code": "76",
    "postal_code": "65500"
  },
  {
    "name": "Villenave-près-Marsac",
    "code": "65477",
    "epci_code": "200072106",
    "departement_code": "65",
    "region_code": "76",
    "postal_code": "65500"
  },
  {
    "name": "Viscos",
    "code": "65478",
    "epci_code": "200070811",
    "departement_code": "65",
    "region_code": "76",
    "postal_code": "65120"
  },
  {
    "name": "Visker",
    "code": "65479",
    "epci_code": "200069300",
    "departement_code": "65",
    "region_code": "76",
    "postal_code": "65200"
  },
  {
    "name": "Barèges",
    "code": "65481",
    "epci_code": "200070811",
    "departement_code": "65",
    "region_code": "76",
    "postal_code": "65120"
  },
  {
    "name": "Cantaous",
    "code": "65482",
    "epci_code": "200070829",
    "departement_code": "65",
    "region_code": "76",
    "postal_code": "65150"
  }
]