[
  {
    "name": "Adriers",
    "code": "86001",
    "epci_code": "200070043",
    "departement_code": "86",
    "region_code": "75",
    "postal_code": "86430"
  },
  {
    "name": "Amberre",
    "code": "86002",
    "epci_code": "200069763",
    "departement_code": "86",
    "region_code": "75",
    "postal_code": "86110"
  },
  {
    "name": "Anché",
    "code": "86003",
    "epci_code": "200070035",
    "departement_code": "86",
    "region_code": "75",
    "postal_code": "86700"
  },
  {
    "name": "Angles-sur-l’Anglin",
    "code": "86004",
    "epci_code": "248600413",
    "departement_code": "86",
    "region_code": "75",
    "postal_code": "86260"
  },
  {
    "name": "Angliers",
    "code": "86005",
    "epci_code": "248600447",
    "departement_code": "86",
    "region_code": "75",
    "postal_code": "86330"
  },
  {
    "name": "Antigny",
    "code": "86006",
    "epci_code": "200070043",
    "departement_code": "86",
    "region_code": "75",
    "postal_code": "86310"
  },
  {
    "name": "Antran",
    "code": "86007",
    "epci_code": "248600413",
    "departement_code": "86",
    "region_code": "75",
    "postal_code": "86100"
  },
  {
    "name": "Arçay",
    "code": "86008",
    "epci_code": "248600447",
    "departement_code": "86",
    "region_code": "75",
    "postal_code": "86200"
  },
  {
    "name": "Archigny",
    "code": "86009",
    "epci_code": "248600413",
    "departement_code": "86",
    "region_code": "75",
    "postal_code": "86210"
  },
  {
    "name": "Aslonnes",
    "code": "86010",
    "epci_code": "200043628",
    "departement_code": "86",
    "region_code": "75",
    "postal_code": "86340"
  },
  {
    "name": "Asnières-sur-Blour",
    "code": "86011",
    "epci_code": "200070043",
    "departement_code": "86",
    "region_code": "75",
    "postal_code": "86430"
  },
  {
    "name": "Asnois",
    "code": "86012",
    "epci_code": "200070035",
    "departement_code": "86",
    "region_code": "75",
    "postal_code": "86250"
  },
  {
    "name": "Aulnay",
    "code": "86013",
    "epci_code": "248600447",
    "departement_code": "86",
    "region_code": "75",
    "postal_code": "86330"
  },
  {
    "name": "Availles-en-Châtellerault",
    "code": "86014",
    "epci_code": "248600413",
    "departement_code": "86",
    "region_code": "75",
    "postal_code": "86530"
  },
  {
    "name": "Availles-Limouzine",
    "code": "86015",
    "epci_code": "200070043",
    "departement_code": "86",
    "region_code": "75",
    "postal_code": "86460"
  },
  {
    "name": "Avanton",
    "code": "86016",
    "epci_code": "200069763",
    "departement_code": "86",
    "region_code": "75",
    "postal_code": "86170"
  },
  {
    "name": "Ayron",
    "code": "86017",
    "epci_code": "200069763",
    "departement_code": "86",
    "region_code": "75",
    "postal_code": "86190"
  },
  {
    "name": "Basses",
    "code": "86018",
    "epci_code": "248600447",
    "departement_code": "86",
    "region_code": "75",
    "postal_code": "86200"
  },
  {
    "name": "Beaumont Saint-Cyr",
    "code": "86019",
    "epci_code": "200069854",
    "departement_code": "86",
    "region_code": "75",
    "postal_code": "86130"
  },
  {
    "name": "Beaumont Saint-Cyr",
    "code": "86019",
    "epci_code": "200069854",
    "departement_code": "86",
    "region_code": "75",
    "postal_code": "86490"
  },
  {
    "name": "Bellefonds",
    "code": "86020",
    "epci_code": "248600413",
    "departement_code": "86",
    "region_code": "75",
    "postal_code": "86210"
  },
  {
    "name": "Berrie",
    "code": "86022",
    "epci_code": "248600447",
    "departement_code": "86",
    "region_code": "75",
    "postal_code": "86120"
  },
  {
    "name": "Berthegon",
    "code": "86023",
    "epci_code": "248600447",
    "departement_code": "86",
    "region_code": "75",
    "postal_code": "86420"
  },
  {
    "name": "Béruges",
    "code": "86024",
    "epci_code": "200069854",
    "departement_code": "86",
    "region_code": "75",
    "postal_code": "86190"
  },
  {
    "name": "Béthines",
    "code": "86025",
    "epci_code": "200070043",
    "departement_code": "86",
    "region_code": "75",
    "postal_code": "86310"
  },
  {
    "name": "Beuxes",
    "code": "86026",
    "epci_code": "248600447",
    "departement_code": "86",
    "region_code": "75",
    "postal_code": "86120"
  },
  {
    "name": "Biard",
    "code": "86027",
    "epci_code": "200069854",
    "departement_code": "86",
    "region_code": "75",
    "postal_code": "86580"
  },
  {
    "name": "Bignoux",
    "code": "86028",
    "epci_code": "200069854",
    "departement_code": "86",
    "region_code": "75",
    "postal_code": "86800"
  },
  {
    "name": "Blanzay",
    "code": "86029",
    "epci_code": "200070035",
    "departement_code": "86",
    "region_code": "75",
    "postal_code": "86400"
  },
  {
    "name": "Bonnes",
    "code": "86031",
    "epci_code": "200069854",
    "departement_code": "86",
    "region_code": "75",
    "postal_code": "86300"
  },
  {
    "name": "Bonneuil-Matours",
    "code": "86032",
    "epci_code": "248600413",
    "departement_code": "86",
    "region_code": "75",
    "postal_code": "86210"
  },
  {
    "name": "Bouresse",
    "code": "86034",
    "epci_code": "200070043",
    "departement_code": "86",
    "region_code": "75",
    "postal_code": "86410"
  },
  {
    "name": "Bourg-Archambault",
    "code": "86035",
    "epci_code": "200070043",
    "departement_code": "86",
    "region_code": "75",
    "postal_code": "86390"
  },
  {
    "name": "Bournand",
    "code": "86036",
    "epci_code": "248600447",
    "departement_code": "86",
    "region_code": "75",
    "postal_code": "86120"
  },
  {
    "name": "Brigueil-le-Chantre",
    "code": "86037",
    "epci_code": "200070043",
    "departement_code": "86",
    "region_code": "75",
    "postal_code": "86290"
  },
  {
    "name": "Brion",
    "code": "86038",
    "epci_code": "200070035",
    "departement_code": "86",
    "region_code": "75",
    "postal_code": "86160"
  },
  {
    "name": "Brux",
    "code": "86039",
    "epci_code": "200070035",
    "departement_code": "86",
    "region_code": "75",
    "postal_code": "86510"
  },
  {
    "name": "La Bussière",
    "code": "86040",
    "epci_code": "200070043",
    "departement_code": "86",
    "region_code": "75",
    "postal_code": "86310"
  },
  {
    "name": "Buxerolles",
    "code": "86041",
    "epci_code": "200069854",
    "departement_code": "86",
    "region_code": "75",
    "postal_code": "86180"
  },
  {
    "name": "Buxeuil",
    "code": "86042",
    "epci_code": "248600413",
    "departement_code": "86",
    "region_code": "75",
    "postal_code": "37160"
  },
  {
    "name": "Ceaux-en-Loudun",
    "code": "86044",
    "epci_code": "248600447",
    "departement_code": "86",
    "region_code": "75",
    "postal_code": "86200"
  },
  {
    "name": "Celle-Lévescault",
    "code": "86045",
    "epci_code": "200069854",
    "departement_code": "86",
    "region_code": "75",
    "postal_code": "86600"
  },
  {
    "name": "Cenon-sur-Vienne",
    "code": "86046",
    "epci_code": "248600413",
    "departement_code": "86",
    "region_code": "75",
    "postal_code": "86530"
  },
  {
    "name": "Cernay",
    "code": "86047",
    "epci_code": "248600413",
    "departement_code": "86",
    "region_code": "75",
    "postal_code": "86140"
  },
  {
    "name": "Chabournay",
    "code": "86048",
    "epci_code": "200069763",
    "departement_code": "86",
    "region_code": "75",
    "postal_code": "86380"
  },
  {
    "name": "Chalais",
    "code": "86049",
    "epci_code": "248600447",
    "departement_code": "86",
    "region_code": "75",
    "postal_code": "86200"
  },
  {
    "name": "Chalandray",
    "code": "86050",
    "epci_code": "200069763",
    "departement_code": "86",
    "region_code": "75",
    "postal_code": "86190"
  },
  {
    "name": "Champagné-le-Sec",
    "code": "86051",
    "epci_code": "200070035",
    "departement_code": "86",
    "region_code": "75",
    "postal_code": "86510"
  },
  {
    "name": "Champagné-Saint-Hilaire",
    "code": "86052",
    "epci_code": "200070035",
    "departement_code": "86",
    "region_code": "75",
    "postal_code": "86160"
  },
  {
    "name": "Champigny en Rochereau",
    "code": "86053",
    "epci_code": "200069763",
    "departement_code": "86",
    "region_code": "75",
    "postal_code": "86170"
  },
  {
    "name": "Champniers",
    "code": "86054",
    "epci_code": "200070035",
    "departement_code": "86",
    "region_code": "75",
    "postal_code": "86400"
  },
  {
    "name": "La Chapelle-Bâton",
    "code": "86055",
    "epci_code": "200070035",
    "departement_code": "86",
    "region_code": "75",
    "postal_code": "86250"
  },
  {
    "name": "La Chapelle-Moulière",
    "code": "86058",
    "epci_code": "200069854",
    "departement_code": "86",
    "region_code": "75",
    "postal_code": "86210"
  },
  {
    "name": "Chapelle-Viviers",
    "code": "86059",
    "epci_code": "200070043",
    "departement_code": "86",
    "region_code": "75",
    "postal_code": "86300"
  },
  {
    "name": "Charroux",
    "code": "86061",
    "epci_code": "200070035",
    "departement_code": "86",
    "region_code": "75",
    "postal_code": "86250"
  },
  {
    "name": "Chasseneuil-du-Poitou",
    "code": "86062",
    "epci_code": "200069854",
    "departement_code": "86",
    "region_code": "75",
    "postal_code": "86360"
  },
  {
    "name": "Chatain",
    "code": "86063",
    "epci_code": "200070035",
    "departement_code": "86",
    "region_code": "75",
    "postal_code": "86250"
  },
  {
    "name": "Château-Garnier",
    "code": "86064",
    "epci_code": "200070035",
    "departement_code": "86",
    "region_code": "75",
    "postal_code": "86350"
  },
  {
    "name": "Château-Larcher",
    "code": "86065",
    "epci_code": "200043628",
    "departement_code": "86",
    "region_code": "75",
    "postal_code": "86370"
  },
  {
    "name": "Châtellerault",
    "code": "86066",
    "epci_code": "248600413",
    "departement_code": "86",
    "region_code": "75",
    "postal_code": "86100"
  },
  {
    "name": "Chaunay",
    "code": "86068",
    "epci_code": "200070035",
    "departement_code": "86",
    "region_code": "75",
    "postal_code": "86510"
  },
  {
    "name": "La Chaussée",
    "code": "86069",
    "epci_code": "248600447",
    "departement_code": "86",
    "region_code": "75",
    "postal_code": "86330"
  },
  {
    "name": "Chauvigny",
    "code": "86070",
    "epci_code": "200069854",
    "departement_code": "86",
    "region_code": "75",
    "postal_code": "86300"
  },
  {
    "name": "Chenevelles",
    "code": "86072",
    "epci_code": "248600413",
    "departement_code": "86",
    "region_code": "75",
    "postal_code": "86450"
  },
  {
    "name": "Cherves",
    "code": "86073",
    "epci_code": "200069763",
    "departement_code": "86",
    "region_code": "75",
    "postal_code": "86170"
  },
  {
    "name": "Chiré-en-Montreuil",
    "code": "86074",
    "epci_code": "200069763",
    "departement_code": "86",
    "region_code": "75",
    "postal_code": "86190"
  },
  {
    "name": "Chouppes",
    "code": "86075",
    "epci_code": "200069763",
    "departement_code": "86",
    "region_code": "75",
    "postal_code": "86110"
  },
  {
    "name": "Cissé",
    "code": "86076",
    "epci_code": "200069763",
    "departement_code": "86",
    "region_code": "75",
    "postal_code": "86170"
  },
  {
    "name": "Civaux",
    "code": "86077",
    "epci_code": "200070043",
    "departement_code": "86",
    "region_code": "75",
    "postal_code": "86320"
  },
  {
    "name": "Civray",
    "code": "86078",
    "epci_code": "200070035",
    "departement_code": "86",
    "region_code": "75",
    "postal_code": "86400"
  },
  {
    "name": "La Roche-Rigault",
    "code": "86079",
    "epci_code": "248600447",
    "departement_code": "86",
    "region_code": "75",
    "postal_code": "86200"
  },
  {
    "name": "Cloué",
    "code": "86080",
    "epci_code": "200069854",
    "departement_code": "86",
    "region_code": "75",
    "postal_code": "86600"
  },
  {
    "name": "Colombiers",
    "code": "86081",
    "epci_code": "248600413",
    "departement_code": "86",
    "region_code": "75",
    "postal_code": "86490"
  },
  {
    "name": "Valence-en-Poitou",
    "code": "86082",
    "epci_code": "200070035",
    "departement_code": "86",
    "region_code": "75",
    "postal_code": "86700"
  },
  {
    "name": "Coulombiers",
    "code": "86083",
    "epci_code": "200069854",
    "departement_code": "86",
    "region_code": "75",
    "postal_code": "86600"
  },
  {
    "name": "Coulonges-les-Hérolles",
    "code": "86084",
    "epci_code": "200070043",
    "departement_code": "86",
    "region_code": "75",
    "postal_code": "86290"
  },
  {
    "name": "Coussay",
    "code": "86085",
    "epci_code": "200069763",
    "departement_code": "86",
    "region_code": "75",
    "postal_code": "86110"
  },
  {
    "name": "Coussay-les-Bois",
    "code": "86086",
    "epci_code": "248600413",
    "departement_code": "86",
    "region_code": "75",
    "postal_code": "86270"
  },
  {
    "name": "Craon",
    "code": "86087",
    "epci_code": "248600447",
    "departement_code": "86",
    "region_code": "75",
    "postal_code": "86110"
  },
  {
    "name": "Croutelle",
    "code": "86088",
    "epci_code": "200069854",
    "departement_code": "86",
    "region_code": "75",
    "postal_code": "86240"
  },
  {
    "name": "Cuhon",
    "code": "86089",
    "epci_code": "200069763",
    "departement_code": "86",
    "region_code": "75",
    "postal_code": "86110"
  },
  {
    "name": "Curçay-sur-Dive",
    "code": "86090",
    "epci_code": "248600447",
    "departement_code": "86",
    "region_code": "75",
    "postal_code": "86120"
  },
  {
    "name": "Curzay-sur-Vonne",
    "code": "86091",
    "epci_code": "200069854",
    "departement_code": "86",
    "region_code": "75",
    "postal_code": "86600"
  },
  {
    "name": "Dangé-Saint-Romain",
    "code": "86092",
    "epci_code": "248600413",
    "departement_code": "86",
    "region_code": "75",
    "postal_code": "86220"
  },
  {
    "name": "Dercé",
    "code": "86093",
    "epci_code": "248600447",
    "departement_code": "86",
    "region_code": "75",
    "postal_code": "86420"
  },
  {
    "name": "Dienné",
    "code": "86094",
    "epci_code": "200043628",
    "departement_code": "86",
    "region_code": "75",
    "postal_code": "86410"
  },
  {
    "name": "Dissay",
    "code": "86095",
    "epci_code": "200069854",
    "departement_code": "86",
    "region_code": "75",
    "postal_code": "86130"
  },
  {
    "name": "Doussay",
    "code": "86096",
    "epci_code": "248600413",
    "departement_code": "86",
    "region_code": "75",
    "postal_code": "86140"
  },
  {
    "name": "La Ferrière-Airoux",
    "code": "86097",
    "epci_code": "200070035",
    "departement_code": "86",
    "region_code": "75",
    "postal_code": "86160"
  },
  {
    "name": "Fleix",
    "code": "86098",
    "epci_code": "200070043",
    "departement_code": "86",
    "region_code": "75",
    "postal_code": "86300"
  },
  {
    "name": "Fleuré",
    "code": "86099",
    "epci_code": "200043628",
    "departement_code": "86",
    "region_code": "75",
    "postal_code": "86340"
  },
  {
    "name": "Fontaine-le-Comte",
    "code": "86100",
    "epci_code": "200069854",
    "departement_code": "86",
    "region_code": "75",
    "postal_code": "86240"
  },
  {
    "name": "Frozes",
    "code": "86102",
    "epci_code": "200069763",
    "departement_code": "86",
    "region_code": "75",
    "postal_code": "86190"
  },
  {
    "name": "Gençay",
    "code": "86103",
    "epci_code": "200070035",
    "departement_code": "86",
    "region_code": "75",
    "postal_code": "86160"
  },
  {
    "name": "Genouillé",
    "code": "86104",
    "epci_code": "200070035",
    "departement_code": "86",
    "region_code": "75",
    "postal_code": "86250"
  },
  {
    "name": "Gizay",
    "code": "86105",
    "epci_code": "200043628",
    "departement_code": "86",
    "region_code": "75",
    "postal_code": "86340"
  },
  {
    "name": "Glénouze",
    "code": "86106",
    "epci_code": "248600447",
    "departement_code": "86",
    "region_code": "75",
    "postal_code": "86200"
  },
  {
    "name": "Gouex",
    "code": "86107",
    "epci_code": "200070043",
    "departement_code": "86",
    "region_code": "75",
    "postal_code": "86320"
  },
  {
    "name": "La Grimaudière",
    "code": "86108",
    "epci_code": "248600447",
    "departement_code": "86",
    "region_code": "75",
    "postal_code": "86110"
  },
  {
    "name": "La Grimaudière",
    "code": "86108",
    "epci_code": "248600447",
    "departement_code": "86",
    "region_code": "75",
    "postal_code": "86330"
  },
  {
    "name": "Guesnes",
    "code": "86109",
    "epci_code": "248600447",
    "departement_code": "86",
    "region_code": "75",
    "postal_code": "86420"
  },
  {
    "name": "Haims",
    "code": "86110",
    "epci_code": "200070043",
    "departement_code": "86",
    "region_code": "75",
    "postal_code": "86310"
  },
  {
    "name": "Ingrandes",
    "code": "86111",
    "epci_code": "248600413",
    "departement_code": "86",
    "region_code": "75",
    "postal_code": "86220"
  },
  {
    "name": "L’Isle-Jourdain",
    "code": "86112",
    "epci_code": "200070043",
    "departement_code": "86",
    "region_code": "75",
    "postal_code": "86150"
  },
  {
    "name": "Iteuil",
    "code": "86113",
    "epci_code": "200043628",
    "departement_code": "86",
    "region_code": "75",
    "postal_code": "86240"
  },
  {
    "name": "Jardres",
    "code": "86114",
    "epci_code": "200069854",
    "departement_code": "86",
    "region_code": "75",
    "postal_code": "86800"
  },
  {
    "name": "Jaunay-Marigny",
    "code": "86115",
    "epci_code": "200069854",
    "departement_code": "86",
    "region_code": "75",
    "postal_code": "86130"
  },
  {
    "name": "Jaunay-Marigny",
    "code": "86115",
    "epci_code": "200069854",
    "departement_code": "86",
    "region_code": "75",
    "postal_code": "86380"
  },
  {
    "name": "Jazeneuil",
    "code": "86116",
    "epci_code": "200069854",
    "departement_code": "86",
    "region_code": "75",
    "postal_code": "86600"
  },
  {
    "name": "Jouhet",
    "code": "86117",
    "epci_code": "200070043",
    "departement_code": "86",
    "region_code": "75",
    "postal_code": "86500"
  },
  {
    "name": "Journet",
    "code": "86118",
    "epci_code": "200070043",
    "departement_code": "86",
    "region_code": "75",
    "postal_code": "86290"
  },
  {
    "name": "Joussé",
    "code": "86119",
    "epci_code": "200070035",
    "departement_code": "86",
    "region_code": "75",
    "postal_code": "86350"
  },
  {
    "name": "Lathus-Saint-Rémy",
    "code": "86120",
    "epci_code": "200070043",
    "departement_code": "86",
    "region_code": "75",
    "postal_code": "86390"
  },
  {
    "name": "Latillé",
    "code": "86121",
    "epci_code": "200069763",
    "departement_code": "86",
    "region_code": "75",
    "postal_code": "86190"
  },
  {
    "name": "Lauthiers",
    "code": "86122",
    "epci_code": "200070043",
    "departement_code": "86",
    "region_code": "75",
    "postal_code": "86300"
  },
  {
    "name": "Boivre-la-Vallée",
    "code": "86123",
    "epci_code": "200069763",
    "departement_code": "86",
    "region_code": "75",
    "postal_code": "86470"
  },
  {
    "name": "Lavoux",
    "code": "86124",
    "epci_code": "200069854",
    "departement_code": "86",
    "region_code": "75",
    "postal_code": "86800"
  },
  {
    "name": "Leigné-les-Bois",
    "code": "86125",
    "epci_code": "248600413",
    "departement_code": "86",
    "region_code": "75",
    "postal_code": "86450"
  },
  {
    "name": "Leignes-sur-Fontaine",
    "code": "86126",
    "epci_code": "200070043",
    "departement_code": "86",
    "region_code": "75",
    "postal_code": "86300"
  },
  {
    "name": "Leigné-sur-Usseau",
    "code": "86127",
    "epci_code": "248600413",
    "departement_code": "86",
    "region_code": "75",
    "postal_code": "86230"
  },
  {
    "name": "Lencloître",
    "code": "86128",
    "epci_code": "248600413",
    "departement_code": "86",
    "region_code": "75",
    "postal_code": "86140"
  },
  {
    "name": "Lésigny",
    "code": "86129",
    "epci_code": "248600413",
    "departement_code": "86",
    "region_code": "75",
    "postal_code": "86270"
  },
  {
    "name": "Leugny",
    "code": "86130",
    "epci_code": "248600413",
    "departement_code": "86",
    "region_code": "75",
    "postal_code": "86220"
  },
  {
    "name": "Lhommaizé",
    "code": "86131",
    "epci_code": "200070043",
    "departement_code": "86",
    "region_code": "75",
    "postal_code": "86410"
  },
  {
    "name": "Liglet",
    "code": "86132",
    "epci_code": "200070043",
    "departement_code": "86",
    "region_code": "75",
    "postal_code": "86290"
  },
  {
    "name": "Ligugé",
    "code": "86133",
    "epci_code": "200069854",
    "departement_code": "86",
    "region_code": "75",
    "postal_code": "86240"
  },
  {
    "name": "Linazay",
    "code": "86134",
    "epci_code": "200070035",
    "departement_code": "86",
    "region_code": "75",
    "postal_code": "86400"
  },
  {
    "name": "Liniers",
    "code": "86135",
    "epci_code": "200069854",
    "departement_code": "86",
    "region_code": "75",
    "postal_code": "86800"
  },
  {
    "name": "Lizant",
    "code": "86136",
    "epci_code": "200070035",
    "departement_code": "86",
    "region_code": "75",
    "postal_code": "86400"
  },
  {
    "name": "Loudun",
    "code": "86137",
    "epci_code": "248600447",
    "departement_code": "86",
    "region_code": "75",
    "postal_code": "86200"
  },
  {
    "name": "Luchapt",
    "code": "86138",
    "epci_code": "200070043",
    "departement_code": "86",
    "region_code": "75",
    "postal_code": "86430"
  },
  {
    "name": "Lusignan",
    "code": "86139",
    "epci_code": "200069854",
    "departement_code": "86",
    "region_code": "75",
    "postal_code": "86600"
  },
  {
    "name": "Lussac-les-Châteaux",
    "code": "86140",
    "epci_code": "200070043",
    "departement_code": "86",
    "region_code": "75",
    "postal_code": "86320"
  },
  {
    "name": "Magné",
    "code": "86141",
    "epci_code": "200070035",
    "departement_code": "86",
    "region_code": "75",
    "postal_code": "86160"
  },
  {
    "name": "Maillé",
    "code": "86142",
    "epci_code": "200069763",
    "departement_code": "86",
    "region_code": "75",
    "postal_code": "86190"
  },
  {
    "name": "Mairé",
    "code": "86143",
    "epci_code": "248600413",
    "departement_code": "86",
    "region_code": "75",
    "postal_code": "86270"
  },
  {
    "name": "Maisonneuve",
    "code": "86144",
    "epci_code": "200069763",
    "departement_code": "86",
    "region_code": "75",
    "postal_code": "86170"
  },
  {
    "name": "Marçay",
    "code": "86145",
    "epci_code": "200043628",
    "departement_code": "86",
    "region_code": "75",
    "postal_code": "86370"
  },
  {
    "name": "Marigny-Chemereau",
    "code": "86147",
    "epci_code": "200043628",
    "departement_code": "86",
    "region_code": "75",
    "postal_code": "86370"
  },
  {
    "name": "Marnay",
    "code": "86148",
    "epci_code": "200043628",
    "departement_code": "86",
    "region_code": "75",
    "postal_code": "86160"
  },
  {
    "name": "Martaizé",
    "code": "86149",
    "epci_code": "248600447",
    "departement_code": "86",
    "region_code": "75",
    "postal_code": "86330"
  },
  {
    "name": "Massognes",
    "code": "86150",
    "epci_code": "200069763",
    "departement_code": "86",
    "region_code": "75",
    "postal_code": "86170"
  },
  {
    "name": "Maulay",
    "code": "86151",
    "epci_code": "248600447",
    "departement_code": "86",
    "region_code": "75",
    "postal_code": "86200"
  },
  {
    "name": "Mauprévoir",
    "code": "86152",
    "epci_code": "200070043",
    "departement_code": "86",
    "region_code": "75",
    "postal_code": "86460"
  },
  {
    "name": "Mazerolles",
    "code": "86153",
    "epci_code": "200070043",
    "departement_code": "86",
    "region_code": "75",
    "postal_code": "86320"
  },
  {
    "name": "Mazeuil",
    "code": "86154",
    "epci_code": "248600447",
    "departement_code": "86",
    "region_code": "75",
    "postal_code": "86110"
  },
  {
    "name": "Messemé",
    "code": "86156",
    "epci_code": "248600447",
    "departement_code": "86",
    "region_code": "75",
    "postal_code": "86200"
  },
  {
    "name": "Mignaloux-Beauvoir",
    "code": "86157",
    "epci_code": "200069854",
    "departement_code": "86",
    "region_code": "75",
    "postal_code": "86550"
  },
  {
    "name": "Migné-Auxances",
    "code": "86158",
    "epci_code": "200069854",
    "departement_code": "86",
    "region_code": "75",
    "postal_code": "86440"
  },
  {
    "name": "Millac",
    "code": "86159",
    "epci_code": "200070043",
    "departement_code": "86",
    "region_code": "75",
    "postal_code": "86150"
  },
  {
    "name": "Mirebeau",
    "code": "86160",
    "epci_code": "200069763",
    "departement_code": "86",
    "region_code": "75",
    "postal_code": "86110"
  },
  {
    "name": "Moncontour",
    "code": "86161",
    "epci_code": "248600447",
    "departement_code": "86",
    "region_code": "75",
    "postal_code": "86330"
  },
  {
    "name": "Mondion",
    "code": "86162",
    "epci_code": "248600413",
    "departement_code": "86",
    "region_code": "75",
    "postal_code": "86230"
  },
  {
    "name": "Montamisé",
    "code": "86163",
    "epci_code": "200069854",
    "departement_code": "86",
    "region_code": "75",
    "postal_code": "86360"
  },
  {
    "name": "Monthoiron",
    "code": "86164",
    "epci_code": "248600413",
    "departement_code": "86",
    "region_code": "75",
    "postal_code": "86210"
  },
  {
    "name": "Montmorillon",
    "code": "86165",
    "epci_code": "200070043",
    "departement_code": "86",
    "region_code": "75",
    "postal_code": "86500"
  },
  {
    "name": "Monts-sur-Guesnes",
    "code": "86167",
    "epci_code": "248600447",
    "departement_code": "86",
    "region_code": "75",
    "postal_code": "86420"
  },
  {
    "name": "Morton",
    "code": "86169",
    "epci_code": "248600447",
    "departement_code": "86",
    "region_code": "75",
    "postal_code": "86120"
  },
  {
    "name": "Moulismes",
    "code": "86170",
    "epci_code": "200070043",
    "departement_code": "86",
    "region_code": "75",
    "postal_code": "86500"
  },
  {
    "name": "Moussac",
    "code": "86171",
    "epci_code": "200070043",
    "departement_code": "86",
    "region_code": "75",
    "postal_code": "86150"
  },
  {
    "name": "Mouterre-sur-Blourde",
    "code": "86172",
    "epci_code": "200070043",
    "departement_code": "86",
    "region_code": "75",
    "postal_code": "86430"
  },
  {
    "name": "Mouterre-Silly",
    "code": "86173",
    "epci_code": "248600447",
    "departement_code": "86",
    "region_code": "75",
    "postal_code": "86200"
  },
  {
    "name": "Naintré",
    "code": "86174",
    "epci_code": "248600413",
    "departement_code": "86",
    "region_code": "75",
    "postal_code": "86530"
  },
  {
    "name": "Nalliers",
    "code": "86175",
    "epci_code": "200070043",
    "departement_code": "86",
    "region_code": "75",
    "postal_code": "86310"
  },
  {
    "name": "Nérignac",
    "code": "86176",
    "epci_code": "200070043",
    "departement_code": "86",
    "region_code": "75",
    "postal_code": "86150"
  },
  {
    "name": "Neuville-de-Poitou",
    "code": "86177",
    "epci_code": "200069763",
    "departement_code": "86",
    "region_code": "75",
    "postal_code": "86170"
  },
  {
    "name": "Nieuil-l’Espoir",
    "code": "86178",
    "epci_code": "200043628",
    "departement_code": "86",
    "region_code": "75",
    "postal_code": "86340"
  },
  {
    "name": "Nouaillé-Maupertuis",
    "code": "86180",
    "epci_code": "200043628",
    "departement_code": "86",
    "region_code": "75",
    "postal_code": "86340"
  },
  {
    "name": "Nueil-sous-Faye",
    "code": "86181",
    "epci_code": "248600447",
    "departement_code": "86",
    "region_code": "75",
    "postal_code": "86200"
  },
  {
    "name": "Orches",
    "code": "86182",
    "epci_code": "248600413",
    "departement_code": "86",
    "region_code": "75",
    "postal_code": "86230"
  },
  {
    "name": "Les Ormes",
    "code": "86183",
    "epci_code": "248600413",
    "departement_code": "86",
    "region_code": "75",
    "postal_code": "86220"
  },
  {
    "name": "Ouzilly",
    "code": "86184",
    "epci_code": "248600413",
    "departement_code": "86",
    "region_code": "75",
    "postal_code": "86380"
  },
  {
    "name": "Oyré",
    "code": "86186",
    "epci_code": "248600413",
    "departement_code": "86",
    "region_code": "75",
    "postal_code": "86220"
  },
  {
    "name": "Paizay-le-Sec",
    "code": "86187",
    "epci_code": "200070043",
    "departement_code": "86",
    "region_code": "75",
    "postal_code": "86300"
  },
  {
    "name": "Payroux",
    "code": "86189",
    "epci_code": "200070035",
    "departement_code": "86",
    "region_code": "75",
    "postal_code": "86350"
  },
  {
    "name": "Persac",
    "code": "86190",
    "epci_code": "200070043",
    "departement_code": "86",
    "region_code": "75",
    "postal_code": "86320"
  },
  {
    "name": "Pindray",
    "code": "86191",
    "epci_code": "200070043",
    "departement_code": "86",
    "region_code": "75",
    "postal_code": "86500"
  },
  {
    "name": "Plaisance",
    "code": "86192",
    "epci_code": "200070043",
    "departement_code": "86",
    "region_code": "75",
    "postal_code": "86500"
  },
  {
    "name": "Pleumartin",
    "code": "86193",
    "epci_code": "248600413",
    "departement_code": "86",
    "region_code": "75",
    "postal_code": "86450"
  },
  {
    "name": "Poitiers",
    "code": "86194",
    "epci_code": "200069854",
    "departement_code": "86",
    "region_code": "75",
    "postal_code": "86000"
  },
  {
    "name": "Port-de-Piles",
    "code": "86195",
    "epci_code": "248600413",
    "departement_code": "86",
    "region_code": "75",
    "postal_code": "86220"
  },
  {
    "name": "Pouançay",
    "code": "86196",
    "epci_code": "248600447",
    "departement_code": "86",
    "region_code": "75",
    "postal_code": "86120"
  },
  {
    "name": "Pouant",
    "code": "86197",
    "epci_code": "248600447",
    "departement_code": "86",
    "region_code": "75",
    "postal_code": "86200"
  },
  {
    "name": "Pouillé",
    "code": "86198",
    "epci_code": "200069854",
    "departement_code": "86",
    "region_code": "75",
    "postal_code": "86800"
  },
  {
    "name": "Pressac",
    "code": "86200",
    "epci_code": "200070043",
    "departement_code": "86",
    "region_code": "75",
    "postal_code": "86460"
  },
  {
    "name": "Prinçay",
    "code": "86201",
    "epci_code": "248600447",
    "departement_code": "86",
    "region_code": "75",
    "postal_code": "86420"
  },
  {
    "name": "La Puye",
    "code": "86202",
    "epci_code": "200069854",
    "departement_code": "86",
    "region_code": "75",
    "postal_code": "86260"
  },
  {
    "name": "Queaux",
    "code": "86203",
    "epci_code": "200070043",
    "departement_code": "86",
    "region_code": "75",
    "postal_code": "86150"
  },
  {
    "name": "Quinçay",
    "code": "86204",
    "epci_code": "200069763",
    "departement_code": "86",
    "region_code": "75",
    "postal_code": "86190"
  },
  {
    "name": "Ranton",
    "code": "86205",
    "epci_code": "248600447",
    "departement_code": "86",
    "region_code": "75",
    "postal_code": "86200"
  },
  {
    "name": "Raslay",
    "code": "86206",
    "epci_code": "248600447",
    "departement_code": "86",
    "region_code": "75",
    "postal_code": "86120"
  },
  {
    "name": "La Roche-Posay",
    "code": "86207",
    "epci_code": "248600413",
    "departement_code": "86",
    "region_code": "75",
    "postal_code": "86270"
  },
  {
    "name": "Roches-Prémarie-Andillé",
    "code": "86209",
    "epci_code": "200043628",
    "departement_code": "86",
    "region_code": "75",
    "postal_code": "86340"
  },
  {
    "name": "Roiffé",
    "code": "86210",
    "epci_code": "248600447",
    "departement_code": "86",
    "region_code": "75",
    "postal_code": "86120"
  },
  {
    "name": "Romagne",
    "code": "86211",
    "epci_code": "200070035",
    "departement_code": "86",
    "region_code": "75",
    "postal_code": "86700"
  },
  {
    "name": "Rouillé",
    "code": "86213",
    "epci_code": "200069854",
    "departement_code": "86",
    "region_code": "75",
    "postal_code": "86480"
  },
  {
    "name": "Saint-Benoît",
    "code": "86214",
    "epci_code": "200069854",
    "departement_code": "86",
    "region_code": "75",
    "postal_code": "86280"
  },
  {
    "name": "Saint-Christophe",
    "code": "86217",
    "epci_code": "248600413",
    "departement_code": "86",
    "region_code": "75",
    "postal_code": "86230"
  },
  {
    "name": "Saint-Clair",
    "code": "86218",
    "epci_code": "248600447",
    "departement_code": "86",
    "region_code": "75",
    "postal_code": "86330"
  },
  {
    "name": "Saint-Gaudent",
    "code": "86220",
    "epci_code": "200070035",
    "departement_code": "86",
    "region_code": "75",
    "postal_code": "86400"
  },
  {
    "name": "Saint-Genest-d’Ambière",
    "code": "86221",
    "epci_code": "248600413",
    "departement_code": "86",
    "region_code": "75",
    "postal_code": "86140"
  },
  {
    "name": "Saint-Georges-lès-Baillargeaux",
    "code": "86222",
    "epci_code": "200069854",
    "departement_code": "86",
    "region_code": "75",
    "postal_code": "86130"
  },
  {
    "name": "Saint-Germain",
    "code": "86223",
    "epci_code": "200070043",
    "departement_code": "86",
    "region_code": "75",
    "postal_code": "86310"
  },
  {
    "name": "Saint-Gervais-les-Trois-Clochers",
    "code": "86224",
    "epci_code": "248600413",
    "departement_code": "86",
    "region_code": "75",
    "postal_code": "86230"
  },
  {
    "name": "Saint-Jean-de-Sauves",
    "code": "86225",
    "epci_code": "248600447",
    "departement_code": "86",
    "region_code": "75",
    "postal_code": "86330"
  },
  {
    "name": "Saint-Julien-l’Ars",
    "code": "86226",
    "epci_code": "200069854",
    "departement_code": "86",
    "region_code": "75",
    "postal_code": "86800"
  },
  {
    "name": "Saint-Laon",
    "code": "86227",
    "epci_code": "248600447",
    "departement_code": "86",
    "region_code": "75",
    "postal_code": "86200"
  },
  {
    "name": "Saint-Laurent-de-Jourdes",
    "code": "86228",
    "epci_code": "200070043",
    "departement_code": "86",
    "region_code": "75",
    "postal_code": "86410"
  },
  {
    "name": "Saint-Léger-de-Montbrillais",
    "code": "86229",
    "epci_code": "248600447",
    "departement_code": "86",
    "region_code": "75",
    "postal_code": "86120"
  },
  {
    "name": "Saint-Léomer",
    "code": "86230",
    "epci_code": "200070043",
    "departement_code": "86",
    "region_code": "75",
    "postal_code": "86290"
  },
  {
    "name": "Valdivienne",
    "code": "86233",
    "epci_code": "200070043",
    "departement_code": "86",
    "region_code": "75",
    "postal_code": "86300"
  },
  {
    "name": "Saint-Martin-l’Ars",
    "code": "86234",
    "epci_code": "200070043",
    "departement_code": "86",
    "region_code": "75",
    "postal_code": "86350"
  },
  {
    "name": "Saint-Maurice-la-Clouère",
    "code": "86235",
    "epci_code": "200070035",
    "departement_code": "86",
    "region_code": "75",
    "postal_code": "86160"
  },
  {
    "name": "Saint-Pierre-de-Maillé",
    "code": "86236",
    "epci_code": "200070043",
    "departement_code": "86",
    "region_code": "75",
    "postal_code": "86260"
  },
  {
    "name": "Saint-Pierre-d’Exideuil",
    "code": "86237",
    "epci_code": "200070035",
    "departement_code": "86",
    "region_code": "75",
    "postal_code": "86400"
  },
  {
    "name": "Sainte-Radégonde",
    "code": "86239",
    "epci_code": "200069854",
    "departement_code": "86",
    "region_code": "75",
    "postal_code": "86300"
  },
  {
    "name": "Saint-Rémy-sur-Creuse",
    "code": "86241",
    "epci_code": "248600413",
    "departement_code": "86",
    "region_code": "75",
    "postal_code": "86220"
  },
  {
    "name": "Saint-Romain",
    "code": "86242",
    "epci_code": "200070035",
    "departement_code": "86",
    "region_code": "75",
    "postal_code": "86250"
  },
  {
    "name": "Saint-Sauvant",
    "code": "86244",
    "epci_code": "200069854",
    "departement_code": "86",
    "region_code": "75",
    "postal_code": "86600"
  },
  {
    "name": "Senillé-Saint-Sauveur",
    "code": "86245",
    "epci_code": "248600413",
    "departement_code": "86",
    "region_code": "75",
    "postal_code": "86100"
  },
  {
    "name": "Saint-Savin",
    "code": "86246",
    "epci_code": "200070043",
    "departement_code": "86",
    "region_code": "75",
    "postal_code": "86310"
  },
  {
    "name": "Val-de-Comporté",
    "code": "86247",
    "epci_code": "200070035",
    "departement_code": "86",
    "region_code": "75",
    "postal_code": "86400"
  },
  {
    "name": "Saint-Secondin",
    "code": "86248",
    "epci_code": "200070035",
    "departement_code": "86",
    "region_code": "75",
    "postal_code": "86350"
  },
  {
    "name": "Saires",
    "code": "86249",
    "epci_code": "248600447",
    "departement_code": "86",
    "region_code": "75",
    "postal_code": "86420"
  },
  {
    "name": "Saix",
    "code": "86250",
    "epci_code": "248600447",
    "departement_code": "86",
    "region_code": "75",
    "postal_code": "86120"
  },
  {
    "name": "Sammarçolles",
    "code": "86252",
    "epci_code": "248600447",
    "departement_code": "86",
    "region_code": "75",
    "postal_code": "86200"
  },
  {
    "name": "Sanxay",
    "code": "86253",
    "epci_code": "200069854",
    "departement_code": "86",
    "region_code": "75",
    "postal_code": "86600"
  },
  {
    "name": "Saulgé",
    "code": "86254",
    "epci_code": "200070043",
    "departement_code": "86",
    "region_code": "75",
    "postal_code": "86500"
  },
  {
    "name": "Savigné",
    "code": "86255",
    "epci_code": "200070035",
    "departement_code": "86",
    "region_code": "75",
    "postal_code": "86400"
  },
  {
    "name": "Savigny-Lévescault",
    "code": "86256",
    "epci_code": "200069854",
    "departement_code": "86",
    "region_code": "75",
    "postal_code": "86800"
  },
  {
    "name": "Savigny-sous-Faye",
    "code": "86257",
    "epci_code": "248600413",
    "departement_code": "86",
    "region_code": "75",
    "postal_code": "86140"
  },
  {
    "name": "Scorbé-Clairvaux",
    "code": "86258",
    "epci_code": "248600413",
    "departement_code": "86",
    "region_code": "75",
    "postal_code": "86140"
  },
  {
    "name": "Sérigny",
    "code": "86260",
    "epci_code": "248600413",
    "departement_code": "86",
    "region_code": "75",
    "postal_code": "86230"
  },
  {
    "name": "Sèvres-Anxaumont",
    "code": "86261",
    "epci_code": "200069854",
    "departement_code": "86",
    "region_code": "75",
    "postal_code": "86800"
  },
  {
    "name": "Sillars",
    "code": "86262",
    "epci_code": "200070043",
    "departement_code": "86",
    "region_code": "75",
    "postal_code": "86320"
  },
  {
    "name": "Smarves",
    "code": "86263",
    "epci_code": "200043628",
    "departement_code": "86",
    "region_code": "75",
    "postal_code": "86240"
  },
  {
    "name": "Sommières-du-Clain",
    "code": "86264",
    "epci_code": "200070035",
    "departement_code": "86",
    "region_code": "75",
    "postal_code": "86160"
  },
  {
    "name": "Sossais",
    "code": "86265",
    "epci_code": "248600413",
    "departement_code": "86",
    "region_code": "75",
    "postal_code": "86230"
  },
  {
    "name": "Surin",
    "code": "86266",
    "epci_code": "200070035",
    "departement_code": "86",
    "region_code": "75",
    "postal_code": "86250"
  },
  {
    "name": "Tercé",
    "code": "86268",
    "epci_code": "200069854",
    "departement_code": "86",
    "region_code": "75",
    "postal_code": "86800"
  },
  {
    "name": "Ternay",
    "code": "86269",
    "epci_code": "248600447",
    "departement_code": "86",
    "region_code": "75",
    "postal_code": "86120"
  },
  {
    "name": "Thollet",
    "code": "86270",
    "epci_code": "200070043",
    "departement_code": "86",
    "region_code": "75",
    "postal_code": "86290"
  },
  {
    "name": "Thurageau",
    "code": "86271",
    "epci_code": "200069763",
    "departement_code": "86",
    "region_code": "75",
    "postal_code": "86110"
  },
  {
    "name": "Thuré",
    "code": "86272",
    "epci_code": "248600413",
    "departement_code": "86",
    "region_code": "75",
    "postal_code": "86540"
  },
  {
    "name": "La Trimouille",
    "code": "86273",
    "epci_code": "200070043",
    "departement_code": "86",
    "region_code": "75",
    "postal_code": "86290"
  },
  {
    "name": "Les Trois-Moutiers",
    "code": "86274",
    "epci_code": "248600447",
    "departement_code": "86",
    "region_code": "75",
    "postal_code": "86120"
  },
  {
    "name": "Usseau",
    "code": "86275",
    "epci_code": "248600413",
    "departement_code": "86",
    "region_code": "75",
    "postal_code": "86230"
  },
  {
    "name": "Usson-du-Poitou",
    "code": "86276",
    "epci_code": "200070043",
    "departement_code": "86",
    "region_code": "75",
    "postal_code": "86350"
  },
  {
    "name": "Vaux-sur-Vienne",
    "code": "86279",
    "epci_code": "248600413",
    "departement_code": "86",
    "region_code": "75",
    "postal_code": "86220"
  },
  {
    "name": "Vellèches",
    "code": "86280",
    "epci_code": "248600413",
    "departement_code": "86",
    "region_code": "75",
    "postal_code": "86230"
  },
  {
    "name": "Saint-Martin-la-Pallu",
    "code": "86281",
    "epci_code": "200069763",
    "departement_code": "86",
    "region_code": "75",
    "postal_code": "86110"
  },
  {
    "name": "Saint-Martin-la-Pallu",
    "code": "86281",
    "epci_code": "200069763",
    "departement_code": "86",
    "region_code": "75",
    "postal_code": "86170"
  },
  {
    "name": "Saint-Martin-la-Pallu",
    "code": "86281",
    "epci_code": "200069763",
    "departement_code": "86",
    "region_code": "75",
    "postal_code": "86380"
  },
  {
    "name": "Vernon",
    "code": "86284",
    "epci_code": "200043628",
    "departement_code": "86",
    "region_code": "75",
    "postal_code": "86340"
  },
  {
    "name": "Verrières",
    "code": "86285",
    "epci_code": "200070043",
    "departement_code": "86",
    "region_code": "75",
    "postal_code": "86410"
  },
  {
    "name": "Verrue",
    "code": "86286",
    "epci_code": "248600447",
    "departement_code": "86",
    "region_code": "75",
    "postal_code": "86420"
  },
  {
    "name": "Vézières",
    "code": "86287",
    "epci_code": "248600447",
    "departement_code": "86",
    "region_code": "75",
    "postal_code": "86120"
  },
  {
    "name": "Vicq-sur-Gartempe",
    "code": "86288",
    "epci_code": "248600413",
    "departement_code": "86",
    "region_code": "75",
    "postal_code": "86260"
  },
  {
    "name": "Le Vigeant",
    "code": "86289",
    "epci_code": "200070043",
    "departement_code": "86",
    "region_code": "75",
    "postal_code": "86150"
  },
  {
    "name": "La Villedieu-du-Clain",
    "code": "86290",
    "epci_code": "200043628",
    "departement_code": "86",
    "region_code": "75",
    "postal_code": "86340"
  },
  {
    "name": "Villemort",
    "code": "86291",
    "epci_code": "200070043",
    "departement_code": "86",
    "region_code": "75",
    "postal_code": "86310"
  },
  {
    "name": "Villiers",
    "code": "86292",
    "epci_code": "200069763",
    "departement_code": "86",
    "region_code": "75",
    "postal_code": "86190"
  },
  {
    "name": "Vivonne",
    "code": "86293",
    "epci_code": "200043628",
    "departement_code": "86",
    "region_code": "75",
    "postal_code": "86370"
  },
  {
    "name": "Vouillé",
    "code": "86294",
    "epci_code": "200069763",
    "departement_code": "86",
    "region_code": "75",
    "postal_code": "86190"
  },
  {
    "name": "Voulême",
    "code": "86295",
    "epci_code": "200070035",
    "departement_code": "86",
    "region_code": "75",
    "postal_code": "86400"
  },
  {
    "name": "Voulon",
    "code": "86296",
    "epci_code": "200070035",
    "departement_code": "86",
    "region_code": "75",
    "postal_code": "86700"
  },
  {
    "name": "Vouneuil-sous-Biard",
    "code": "86297",
    "epci_code": "200069854",
    "departement_code": "86",
    "region_code": "75",
    "postal_code": "86580"
  },
  {
    "name": "Vouneuil-sur-Vienne",
    "code": "86298",
    "epci_code": "248600413",
    "departement_code": "86",
    "region_code": "75",
    "postal_code": "86210"
  },
  {
    "name": "Vouzailles",
    "code": "86299",
    "epci_code": "200069763",
    "departement_code": "86",
    "region_code": "75",
    "postal_code": "86170"
  },
  {
    "name": "Yversay",
    "code": "86300",
    "epci_code": "200069763",
    "departement_code": "86",
    "region_code": "75",
    "postal_code": "86170"
  }
]