[
  {
    "name": "Aghione",
    "code": "2B002",
    "epci_code": "200015162",
    "departement_code": "2B",
    "region_code": "94",
    "postal_code": "20270"
  },
  {
    "name": "Aiti",
    "code": "2B003",
    "epci_code": "200073138",
    "departement_code": "2B",
    "region_code": "94",
    "postal_code": "20244"
  },
  {
    "name": "Alando",
    "code": "2B005",
    "epci_code": "200073138",
    "departement_code": "2B",
    "region_code": "94",
    "postal_code": "20212"
  },
  {
    "name": "Albertacce",
    "code": "2B007",
    "epci_code": "200073138",
    "departement_code": "2B",
    "region_code": "94",
    "postal_code": "20224"
  },
  {
    "name": "Aléria",
    "code": "2B009",
    "epci_code": "200015162",
    "departement_code": "2B",
    "region_code": "94",
    "postal_code": "20270"
  },
  {
    "name": "Algajola",
    "code": "2B010",
    "epci_code": "242020105",
    "departement_code": "2B",
    "region_code": "94",
    "postal_code": "20220"
  },
  {
    "name": "Altiani",
    "code": "2B012",
    "epci_code": "200015162",
    "departement_code": "2B",
    "region_code": "94",
    "postal_code": "20251"
  },
  {
    "name": "Alzi",
    "code": "2B013",
    "epci_code": "200073138",
    "departement_code": "2B",
    "region_code": "94",
    "postal_code": "20212"
  },
  {
    "name": "Ampriani",
    "code": "2B015",
    "epci_code": "200015162",
    "departement_code": "2B",
    "region_code": "94",
    "postal_code": "20272"
  },
  {
    "name": "Antisanti",
    "code": "2B016",
    "epci_code": "200015162",
    "departement_code": "2B",
    "region_code": "94",
    "postal_code": "20270"
  },
  {
    "name": "Aregno",
    "code": "2B020",
    "epci_code": "242020105",
    "departement_code": "2B",
    "region_code": "94",
    "postal_code": "20220"
  },
  {
    "name": "Asco",
    "code": "2B023",
    "epci_code": "200073138",
    "departement_code": "2B",
    "region_code": "94",
    "postal_code": "20276"
  },
  {
    "name": "Avapessa",
    "code": "2B025",
    "epci_code": "242020105",
    "departement_code": "2B",
    "region_code": "94",
    "postal_code": "20225"
  },
  {
    "name": "Barbaggio",
    "code": "2B029",
    "epci_code": "200073120",
    "departement_code": "2B",
    "region_code": "94",
    "postal_code": "20253"
  },
  {
    "name": "Barrettali",
    "code": "2B030",
    "epci_code": "200042943",
    "departement_code": "2B",
    "region_code": "94",
    "postal_code": "20228"
  },
  {
    "name": "Bastia",
    "code": "2B033",
    "epci_code": "242000354",
    "departement_code": "2B",
    "region_code": "94",
    "postal_code": "20200"
  },
  {
    "name": "Bastia",
    "code": "2B033",
    "epci_code": "242000354",
    "departement_code": "2B",
    "region_code": "94",
    "postal_code": "20600"
  },
  {
    "name": "Belgodère",
    "code": "2B034",
    "epci_code": "200073104",
    "departement_code": "2B",
    "region_code": "94",
    "postal_code": "20226"
  },
  {
    "name": "Bigorno",
    "code": "2B036",
    "epci_code": "200036499",
    "departement_code": "2B",
    "region_code": "94",
    "postal_code": "20252"
  },
  {
    "name": "Biguglia",
    "code": "2B037",
    "epci_code": "200036499",
    "departement_code": "2B",
    "region_code": "94",
    "postal_code": "20620"
  },
  {
    "name": "Bisinchi",
    "code": "2B039",
    "epci_code": "200073138",
    "departement_code": "2B",
    "region_code": "94",
    "postal_code": "20235"
  },
  {
    "name": "Borgo",
    "code": "2B042",
    "epci_code": "200036499",
    "departement_code": "2B",
    "region_code": "94",
    "postal_code": "20290"
  },
  {
    "name": "Brando",
    "code": "2B043",
    "epci_code": "200042943",
    "departement_code": "2B",
    "region_code": "94",
    "postal_code": "20222"
  },
  {
    "name": "Bustanico",
    "code": "2B045",
    "epci_code": "200073138",
    "departement_code": "2B",
    "region_code": "94",
    "postal_code": "20212"
  },
  {
    "name": "Cagnano",
    "code": "2B046",
    "epci_code": "200042943",
    "departement_code": "2B",
    "region_code": "94",
    "postal_code": "20228"
  },
  {
    "name": "Calacuccia",
    "code": "2B047",
    "epci_code": "200073138",
    "departement_code": "2B",
    "region_code": "94",
    "postal_code": "20224"
  },
  {
    "name": "Calenzana",
    "code": "2B049",
    "epci_code": "242020105",
    "departement_code": "2B",
    "region_code": "94",
    "postal_code": "20214"
  },
  {
    "name": "Calenzana",
    "code": "2B049",
    "epci_code": "242020105",
    "departement_code": "2B",
    "region_code": "94",
    "postal_code": "20260"
  },
  {
    "name": "Calvi",
    "code": "2B050",
    "epci_code": "242020105",
    "departement_code": "2B",
    "region_code": "94",
    "postal_code": "20260"
  },
  {
    "name": "Cambia",
    "code": "2B051",
    "epci_code": "200073138",
    "departement_code": "2B",
    "region_code": "94",
    "postal_code": "20244"
  },
  {
    "name": "Campana",
    "code": "2B052",
    "epci_code": "200073252",
    "departement_code": "2B",
    "region_code": "94",
    "postal_code": "20229"
  },
  {
    "name": "Campi",
    "code": "2B053",
    "epci_code": "200015162",
    "departement_code": "2B",
    "region_code": "94",
    "postal_code": "20270"
  },
  {
    "name": "Campile",
    "code": "2B054",
    "epci_code": "200073252",
    "departement_code": "2B",
    "region_code": "94",
    "postal_code": "20290"
  },
  {
    "name": "Campitello",
    "code": "2B055",
    "epci_code": "200036499",
    "departement_code": "2B",
    "region_code": "94",
    "postal_code": "20252"
  },
  {
    "name": "Canale-di-Verde",
    "code": "2B057",
    "epci_code": "200015162",
    "departement_code": "2B",
    "region_code": "94",
    "postal_code": "20230"
  },
  {
    "name": "Canari",
    "code": "2B058",
    "epci_code": "200042943",
    "departement_code": "2B",
    "region_code": "94",
    "postal_code": "20217"
  },
  {
    "name": "Canavaggia",
    "code": "2B059",
    "epci_code": "200073138",
    "departement_code": "2B",
    "region_code": "94",
    "postal_code": "20235"
  },
  {
    "name": "Carcheto-Brustico",
    "code": "2B063",
    "epci_code": "200073252",
    "departement_code": "2B",
    "region_code": "94",
    "postal_code": "20229"
  },
  {
    "name": "Carpineto",
    "code": "2B067",
    "epci_code": "200073252",
    "departement_code": "2B",
    "region_code": "94",
    "postal_code": "20229"
  },
  {
    "name": "Carticasi",
    "code": "2B068",
    "epci_code": "200073138",
    "departement_code": "2B",
    "region_code": "94",
    "postal_code": "20244"
  },
  {
    "name": "Casabianca",
    "code": "2B069",
    "epci_code": "200073252",
    "departement_code": "2B",
    "region_code": "94",
    "postal_code": "20237"
  },
  {
    "name": "Casalta",
    "code": "2B072",
    "epci_code": "200073252",
    "departement_code": "2B",
    "region_code": "94",
    "postal_code": "20215"
  },
  {
    "name": "Casamaccioli",
    "code": "2B073",
    "epci_code": "200073138",
    "departement_code": "2B",
    "region_code": "94",
    "postal_code": "20224"
  },
  {
    "name": "Casanova",
    "code": "2B074",
    "epci_code": "242020071",
    "departement_code": "2B",
    "region_code": "94",
    "postal_code": "20250"
  },
  {
    "name": "Casevecchie",
    "code": "2B075",
    "epci_code": "200015162",
    "departement_code": "2B",
    "region_code": "94",
    "postal_code": "20270"
  },
  {
    "name": "Castellare-di-Casinca",
    "code": "2B077",
    "epci_code": "200073252",
    "departement_code": "2B",
    "region_code": "94",
    "postal_code": "20213"
  },
  {
    "name": "Castellare-di-Mercurio",
    "code": "2B078",
    "epci_code": "200073138",
    "departement_code": "2B",
    "region_code": "94",
    "postal_code": "20212"
  },
  {
    "name": "Castello-di-Rostino",
    "code": "2B079",
    "epci_code": "200073138",
    "departement_code": "2B",
    "region_code": "94",
    "postal_code": "20235"
  },
  {
    "name": "Castifao",
    "code": "2B080",
    "epci_code": "200073138",
    "departement_code": "2B",
    "region_code": "94",
    "postal_code": "20218"
  },
  {
    "name": "Castiglione",
    "code": "2B081",
    "epci_code": "200073138",
    "departement_code": "2B",
    "region_code": "94",
    "postal_code": "20218"
  },
  {
    "name": "Castineta",
    "code": "2B082",
    "epci_code": "200073138",
    "departement_code": "2B",
    "region_code": "94",
    "postal_code": "20218"
  },
  {
    "name": "Castirla",
    "code": "2B083",
    "epci_code": "200073138",
    "departement_code": "2B",
    "region_code": "94",
    "postal_code": "20236"
  },
  {
    "name": "Cateri",
    "code": "2B084",
    "epci_code": "242020105",
    "departement_code": "2B",
    "region_code": "94",
    "postal_code": "20225"
  },
  {
    "name": "Centuri",
    "code": "2B086",
    "epci_code": "200042943",
    "departement_code": "2B",
    "region_code": "94",
    "postal_code": "20238"
  },
  {
    "name": "Cervione",
    "code": "2B087",
    "epci_code": "200034205",
    "departement_code": "2B",
    "region_code": "94",
    "postal_code": "20221"
  },
  {
    "name": "Chiatra",
    "code": "2B088",
    "epci_code": "200015162",
    "departement_code": "2B",
    "region_code": "94",
    "postal_code": "20230"
  },
  {
    "name": "Corbara",
    "code": "2B093",
    "epci_code": "200073104",
    "departement_code": "2B",
    "region_code": "94",
    "postal_code": "20220"
  },
  {
    "name": "Corbara",
    "code": "2B093",
    "epci_code": "200073104",
    "departement_code": "2B",
    "region_code": "94",
    "postal_code": "20256"
  },
  {
    "name": "Corscia",
    "code": "2B095",
    "epci_code": "200073138",
    "departement_code": "2B",
    "region_code": "94",
    "postal_code": "20224"
  },
  {
    "name": "Corte",
    "code": "2B096",
    "epci_code": "242020071",
    "departement_code": "2B",
    "region_code": "94",
    "postal_code": "20250"
  },
  {
    "name": "Costa",
    "code": "2B097",
    "epci_code": "200073104",
    "departement_code": "2B",
    "region_code": "94",
    "postal_code": "20226"
  },
  {
    "name": "Croce",
    "code": "2B101",
    "epci_code": "200073252",
    "departement_code": "2B",
    "region_code": "94",
    "postal_code": "20237"
  },
  {
    "name": "Crocicchia",
    "code": "2B102",
    "epci_code": "200073252",
    "departement_code": "2B",
    "region_code": "94",
    "postal_code": "20290"
  },
  {
    "name": "Erbajolo",
    "code": "2B105",
    "epci_code": "200073138",
    "departement_code": "2B",
    "region_code": "94",
    "postal_code": "20212"
  },
  {
    "name": "Érone",
    "code": "2B106",
    "epci_code": "200073138",
    "departement_code": "2B",
    "region_code": "94",
    "postal_code": "20244"
  },
  {
    "name": "Ersa",
    "code": "2B107",
    "epci_code": "200042943",
    "departement_code": "2B",
    "region_code": "94",
    "postal_code": "20275"
  },
  {
    "name": "Farinole",
    "code": "2B109",
    "epci_code": "200073120",
    "departement_code": "2B",
    "region_code": "94",
    "postal_code": "20253"
  },
  {
    "name": "Favalello",
    "code": "2B110",
    "epci_code": "200073138",
    "departement_code": "2B",
    "region_code": "94",
    "postal_code": "20212"
  },
  {
    "name": "Felce",
    "code": "2B111",
    "epci_code": "200034205",
    "departement_code": "2B",
    "region_code": "94",
    "postal_code": "20234"
  },
  {
    "name": "Feliceto",
    "code": "2B112",
    "epci_code": "200073104",
    "departement_code": "2B",
    "region_code": "94",
    "postal_code": "20225"
  },
  {
    "name": "Ficaja",
    "code": "2B113",
    "epci_code": "200073252",
    "departement_code": "2B",
    "region_code": "94",
    "postal_code": "20237"
  },
  {
    "name": "Focicchia",
    "code": "2B116",
    "epci_code": "200073138",
    "departement_code": "2B",
    "region_code": "94",
    "postal_code": "20212"
  },
  {
    "name": "Furiani",
    "code": "2B120",
    "epci_code": "242000354",
    "departement_code": "2B",
    "region_code": "94",
    "postal_code": "20600"
  },
  {
    "name": "Galéria",
    "code": "2B121",
    "epci_code": "242020105",
    "departement_code": "2B",
    "region_code": "94",
    "postal_code": "20245"
  },
  {
    "name": "Gavignano",
    "code": "2B122",
    "epci_code": "200073138",
    "departement_code": "2B",
    "region_code": "94",
    "postal_code": "20218"
  },
  {
    "name": "Ghisonaccia",
    "code": "2B123",
    "epci_code": "200033827",
    "departement_code": "2B",
    "region_code": "94",
    "postal_code": "20240"
  },
  {
    "name": "Ghisoni",
    "code": "2B124",
    "epci_code": "200033827",
    "departement_code": "2B",
    "region_code": "94",
    "postal_code": "20227"
  },
  {
    "name": "Giocatojo",
    "code": "2B125",
    "epci_code": "200073252",
    "departement_code": "2B",
    "region_code": "94",
    "postal_code": "20237"
  },
  {
    "name": "Giuncaggio",
    "code": "2B126",
    "epci_code": "200015162",
    "departement_code": "2B",
    "region_code": "94",
    "postal_code": "20251"
  },
  {
    "name": "L’Île-Rousse",
    "code": "2B134",
    "epci_code": "200073104",
    "departement_code": "2B",
    "region_code": "94",
    "postal_code": "20220"
  },
  {
    "name": "Isolaccio-di-Fiumorbo",
    "code": "2B135",
    "epci_code": "200033827",
    "departement_code": "2B",
    "region_code": "94",
    "postal_code": "20243"
  },
  {
    "name": "Lama",
    "code": "2B136",
    "epci_code": "200073104",
    "departement_code": "2B",
    "region_code": "94",
    "postal_code": "20218"
  },
  {
    "name": "Lano",
    "code": "2B137",
    "epci_code": "200073138",
    "departement_code": "2B",
    "region_code": "94",
    "postal_code": "20244"
  },
  {
    "name": "Lavatoggio",
    "code": "2B138",
    "epci_code": "242020105",
    "departement_code": "2B",
    "region_code": "94",
    "postal_code": "20225"
  },
  {
    "name": "Lento",
    "code": "2B140",
    "epci_code": "200036499",
    "departement_code": "2B",
    "region_code": "94",
    "postal_code": "20252"
  },
  {
    "name": "Linguizzetta",
    "code": "2B143",
    "epci_code": "200015162",
    "departement_code": "2B",
    "region_code": "94",
    "postal_code": "20230"
  },
  {
    "name": "Loreto-di-Casinca",
    "code": "2B145",
    "epci_code": "200073252",
    "departement_code": "2B",
    "region_code": "94",
    "postal_code": "20215"
  },
  {
    "name": "Lozzi",
    "code": "2B147",
    "epci_code": "200073138",
    "departement_code": "2B",
    "region_code": "94",
    "postal_code": "20224"
  },
  {
    "name": "Lucciana",
    "code": "2B148",
    "epci_code": "200036499",
    "departement_code": "2B",
    "region_code": "94",
    "postal_code": "20290"
  },
  {
    "name": "Lugo-di-Nazza",
    "code": "2B149",
    "epci_code": "200033827",
    "departement_code": "2B",
    "region_code": "94",
    "postal_code": "20240"
  },
  {
    "name": "Lumio",
    "code": "2B150",
    "epci_code": "242020105",
    "departement_code": "2B",
    "region_code": "94",
    "postal_code": "20260"
  },
  {
    "name": "Luri",
    "code": "2B152",
    "epci_code": "200042943",
    "departement_code": "2B",
    "region_code": "94",
    "postal_code": "20228"
  },
  {
    "name": "Manso",
    "code": "2B153",
    "epci_code": "242020105",
    "departement_code": "2B",
    "region_code": "94",
    "postal_code": "20245"
  },
  {
    "name": "Matra",
    "code": "2B155",
    "epci_code": "200015162",
    "departement_code": "2B",
    "region_code": "94",
    "postal_code": "20270"
  },
  {
    "name": "Mausoléo",
    "code": "2B156",
    "epci_code": "200073104",
    "departement_code": "2B",
    "region_code": "94",
    "postal_code": "20259"
  },
  {
    "name": "Mazzola",
    "code": "2B157",
    "epci_code": "200073138",
    "departement_code": "2B",
    "region_code": "94",
    "postal_code": "20212"
  },
  {
    "name": "Meria",
    "code": "2B159",
    "epci_code": "200042943",
    "departement_code": "2B",
    "region_code": "94",
    "postal_code": "20287"
  },
  {
    "name": "Moïta",
    "code": "2B161",
    "epci_code": "200015162",
    "departement_code": "2B",
    "region_code": "94",
    "postal_code": "20270"
  },
  {
    "name": "Moltifao",
    "code": "2B162",
    "epci_code": "200073138",
    "departement_code": "2B",
    "region_code": "94",
    "postal_code": "20218"
  },
  {
    "name": "Monacia-d’Orezza",
    "code": "2B164",
    "epci_code": "200073252",
    "departement_code": "2B",
    "region_code": "94",
    "postal_code": "20229"
  },
  {
    "name": "Moncale",
    "code": "2B165",
    "epci_code": "242020105",
    "departement_code": "2B",
    "region_code": "94",
    "postal_code": "20214"
  },
  {
    "name": "Monte",
    "code": "2B166",
    "epci_code": "200036499",
    "departement_code": "2B",
    "region_code": "94",
    "postal_code": "20290"
  },
  {
    "name": "Montegrosso",
    "code": "2B167",
    "epci_code": "242020105",
    "departement_code": "2B",
    "region_code": "94",
    "postal_code": "20214"
  },
  {
    "name": "Monticello",
    "code": "2B168",
    "epci_code": "200073104",
    "departement_code": "2B",
    "region_code": "94",
    "postal_code": "20220"
  },
  {
    "name": "Morosaglia",
    "code": "2B169",
    "epci_code": "200073138",
    "departement_code": "2B",
    "region_code": "94",
    "postal_code": "20218"
  },
  {
    "name": "Morsiglia",
    "code": "2B170",
    "epci_code": "200042943",
    "departement_code": "2B",
    "region_code": "94",
    "postal_code": "20238"
  },
  {
    "name": "Muracciole",
    "code": "2B171",
    "epci_code": "242020071",
    "departement_code": "2B",
    "region_code": "94",
    "postal_code": "20219"
  },
  {
    "name": "Murato",
    "code": "2B172",
    "epci_code": "200073120",
    "departement_code": "2B",
    "region_code": "94",
    "postal_code": "20239"
  },
  {
    "name": "Muro",
    "code": "2B173",
    "epci_code": "200073104",
    "departement_code": "2B",
    "region_code": "94",
    "postal_code": "20225"
  },
  {
    "name": "Nessa",
    "code": "2B175",
    "epci_code": "200073104",
    "departement_code": "2B",
    "region_code": "94",
    "postal_code": "20225"
  },
  {
    "name": "Nocario",
    "code": "2B176",
    "epci_code": "200073252",
    "departement_code": "2B",
    "region_code": "94",
    "postal_code": "20229"
  },
  {
    "name": "Noceta",
    "code": "2B177",
    "epci_code": "242020071",
    "departement_code": "2B",
    "region_code": "94",
    "postal_code": "20242"
  },
  {
    "name": "Nonza",
    "code": "2B178",
    "epci_code": "200042943",
    "departement_code": "2B",
    "region_code": "94",
    "postal_code": "20217"
  },
  {
    "name": "Novale",
    "code": "2B179",
    "epci_code": "200034205",
    "departement_code": "2B",
    "region_code": "94",
    "postal_code": "20234"
  },
  {
    "name": "Novella",
    "code": "2B180",
    "epci_code": "200073104",
    "departement_code": "2B",
    "region_code": "94",
    "postal_code": "20226"
  },
  {
    "name": "Occhiatana",
    "code": "2B182",
    "epci_code": "200073104",
    "departement_code": "2B",
    "region_code": "94",
    "postal_code": "20226"
  },
  {
    "name": "Ogliastro",
    "code": "2B183",
    "epci_code": "200042943",
    "departement_code": "2B",
    "region_code": "94",
    "postal_code": "20217"
  },
  {
    "name": "Olcani",
    "code": "2B184",
    "epci_code": "200042943",
    "departement_code": "2B",
    "region_code": "94",
    "postal_code": "20217"
  },
  {
    "name": "Oletta",
    "code": "2B185",
    "epci_code": "200073120",
    "departement_code": "2B",
    "region_code": "94",
    "postal_code": "20232"
  },
  {
    "name": "Olmeta-di-Capocorso",
    "code": "2B187",
    "epci_code": "200042943",
    "departement_code": "2B",
    "region_code": "94",
    "postal_code": "20217"
  },
  {
    "name": "Olmeta-di-Tuda",
    "code": "2B188",
    "epci_code": "200073120",
    "departement_code": "2B",
    "region_code": "94",
    "postal_code": "20232"
  },
  {
    "name": "Olmi-Cappella",
    "code": "2B190",
    "epci_code": "200073104",
    "departement_code": "2B",
    "region_code": "94",
    "postal_code": "20259"
  },
  {
    "name": "Olmo",
    "code": "2B192",
    "epci_code": "200036499",
    "departement_code": "2B",
    "region_code": "94",
    "postal_code": "20290"
  },
  {
    "name": "Omessa",
    "code": "2B193",
    "epci_code": "200073138",
    "departement_code": "2B",
    "region_code": "94",
    "postal_code": "20236"
  },
  {
    "name": "Ortale",
    "code": "2B194",
    "epci_code": "200034205",
    "departement_code": "2B",
    "region_code": "94",
    "postal_code": "20234"
  },
  {
    "name": "Ortiporio",
    "code": "2B195",
    "epci_code": "200073252",
    "departement_code": "2B",
    "region_code": "94",
    "postal_code": "20290"
  },
  {
    "name": "Palasca",
    "code": "2B199",
    "epci_code": "200073104",
    "departement_code": "2B",
    "region_code": "94",
    "postal_code": "20226"
  },
  {
    "name": "Pancheraccia",
    "code": "2B201",
    "epci_code": "200015162",
    "departement_code": "2B",
    "region_code": "94",
    "postal_code": "20251"
  },
  {
    "name": "Pancheraccia",
    "code": "2B201",
    "epci_code": "200015162",
    "departement_code": "2B",
    "region_code": "94",
    "postal_code": "20270"
  },
  {
    "name": "Parata",
    "code": "2B202",
    "epci_code": "200073252",
    "departement_code": "2B",
    "region_code": "94",
    "postal_code": "20229"
  },
  {
    "name": "Patrimonio",
    "code": "2B205",
    "epci_code": "200073120",
    "departement_code": "2B",
    "region_code": "94",
    "postal_code": "20253"
  },
  {
    "name": "Penta-Acquatella",
    "code": "2B206",
    "epci_code": "200073252",
    "departement_code": "2B",
    "region_code": "94",
    "postal_code": "20290"
  },
  {
    "name": "Penta-di-Casinca",
    "code": "2B207",
    "epci_code": "200073252",
    "departement_code": "2B",
    "region_code": "94",
    "postal_code": "20213"
  },
  {
    "name": "Perelli",
    "code": "2B208",
    "epci_code": "200034205",
    "departement_code": "2B",
    "region_code": "94",
    "postal_code": "20234"
  },
  {
    "name": "Pero-Casevecchie",
    "code": "2B210",
    "epci_code": "200034205",
    "departement_code": "2B",
    "region_code": "94",
    "postal_code": "20230"
  },
  {
    "name": "Pianello",
    "code": "2B213",
    "epci_code": "200015162",
    "departement_code": "2B",
    "region_code": "94",
    "postal_code": "20272"
  },
  {
    "name": "Piano",
    "code": "2B214",
    "epci_code": "200073252",
    "departement_code": "2B",
    "region_code": "94",
    "postal_code": "20215"
  },
  {
    "name": "Piazzali",
    "code": "2B216",
    "epci_code": "200034205",
    "departement_code": "2B",
    "region_code": "94",
    "postal_code": "20234"
  },
  {
    "name": "Piazzole",
    "code": "2B217",
    "epci_code": "200073252",
    "departement_code": "2B",
    "region_code": "94",
    "postal_code": "20229"
  },
  {
    "name": "Piedicorte-di-Gaggio",
    "code": "2B218",
    "epci_code": "200015162",
    "departement_code": "2B",
    "region_code": "94",
    "postal_code": "20251"
  },
  {
    "name": "Piedicroce",
    "code": "2B219",
    "epci_code": "200073252",
    "departement_code": "2B",
    "region_code": "94",
    "postal_code": "20229"
  },
  {
    "name": "Piedigriggio",
    "code": "2B220",
    "epci_code": "200073138",
    "departement_code": "2B",
    "region_code": "94",
    "postal_code": "20218"
  },
  {
    "name": "Piedipartino",
    "code": "2B221",
    "epci_code": "200073252",
    "departement_code": "2B",
    "region_code": "94",
    "postal_code": "20229"
  },
  {
    "name": "Pie-d’Orezza",
    "code": "2B222",
    "epci_code": "200073252",
    "departement_code": "2B",
    "region_code": "94",
    "postal_code": "20229"
  },
  {
    "name": "Pietralba",
    "code": "2B223",
    "epci_code": "200073104",
    "departement_code": "2B",
    "region_code": "94",
    "postal_code": "20218"
  },
  {
    "name": "Pietracorbara",
    "code": "2B224",
    "epci_code": "200042943",
    "departement_code": "2B",
    "region_code": "94",
    "postal_code": "20233"
  },
  {
    "name": "Pietra-di-Verde",
    "code": "2B225",
    "epci_code": "200015162",
    "departement_code": "2B",
    "region_code": "94",
    "postal_code": "20230"
  },
  {
    "name": "Pietraserena",
    "code": "2B226",
    "epci_code": "200015162",
    "departement_code": "2B",
    "region_code": "94",
    "postal_code": "20251"
  },
  {
    "name": "Pietricaggio",
    "code": "2B227",
    "epci_code": "200034205",
    "departement_code": "2B",
    "region_code": "94",
    "postal_code": "20234"
  },
  {
    "name": "Pietroso",
    "code": "2B229",
    "epci_code": "200033827",
    "departement_code": "2B",
    "region_code": "94",
    "postal_code": "20242"
  },
  {
    "name": "Piève",
    "code": "2B230",
    "epci_code": "200073120",
    "departement_code": "2B",
    "region_code": "94",
    "postal_code": "20246"
  },
  {
    "name": "Pigna",
    "code": "2B231",
    "epci_code": "200073104",
    "departement_code": "2B",
    "region_code": "94",
    "postal_code": "20220"
  },
  {
    "name": "Pino",
    "code": "2B233",
    "epci_code": "200042943",
    "departement_code": "2B",
    "region_code": "94",
    "postal_code": "20228"
  },
  {
    "name": "Piobetta",
    "code": "2B234",
    "epci_code": "200034205",
    "departement_code": "2B",
    "region_code": "94",
    "postal_code": "20234"
  },
  {
    "name": "Pioggiola",
    "code": "2B235",
    "epci_code": "200073104",
    "departement_code": "2B",
    "region_code": "94",
    "postal_code": "20259"
  },
  {
    "name": "Poggio-di-Nazza",
    "code": "2B236",
    "epci_code": "200033827",
    "departement_code": "2B",
    "region_code": "94",
    "postal_code": "20240"
  },
  {
    "name": "Poggio-di-Venaco",
    "code": "2B238",
    "epci_code": "242020071",
    "departement_code": "2B",
    "region_code": "94",
    "postal_code": "20250"
  },
  {
    "name": "Poggio-d’Oletta",
    "code": "2B239",
    "epci_code": "200073120",
    "departement_code": "2B",
    "region_code": "94",
    "postal_code": "20232"
  },
  {
    "name": "Poggio-Marinaccio",
    "code": "2B241",
    "epci_code": "200073252",
    "departement_code": "2B",
    "region_code": "94",
    "postal_code": "20237"
  },
  {
    "name": "Poggio-Mezzana",
    "code": "2B242",
    "epci_code": "200034205",
    "departement_code": "2B",
    "region_code": "94",
    "postal_code": "20230"
  },
  {
    "name": "Polveroso",
    "code": "2B243",
    "epci_code": "200073252",
    "departement_code": "2B",
    "region_code": "94",
    "postal_code": "20229"
  },
  {
    "name": "Popolasca",
    "code": "2B244",
    "epci_code": "200073138",
    "departement_code": "2B",
    "region_code": "94",
    "postal_code": "20218"
  },
  {
    "name": "Porri",
    "code": "2B245",
    "epci_code": "200073252",
    "departement_code": "2B",
    "region_code": "94",
    "postal_code": "20215"
  },
  {
    "name": "La Porta",
    "code": "2B246",
    "epci_code": "200073252",
    "departement_code": "2B",
    "region_code": "94",
    "postal_code": "20237"
  },
  {
    "name": "Prato-di-Giovellina",
    "code": "2B248",
    "epci_code": "200073138",
    "departement_code": "2B",
    "region_code": "94",
    "postal_code": "20218"
  },
  {
    "name": "Prunelli-di-Casacconi",
    "code": "2B250",
    "epci_code": "200073252",
    "departement_code": "2B",
    "region_code": "94",
    "postal_code": "20290"
  },
  {
    "name": "Prunelli-di-Fiumorbo",
    "code": "2B251",
    "epci_code": "200033827",
    "departement_code": "2B",
    "region_code": "94",
    "postal_code": "20243"
  },
  {
    "name": "Pruno",
    "code": "2B252",
    "epci_code": "200073252",
    "departement_code": "2B",
    "region_code": "94",
    "postal_code": "20213"
  },
  {
    "name": "Quercitello",
    "code": "2B255",
    "epci_code": "200073252",
    "departement_code": "2B",
    "region_code": "94",
    "postal_code": "20237"
  },
  {
    "name": "Rapaggio",
    "code": "2B256",
    "epci_code": "200073252",
    "departement_code": "2B",
    "region_code": "94",
    "postal_code": "20229"
  },
  {
    "name": "Rapale",
    "code": "2B257",
    "epci_code": "200073120",
    "departement_code": "2B",
    "region_code": "94",
    "postal_code": "20246"
  },
  {
    "name": "Riventosa",
    "code": "2B260",
    "epci_code": "242020071",
    "departement_code": "2B",
    "region_code": "94",
    "postal_code": "20250"
  },
  {
    "name": "Rogliano",
    "code": "2B261",
    "epci_code": "200042943",
    "departement_code": "2B",
    "region_code": "94",
    "postal_code": "20247"
  },
  {
    "name": "Rogliano",
    "code": "2B261",
    "epci_code": "200042943",
    "departement_code": "2B",
    "region_code": "94",
    "postal_code": "20248"
  },
  {
    "name": "Rospigliani",
    "code": "2B263",
    "epci_code": "242020071",
    "departement_code": "2B",
    "region_code": "94",
    "postal_code": "20242"
  },
  {
    "name": "Rusio",
    "code": "2B264",
    "epci_code": "200073138",
    "departement_code": "2B",
    "region_code": "94",
    "postal_code": "20244"
  },
  {
    "name": "Rutali",
    "code": "2B265",
    "epci_code": "200073120",
    "departement_code": "2B",
    "region_code": "94",
    "postal_code": "20239"
  },
  {
    "name": "Saliceto",
    "code": "2B267",
    "epci_code": "200073138",
    "departement_code": "2B",
    "region_code": "94",
    "postal_code": "20218"
  },
  {
    "name": "Scata",
    "code": "2B273",
    "epci_code": "200073252",
    "departement_code": "2B",
    "region_code": "94",
    "postal_code": "20213"
  },
  {
    "name": "Scolca",
    "code": "2B274",
    "epci_code": "200036499",
    "departement_code": "2B",
    "region_code": "94",
    "postal_code": "20290"
  },
  {
    "name": "Sermano",
    "code": "2B275",
    "epci_code": "200073138",
    "departement_code": "2B",
    "region_code": "94",
    "postal_code": "20212"
  },
  {
    "name": "Serra-di-Fiumorbo",
    "code": "2B277",
    "epci_code": "200033827",
    "departement_code": "2B",
    "region_code": "94",
    "postal_code": "20243"
  },
  {
    "name": "Silvareccio",
    "code": "2B280",
    "epci_code": "200073252",
    "departement_code": "2B",
    "region_code": "94",
    "postal_code": "20215"
  },
  {
    "name": "Sisco",
    "code": "2B281",
    "epci_code": "200042943",
    "departement_code": "2B",
    "region_code": "94",
    "postal_code": "20233"
  },
  {
    "name": "Solaro",
    "code": "2B283",
    "epci_code": "200033827",
    "departement_code": "2B",
    "region_code": "94",
    "postal_code": "20240"
  },
  {
    "name": "Sorbo-Ocagnano",
    "code": "2B286",
    "epci_code": "200073252",
    "departement_code": "2B",
    "region_code": "94",
    "postal_code": "20213"
  },
  {
    "name": "Sorio",
    "code": "2B287",
    "epci_code": "200073120",
    "departement_code": "2B",
    "region_code": "94",
    "postal_code": "20246"
  },
  {
    "name": "Soveria",
    "code": "2B289",
    "epci_code": "200073138",
    "departement_code": "2B",
    "region_code": "94",
    "postal_code": "20250"
  },
  {
    "name": "Speloncato",
    "code": "2B290",
    "epci_code": "200073104",
    "departement_code": "2B",
    "region_code": "94",
    "postal_code": "20226"
  },
  {
    "name": "Stazzona",
    "code": "2B291",
    "epci_code": "200073252",
    "departement_code": "2B",
    "region_code": "94",
    "postal_code": "20229"
  },
  {
    "name": "Sant’Andréa-di-Bozio",
    "code": "2B292",
    "epci_code": "200073138",
    "departement_code": "2B",
    "region_code": "94",
    "postal_code": "20212"
  },
  {
    "name": "Sant’Andréa-di-Cotone",
    "code": "2B293",
    "epci_code": "200034205",
    "departement_code": "2B",
    "region_code": "94",
    "postal_code": "20221"
  },
  {
    "name": "Sant’Antonino",
    "code": "2B296",
    "epci_code": "242020105",
    "departement_code": "2B",
    "region_code": "94",
    "postal_code": "20220"
  },
  {
    "name": "San-Damiano",
    "code": "2B297",
    "epci_code": "200073252",
    "departement_code": "2B",
    "region_code": "94",
    "postal_code": "20213"
  },
  {
    "name": "Saint-Florent",
    "code": "2B298",
    "epci_code": "200073120",
    "departement_code": "2B",
    "region_code": "94",
    "postal_code": "20217"
  },
  {
    "name": "San-Gavino-d’Ampugnani",
    "code": "2B299",
    "epci_code": "200073252",
    "departement_code": "2B",
    "region_code": "94",
    "postal_code": "20213"
  },
  {
    "name": "San-Gavino-di-Tenda",
    "code": "2B301",
    "epci_code": "200073120",
    "departement_code": "2B",
    "region_code": "94",
    "postal_code": "20246"
  },
  {
    "name": "San-Giovanni-di-Moriani",
    "code": "2B302",
    "epci_code": "200034205",
    "departement_code": "2B",
    "region_code": "94",
    "postal_code": "20230"
  },
  {
    "name": "San-Giuliano",
    "code": "2B303",
    "epci_code": "200034205",
    "departement_code": "2B",
    "region_code": "94",
    "postal_code": "20230"
  },
  {
    "name": "San-Lorenzo",
    "code": "2B304",
    "epci_code": "200073138",
    "departement_code": "2B",
    "region_code": "94",
    "postal_code": "20244"
  },
  {
    "name": "San-Martino-di-Lota",
    "code": "2B305",
    "epci_code": "242000354",
    "departement_code": "2B",
    "region_code": "94",
    "postal_code": "20200"
  },
  {
    "name": "Santa-Lucia-di-Mercurio",
    "code": "2B306",
    "epci_code": "200073138",
    "departement_code": "2B",
    "region_code": "94",
    "postal_code": "20250"
  },
  {
    "name": "Santa-Lucia-di-Moriani",
    "code": "2B307",
    "epci_code": "200034205",
    "departement_code": "2B",
    "region_code": "94",
    "postal_code": "20230"
  },
  {
    "name": "Santa-Maria-di-Lota",
    "code": "2B309",
    "epci_code": "242000354",
    "departement_code": "2B",
    "region_code": "94",
    "postal_code": "20200"
  },
  {
    "name": "Santa-Maria-Poggio",
    "code": "2B311",
    "epci_code": "200034205",
    "departement_code": "2B",
    "region_code": "94",
    "postal_code": "20221"
  },
  {
    "name": "San-Nicolao",
    "code": "2B313",
    "epci_code": "200034205",
    "departement_code": "2B",
    "region_code": "94",
    "postal_code": "20230"
  },
  {
    "name": "Santo-Pietro-di-Tenda",
    "code": "2B314",
    "epci_code": "200073120",
    "departement_code": "2B",
    "region_code": "94",
    "postal_code": "20217"
  },
  {
    "name": "Santo-Pietro-di-Tenda",
    "code": "2B314",
    "epci_code": "200073120",
    "departement_code": "2B",
    "region_code": "94",
    "postal_code": "20246"
  },
  {
    "name": "Santo-Pietro-di-Venaco",
    "code": "2B315",
    "epci_code": "242020071",
    "departement_code": "2B",
    "region_code": "94",
    "postal_code": "20250"
  },
  {
    "name": "Santa-Reparata-di-Balagna",
    "code": "2B316",
    "epci_code": "200073104",
    "departement_code": "2B",
    "region_code": "94",
    "postal_code": "20220"
  },
  {
    "name": "Santa-Reparata-di-Moriani",
    "code": "2B317",
    "epci_code": "200034205",
    "departement_code": "2B",
    "region_code": "94",
    "postal_code": "20230"
  },
  {
    "name": "Taglio-Isolaccio",
    "code": "2B318",
    "epci_code": "200034205",
    "departement_code": "2B",
    "region_code": "94",
    "postal_code": "20230"
  },
  {
    "name": "Talasani",
    "code": "2B319",
    "epci_code": "200034205",
    "departement_code": "2B",
    "region_code": "94",
    "postal_code": "20230"
  },
  {
    "name": "Tallone",
    "code": "2B320",
    "epci_code": "200015162",
    "departement_code": "2B",
    "region_code": "94",
    "postal_code": "20270"
  },
  {
    "name": "Tarrano",
    "code": "2B321",
    "epci_code": "200034205",
    "departement_code": "2B",
    "region_code": "94",
    "postal_code": "20234"
  },
  {
    "name": "Tomino",
    "code": "2B327",
    "epci_code": "200042943",
    "departement_code": "2B",
    "region_code": "94",
    "postal_code": "20248"
  },
  {
    "name": "Tox",
    "code": "2B328",
    "epci_code": "200015162",
    "departement_code": "2B",
    "region_code": "94",
    "postal_code": "20270"
  },
  {
    "name": "Tralonca",
    "code": "2B329",
    "epci_code": "200073138",
    "departement_code": "2B",
    "region_code": "94",
    "postal_code": "20250"
  },
  {
    "name": "Urtaca",
    "code": "2B332",
    "epci_code": "200073104",
    "departement_code": "2B",
    "region_code": "94",
    "postal_code": "20218"
  },
  {
    "name": "Vallecalle",
    "code": "2B333",
    "epci_code": "200073120",
    "departement_code": "2B",
    "region_code": "94",
    "postal_code": "20232"
  },
  {
    "name": "Valle-d’Alesani",
    "code": "2B334",
    "epci_code": "200034205",
    "departement_code": "2B",
    "region_code": "94",
    "postal_code": "20234"
  },
  {
    "name": "Valle-di-Campoloro",
    "code": "2B335",
    "epci_code": "200034205",
    "departement_code": "2B",
    "region_code": "94",
    "postal_code": "20221"
  },
  {
    "name": "Valle-di-Rostino",
    "code": "2B337",
    "epci_code": "200073138",
    "departement_code": "2B",
    "region_code": "94",
    "postal_code": "20235"
  },
  {
    "name": "Valle-d’Orezza",
    "code": "2B338",
    "epci_code": "200073252",
    "departement_code": "2B",
    "region_code": "94",
    "postal_code": "20229"
  },
  {
    "name": "Vallica",
    "code": "2B339",
    "epci_code": "200073104",
    "departement_code": "2B",
    "region_code": "94",
    "postal_code": "20259"
  },
  {
    "name": "Velone-Orneto",
    "code": "2B340",
    "epci_code": "200034205",
    "departement_code": "2B",
    "region_code": "94",
    "postal_code": "20230"
  },
  {
    "name": "Venaco",
    "code": "2B341",
    "epci_code": "242020071",
    "departement_code": "2B",
    "region_code": "94",
    "postal_code": "20231"
  },
  {
    "name": "Ventiseri",
    "code": "2B342",
    "epci_code": "200033827",
    "departement_code": "2B",
    "region_code": "94",
    "postal_code": "20240"
  },
  {
    "name": "Venzolasca",
    "code": "2B343",
    "epci_code": "200073252",
    "departement_code": "2B",
    "region_code": "94",
    "postal_code": "20215"
  },
  {
    "name": "Verdèse",
    "code": "2B344",
    "epci_code": "200073252",
    "departement_code": "2B",
    "region_code": "94",
    "postal_code": "20229"
  },
  {
    "name": "Vescovato",
    "code": "2B346",
    "epci_code": "200073252",
    "departement_code": "2B",
    "region_code": "94",
    "postal_code": "20215"
  },
  {
    "name": "Vezzani",
    "code": "2B347",
    "epci_code": "200033827",
    "departement_code": "2B",
    "region_code": "94",
    "postal_code": "20242"
  },
  {
    "name": "Vignale",
    "code": "2B350",
    "epci_code": "200036499",
    "departement_code": "2B",
    "region_code": "94",
    "postal_code": "20290"
  },
  {
    "name": "Ville-di-Paraso",
    "code": "2B352",
    "epci_code": "200073104",
    "departement_code": "2B",
    "region_code": "94",
    "postal_code": "20279"
  },
  {
    "name": "Ville-di-Pietrabugno",
    "code": "2B353",
    "epci_code": "242000354",
    "departement_code": "2B",
    "region_code": "94",
    "postal_code": "20200"
  },
  {
    "name": "Vivario",
    "code": "2B354",
    "epci_code": "242020071",
    "departement_code": "2B",
    "region_code": "94",
    "postal_code": "20219"
  },
  {
    "name": "Volpajola",
    "code": "2B355",
    "epci_code": "200073252",
    "departement_code": "2B",
    "region_code": "94",
    "postal_code": "20290"
  },
  {
    "name": "Zalana",
    "code": "2B356",
    "epci_code": "200015162",
    "departement_code": "2B",
    "region_code": "94",
    "postal_code": "20272"
  },
  {
    "name": "Zilia",
    "code": "2B361",
    "epci_code": "242020105",
    "departement_code": "2B",
    "region_code": "94",
    "postal_code": "20214"
  },
  {
    "name": "Zuani",
    "code": "2B364",
    "epci_code": "200015162",
    "departement_code": "2B",
    "region_code": "94",
    "postal_code": "20272"
  },
  {
    "name": "San-Gavino-di-Fiumorbo",
    "code": "2B365",
    "epci_code": "200033827",
    "departement_code": "2B",
    "region_code": "94",
    "postal_code": "20243"
  },
  {
    "name": "Chisa",
    "code": "2B366",
    "epci_code": "200033827",
    "departement_code": "2B",
    "region_code": "94",
    "postal_code": "20240"
  }
]