[
  {
    "name": "Abancourt",
    "code": "59001",
    "epci_code": "200068500",
    "departement_code": "59",
    "region_code": "32",
    "postal_code": "59268"
  },
  {
    "name": "Abscon",
    "code": "59002",
    "epci_code": "200042190",
    "departement_code": "59",
    "region_code": "32",
    "postal_code": "59215"
  },
  {
    "name": "Aibes",
    "code": "59003",
    "epci_code": "200043396",
    "departement_code": "59",
    "region_code": "32",
    "postal_code": "59149"
  },
  {
    "name": "Aix-en-Pévèle",
    "code": "59004",
    "epci_code": "200041960",
    "departement_code": "59",
    "region_code": "32",
    "postal_code": "59310"
  },
  {
    "name": "Allennes-les-Marais",
    "code": "59005",
    "epci_code": "200093201",
    "departement_code": "59",
    "region_code": "32",
    "postal_code": "59251"
  },
  {
    "name": "L’Orée de Mormal",
    "code": "59006",
    "epci_code": "200043321",
    "departement_code": "59",
    "region_code": "32",
    "postal_code": "59144"
  },
  {
    "name": "L’Orée de Mormal",
    "code": "59006",
    "epci_code": "200043321",
    "departement_code": "59",
    "region_code": "32",
    "postal_code": "59570"
  },
  {
    "name": "Anhiers",
    "code": "59007",
    "epci_code": "200044618",
    "departement_code": "59",
    "region_code": "32",
    "postal_code": "59194"
  },
  {
    "name": "Aniche",
    "code": "59008",
    "epci_code": "245901152",
    "departement_code": "59",
    "region_code": "32",
    "postal_code": "59580"
  },
  {
    "name": "Villeneuve-d’Ascq",
    "code": "59009",
    "epci_code": "200093201",
    "departement_code": "59",
    "region_code": "32",
    "postal_code": "59491"
  },
  {
    "name": "Villeneuve-d’Ascq",
    "code": "59009",
    "epci_code": "200093201",
    "departement_code": "59",
    "region_code": "32",
    "postal_code": "59493"
  },
  {
    "name": "Villeneuve-d’Ascq",
    "code": "59009",
    "epci_code": "200093201",
    "departement_code": "59",
    "region_code": "32",
    "postal_code": "59650"
  },
  {
    "name": "Anneux",
    "code": "59010",
    "epci_code": "200068500",
    "departement_code": "59",
    "region_code": "32",
    "postal_code": "59400"
  },
  {
    "name": "Annœullin",
    "code": "59011",
    "epci_code": "200093201",
    "departement_code": "59",
    "region_code": "32",
    "postal_code": "59112"
  },
  {
    "name": "Anor",
    "code": "59012",
    "epci_code": "200043404",
    "departement_code": "59",
    "region_code": "32",
    "postal_code": "59186"
  },
  {
    "name": "Anstaing",
    "code": "59013",
    "epci_code": "200093201",
    "departement_code": "59",
    "region_code": "32",
    "postal_code": "59152"
  },
  {
    "name": "Anzin",
    "code": "59014",
    "epci_code": "245901160",
    "departement_code": "59",
    "region_code": "32",
    "postal_code": "59410"
  },
  {
    "name": "Arleux",
    "code": "59015",
    "epci_code": "200044618",
    "departement_code": "59",
    "region_code": "32",
    "postal_code": "59151"
  },
  {
    "name": "Armbouts-Cappel",
    "code": "59016",
    "epci_code": "245900428",
    "departement_code": "59",
    "region_code": "32",
    "postal_code": "59380"
  },
  {
    "name": "Armentières",
    "code": "59017",
    "epci_code": "200093201",
    "departement_code": "59",
    "region_code": "32",
    "postal_code": "59280"
  },
  {
    "name": "Arnèke",
    "code": "59018",
    "epci_code": "200040947",
    "departement_code": "59",
    "region_code": "32",
    "postal_code": "59285"
  },
  {
    "name": "Artres",
    "code": "59019",
    "epci_code": "245901160",
    "departement_code": "59",
    "region_code": "32",
    "postal_code": "59269"
  },
  {
    "name": "Assevent",
    "code": "59021",
    "epci_code": "200043396",
    "departement_code": "59",
    "region_code": "32",
    "postal_code": "59600"
  },
  {
    "name": "Attiches",
    "code": "59022",
    "epci_code": "200041960",
    "departement_code": "59",
    "region_code": "32",
    "postal_code": "59551"
  },
  {
    "name": "Aubencheul-au-Bac",
    "code": "59023",
    "epci_code": "200068500",
    "departement_code": "59",
    "region_code": "32",
    "postal_code": "59265"
  },
  {
    "name": "Auberchicourt",
    "code": "59024",
    "epci_code": "245901152",
    "departement_code": "59",
    "region_code": "32",
    "postal_code": "59165"
  },
  {
    "name": "Aubers",
    "code": "59025",
    "epci_code": "200093201",
    "departement_code": "59",
    "region_code": "32",
    "postal_code": "59249"
  },
  {
    "name": "Aubigny-au-Bac",
    "code": "59026",
    "epci_code": "200044618",
    "departement_code": "59",
    "region_code": "32",
    "postal_code": "59265"
  },
  {
    "name": "Aubry-du-Hainaut",
    "code": "59027",
    "epci_code": "245901160",
    "departement_code": "59",
    "region_code": "32",
    "postal_code": "59494"
  },
  {
    "name": "Auby",
    "code": "59028",
    "epci_code": "200044618",
    "departement_code": "59",
    "region_code": "32",
    "postal_code": "59950"
  },
  {
    "name": "Auchy-lez-Orchies",
    "code": "59029",
    "epci_code": "200041960",
    "departement_code": "59",
    "region_code": "32",
    "postal_code": "59310"
  },
  {
    "name": "Audignies",
    "code": "59031",
    "epci_code": "200043321",
    "departement_code": "59",
    "region_code": "32",
    "postal_code": "59570"
  },
  {
    "name": "Aulnoy-lez-Valenciennes",
    "code": "59032",
    "epci_code": "245901160",
    "departement_code": "59",
    "region_code": "32",
    "postal_code": "59300"
  },
  {
    "name": "Aulnoye-Aymeries",
    "code": "59033",
    "epci_code": "200043396",
    "departement_code": "59",
    "region_code": "32",
    "postal_code": "59620"
  },
  {
    "name": "Avelin",
    "code": "59034",
    "epci_code": "200041960",
    "departement_code": "59",
    "region_code": "32",
    "postal_code": "59710"
  },
  {
    "name": "Avesnelles",
    "code": "59035",
    "epci_code": "200043263",
    "departement_code": "59",
    "region_code": "32",
    "postal_code": "59440"
  },
  {
    "name": "Avesnes-sur-Helpe",
    "code": "59036",
    "epci_code": "200043263",
    "departement_code": "59",
    "region_code": "32",
    "postal_code": "59440"
  },
  {
    "name": "Avesnes-les-Aubert",
    "code": "59037",
    "epci_code": "200030633",
    "departement_code": "59",
    "region_code": "32",
    "postal_code": "59129"
  },
  {
    "name": "Avesnes-le-Sec",
    "code": "59038",
    "epci_code": "200042190",
    "departement_code": "59",
    "region_code": "32",
    "postal_code": "59296"
  },
  {
    "name": "Awoingt",
    "code": "59039",
    "epci_code": "200068500",
    "departement_code": "59",
    "region_code": "32",
    "postal_code": "59400"
  },
  {
    "name": "Bachant",
    "code": "59041",
    "epci_code": "200043396",
    "departement_code": "59",
    "region_code": "32",
    "postal_code": "59138"
  },
  {
    "name": "Bachy",
    "code": "59042",
    "epci_code": "200041960",
    "departement_code": "59",
    "region_code": "32",
    "postal_code": "59830"
  },
  {
    "name": "Bailleul",
    "code": "59043",
    "epci_code": "200040947",
    "departement_code": "59",
    "region_code": "32",
    "postal_code": "59270"
  },
  {
    "name": "Baisieux",
    "code": "59044",
    "epci_code": "200093201",
    "departement_code": "59",
    "region_code": "32",
    "postal_code": "59780"
  },
  {
    "name": "Baives",
    "code": "59045",
    "epci_code": "200043404",
    "departement_code": "59",
    "region_code": "32",
    "postal_code": "59132"
  },
  {
    "name": "Bambecque",
    "code": "59046",
    "epci_code": "200040954",
    "departement_code": "59",
    "region_code": "32",
    "postal_code": "59470"
  },
  {
    "name": "Banteux",
    "code": "59047",
    "epci_code": "200068500",
    "departement_code": "59",
    "region_code": "32",
    "postal_code": "59266"
  },
  {
    "name": "Bantigny",
    "code": "59048",
    "epci_code": "200068500",
    "departement_code": "59",
    "region_code": "32",
    "postal_code": "59554"
  },
  {
    "name": "Bantouzelle",
    "code": "59049",
    "epci_code": "200068500",
    "departement_code": "59",
    "region_code": "32",
    "postal_code": "59266"
  },
  {
    "name": "Bas-Lieu",
    "code": "59050",
    "epci_code": "200043263",
    "departement_code": "59",
    "region_code": "32",
    "postal_code": "59440"
  },
  {
    "name": "La Bassée",
    "code": "59051",
    "epci_code": "200093201",
    "departement_code": "59",
    "region_code": "32",
    "postal_code": "59480"
  },
  {
    "name": "Bauvin",
    "code": "59052",
    "epci_code": "200093201",
    "departement_code": "59",
    "region_code": "32",
    "postal_code": "59221"
  },
  {
    "name": "Bavay",
    "code": "59053",
    "epci_code": "200043321",
    "departement_code": "59",
    "region_code": "32",
    "postal_code": "59570"
  },
  {
    "name": "Bavinchove",
    "code": "59054",
    "epci_code": "200040947",
    "departement_code": "59",
    "region_code": "32",
    "postal_code": "59670"
  },
  {
    "name": "Bazuel",
    "code": "59055",
    "epci_code": "200030633",
    "departement_code": "59",
    "region_code": "32",
    "postal_code": "59360"
  },
  {
    "name": "Beaucamps-Ligny",
    "code": "59056",
    "epci_code": "200093201",
    "departement_code": "59",
    "region_code": "32",
    "postal_code": "59134"
  },
  {
    "name": "Beaudignies",
    "code": "59057",
    "epci_code": "200043321",
    "departement_code": "59",
    "region_code": "32",
    "postal_code": "59530"
  },
  {
    "name": "Beaufort",
    "code": "59058",
    "epci_code": "200043396",
    "departement_code": "59",
    "region_code": "32",
    "postal_code": "59330"
  },
  {
    "name": "Beaumont-en-Cambrésis",
    "code": "59059",
    "epci_code": "200030633",
    "departement_code": "59",
    "region_code": "32",
    "postal_code": "59540"
  },
  {
    "name": "Beaurain",
    "code": "59060",
    "epci_code": "245901038",
    "departement_code": "59",
    "region_code": "32",
    "postal_code": "59730"
  },
  {
    "name": "Beaurepaire-sur-Sambre",
    "code": "59061",
    "epci_code": "200043263",
    "departement_code": "59",
    "region_code": "32",
    "postal_code": "59550"
  },
  {
    "name": "Beaurieux",
    "code": "59062",
    "epci_code": "200043263",
    "departement_code": "59",
    "region_code": "32",
    "postal_code": "59740"
  },
  {
    "name": "Beauvois-en-Cambrésis",
    "code": "59063",
    "epci_code": "200030633",
    "departement_code": "59",
    "region_code": "32",
    "postal_code": "59157"
  },
  {
    "name": "Bellaing",
    "code": "59064",
    "epci_code": "200042190",
    "departement_code": "59",
    "region_code": "32",
    "postal_code": "59135"
  },
  {
    "name": "Bellignies",
    "code": "59065",
    "epci_code": "200043321",
    "departement_code": "59",
    "region_code": "32",
    "postal_code": "59570"
  },
  {
    "name": "Bérelles",
    "code": "59066",
    "epci_code": "200043263",
    "departement_code": "59",
    "region_code": "32",
    "postal_code": "59740"
  },
  {
    "name": "Bergues",
    "code": "59067",
    "epci_code": "200040954",
    "departement_code": "59",
    "region_code": "32",
    "postal_code": "59380"
  },
  {
    "name": "Berlaimont",
    "code": "59068",
    "epci_code": "200043396",
    "departement_code": "59",
    "region_code": "32",
    "postal_code": "59145"
  },
  {
    "name": "Bermerain",
    "code": "59069",
    "epci_code": "245901038",
    "departement_code": "59",
    "region_code": "32",
    "postal_code": "59213"
  },
  {
    "name": "Bersée",
    "code": "59071",
    "epci_code": "200041960",
    "departement_code": "59",
    "region_code": "32",
    "postal_code": "59235"
  },
  {
    "name": "Bersillies",
    "code": "59072",
    "epci_code": "200043396",
    "departement_code": "59",
    "region_code": "32",
    "postal_code": "59600"
  },
  {
    "name": "Berthen",
    "code": "59073",
    "epci_code": "200040947",
    "departement_code": "59",
    "region_code": "32",
    "postal_code": "59270"
  },
  {
    "name": "Bertry",
    "code": "59074",
    "epci_code": "200030633",
    "departement_code": "59",
    "region_code": "32",
    "postal_code": "59980"
  },
  {
    "name": "Béthencourt",
    "code": "59075",
    "epci_code": "200030633",
    "departement_code": "59",
    "region_code": "32",
    "postal_code": "59540"
  },
  {
    "name": "Bettignies",
    "code": "59076",
    "epci_code": "200043396",
    "departement_code": "59",
    "region_code": "32",
    "postal_code": "59600"
  },
  {
    "name": "Bettrechies",
    "code": "59077",
    "epci_code": "200043321",
    "departement_code": "59",
    "region_code": "32",
    "postal_code": "59570"
  },
  {
    "name": "Beugnies",
    "code": "59078",
    "epci_code": "200043263",
    "departement_code": "59",
    "region_code": "32",
    "postal_code": "59216"
  },
  {
    "name": "Beuvrages",
    "code": "59079",
    "epci_code": "245901160",
    "departement_code": "59",
    "region_code": "32",
    "postal_code": "59192"
  },
  {
    "name": "Beuvry-la-Forêt",
    "code": "59080",
    "epci_code": "200041960",
    "departement_code": "59",
    "region_code": "32",
    "postal_code": "59310"
  },
  {
    "name": "Bévillers",
    "code": "59081",
    "epci_code": "200030633",
    "departement_code": "59",
    "region_code": "32",
    "postal_code": "59217"
  },
  {
    "name": "Bierne",
    "code": "59082",
    "epci_code": "200040954",
    "departement_code": "59",
    "region_code": "32",
    "postal_code": "59380"
  },
  {
    "name": "Bissezeele",
    "code": "59083",
    "epci_code": "200040954",
    "departement_code": "59",
    "region_code": "32",
    "postal_code": "59380"
  },
  {
    "name": "Blaringhem",
    "code": "59084",
    "epci_code": "200040947",
    "departement_code": "59",
    "region_code": "32",
    "postal_code": "59173"
  },
  {
    "name": "Blécourt",
    "code": "59085",
    "epci_code": "200068500",
    "departement_code": "59",
    "region_code": "32",
    "postal_code": "59268"
  },
  {
    "name": "Boeschepe",
    "code": "59086",
    "epci_code": "200040947",
    "departement_code": "59",
    "region_code": "32",
    "postal_code": "59299"
  },
  {
    "name": "Boëseghem",
    "code": "59087",
    "epci_code": "200040947",
    "departement_code": "59",
    "region_code": "32",
    "postal_code": "59189"
  },
  {
    "name": "Bois-Grenier",
    "code": "59088",
    "epci_code": "200093201",
    "departement_code": "59",
    "region_code": "32",
    "postal_code": "59280"
  },
  {
    "name": "Bollezeele",
    "code": "59089",
    "epci_code": "200040954",
    "departement_code": "59",
    "region_code": "32",
    "postal_code": "59470"
  },
  {
    "name": "Bondues",
    "code": "59090",
    "epci_code": "200093201",
    "departement_code": "59",
    "region_code": "32",
    "postal_code": "59910"
  },
  {
    "name": "Borre",
    "code": "59091",
    "epci_code": "200040947",
    "departement_code": "59",
    "region_code": "32",
    "postal_code": "59190"
  },
  {
    "name": "Bouchain",
    "code": "59092",
    "epci_code": "200042190",
    "departement_code": "59",
    "region_code": "32",
    "postal_code": "59111"
  },
  {
    "name": "Boulogne-sur-Helpe",
    "code": "59093",
    "epci_code": "200043263",
    "departement_code": "59",
    "region_code": "32",
    "postal_code": "59440"
  },
  {
    "name": "Bourbourg",
    "code": "59094",
    "epci_code": "245900428",
    "departement_code": "59",
    "region_code": "32",
    "postal_code": "59630"
  },
  {
    "name": "Bourghelles",
    "code": "59096",
    "epci_code": "200041960",
    "departement_code": "59",
    "region_code": "32",
    "postal_code": "59830"
  },
  {
    "name": "Boursies",
    "code": "59097",
    "epci_code": "200068500",
    "departement_code": "59",
    "region_code": "32",
    "postal_code": "59400"
  },
  {
    "name": "Bousbecque",
    "code": "59098",
    "epci_code": "200093201",
    "departement_code": "59",
    "region_code": "32",
    "postal_code": "59166"
  },
  {
    "name": "Bousies",
    "code": "59099",
    "epci_code": "200043321",
    "departement_code": "59",
    "region_code": "32",
    "postal_code": "59222"
  },
  {
    "name": "Bousignies",
    "code": "59100",
    "epci_code": "200042190",
    "departement_code": "59",
    "region_code": "32",
    "postal_code": "59178"
  },
  {
    "name": "Bousignies-sur-Roc",
    "code": "59101",
    "epci_code": "200043396",
    "departement_code": "59",
    "region_code": "32",
    "postal_code": "59149"
  },
  {
    "name": "Boussières-en-Cambrésis",
    "code": "59102",
    "epci_code": "200030633",
    "departement_code": "59",
    "region_code": "32",
    "postal_code": "59217"
  },
  {
    "name": "Boussières-sur-Sambre",
    "code": "59103",
    "epci_code": "200043396",
    "departement_code": "59",
    "region_code": "32",
    "postal_code": "59330"
  },
  {
    "name": "Boussois",
    "code": "59104",
    "epci_code": "200043396",
    "departement_code": "59",
    "region_code": "32",
    "postal_code": "59168"
  },
  {
    "name": "Bouvignies",
    "code": "59105",
    "epci_code": "200041960",
    "departement_code": "59",
    "region_code": "32",
    "postal_code": "59870"
  },
  {
    "name": "Bouvines",
    "code": "59106",
    "epci_code": "200093201",
    "departement_code": "59",
    "region_code": "32",
    "postal_code": "59830"
  },
  {
    "name": "Bray-Dunes",
    "code": "59107",
    "epci_code": "245900428",
    "departement_code": "59",
    "region_code": "32",
    "postal_code": "59123"
  },
  {
    "name": "Briastre",
    "code": "59108",
    "epci_code": "200030633",
    "departement_code": "59",
    "region_code": "32",
    "postal_code": "59730"
  },
  {
    "name": "Brillon",
    "code": "59109",
    "epci_code": "200042190",
    "departement_code": "59",
    "region_code": "32",
    "postal_code": "59178"
  },
  {
    "name": "Brouckerque",
    "code": "59110",
    "epci_code": "200040954",
    "departement_code": "59",
    "region_code": "32",
    "postal_code": "59630"
  },
  {
    "name": "Broxeele",
    "code": "59111",
    "epci_code": "200040954",
    "departement_code": "59",
    "region_code": "32",
    "postal_code": "59470"
  },
  {
    "name": "Bruay-sur-l’Escaut",
    "code": "59112",
    "epci_code": "245901160",
    "departement_code": "59",
    "region_code": "32",
    "postal_code": "59860"
  },
  {
    "name": "Bruille-lez-Marchiennes",
    "code": "59113",
    "epci_code": "245901152",
    "departement_code": "59",
    "region_code": "32",
    "postal_code": "59490"
  },
  {
    "name": "Bruille-Saint-Amand",
    "code": "59114",
    "epci_code": "200042190",
    "departement_code": "59",
    "region_code": "32",
    "postal_code": "59199"
  },
  {
    "name": "Brunémont",
    "code": "59115",
    "epci_code": "200044618",
    "departement_code": "59",
    "region_code": "32",
    "postal_code": "59151"
  },
  {
    "name": "Bry",
    "code": "59116",
    "epci_code": "200043321",
    "departement_code": "59",
    "region_code": "32",
    "postal_code": "59144"
  },
  {
    "name": "Bugnicourt",
    "code": "59117",
    "epci_code": "200044618",
    "departement_code": "59",
    "region_code": "32",
    "postal_code": "59151"
  },
  {
    "name": "Busigny",
    "code": "59118",
    "epci_code": "200030633",
    "departement_code": "59",
    "region_code": "32",
    "postal_code": "59137"
  },
  {
    "name": "Buysscheure",
    "code": "59119",
    "epci_code": "200040947",
    "departement_code": "59",
    "region_code": "32",
    "postal_code": "59285"
  },
  {
    "name": "Caëstre",
    "code": "59120",
    "epci_code": "200040947",
    "departement_code": "59",
    "region_code": "32",
    "postal_code": "59190"
  },
  {
    "name": "Cagnoncles",
    "code": "59121",
    "epci_code": "200068500",
    "departement_code": "59",
    "region_code": "32",
    "postal_code": "59161"
  },
  {
    "name": "Cambrai",
    "code": "59122",
    "epci_code": "200068500",
    "departement_code": "59",
    "region_code": "32",
    "postal_code": "59400"
  },
  {
    "name": "Camphin-en-Carembault",
    "code": "59123",
    "epci_code": "200041960",
    "departement_code": "59",
    "region_code": "32",
    "postal_code": "59133"
  },
  {
    "name": "Camphin-en-Pévèle",
    "code": "59124",
    "epci_code": "200041960",
    "departement_code": "59",
    "region_code": "32",
    "postal_code": "59780"
  },
  {
    "name": "Cantaing-sur-Escaut",
    "code": "59125",
    "epci_code": "200068500",
    "departement_code": "59",
    "region_code": "32",
    "postal_code": "59267"
  },
  {
    "name": "Cantin",
    "code": "59126",
    "epci_code": "200044618",
    "departement_code": "59",
    "region_code": "32",
    "postal_code": "59169"
  },
  {
    "name": "Capelle",
    "code": "59127",
    "epci_code": "245901038",
    "departement_code": "59",
    "region_code": "32",
    "postal_code": "59213"
  },
  {
    "name": "Capinghem",
    "code": "59128",
    "epci_code": "200093201",
    "departement_code": "59",
    "region_code": "32",
    "postal_code": "59160"
  },
  {
    "name": "Cappelle-en-Pévèle",
    "code": "59129",
    "epci_code": "200041960",
    "departement_code": "59",
    "region_code": "32",
    "postal_code": "59242"
  },
  {
    "name": "Cappelle-Brouck",
    "code": "59130",
    "epci_code": "200040954",
    "departement_code": "59",
    "region_code": "32",
    "postal_code": "59630"
  },
  {
    "name": "Cappelle-la-Grande",
    "code": "59131",
    "epci_code": "245900428",
    "departement_code": "59",
    "region_code": "32",
    "postal_code": "59180"
  },
  {
    "name": "Carnières",
    "code": "59132",
    "epci_code": "200030633",
    "departement_code": "59",
    "region_code": "32",
    "postal_code": "59217"
  },
  {
    "name": "Carnin",
    "code": "59133",
    "epci_code": "200093201",
    "departement_code": "59",
    "region_code": "32",
    "postal_code": "59112"
  },
  {
    "name": "Cartignies",
    "code": "59134",
    "epci_code": "200043263",
    "departement_code": "59",
    "region_code": "32",
    "postal_code": "59244"
  },
  {
    "name": "Cassel",
    "code": "59135",
    "epci_code": "200040947",
    "departement_code": "59",
    "region_code": "32",
    "postal_code": "59670"
  },
  {
    "name": "Le Cateau-Cambrésis",
    "code": "59136",
    "epci_code": "200030633",
    "departement_code": "59",
    "region_code": "32",
    "postal_code": "59360"
  },
  {
    "name": "Catillon-sur-Sambre",
    "code": "59137",
    "epci_code": "200030633",
    "departement_code": "59",
    "region_code": "32",
    "postal_code": "59360"
  },
  {
    "name": "Cattenières",
    "code": "59138",
    "epci_code": "200030633",
    "departement_code": "59",
    "region_code": "32",
    "postal_code": "59217"
  },
  {
    "name": "Caudry",
    "code": "59139",
    "epci_code": "200030633",
    "departement_code": "59",
    "region_code": "32",
    "postal_code": "59540"
  },
  {
    "name": "Caullery",
    "code": "59140",
    "epci_code": "200030633",
    "departement_code": "59",
    "region_code": "32",
    "postal_code": "59191"
  },
  {
    "name": "Cauroir",
    "code": "59141",
    "epci_code": "200068500",
    "departement_code": "59",
    "region_code": "32",
    "postal_code": "59400"
  },
  {
    "name": "Cerfontaine",
    "code": "59142",
    "epci_code": "200043396",
    "departement_code": "59",
    "region_code": "32",
    "postal_code": "59680"
  },
  {
    "name": "La Chapelle-d’Armentières",
    "code": "59143",
    "epci_code": "200093201",
    "departement_code": "59",
    "region_code": "32",
    "postal_code": "59930"
  },
  {
    "name": "Château-l’Abbaye",
    "code": "59144",
    "epci_code": "200042190",
    "departement_code": "59",
    "region_code": "32",
    "postal_code": "59230"
  },
  {
    "name": "Chemy",
    "code": "59145",
    "epci_code": "200041960",
    "departement_code": "59",
    "region_code": "32",
    "postal_code": "59147"
  },
  {
    "name": "Chéreng",
    "code": "59146",
    "epci_code": "200093201",
    "departement_code": "59",
    "region_code": "32",
    "postal_code": "59152"
  },
  {
    "name": "Choisies",
    "code": "59147",
    "epci_code": "200043263",
    "departement_code": "59",
    "region_code": "32",
    "postal_code": "59740"
  },
  {
    "name": "Clairfayts",
    "code": "59148",
    "epci_code": "200043263",
    "departement_code": "59",
    "region_code": "32",
    "postal_code": "59740"
  },
  {
    "name": "Clary",
    "code": "59149",
    "epci_code": "200030633",
    "departement_code": "59",
    "region_code": "32",
    "postal_code": "59225"
  },
  {
    "name": "Cobrieux",
    "code": "59150",
    "epci_code": "200041960",
    "departement_code": "59",
    "region_code": "32",
    "postal_code": "59830"
  },
  {
    "name": "Colleret",
    "code": "59151",
    "epci_code": "200043396",
    "departement_code": "59",
    "region_code": "32",
    "postal_code": "59680"
  },
  {
    "name": "Comines",
    "code": "59152",
    "epci_code": "200093201",
    "departement_code": "59",
    "region_code": "32",
    "postal_code": "59560"
  },
  {
    "name": "Condé-sur-l’Escaut",
    "code": "59153",
    "epci_code": "245901160",
    "departement_code": "59",
    "region_code": "32",
    "postal_code": "59163"
  },
  {
    "name": "Coudekerque-Branche",
    "code": "59155",
    "epci_code": "245900428",
    "departement_code": "59",
    "region_code": "32",
    "postal_code": "59210"
  },
  {
    "name": "Courchelettes",
    "code": "59156",
    "epci_code": "200044618",
    "departement_code": "59",
    "region_code": "32",
    "postal_code": "59552"
  },
  {
    "name": "Cousolre",
    "code": "59157",
    "epci_code": "200043396",
    "departement_code": "59",
    "region_code": "32",
    "postal_code": "59149"
  },
  {
    "name": "Coutiches",
    "code": "59158",
    "epci_code": "200041960",
    "departement_code": "59",
    "region_code": "32",
    "postal_code": "59310"
  },
  {
    "name": "Craywick",
    "code": "59159",
    "epci_code": "245900428",
    "departement_code": "59",
    "region_code": "32",
    "postal_code": "59279"
  },
  {
    "name": "Crespin",
    "code": "59160",
    "epci_code": "245901160",
    "departement_code": "59",
    "region_code": "32",
    "postal_code": "59154"
  },
  {
    "name": "Crèvecœur-sur-l’Escaut",
    "code": "59161",
    "epci_code": "200068500",
    "departement_code": "59",
    "region_code": "32",
    "postal_code": "59258"
  },
  {
    "name": "Crochte",
    "code": "59162",
    "epci_code": "200040954",
    "departement_code": "59",
    "region_code": "32",
    "postal_code": "59380"
  },
  {
    "name": "Croix",
    "code": "59163",
    "epci_code": "200093201",
    "departement_code": "59",
    "region_code": "32",
    "postal_code": "59170"
  },
  {
    "name": "Croix-Caluyau",
    "code": "59164",
    "epci_code": "200043321",
    "departement_code": "59",
    "region_code": "32",
    "postal_code": "59222"
  },
  {
    "name": "Cuincy",
    "code": "59165",
    "epci_code": "200044618",
    "departement_code": "59",
    "region_code": "32",
    "postal_code": "59553"
  },
  {
    "name": "Curgies",
    "code": "59166",
    "epci_code": "245901160",
    "departement_code": "59",
    "region_code": "32",
    "postal_code": "59990"
  },
  {
    "name": "Cuvillers",
    "code": "59167",
    "epci_code": "200068500",
    "departement_code": "59",
    "region_code": "32",
    "postal_code": "59268"
  },
  {
    "name": "Cysoing",
    "code": "59168",
    "epci_code": "200041960",
    "departement_code": "59",
    "region_code": "32",
    "postal_code": "59830"
  },
  {
    "name": "Damousies",
    "code": "59169",
    "epci_code": "200043263",
    "departement_code": "59",
    "region_code": "32",
    "postal_code": "59680"
  },
  {
    "name": "Dechy",
    "code": "59170",
    "epci_code": "200044618",
    "departement_code": "59",
    "region_code": "32",
    "postal_code": "59187"
  },
  {
    "name": "Dehéries",
    "code": "59171",
    "epci_code": "200030633",
    "departement_code": "59",
    "region_code": "32",
    "postal_code": "59127"
  },
  {
    "name": "Denain",
    "code": "59172",
    "epci_code": "200042190",
    "departement_code": "59",
    "region_code": "32",
    "postal_code": "59220"
  },
  {
    "name": "Deûlémont",
    "code": "59173",
    "epci_code": "200093201",
    "departement_code": "59",
    "region_code": "32",
    "postal_code": "59890"
  },
  {
    "name": "Dimechaux",
    "code": "59174",
    "epci_code": "200043263",
    "departement_code": "59",
    "region_code": "32",
    "postal_code": "59740"
  },
  {
    "name": "Dimont",
    "code": "59175",
    "epci_code": "200043263",
    "departement_code": "59",
    "region_code": "32",
    "postal_code": "59216"
  },
  {
    "name": "Doignies",
    "code": "59176",
    "epci_code": "200068500",
    "departement_code": "59",
    "region_code": "32",
    "postal_code": "59400"
  },
  {
    "name": "Dompierre-sur-Helpe",
    "code": "59177",
    "epci_code": "200043263",
    "departement_code": "59",
    "region_code": "32",
    "postal_code": "59440"
  },
  {
    "name": "Douai",
    "code": "59178",
    "epci_code": "200044618",
    "departement_code": "59",
    "region_code": "32",
    "postal_code": "59500"
  },
  {
    "name": "Douchy-les-Mines",
    "code": "59179",
    "epci_code": "200042190",
    "departement_code": "59",
    "region_code": "32",
    "postal_code": "59282"
  },
  {
    "name": "Le Doulieu",
    "code": "59180",
    "epci_code": "200040947",
    "departement_code": "59",
    "region_code": "32",
    "postal_code": "59940"
  },
  {
    "name": "Dourlers",
    "code": "59181",
    "epci_code": "200043263",
    "departement_code": "59",
    "region_code": "32",
    "postal_code": "59440"
  },
  {
    "name": "Drincham",
    "code": "59182",
    "epci_code": "200040954",
    "departement_code": "59",
    "region_code": "32",
    "postal_code": "59630"
  },
  {
    "name": "Dunkerque",
    "code": "59183",
    "epci_code": "245900428",
    "departement_code": "59",
    "region_code": "32",
    "postal_code": "59140"
  },
  {
    "name": "Dunkerque",
    "code": "59183",
    "epci_code": "245900428",
    "departement_code": "59",
    "region_code": "32",
    "postal_code": "59240"
  },
  {
    "name": "Dunkerque",
    "code": "59183",
    "epci_code": "245900428",
    "departement_code": "59",
    "region_code": "32",
    "postal_code": "59279"
  },
  {
    "name": "Dunkerque",
    "code": "59183",
    "epci_code": "245900428",
    "departement_code": "59",
    "region_code": "32",
    "postal_code": "59430"
  },
  {
    "name": "Dunkerque",
    "code": "59183",
    "epci_code": "245900428",
    "departement_code": "59",
    "region_code": "32",
    "postal_code": "59640"
  },
  {
    "name": "Ebblinghem",
    "code": "59184",
    "epci_code": "200040947",
    "departement_code": "59",
    "region_code": "32",
    "postal_code": "59173"
  },
  {
    "name": "Écaillon",
    "code": "59185",
    "epci_code": "245901152",
    "departement_code": "59",
    "region_code": "32",
    "postal_code": "59176"
  },
  {
    "name": "Eccles",
    "code": "59186",
    "epci_code": "200043263",
    "departement_code": "59",
    "region_code": "32",
    "postal_code": "59740"
  },
  {
    "name": "Éclaibes",
    "code": "59187",
    "epci_code": "200043396",
    "departement_code": "59",
    "region_code": "32",
    "postal_code": "59330"
  },
  {
    "name": "Écuélin",
    "code": "59188",
    "epci_code": "200043396",
    "departement_code": "59",
    "region_code": "32",
    "postal_code": "59620"
  },
  {
    "name": "Eecke",
    "code": "59189",
    "epci_code": "200040947",
    "departement_code": "59",
    "region_code": "32",
    "postal_code": "59114"
  },
  {
    "name": "Élesmes",
    "code": "59190",
    "epci_code": "200043396",
    "departement_code": "59",
    "region_code": "32",
    "postal_code": "59600"
  },
  {
    "name": "Élincourt",
    "code": "59191",
    "epci_code": "200030633",
    "departement_code": "59",
    "region_code": "32",
    "postal_code": "59127"
  },
  {
    "name": "Émerchicourt",
    "code": "59192",
    "epci_code": "200042190",
    "departement_code": "59",
    "region_code": "32",
    "postal_code": "59580"
  },
  {
    "name": "Emmerin",
    "code": "59193",
    "epci_code": "200093201",
    "departement_code": "59",
    "region_code": "32",
    "postal_code": "59320"
  },
  {
    "name": "Englefontaine",
    "code": "59194",
    "epci_code": "200043321",
    "departement_code": "59",
    "region_code": "32",
    "postal_code": "59530"
  },
  {
    "name": "Englos",
    "code": "59195",
    "epci_code": "200093201",
    "departement_code": "59",
    "region_code": "32",
    "postal_code": "59320"
  },
  {
    "name": "Ennetières-en-Weppes",
    "code": "59196",
    "epci_code": "200093201",
    "departement_code": "59",
    "region_code": "32",
    "postal_code": "59320"
  },
  {
    "name": "Ennevelin",
    "code": "59197",
    "epci_code": "200041960",
    "departement_code": "59",
    "region_code": "32",
    "postal_code": "59710"
  },
  {
    "name": "Eppe-Sauvage",
    "code": "59198",
    "epci_code": "200043404",
    "departement_code": "59",
    "region_code": "32",
    "postal_code": "59132"
  },
  {
    "name": "Erchin",
    "code": "59199",
    "epci_code": "200044618",
    "departement_code": "59",
    "region_code": "32",
    "postal_code": "59169"
  },
  {
    "name": "Eringhem",
    "code": "59200",
    "epci_code": "200040954",
    "departement_code": "59",
    "region_code": "32",
    "postal_code": "59470"
  },
  {
    "name": "Erquinghem-le-Sec",
    "code": "59201",
    "epci_code": "200093201",
    "departement_code": "59",
    "region_code": "32",
    "postal_code": "59320"
  },
  {
    "name": "Erquinghem-Lys",
    "code": "59202",
    "epci_code": "200093201",
    "departement_code": "59",
    "region_code": "32",
    "postal_code": "59193"
  },
  {
    "name": "Erre",
    "code": "59203",
    "epci_code": "245901152",
    "departement_code": "59",
    "region_code": "32",
    "postal_code": "59171"
  },
  {
    "name": "Escarmain",
    "code": "59204",
    "epci_code": "245901038",
    "departement_code": "59",
    "region_code": "32",
    "postal_code": "59213"
  },
  {
    "name": "Escaudain",
    "code": "59205",
    "epci_code": "200042190",
    "departement_code": "59",
    "region_code": "32",
    "postal_code": "59124"
  },
  {
    "name": "Escaudœuvres",
    "code": "59206",
    "epci_code": "200068500",
    "departement_code": "59",
    "region_code": "32",
    "postal_code": "59161"
  },
  {
    "name": "Escautpont",
    "code": "59207",
    "epci_code": "200042190",
    "departement_code": "59",
    "region_code": "32",
    "postal_code": "59278"
  },
  {
    "name": "Escobecques",
    "code": "59208",
    "epci_code": "200093201",
    "departement_code": "59",
    "region_code": "32",
    "postal_code": "59320"
  },
  {
    "name": "Esnes",
    "code": "59209",
    "epci_code": "200068500",
    "departement_code": "59",
    "region_code": "32",
    "postal_code": "59127"
  },
  {
    "name": "Esquelbecq",
    "code": "59210",
    "epci_code": "200040954",
    "departement_code": "59",
    "region_code": "32",
    "postal_code": "59470"
  },
  {
    "name": "Esquerchin",
    "code": "59211",
    "epci_code": "200044618",
    "departement_code": "59",
    "region_code": "32",
    "postal_code": "59553"
  },
  {
    "name": "Estaires",
    "code": "59212",
    "epci_code": "245900758",
    "departement_code": "59",
    "region_code": "32",
    "postal_code": "59940"
  },
  {
    "name": "Estourmel",
    "code": "59213",
    "epci_code": "200030633",
    "departement_code": "59",
    "region_code": "32",
    "postal_code": "59400"
  },
  {
    "name": "Estrées",
    "code": "59214",
    "epci_code": "200044618",
    "departement_code": "59",
    "region_code": "32",
    "postal_code": "59151"
  },
  {
    "name": "Estreux",
    "code": "59215",
    "epci_code": "245901160",
    "departement_code": "59",
    "region_code": "32",
    "postal_code": "59990"
  },
  {
    "name": "Eswars",
    "code": "59216",
    "epci_code": "200068500",
    "departement_code": "59",
    "region_code": "32",
    "postal_code": "59161"
  },
  {
    "name": "Eth",
    "code": "59217",
    "epci_code": "200043321",
    "departement_code": "59",
    "region_code": "32",
    "postal_code": "59144"
  },
  {
    "name": "Étrœungt",
    "code": "59218",
    "epci_code": "200043263",
    "departement_code": "59",
    "region_code": "32",
    "postal_code": "59219"
  },
  {
    "name": "Estrun",
    "code": "59219",
    "epci_code": "200068500",
    "departement_code": "59",
    "region_code": "32",
    "postal_code": "59295"
  },
  {
    "name": "Faches-Thumesnil",
    "code": "59220",
    "epci_code": "200093201",
    "departement_code": "59",
    "region_code": "32",
    "postal_code": "59155"
  },
  {
    "name": "Famars",
    "code": "59221",
    "epci_code": "245901160",
    "departement_code": "59",
    "region_code": "32",
    "postal_code": "59300"
  },
  {
    "name": "Faumont",
    "code": "59222",
    "epci_code": "200044618",
    "departement_code": "59",
    "region_code": "32",
    "postal_code": "59310"
  },
  {
    "name": "Le Favril",
    "code": "59223",
    "epci_code": "200043321",
    "departement_code": "59",
    "region_code": "32",
    "postal_code": "59550"
  },
  {
    "name": "Féchain",
    "code": "59224",
    "epci_code": "200044618",
    "departement_code": "59",
    "region_code": "32",
    "postal_code": "59247"
  },
  {
    "name": "Feignies",
    "code": "59225",
    "epci_code": "200043396",
    "departement_code": "59",
    "region_code": "32",
    "postal_code": "59750"
  },
  {
    "name": "Felleries",
    "code": "59226",
    "epci_code": "200043263",
    "departement_code": "59",
    "region_code": "32",
    "postal_code": "59740"
  },
  {
    "name": "Fenain",
    "code": "59227",
    "epci_code": "245901152",
    "departement_code": "59",
    "region_code": "32",
    "postal_code": "59179"
  },
  {
    "name": "Férin",
    "code": "59228",
    "epci_code": "200044618",
    "departement_code": "59",
    "region_code": "32",
    "postal_code": "59169"
  },
  {
    "name": "Féron",
    "code": "59229",
    "epci_code": "200043404",
    "departement_code": "59",
    "region_code": "32",
    "postal_code": "59610"
  },
  {
    "name": "Ferrière-la-Grande",
    "code": "59230",
    "epci_code": "200043396",
    "departement_code": "59",
    "region_code": "32",
    "postal_code": "59680"
  },
  {
    "name": "Ferrière-la-Petite",
    "code": "59231",
    "epci_code": "200043396",
    "departement_code": "59",
    "region_code": "32",
    "postal_code": "59680"
  },
  {
    "name": "La Flamengrie",
    "code": "59232",
    "epci_code": "200043321",
    "departement_code": "59",
    "region_code": "32",
    "postal_code": "59570"
  },
  {
    "name": "Flaumont-Waudrechies",
    "code": "59233",
    "epci_code": "200043263",
    "departement_code": "59",
    "region_code": "32",
    "postal_code": "59440"
  },
  {
    "name": "Flers-en-Escrebieux",
    "code": "59234",
    "epci_code": "200044618",
    "departement_code": "59",
    "region_code": "32",
    "postal_code": "59128"
  },
  {
    "name": "Flesquières",
    "code": "59236",
    "epci_code": "200068500",
    "departement_code": "59",
    "region_code": "32",
    "postal_code": "59267"
  },
  {
    "name": "Flêtre",
    "code": "59237",
    "epci_code": "200040947",
    "departement_code": "59",
    "region_code": "32",
    "postal_code": "59270"
  },
  {
    "name": "Flines-lès-Mortagne",
    "code": "59238",
    "epci_code": "200042190",
    "departement_code": "59",
    "region_code": "32",
    "postal_code": "59158"
  },
  {
    "name": "Flines-lez-Raches",
    "code": "59239",
    "epci_code": "200044618",
    "departement_code": "59",
    "region_code": "32",
    "postal_code": "59148"
  },
  {
    "name": "Floursies",
    "code": "59240",
    "epci_code": "200043263",
    "departement_code": "59",
    "region_code": "32",
    "postal_code": "59440"
  },
  {
    "name": "Floyon",
    "code": "59241",
    "epci_code": "200043263",
    "departement_code": "59",
    "region_code": "32",
    "postal_code": "59219"
  },
  {
    "name": "Fontaine-au-Bois",
    "code": "59242",
    "epci_code": "200043321",
    "departement_code": "59",
    "region_code": "32",
    "postal_code": "59550"
  },
  {
    "name": "Fontaine-au-Pire",
    "code": "59243",
    "epci_code": "200030633",
    "departement_code": "59",
    "region_code": "32",
    "postal_code": "59157"
  },
  {
    "name": "Fontaine-Notre-Dame",
    "code": "59244",
    "epci_code": "200068500",
    "departement_code": "59",
    "region_code": "32",
    "postal_code": "59400"
  },
  {
    "name": "Forest-en-Cambrésis",
    "code": "59246",
    "epci_code": "200043321",
    "departement_code": "59",
    "region_code": "32",
    "postal_code": "59222"
  },
  {
    "name": "Forest-sur-Marque",
    "code": "59247",
    "epci_code": "200093201",
    "departement_code": "59",
    "region_code": "32",
    "postal_code": "59510"
  },
  {
    "name": "Fourmies",
    "code": "59249",
    "epci_code": "200043404",
    "departement_code": "59",
    "region_code": "32",
    "postal_code": "59610"
  },
  {
    "name": "Fournes-en-Weppes",
    "code": "59250",
    "epci_code": "200093201",
    "departement_code": "59",
    "region_code": "32",
    "postal_code": "59134"
  },
  {
    "name": "Frasnoy",
    "code": "59251",
    "epci_code": "200043321",
    "departement_code": "59",
    "region_code": "32",
    "postal_code": "59530"
  },
  {
    "name": "Frelinghien",
    "code": "59252",
    "epci_code": "200093201",
    "departement_code": "59",
    "region_code": "32",
    "postal_code": "59236"
  },
  {
    "name": "Fresnes-sur-Escaut",
    "code": "59253",
    "epci_code": "245901160",
    "departement_code": "59",
    "region_code": "32",
    "postal_code": "59970"
  },
  {
    "name": "Fressain",
    "code": "59254",
    "epci_code": "200044618",
    "departement_code": "59",
    "region_code": "32",
    "postal_code": "59234"
  },
  {
    "name": "Fressies",
    "code": "59255",
    "epci_code": "200068500",
    "departement_code": "59",
    "region_code": "32",
    "postal_code": "59268"
  },
  {
    "name": "Fretin",
    "code": "59256",
    "epci_code": "200093201",
    "departement_code": "59",
    "region_code": "32",
    "postal_code": "59273"
  },
  {
    "name": "Fromelles",
    "code": "59257",
    "epci_code": "200093201",
    "departement_code": "59",
    "region_code": "32",
    "postal_code": "59249"
  },
  {
    "name": "Genech",
    "code": "59258",
    "epci_code": "200041960",
    "departement_code": "59",
    "region_code": "32",
    "postal_code": "59242"
  },
  {
    "name": "Ghissignies",
    "code": "59259",
    "epci_code": "200043321",
    "departement_code": "59",
    "region_code": "32",
    "postal_code": "59530"
  },
  {
    "name": "Ghyvelde",
    "code": "59260",
    "epci_code": "245900428",
    "departement_code": "59",
    "region_code": "32",
    "postal_code": "59122"
  },
  {
    "name": "Ghyvelde",
    "code": "59260",
    "epci_code": "245900428",
    "departement_code": "59",
    "region_code": "32",
    "postal_code": "59254"
  },
  {
    "name": "Glageon",
    "code": "59261",
    "epci_code": "200043404",
    "departement_code": "59",
    "region_code": "32",
    "postal_code": "59132"
  },
  {
    "name": "Godewaersvelde",
    "code": "59262",
    "epci_code": "200040947",
    "departement_code": "59",
    "region_code": "32",
    "postal_code": "59270"
  },
  {
    "name": "Gœulzin",
    "code": "59263",
    "epci_code": "200044618",
    "departement_code": "59",
    "region_code": "32",
    "postal_code": "59169"
  },
  {
    "name": "Gognies-Chaussée",
    "code": "59264",
    "epci_code": "200043396",
    "departement_code": "59",
    "region_code": "32",
    "postal_code": "59600"
  },
  {
    "name": "Gommegnies",
    "code": "59265",
    "epci_code": "200043321",
    "departement_code": "59",
    "region_code": "32",
    "postal_code": "59144"
  },
  {
    "name": "Gondecourt",
    "code": "59266",
    "epci_code": "200041960",
    "departement_code": "59",
    "region_code": "32",
    "postal_code": "59147"
  },
  {
    "name": "Gonnelieu",
    "code": "59267",
    "epci_code": "200068500",
    "departement_code": "59",
    "region_code": "32",
    "postal_code": "59231"
  },
  {
    "name": "La Gorgue",
    "code": "59268",
    "epci_code": "245900758",
    "departement_code": "59",
    "region_code": "32",
    "postal_code": "59253"
  },
  {
    "name": "Gouzeaucourt",
    "code": "59269",
    "epci_code": "200068500",
    "departement_code": "59",
    "region_code": "32",
    "postal_code": "59231"
  },
  {
    "name": "Grand-Fayt",
    "code": "59270",
    "epci_code": "200043263",
    "departement_code": "59",
    "region_code": "32",
    "postal_code": "59244"
  },
  {
    "name": "Grande-Synthe",
    "code": "59271",
    "epci_code": "245900428",
    "departement_code": "59",
    "region_code": "32",
    "postal_code": "59760"
  },
  {
    "name": "Grand-Fort-Philippe",
    "code": "59272",
    "epci_code": "245900428",
    "departement_code": "59",
    "region_code": "32",
    "postal_code": "59153"
  },
  {
    "name": "Gravelines",
    "code": "59273",
    "epci_code": "245900428",
    "departement_code": "59",
    "region_code": "32",
    "postal_code": "59820"
  },
  {
    "name": "La Groise",
    "code": "59274",
    "epci_code": "200030633",
    "departement_code": "59",
    "region_code": "32",
    "postal_code": "59360"
  },
  {
    "name": "Gruson",
    "code": "59275",
    "epci_code": "200093201",
    "departement_code": "59",
    "region_code": "32",
    "postal_code": "59152"
  },
  {
    "name": "Guesnain",
    "code": "59276",
    "epci_code": "200044618",
    "departement_code": "59",
    "region_code": "32",
    "postal_code": "59287"
  },
  {
    "name": "Gussignies",
    "code": "59277",
    "epci_code": "200043321",
    "departement_code": "59",
    "region_code": "32",
    "postal_code": "59570"
  },
  {
    "name": "Hallennes-lez-Haubourdin",
    "code": "59278",
    "epci_code": "200093201",
    "departement_code": "59",
    "region_code": "32",
    "postal_code": "59320"
  },
  {
    "name": "Halluin",
    "code": "59279",
    "epci_code": "200093201",
    "departement_code": "59",
    "region_code": "32",
    "postal_code": "59250"
  },
  {
    "name": "Hamel",
    "code": "59280",
    "epci_code": "200044618",
    "departement_code": "59",
    "region_code": "32",
    "postal_code": "59151"
  },
  {
    "name": "Hantay",
    "code": "59281",
    "epci_code": "200093201",
    "departement_code": "59",
    "region_code": "32",
    "postal_code": "59496"
  },
  {
    "name": "Hardifort",
    "code": "59282",
    "epci_code": "200040947",
    "departement_code": "59",
    "region_code": "32",
    "postal_code": "59670"
  },
  {
    "name": "Hargnies",
    "code": "59283",
    "epci_code": "200043321",
    "departement_code": "59",
    "region_code": "32",
    "postal_code": "59138"
  },
  {
    "name": "Hasnon",
    "code": "59284",
    "epci_code": "200042190",
    "departement_code": "59",
    "region_code": "32",
    "postal_code": "59178"
  },
  {
    "name": "Haspres",
    "code": "59285",
    "epci_code": "200042190",
    "departement_code": "59",
    "region_code": "32",
    "postal_code": "59198"
  },
  {
    "name": "Haubourdin",
    "code": "59286",
    "epci_code": "200093201",
    "departement_code": "59",
    "region_code": "32",
    "postal_code": "59320"
  },
  {
    "name": "Haucourt-en-Cambrésis",
    "code": "59287",
    "epci_code": "200030633",
    "departement_code": "59",
    "region_code": "32",
    "postal_code": "59191"
  },
  {
    "name": "Haulchin",
    "code": "59288",
    "epci_code": "200042190",
    "departement_code": "59",
    "region_code": "32",
    "postal_code": "59121"
  },
  {
    "name": "Haussy",
    "code": "59289",
    "epci_code": "245901038",
    "departement_code": "59",
    "region_code": "32",
    "postal_code": "59294"
  },
  {
    "name": "Haut-Lieu",
    "code": "59290",
    "epci_code": "200043263",
    "departement_code": "59",
    "region_code": "32",
    "postal_code": "59440"
  },
  {
    "name": "Hautmont",
    "code": "59291",
    "epci_code": "200043396",
    "departement_code": "59",
    "region_code": "32",
    "postal_code": "59330"
  },
  {
    "name": "Haveluy",
    "code": "59292",
    "epci_code": "200042190",
    "departement_code": "59",
    "region_code": "32",
    "postal_code": "59255"
  },
  {
    "name": "Haverskerque",
    "code": "59293",
    "epci_code": "245900758",
    "departement_code": "59",
    "region_code": "32",
    "postal_code": "59660"
  },
  {
    "name": "Haynecourt",
    "code": "59294",
    "epci_code": "200068500",
    "departement_code": "59",
    "region_code": "32",
    "postal_code": "59268"
  },
  {
    "name": "Hazebrouck",
    "code": "59295",
    "epci_code": "200040947",
    "departement_code": "59",
    "region_code": "32",
    "postal_code": "59190"
  },
  {
    "name": "Hecq",
    "code": "59296",
    "epci_code": "200043321",
    "departement_code": "59",
    "region_code": "32",
    "postal_code": "59530"
  },
  {
    "name": "Hélesmes",
    "code": "59297",
    "epci_code": "200042190",
    "departement_code": "59",
    "region_code": "32",
    "postal_code": "59171"
  },
  {
    "name": "Hem",
    "code": "59299",
    "epci_code": "200093201",
    "departement_code": "59",
    "region_code": "32",
    "postal_code": "59510"
  },
  {
    "name": "Hem-Lenglet",
    "code": "59300",
    "epci_code": "200068500",
    "departement_code": "59",
    "region_code": "32",
    "postal_code": "59247"
  },
  {
    "name": "Hergnies",
    "code": "59301",
    "epci_code": "245901160",
    "departement_code": "59",
    "region_code": "32",
    "postal_code": "59199"
  },
  {
    "name": "Hérin",
    "code": "59302",
    "epci_code": "200042190",
    "departement_code": "59",
    "region_code": "32",
    "postal_code": "59195"
  },
  {
    "name": "Herlies",
    "code": "59303",
    "epci_code": "200093201",
    "departement_code": "59",
    "region_code": "32",
    "postal_code": "59134"
  },
  {
    "name": "Herrin",
    "code": "59304",
    "epci_code": "200041960",
    "departement_code": "59",
    "region_code": "32",
    "postal_code": "59147"
  },
  {
    "name": "Herzeele",
    "code": "59305",
    "epci_code": "200040954",
    "departement_code": "59",
    "region_code": "32",
    "postal_code": "59470"
  },
  {
    "name": "Hestrud",
    "code": "59306",
    "epci_code": "200043263",
    "departement_code": "59",
    "region_code": "32",
    "postal_code": "59740"
  },
  {
    "name": "Holque",
    "code": "59307",
    "epci_code": "200040954",
    "departement_code": "59",
    "region_code": "32",
    "postal_code": "59143"
  },
  {
    "name": "Hondeghem",
    "code": "59308",
    "epci_code": "200040947",
    "departement_code": "59",
    "region_code": "32",
    "postal_code": "59190"
  },
  {
    "name": "Hondschoote",
    "code": "59309",
    "epci_code": "200040954",
    "departement_code": "59",
    "region_code": "32",
    "postal_code": "59122"
  },
  {
    "name": "Hon-Hergies",
    "code": "59310",
    "epci_code": "200043321",
    "departement_code": "59",
    "region_code": "32",
    "postal_code": "59570"
  },
  {
    "name": "Honnechy",
    "code": "59311",
    "epci_code": "200030633",
    "departement_code": "59",
    "region_code": "32",
    "postal_code": "59980"
  },
  {
    "name": "Honnecourt-sur-Escaut",
    "code": "59312",
    "epci_code": "200068500",
    "departement_code": "59",
    "region_code": "32",
    "postal_code": "59266"
  },
  {
    "name": "Hordain",
    "code": "59313",
    "epci_code": "200042190",
    "departement_code": "59",
    "region_code": "32",
    "postal_code": "59111"
  },
  {
    "name": "Hornaing",
    "code": "59314",
    "epci_code": "245901152",
    "departement_code": "59",
    "region_code": "32",
    "postal_code": "59171"
  },
  {
    "name": "Houdain-lez-Bavay",
    "code": "59315",
    "epci_code": "200043321",
    "departement_code": "59",
    "region_code": "32",
    "postal_code": "59570"
  },
  {
    "name": "Houplin-Ancoisne",
    "code": "59316",
    "epci_code": "200093201",
    "departement_code": "59",
    "region_code": "32",
    "postal_code": "59263"
  },
  {
    "name": "Houplines",
    "code": "59317",
    "epci_code": "200093201",
    "departement_code": "59",
    "region_code": "32",
    "postal_code": "59116"
  },
  {
    "name": "Houtkerque",
    "code": "59318",
    "epci_code": "200040947",
    "departement_code": "59",
    "region_code": "32",
    "postal_code": "59470"
  },
  {
    "name": "Hoymille",
    "code": "59319",
    "epci_code": "200040954",
    "departement_code": "59",
    "region_code": "32",
    "postal_code": "59492"
  },
  {
    "name": "Illies",
    "code": "59320",
    "epci_code": "200093201",
    "departement_code": "59",
    "region_code": "32",
    "postal_code": "59480"
  },
  {
    "name": "Inchy",
    "code": "59321",
    "epci_code": "200030633",
    "departement_code": "59",
    "region_code": "32",
    "postal_code": "59540"
  },
  {
    "name": "Iwuy",
    "code": "59322",
    "epci_code": "200068500",
    "departement_code": "59",
    "region_code": "32",
    "postal_code": "59141"
  },
  {
    "name": "Jenlain",
    "code": "59323",
    "epci_code": "200043321",
    "departement_code": "59",
    "region_code": "32",
    "postal_code": "59144"
  },
  {
    "name": "Jeumont",
    "code": "59324",
    "epci_code": "200043396",
    "departement_code": "59",
    "region_code": "32",
    "postal_code": "59460"
  },
  {
    "name": "Jolimetz",
    "code": "59325",
    "epci_code": "200043321",
    "departement_code": "59",
    "region_code": "32",
    "postal_code": "59530"
  },
  {
    "name": "Killem",
    "code": "59326",
    "epci_code": "200040954",
    "departement_code": "59",
    "region_code": "32",
    "postal_code": "59122"
  },
  {
    "name": "Lallaing",
    "code": "59327",
    "epci_code": "200044618",
    "departement_code": "59",
    "region_code": "32",
    "postal_code": "59167"
  },
  {
    "name": "Lambersart",
    "code": "59328",
    "epci_code": "200093201",
    "departement_code": "59",
    "region_code": "32",
    "postal_code": "59130"
  },
  {
    "name": "Lambres-lez-Douai",
    "code": "59329",
    "epci_code": "200044618",
    "departement_code": "59",
    "region_code": "32",
    "postal_code": "59552"
  },
  {
    "name": "Landas",
    "code": "59330",
    "epci_code": "200041960",
    "departement_code": "59",
    "region_code": "32",
    "postal_code": "59310"
  },
  {
    "name": "Landrecies",
    "code": "59331",
    "epci_code": "200043321",
    "departement_code": "59",
    "region_code": "32",
    "postal_code": "59550"
  },
  {
    "name": "Lannoy",
    "code": "59332",
    "epci_code": "200093201",
    "departement_code": "59",
    "region_code": "32",
    "postal_code": "59390"
  },
  {
    "name": "Larouillies",
    "code": "59333",
    "epci_code": "200043263",
    "departement_code": "59",
    "region_code": "32",
    "postal_code": "59219"
  },
  {
    "name": "Lauwin-Planque",
    "code": "59334",
    "epci_code": "200044618",
    "departement_code": "59",
    "region_code": "32",
    "postal_code": "59553"
  },
  {
    "name": "Lecelles",
    "code": "59335",
    "epci_code": "200042190",
    "departement_code": "59",
    "region_code": "32",
    "postal_code": "59226"
  },
  {
    "name": "Lécluse",
    "code": "59336",
    "epci_code": "200044618",
    "departement_code": "59",
    "region_code": "32",
    "postal_code": "59259"
  },
  {
    "name": "Lederzeele",
    "code": "59337",
    "epci_code": "200040954",
    "departement_code": "59",
    "region_code": "32",
    "postal_code": "59143"
  },
  {
    "name": "Ledringhem",
    "code": "59338",
    "epci_code": "200040954",
    "departement_code": "59",
    "region_code": "32",
    "postal_code": "59470"
  },
  {
    "name": "Leers",
    "code": "59339",
    "epci_code": "200093201",
    "departement_code": "59",
    "region_code": "32",
    "postal_code": "59115"
  },
  {
    "name": "Leffrinckoucke",
    "code": "59340",
    "epci_code": "245900428",
    "departement_code": "59",
    "region_code": "32",
    "postal_code": "59495"
  },
  {
    "name": "Lesdain",
    "code": "59341",
    "epci_code": "200068500",
    "departement_code": "59",
    "region_code": "32",
    "postal_code": "59258"
  },
  {
    "name": "Lez-Fontaine",
    "code": "59342",
    "epci_code": "200043263",
    "departement_code": "59",
    "region_code": "32",
    "postal_code": "59740"
  },
  {
    "name": "Lesquin",
    "code": "59343",
    "epci_code": "200093201",
    "departement_code": "59",
    "region_code": "32",
    "postal_code": "59810"
  },
  {
    "name": "Leval",
    "code": "59344",
    "epci_code": "200043396",
    "departement_code": "59",
    "region_code": "32",
    "postal_code": "59620"
  },
  {
    "name": "Lewarde",
    "code": "59345",
    "epci_code": "245901152",
    "departement_code": "59",
    "region_code": "32",
    "postal_code": "59287"
  },
  {
    "name": "Lezennes",
    "code": "59346",
    "epci_code": "200093201",
    "departement_code": "59",
    "region_code": "32",
    "postal_code": "59260"
  },
  {
    "name": "Liessies",
    "code": "59347",
    "epci_code": "200043263",
    "departement_code": "59",
    "region_code": "32",
    "postal_code": "59740"
  },
  {
    "name": "Lieu-Saint-Amand",
    "code": "59348",
    "epci_code": "200042190",
    "departement_code": "59",
    "region_code": "32",
    "postal_code": "59111"
  },
  {
    "name": "Ligny-en-Cambrésis",
    "code": "59349",
    "epci_code": "200030633",
    "departement_code": "59",
    "region_code": "32",
    "postal_code": "59191"
  },
  {
    "name": "Lille",
    "code": "59350",
    "epci_code": "200093201",
    "departement_code": "59",
    "region_code": "32",
    "postal_code": "59000"
  },
  {
    "name": "Lille",
    "code": "59350",
    "epci_code": "200093201",
    "departement_code": "59",
    "region_code": "32",
    "postal_code": "59160"
  },
  {
    "name": "Lille",
    "code": "59350",
    "epci_code": "200093201",
    "departement_code": "59",
    "region_code": "32",
    "postal_code": "59260"
  },
  {
    "name": "Lille",
    "code": "59350",
    "epci_code": "200093201",
    "departement_code": "59",
    "region_code": "32",
    "postal_code": "59777"
  },
  {
    "name": "Lille",
    "code": "59350",
    "epci_code": "200093201",
    "departement_code": "59",
    "region_code": "32",
    "postal_code": "59800"
  },
  {
    "name": "Limont-Fontaine",
    "code": "59351",
    "epci_code": "200043396",
    "departement_code": "59",
    "region_code": "32",
    "postal_code": "59330"
  },
  {
    "name": "Linselles",
    "code": "59352",
    "epci_code": "200093201",
    "departement_code": "59",
    "region_code": "32",
    "postal_code": "59126"
  },
  {
    "name": "Locquignol",
    "code": "59353",
    "epci_code": "200043321",
    "departement_code": "59",
    "region_code": "32",
    "postal_code": "59530"
  },
  {
    "name": "Loffre",
    "code": "59354",
    "epci_code": "245901152",
    "departement_code": "59",
    "region_code": "32",
    "postal_code": "59182"
  },
  {
    "name": "Lompret",
    "code": "59356",
    "epci_code": "200093201",
    "departement_code": "59",
    "region_code": "32",
    "postal_code": "59840"
  },
  {
    "name": "La Longueville",
    "code": "59357",
    "epci_code": "200043321",
    "departement_code": "59",
    "region_code": "32",
    "postal_code": "59570"
  },
  {
    "name": "Looberghe",
    "code": "59358",
    "epci_code": "200040954",
    "departement_code": "59",
    "region_code": "32",
    "postal_code": "59630"
  },
  {
    "name": "Loon-Plage",
    "code": "59359",
    "epci_code": "245900428",
    "departement_code": "59",
    "region_code": "32",
    "postal_code": "59279"
  },
  {
    "name": "Loos",
    "code": "59360",
    "epci_code": "200093201",
    "departement_code": "59",
    "region_code": "32",
    "postal_code": "59120"
  },
  {
    "name": "Lourches",
    "code": "59361",
    "epci_code": "200042190",
    "departement_code": "59",
    "region_code": "32",
    "postal_code": "59156"
  },
  {
    "name": "Louvignies-Quesnoy",
    "code": "59363",
    "epci_code": "200043321",
    "departement_code": "59",
    "region_code": "32",
    "postal_code": "59530"
  },
  {
    "name": "Louvil",
    "code": "59364",
    "epci_code": "200041960",
    "departement_code": "59",
    "region_code": "32",
    "postal_code": "59830"
  },
  {
    "name": "Louvroil",
    "code": "59365",
    "epci_code": "200043396",
    "departement_code": "59",
    "region_code": "32",
    "postal_code": "59720"
  },
  {
    "name": "Lynde",
    "code": "59366",
    "epci_code": "200040947",
    "departement_code": "59",
    "region_code": "32",
    "postal_code": "59173"
  },
  {
    "name": "Lys-lez-Lannoy",
    "code": "59367",
    "epci_code": "200093201",
    "departement_code": "59",
    "region_code": "32",
    "postal_code": "59390"
  },
  {
    "name": "La Madeleine",
    "code": "59368",
    "epci_code": "200093201",
    "departement_code": "59",
    "region_code": "32",
    "postal_code": "59110"
  },
  {
    "name": "Maing",
    "code": "59369",
    "epci_code": "245901160",
    "departement_code": "59",
    "region_code": "32",
    "postal_code": "59233"
  },
  {
    "name": "Mairieux",
    "code": "59370",
    "epci_code": "200043396",
    "departement_code": "59",
    "region_code": "32",
    "postal_code": "59600"
  },
  {
    "name": "Le Maisnil",
    "code": "59371",
    "epci_code": "200093201",
    "departement_code": "59",
    "region_code": "32",
    "postal_code": "59134"
  },
  {
    "name": "Malincourt",
    "code": "59372",
    "epci_code": "200030633",
    "departement_code": "59",
    "region_code": "32",
    "postal_code": "59127"
  },
  {
    "name": "Marbaix",
    "code": "59374",
    "epci_code": "200043263",
    "departement_code": "59",
    "region_code": "32",
    "postal_code": "59440"
  },
  {
    "name": "Marchiennes",
    "code": "59375",
    "epci_code": "245901152",
    "departement_code": "59",
    "region_code": "32",
    "postal_code": "59870"
  },
  {
    "name": "Marcoing",
    "code": "59377",
    "epci_code": "200068500",
    "departement_code": "59",
    "region_code": "32",
    "postal_code": "59159"
  },
  {
    "name": "Marcq-en-Barœul",
    "code": "59378",
    "epci_code": "200093201",
    "departement_code": "59",
    "region_code": "32",
    "postal_code": "59700"
  },
  {
    "name": "Marcq-en-Ostrevent",
    "code": "59379",
    "epci_code": "200044618",
    "departement_code": "59",
    "region_code": "32",
    "postal_code": "59252"
  },
  {
    "name": "Maresches",
    "code": "59381",
    "epci_code": "200043321",
    "departement_code": "59",
    "region_code": "32",
    "postal_code": "59990"
  },
  {
    "name": "Maretz",
    "code": "59382",
    "epci_code": "200030633",
    "departement_code": "59",
    "region_code": "32",
    "postal_code": "59238"
  },
  {
    "name": "Marly",
    "code": "59383",
    "epci_code": "245901160",
    "departement_code": "59",
    "region_code": "32",
    "postal_code": "59770"
  },
  {
    "name": "Maroilles",
    "code": "59384",
    "epci_code": "200043321",
    "departement_code": "59",
    "region_code": "32",
    "postal_code": "59550"
  },
  {
    "name": "Marpent",
    "code": "59385",
    "epci_code": "200043396",
    "departement_code": "59",
    "region_code": "32",
    "postal_code": "59164"
  },
  {
    "name": "Marquette-lez-Lille",
    "code": "59386",
    "epci_code": "200093201",
    "departement_code": "59",
    "region_code": "32",
    "postal_code": "59520"
  },
  {
    "name": "Marquette-en-Ostrevant",
    "code": "59387",
    "epci_code": "200042190",
    "departement_code": "59",
    "region_code": "32",
    "postal_code": "59252"
  },
  {
    "name": "Marquillies",
    "code": "59388",
    "epci_code": "200093201",
    "departement_code": "59",
    "region_code": "32",
    "postal_code": "59274"
  },
  {
    "name": "Masnières",
    "code": "59389",
    "epci_code": "200068500",
    "departement_code": "59",
    "region_code": "32",
    "postal_code": "59241"
  },
  {
    "name": "Masny",
    "code": "59390",
    "epci_code": "245901152",
    "departement_code": "59",
    "region_code": "32",
    "postal_code": "59176"
  },
  {
    "name": "Mastaing",
    "code": "59391",
    "epci_code": "200042190",
    "departement_code": "59",
    "region_code": "32",
    "postal_code": "59172"
  },
  {
    "name": "Maubeuge",
    "code": "59392",
    "epci_code": "200043396",
    "departement_code": "59",
    "region_code": "32",
    "postal_code": "59600"
  },
  {
    "name": "Maulde",
    "code": "59393",
    "epci_code": "200042190",
    "departement_code": "59",
    "region_code": "32",
    "postal_code": "59158"
  },
  {
    "name": "Maurois",
    "code": "59394",
    "epci_code": "200030633",
    "departement_code": "59",
    "region_code": "32",
    "postal_code": "59980"
  },
  {
    "name": "Mazinghien",
    "code": "59395",
    "epci_code": "200030633",
    "departement_code": "59",
    "region_code": "32",
    "postal_code": "59360"
  },
  {
    "name": "Mecquignies",
    "code": "59396",
    "epci_code": "200043321",
    "departement_code": "59",
    "region_code": "32",
    "postal_code": "59570"
  },
  {
    "name": "Merckeghem",
    "code": "59397",
    "epci_code": "200040954",
    "departement_code": "59",
    "region_code": "32",
    "postal_code": "59470"
  },
  {
    "name": "Mérignies",
    "code": "59398",
    "epci_code": "200041960",
    "departement_code": "59",
    "region_code": "32",
    "postal_code": "59710"
  },
  {
    "name": "Merris",
    "code": "59399",
    "epci_code": "200040947",
    "departement_code": "59",
    "region_code": "32",
    "postal_code": "59270"
  },
  {
    "name": "Merville",
    "code": "59400",
    "epci_code": "245900758",
    "departement_code": "59",
    "region_code": "32",
    "postal_code": "59660"
  },
  {
    "name": "Méteren",
    "code": "59401",
    "epci_code": "200040947",
    "departement_code": "59",
    "region_code": "32",
    "postal_code": "59270"
  },
  {
    "name": "Millam",
    "code": "59402",
    "epci_code": "200040954",
    "departement_code": "59",
    "region_code": "32",
    "postal_code": "59143"
  },
  {
    "name": "Millonfosse",
    "code": "59403",
    "epci_code": "200042190",
    "departement_code": "59",
    "region_code": "32",
    "postal_code": "59178"
  },
  {
    "name": "Mœuvres",
    "code": "59405",
    "epci_code": "200068500",
    "departement_code": "59",
    "region_code": "32",
    "postal_code": "59400"
  },
  {
    "name": "Monceau-Saint-Waast",
    "code": "59406",
    "epci_code": "200043396",
    "departement_code": "59",
    "region_code": "32",
    "postal_code": "59620"
  },
  {
    "name": "Monchaux-sur-Écaillon",
    "code": "59407",
    "epci_code": "245901160",
    "departement_code": "59",
    "region_code": "32",
    "postal_code": "59224"
  },
  {
    "name": "Moncheaux",
    "code": "59408",
    "epci_code": "200041960",
    "departement_code": "59",
    "region_code": "32",
    "postal_code": "59283"
  },
  {
    "name": "Monchecourt",
    "code": "59409",
    "epci_code": "245901152",
    "departement_code": "59",
    "region_code": "32",
    "postal_code": "59234"
  },
  {
    "name": "Mons-en-Barœul",
    "code": "59410",
    "epci_code": "200093201",
    "departement_code": "59",
    "region_code": "32",
    "postal_code": "59370"
  },
  {
    "name": "Mons-en-Pévèle",
    "code": "59411",
    "epci_code": "200041960",
    "departement_code": "59",
    "region_code": "32",
    "postal_code": "59246"
  },
  {
    "name": "Montay",
    "code": "59412",
    "epci_code": "200030633",
    "departement_code": "59",
    "region_code": "32",
    "postal_code": "59360"
  },
  {
    "name": "Montigny-en-Cambrésis",
    "code": "59413",
    "epci_code": "200030633",
    "departement_code": "59",
    "region_code": "32",
    "postal_code": "59225"
  },
  {
    "name": "Montigny-en-Ostrevent",
    "code": "59414",
    "epci_code": "245901152",
    "departement_code": "59",
    "region_code": "32",
    "postal_code": "59182"
  },
  {
    "name": "Montrécourt",
    "code": "59415",
    "epci_code": "245901038",
    "departement_code": "59",
    "region_code": "32",
    "postal_code": "59227"
  },
  {
    "name": "Morbecque",
    "code": "59416",
    "epci_code": "200040947",
    "departement_code": "59",
    "region_code": "32",
    "postal_code": "59190"
  },
  {
    "name": "Mortagne-du-Nord",
    "code": "59418",
    "epci_code": "200042190",
    "departement_code": "59",
    "region_code": "32",
    "postal_code": "59158"
  },
  {
    "name": "Mouchin",
    "code": "59419",
    "epci_code": "200041960",
    "departement_code": "59",
    "region_code": "32",
    "postal_code": "59310"
  },
  {
    "name": "Moustier-en-Fagne",
    "code": "59420",
    "epci_code": "200043404",
    "departement_code": "59",
    "region_code": "32",
    "postal_code": "59132"
  },
  {
    "name": "Mouvaux",
    "code": "59421",
    "epci_code": "200093201",
    "departement_code": "59",
    "region_code": "32",
    "postal_code": "59420"
  },
  {
    "name": "Naves",
    "code": "59422",
    "epci_code": "200068500",
    "departement_code": "59",
    "region_code": "32",
    "postal_code": "59161"
  },
  {
    "name": "Neuf-Berquin",
    "code": "59423",
    "epci_code": "200040947",
    "departement_code": "59",
    "region_code": "32",
    "postal_code": "59940"
  },
  {
    "name": "Neuf-Mesnil",
    "code": "59424",
    "epci_code": "200043396",
    "departement_code": "59",
    "region_code": "32",
    "postal_code": "59330"
  },
  {
    "name": "Neuville-en-Avesnois",
    "code": "59425",
    "epci_code": "200043321",
    "departement_code": "59",
    "region_code": "32",
    "postal_code": "59218"
  },
  {
    "name": "Neuville-en-Ferrain",
    "code": "59426",
    "epci_code": "200093201",
    "departement_code": "59",
    "region_code": "32",
    "postal_code": "59960"
  },
  {
    "name": "La Neuville",
    "code": "59427",
    "epci_code": "200041960",
    "departement_code": "59",
    "region_code": "32",
    "postal_code": "59239"
  },
  {
    "name": "Neuville-Saint-Rémy",
    "code": "59428",
    "epci_code": "200068500",
    "departement_code": "59",
    "region_code": "32",
    "postal_code": "59554"
  },
  {
    "name": "Neuville-sur-Escaut",
    "code": "59429",
    "epci_code": "200042190",
    "departement_code": "59",
    "region_code": "32",
    "postal_code": "59293"
  },
  {
    "name": "Neuvilly",
    "code": "59430",
    "epci_code": "200030633",
    "departement_code": "59",
    "region_code": "32",
    "postal_code": "59360"
  },
  {
    "name": "Nieppe",
    "code": "59431",
    "epci_code": "200040947",
    "departement_code": "59",
    "region_code": "32",
    "postal_code": "59850"
  },
  {
    "name": "Niergnies",
    "code": "59432",
    "epci_code": "200068500",
    "departement_code": "59",
    "region_code": "32",
    "postal_code": "59400"
  },
  {
    "name": "Nieurlet",
    "code": "59433",
    "epci_code": "200040954",
    "departement_code": "59",
    "region_code": "32",
    "postal_code": "59143"
  },
  {
    "name": "Nivelle",
    "code": "59434",
    "epci_code": "200042190",
    "departement_code": "59",
    "region_code": "32",
    "postal_code": "59230"
  },
  {
    "name": "Nomain",
    "code": "59435",
    "epci_code": "200041960",
    "departement_code": "59",
    "region_code": "32",
    "postal_code": "59310"
  },
  {
    "name": "Noordpeene",
    "code": "59436",
    "epci_code": "200040947",
    "departement_code": "59",
    "region_code": "32",
    "postal_code": "59670"
  },
  {
    "name": "Noyelles-lès-Seclin",
    "code": "59437",
    "epci_code": "200093201",
    "departement_code": "59",
    "region_code": "32",
    "postal_code": "59139"
  },
  {
    "name": "Noyelles-sur-Escaut",
    "code": "59438",
    "epci_code": "200068500",
    "departement_code": "59",
    "region_code": "32",
    "postal_code": "59159"
  },
  {
    "name": "Noyelles-sur-Sambre",
    "code": "59439",
    "epci_code": "200043396",
    "departement_code": "59",
    "region_code": "32",
    "postal_code": "59550"
  },
  {
    "name": "Noyelles-sur-Selle",
    "code": "59440",
    "epci_code": "200042190",
    "departement_code": "59",
    "region_code": "32",
    "postal_code": "59282"
  },
  {
    "name": "Obies",
    "code": "59441",
    "epci_code": "200043321",
    "departement_code": "59",
    "region_code": "32",
    "postal_code": "59570"
  },
  {
    "name": "Obrechies",
    "code": "59442",
    "epci_code": "200043396",
    "departement_code": "59",
    "region_code": "32",
    "postal_code": "59680"
  },
  {
    "name": "Ochtezeele",
    "code": "59443",
    "epci_code": "200040947",
    "departement_code": "59",
    "region_code": "32",
    "postal_code": "59670"
  },
  {
    "name": "Odomez",
    "code": "59444",
    "epci_code": "245901160",
    "departement_code": "59",
    "region_code": "32",
    "postal_code": "59970"
  },
  {
    "name": "Ohain",
    "code": "59445",
    "epci_code": "200043404",
    "departement_code": "59",
    "region_code": "32",
    "postal_code": "59132"
  },
  {
    "name": "Oisy",
    "code": "59446",
    "epci_code": "200042190",
    "departement_code": "59",
    "region_code": "32",
    "postal_code": "59195"
  },
  {
    "name": "Onnaing",
    "code": "59447",
    "epci_code": "245901160",
    "departement_code": "59",
    "region_code": "32",
    "postal_code": "59264"
  },
  {
    "name": "Oost-Cappel",
    "code": "59448",
    "epci_code": "200040954",
    "departement_code": "59",
    "region_code": "32",
    "postal_code": "59122"
  },
  {
    "name": "Orchies",
    "code": "59449",
    "epci_code": "200041960",
    "departement_code": "59",
    "region_code": "32",
    "postal_code": "59310"
  },
  {
    "name": "Ors",
    "code": "59450",
    "epci_code": "200030633",
    "departement_code": "59",
    "region_code": "32",
    "postal_code": "59360"
  },
  {
    "name": "Orsinval",
    "code": "59451",
    "epci_code": "200043321",
    "departement_code": "59",
    "region_code": "32",
    "postal_code": "59530"
  },
  {
    "name": "Ostricourt",
    "code": "59452",
    "epci_code": "200041960",
    "departement_code": "59",
    "region_code": "32",
    "postal_code": "59162"
  },
  {
    "name": "Oudezeele",
    "code": "59453",
    "epci_code": "200040947",
    "departement_code": "59",
    "region_code": "32",
    "postal_code": "59670"
  },
  {
    "name": "Oxelaëre",
    "code": "59454",
    "epci_code": "200040947",
    "departement_code": "59",
    "region_code": "32",
    "postal_code": "59670"
  },
  {
    "name": "Paillencourt",
    "code": "59455",
    "epci_code": "200068500",
    "departement_code": "59",
    "region_code": "32",
    "postal_code": "59295"
  },
  {
    "name": "Pecquencourt",
    "code": "59456",
    "epci_code": "245901152",
    "departement_code": "59",
    "region_code": "32",
    "postal_code": "59146"
  },
  {
    "name": "Pérenchies",
    "code": "59457",
    "epci_code": "200093201",
    "departement_code": "59",
    "region_code": "32",
    "postal_code": "59840"
  },
  {
    "name": "Péronne-en-Mélantois",
    "code": "59458",
    "epci_code": "200093201",
    "departement_code": "59",
    "region_code": "32",
    "postal_code": "59273"
  },
  {
    "name": "Petite-Forêt",
    "code": "59459",
    "epci_code": "245901160",
    "departement_code": "59",
    "region_code": "32",
    "postal_code": "59494"
  },
  {
    "name": "Petit-Fayt",
    "code": "59461",
    "epci_code": "200043263",
    "departement_code": "59",
    "region_code": "32",
    "postal_code": "59244"
  },
  {
    "name": "Phalempin",
    "code": "59462",
    "epci_code": "200041960",
    "departement_code": "59",
    "region_code": "32",
    "postal_code": "59133"
  },
  {
    "name": "Pitgam",
    "code": "59463",
    "epci_code": "200040954",
    "departement_code": "59",
    "region_code": "32",
    "postal_code": "59284"
  },
  {
    "name": "Poix-du-Nord",
    "code": "59464",
    "epci_code": "200043321",
    "departement_code": "59",
    "region_code": "32",
    "postal_code": "59218"
  },
  {
    "name": "Pommereuil",
    "code": "59465",
    "epci_code": "200030633",
    "departement_code": "59",
    "region_code": "32",
    "postal_code": "59360"
  },
  {
    "name": "Pont-à-Marcq",
    "code": "59466",
    "epci_code": "200041960",
    "departement_code": "59",
    "region_code": "32",
    "postal_code": "59710"
  },
  {
    "name": "Pont-sur-Sambre",
    "code": "59467",
    "epci_code": "200043396",
    "departement_code": "59",
    "region_code": "32",
    "postal_code": "59138"
  },
  {
    "name": "Potelle",
    "code": "59468",
    "epci_code": "200043321",
    "departement_code": "59",
    "region_code": "32",
    "postal_code": "59530"
  },
  {
    "name": "Pradelles",
    "code": "59469",
    "epci_code": "200040947",
    "departement_code": "59",
    "region_code": "32",
    "postal_code": "59190"
  },
  {
    "name": "Prémesques",
    "code": "59470",
    "epci_code": "200093201",
    "departement_code": "59",
    "region_code": "32",
    "postal_code": "59840"
  },
  {
    "name": "Préseau",
    "code": "59471",
    "epci_code": "245901160",
    "departement_code": "59",
    "region_code": "32",
    "postal_code": "59990"
  },
  {
    "name": "Preux-au-Bois",
    "code": "59472",
    "epci_code": "200043321",
    "departement_code": "59",
    "region_code": "32",
    "postal_code": "59288"
  },
  {
    "name": "Preux-au-Sart",
    "code": "59473",
    "epci_code": "200043321",
    "departement_code": "59",
    "region_code": "32",
    "postal_code": "59144"
  },
  {
    "name": "Prisches",
    "code": "59474",
    "epci_code": "200043263",
    "departement_code": "59",
    "region_code": "32",
    "postal_code": "59550"
  },
  {
    "name": "Prouvy",
    "code": "59475",
    "epci_code": "245901160",
    "departement_code": "59",
    "region_code": "32",
    "postal_code": "59121"
  },
  {
    "name": "Proville",
    "code": "59476",
    "epci_code": "200068500",
    "departement_code": "59",
    "region_code": "32",
    "postal_code": "59267"
  },
  {
    "name": "Provin",
    "code": "59477",
    "epci_code": "200093201",
    "departement_code": "59",
    "region_code": "32",
    "postal_code": "59185"
  },
  {
    "name": "Quaëdypre",
    "code": "59478",
    "epci_code": "200040954",
    "departement_code": "59",
    "region_code": "32",
    "postal_code": "59380"
  },
  {
    "name": "Quarouble",
    "code": "59479",
    "epci_code": "245901160",
    "departement_code": "59",
    "region_code": "32",
    "postal_code": "59243"
  },
  {
    "name": "Quérénaing",
    "code": "59480",
    "epci_code": "245901160",
    "departement_code": "59",
    "region_code": "32",
    "postal_code": "59269"
  },
  {
    "name": "Le Quesnoy",
    "code": "59481",
    "epci_code": "200043321",
    "departement_code": "59",
    "region_code": "32",
    "postal_code": "59530"
  },
  {
    "name": "Quesnoy-sur-Deûle",
    "code": "59482",
    "epci_code": "200093201",
    "departement_code": "59",
    "region_code": "32",
    "postal_code": "59890"
  },
  {
    "name": "Quiévelon",
    "code": "59483",
    "epci_code": "200043396",
    "departement_code": "59",
    "region_code": "32",
    "postal_code": "59680"
  },
  {
    "name": "Quiévrechain",
    "code": "59484",
    "epci_code": "245901160",
    "departement_code": "59",
    "region_code": "32",
    "postal_code": "59920"
  },
  {
    "name": "Quiévy",
    "code": "59485",
    "epci_code": "200030633",
    "departement_code": "59",
    "region_code": "32",
    "postal_code": "59214"
  },
  {
    "name": "Râches",
    "code": "59486",
    "epci_code": "200044618",
    "departement_code": "59",
    "region_code": "32",
    "postal_code": "59194"
  },
  {
    "name": "Radinghem-en-Weppes",
    "code": "59487",
    "epci_code": "200093201",
    "departement_code": "59",
    "region_code": "32",
    "postal_code": "59320"
  },
  {
    "name": "Raillencourt-Sainte-Olle",
    "code": "59488",
    "epci_code": "200068500",
    "departement_code": "59",
    "region_code": "32",
    "postal_code": "59554"
  },
  {
    "name": "Raimbeaucourt",
    "code": "59489",
    "epci_code": "200044618",
    "departement_code": "59",
    "region_code": "32",
    "postal_code": "59283"
  },
  {
    "name": "Rainsars",
    "code": "59490",
    "epci_code": "200043263",
    "departement_code": "59",
    "region_code": "32",
    "postal_code": "59177"
  },
  {
    "name": "Raismes",
    "code": "59491",
    "epci_code": "200042190",
    "departement_code": "59",
    "region_code": "32",
    "postal_code": "59590"
  },
  {
    "name": "Ramillies",
    "code": "59492",
    "epci_code": "200068500",
    "departement_code": "59",
    "region_code": "32",
    "postal_code": "59161"
  },
  {
    "name": "Ramousies",
    "code": "59493",
    "epci_code": "200043263",
    "departement_code": "59",
    "region_code": "32",
    "postal_code": "59177"
  },
  {
    "name": "Raucourt-au-Bois",
    "code": "59494",
    "epci_code": "200043321",
    "departement_code": "59",
    "region_code": "32",
    "postal_code": "59530"
  },
  {
    "name": "Recquignies",
    "code": "59495",
    "epci_code": "200043396",
    "departement_code": "59",
    "region_code": "32",
    "postal_code": "59245"
  },
  {
    "name": "Rejet-de-Beaulieu",
    "code": "59496",
    "epci_code": "200030633",
    "departement_code": "59",
    "region_code": "32",
    "postal_code": "59360"
  },
  {
    "name": "Renescure",
    "code": "59497",
    "epci_code": "200040947",
    "departement_code": "59",
    "region_code": "32",
    "postal_code": "59173"
  },
  {
    "name": "Reumont",
    "code": "59498",
    "epci_code": "200030633",
    "departement_code": "59",
    "region_code": "32",
    "postal_code": "59980"
  },
  {
    "name": "Rexpoëde",
    "code": "59499",
    "epci_code": "200040954",
    "departement_code": "59",
    "region_code": "32",
    "postal_code": "59122"
  },
  {
    "name": "Ribécourt-la-Tour",
    "code": "59500",
    "epci_code": "200068500",
    "departement_code": "59",
    "region_code": "32",
    "postal_code": "59159"
  },
  {
    "name": "Rieulay",
    "code": "59501",
    "epci_code": "245901152",
    "departement_code": "59",
    "region_code": "32",
    "postal_code": "59870"
  },
  {
    "name": "Rieux-en-Cambrésis",
    "code": "59502",
    "epci_code": "200068500",
    "departement_code": "59",
    "region_code": "32",
    "postal_code": "59277"
  },
  {
    "name": "Robersart",
    "code": "59503",
    "epci_code": "200043321",
    "departement_code": "59",
    "region_code": "32",
    "postal_code": "59550"
  },
  {
    "name": "Rœulx",
    "code": "59504",
    "epci_code": "200042190",
    "departement_code": "59",
    "region_code": "32",
    "postal_code": "59172"
  },
  {
    "name": "Rombies-et-Marchipont",
    "code": "59505",
    "epci_code": "245901160",
    "departement_code": "59",
    "region_code": "32",
    "postal_code": "59990"
  },
  {
    "name": "Romeries",
    "code": "59506",
    "epci_code": "245901038",
    "departement_code": "59",
    "region_code": "32",
    "postal_code": "59730"
  },
  {
    "name": "Ronchin",
    "code": "59507",
    "epci_code": "200093201",
    "departement_code": "59",
    "region_code": "32",
    "postal_code": "59790"
  },
  {
    "name": "Roncq",
    "code": "59508",
    "epci_code": "200093201",
    "departement_code": "59",
    "region_code": "32",
    "postal_code": "59223"
  },
  {
    "name": "Roost-Warendin",
    "code": "59509",
    "epci_code": "200044618",
    "departement_code": "59",
    "region_code": "32",
    "postal_code": "59286"
  },
  {
    "name": "Rosult",
    "code": "59511",
    "epci_code": "200042190",
    "departement_code": "59",
    "region_code": "32",
    "postal_code": "59230"
  },
  {
    "name": "Roubaix",
    "code": "59512",
    "epci_code": "200093201",
    "departement_code": "59",
    "region_code": "32",
    "postal_code": "59100"
  },
  {
    "name": "Roucourt",
    "code": "59513",
    "epci_code": "200044618",
    "departement_code": "59",
    "region_code": "32",
    "postal_code": "59169"
  },
  {
    "name": "Rousies",
    "code": "59514",
    "epci_code": "200043396",
    "departement_code": "59",
    "region_code": "32",
    "postal_code": "59131"
  },
  {
    "name": "Rouvignies",
    "code": "59515",
    "epci_code": "245901160",
    "departement_code": "59",
    "region_code": "32",
    "postal_code": "59220"
  },
  {
    "name": "Rubrouck",
    "code": "59516",
    "epci_code": "200040947",
    "departement_code": "59",
    "region_code": "32",
    "postal_code": "59285"
  },
  {
    "name": "Les Rues-des-Vignes",
    "code": "59517",
    "epci_code": "200068500",
    "departement_code": "59",
    "region_code": "32",
    "postal_code": "59258"
  },
  {
    "name": "Ruesnes",
    "code": "59518",
    "epci_code": "200043321",
    "departement_code": "59",
    "region_code": "32",
    "postal_code": "59530"
  },
  {
    "name": "Rumegies",
    "code": "59519",
    "epci_code": "200042190",
    "departement_code": "59",
    "region_code": "32",
    "postal_code": "59226"
  },
  {
    "name": "Rumilly-en-Cambrésis",
    "code": "59520",
    "epci_code": "200068500",
    "departement_code": "59",
    "region_code": "32",
    "postal_code": "59281"
  },
  {
    "name": "Sailly-lez-Cambrai",
    "code": "59521",
    "epci_code": "200068500",
    "departement_code": "59",
    "region_code": "32",
    "postal_code": "59554"
  },
  {
    "name": "Sailly-lez-Lannoy",
    "code": "59522",
    "epci_code": "200093201",
    "departement_code": "59",
    "region_code": "32",
    "postal_code": "59390"
  },
  {
    "name": "Sainghin-en-Mélantois",
    "code": "59523",
    "epci_code": "200093201",
    "departement_code": "59",
    "region_code": "32",
    "postal_code": "59262"
  },
  {
    "name": "Sainghin-en-Weppes",
    "code": "59524",
    "epci_code": "200093201",
    "departement_code": "59",
    "region_code": "32",
    "postal_code": "59184"
  },
  {
    "name": "Sains-du-Nord",
    "code": "59525",
    "epci_code": "200043263",
    "departement_code": "59",
    "region_code": "32",
    "postal_code": "59177"
  },
  {
    "name": "Saint-Amand-les-Eaux",
    "code": "59526",
    "epci_code": "200042190",
    "departement_code": "59",
    "region_code": "32",
    "postal_code": "59230"
  },
  {
    "name": "Saint-André-lez-Lille",
    "code": "59527",
    "epci_code": "200093201",
    "departement_code": "59",
    "region_code": "32",
    "postal_code": "59350"
  },
  {
    "name": "Saint-Aubert",
    "code": "59528",
    "epci_code": "200030633",
    "departement_code": "59",
    "region_code": "32",
    "postal_code": "59188"
  },
  {
    "name": "Saint-Aubin",
    "code": "59529",
    "epci_code": "200043263",
    "departement_code": "59",
    "region_code": "32",
    "postal_code": "59440"
  },
  {
    "name": "Saint-Aybert",
    "code": "59530",
    "epci_code": "245901160",
    "departement_code": "59",
    "region_code": "32",
    "postal_code": "59163"
  },
  {
    "name": "Saint-Benin",
    "code": "59531",
    "epci_code": "200030633",
    "departement_code": "59",
    "region_code": "32",
    "postal_code": "59360"
  },
  {
    "name": "Saint-Georges-sur-l’Aa",
    "code": "59532",
    "epci_code": "245900428",
    "departement_code": "59",
    "region_code": "32",
    "postal_code": "59820"
  },
  {
    "name": "Saint-Hilaire-lez-Cambrai",
    "code": "59533",
    "epci_code": "200030633",
    "departement_code": "59",
    "region_code": "32",
    "postal_code": "59292"
  },
  {
    "name": "Saint-Hilaire-sur-Helpe",
    "code": "59534",
    "epci_code": "200043263",
    "departement_code": "59",
    "region_code": "32",
    "postal_code": "59440"
  },
  {
    "name": "Saint-Jans-Cappel",
    "code": "59535",
    "epci_code": "200040947",
    "departement_code": "59",
    "region_code": "32",
    "postal_code": "59270"
  },
  {
    "name": "Sainte-Marie-Cappel",
    "code": "59536",
    "epci_code": "200040947",
    "departement_code": "59",
    "region_code": "32",
    "postal_code": "59670"
  },
  {
    "name": "Saint-Martin-sur-Écaillon",
    "code": "59537",
    "epci_code": "245901038",
    "departement_code": "59",
    "region_code": "32",
    "postal_code": "59213"
  },
  {
    "name": "Saint-Momelin",
    "code": "59538",
    "epci_code": "200040954",
    "departement_code": "59",
    "region_code": "32",
    "postal_code": "59143"
  },
  {
    "name": "Saint-Pierre-Brouck",
    "code": "59539",
    "epci_code": "200040954",
    "departement_code": "59",
    "region_code": "32",
    "postal_code": "59630"
  },
  {
    "name": "Saint-Python",
    "code": "59541",
    "epci_code": "245901038",
    "departement_code": "59",
    "region_code": "32",
    "postal_code": "59730"
  },
  {
    "name": "Saint-Remy-Chaussée",
    "code": "59542",
    "epci_code": "200043396",
    "departement_code": "59",
    "region_code": "32",
    "postal_code": "59620"
  },
  {
    "name": "Saint-Remy-du-Nord",
    "code": "59543",
    "epci_code": "200043396",
    "departement_code": "59",
    "region_code": "32",
    "postal_code": "59330"
  },
  {
    "name": "Saint-Saulve",
    "code": "59544",
    "epci_code": "245901160",
    "departement_code": "59",
    "region_code": "32",
    "postal_code": "59880"
  },
  {
    "name": "Saint-Souplet",
    "code": "59545",
    "epci_code": "200030633",
    "departement_code": "59",
    "region_code": "32",
    "postal_code": "59360"
  },
  {
    "name": "Saint-Sylvestre-Cappel",
    "code": "59546",
    "epci_code": "200040947",
    "departement_code": "59",
    "region_code": "32",
    "postal_code": "59114"
  },
  {
    "name": "Saint-Vaast-en-Cambrésis",
    "code": "59547",
    "epci_code": "200030633",
    "departement_code": "59",
    "region_code": "32",
    "postal_code": "59188"
  },
  {
    "name": "Saint-Waast",
    "code": "59548",
    "epci_code": "200043321",
    "departement_code": "59",
    "region_code": "32",
    "postal_code": "59570"
  },
  {
    "name": "Salesches",
    "code": "59549",
    "epci_code": "200043321",
    "departement_code": "59",
    "region_code": "32",
    "postal_code": "59218"
  },
  {
    "name": "Salomé",
    "code": "59550",
    "epci_code": "200093201",
    "departement_code": "59",
    "region_code": "32",
    "postal_code": "59496"
  },
  {
    "name": "Saméon",
    "code": "59551",
    "epci_code": "200041960",
    "departement_code": "59",
    "region_code": "32",
    "postal_code": "59310"
  },
  {
    "name": "Sancourt",
    "code": "59552",
    "epci_code": "200068500",
    "departement_code": "59",
    "region_code": "32",
    "postal_code": "59268"
  },
  {
    "name": "Santes",
    "code": "59553",
    "epci_code": "200093201",
    "departement_code": "59",
    "region_code": "32",
    "postal_code": "59211"
  },
  {
    "name": "Sars-et-Rosières",
    "code": "59554",
    "epci_code": "200042190",
    "departement_code": "59",
    "region_code": "32",
    "postal_code": "59230"
  },
  {
    "name": "Sars-Poteries",
    "code": "59555",
    "epci_code": "200043263",
    "departement_code": "59",
    "region_code": "32",
    "postal_code": "59216"
  },
  {
    "name": "Sassegnies",
    "code": "59556",
    "epci_code": "200043396",
    "departement_code": "59",
    "region_code": "32",
    "postal_code": "59145"
  },
  {
    "name": "Saultain",
    "code": "59557",
    "epci_code": "245901160",
    "departement_code": "59",
    "region_code": "32",
    "postal_code": "59990"
  },
  {
    "name": "Saulzoir",
    "code": "59558",
    "epci_code": "245901038",
    "departement_code": "59",
    "region_code": "32",
    "postal_code": "59227"
  },
  {
    "name": "Sebourg",
    "code": "59559",
    "epci_code": "245901160",
    "departement_code": "59",
    "region_code": "32",
    "postal_code": "59990"
  },
  {
    "name": "Seclin",
    "code": "59560",
    "epci_code": "200093201",
    "departement_code": "59",
    "region_code": "32",
    "postal_code": "59113"
  },
  {
    "name": "Sémeries",
    "code": "59562",
    "epci_code": "200043263",
    "departement_code": "59",
    "region_code": "32",
    "postal_code": "59440"
  },
  {
    "name": "Semousies",
    "code": "59563",
    "epci_code": "200043263",
    "departement_code": "59",
    "region_code": "32",
    "postal_code": "59440"
  },
  {
    "name": "La Sentinelle",
    "code": "59564",
    "epci_code": "200042190",
    "departement_code": "59",
    "region_code": "32",
    "postal_code": "59174"
  },
  {
    "name": "Sepmeries",
    "code": "59565",
    "epci_code": "200043321",
    "departement_code": "59",
    "region_code": "32",
    "postal_code": "59269"
  },
  {
    "name": "Sequedin",
    "code": "59566",
    "epci_code": "200093201",
    "departement_code": "59",
    "region_code": "32",
    "postal_code": "59320"
  },
  {
    "name": "Séranvillers-Forenville",
    "code": "59567",
    "epci_code": "200068500",
    "departement_code": "59",
    "region_code": "32",
    "postal_code": "59400"
  },
  {
    "name": "Sercus",
    "code": "59568",
    "epci_code": "200040947",
    "departement_code": "59",
    "region_code": "32",
    "postal_code": "59173"
  },
  {
    "name": "Sin-le-Noble",
    "code": "59569",
    "epci_code": "200044618",
    "departement_code": "59",
    "region_code": "32",
    "postal_code": "59450"
  },
  {
    "name": "Socx",
    "code": "59570",
    "epci_code": "200040954",
    "departement_code": "59",
    "region_code": "32",
    "postal_code": "59380"
  },
  {
    "name": "Solesmes",
    "code": "59571",
    "epci_code": "245901038",
    "departement_code": "59",
    "region_code": "32",
    "postal_code": "59730"
  },
  {
    "name": "Solre-le-Château",
    "code": "59572",
    "epci_code": "200043263",
    "departement_code": "59",
    "region_code": "32",
    "postal_code": "59740"
  },
  {
    "name": "Solrinnes",
    "code": "59573",
    "epci_code": "200043263",
    "departement_code": "59",
    "region_code": "32",
    "postal_code": "59740"
  },
  {
    "name": "Somain",
    "code": "59574",
    "epci_code": "245901152",
    "departement_code": "59",
    "region_code": "32",
    "postal_code": "59490"
  },
  {
    "name": "Sommaing",
    "code": "59575",
    "epci_code": "245901038",
    "departement_code": "59",
    "region_code": "32",
    "postal_code": "59213"
  },
  {
    "name": "Spycker",
    "code": "59576",
    "epci_code": "245900428",
    "departement_code": "59",
    "region_code": "32",
    "postal_code": "59380"
  },
  {
    "name": "Staple",
    "code": "59577",
    "epci_code": "200040947",
    "departement_code": "59",
    "region_code": "32",
    "postal_code": "59190"
  },
  {
    "name": "Steenbecque",
    "code": "59578",
    "epci_code": "200040947",
    "departement_code": "59",
    "region_code": "32",
    "postal_code": "59189"
  },
  {
    "name": "Steene",
    "code": "59579",
    "epci_code": "200040954",
    "departement_code": "59",
    "region_code": "32",
    "postal_code": "59380"
  },
  {
    "name": "Steenvoorde",
    "code": "59580",
    "epci_code": "200040947",
    "departement_code": "59",
    "region_code": "32",
    "postal_code": "59114"
  },
  {
    "name": "Steenwerck",
    "code": "59581",
    "epci_code": "200040947",
    "departement_code": "59",
    "region_code": "32",
    "postal_code": "59181"
  },
  {
    "name": "Strazeele",
    "code": "59582",
    "epci_code": "200040947",
    "departement_code": "59",
    "region_code": "32",
    "postal_code": "59270"
  },
  {
    "name": "Taisnières-en-Thiérache",
    "code": "59583",
    "epci_code": "200043263",
    "departement_code": "59",
    "region_code": "32",
    "postal_code": "59550"
  },
  {
    "name": "Taisnières-sur-Hon",
    "code": "59584",
    "epci_code": "200043321",
    "departement_code": "59",
    "region_code": "32",
    "postal_code": "59570"
  },
  {
    "name": "Templemars",
    "code": "59585",
    "epci_code": "200093201",
    "departement_code": "59",
    "region_code": "32",
    "postal_code": "59175"
  },
  {
    "name": "Templeuve-en-Pévèle",
    "code": "59586",
    "epci_code": "200041960",
    "departement_code": "59",
    "region_code": "32",
    "postal_code": "59242"
  },
  {
    "name": "Terdeghem",
    "code": "59587",
    "epci_code": "200040947",
    "departement_code": "59",
    "region_code": "32",
    "postal_code": "59114"
  },
  {
    "name": "Téteghem-Coudekerque-Village",
    "code": "59588",
    "epci_code": "245900428",
    "departement_code": "59",
    "region_code": "32",
    "postal_code": "59229"
  },
  {
    "name": "Téteghem-Coudekerque-Village",
    "code": "59588",
    "epci_code": "245900428",
    "departement_code": "59",
    "region_code": "32",
    "postal_code": "59380"
  },
  {
    "name": "Thiant",
    "code": "59589",
    "epci_code": "200042190",
    "departement_code": "59",
    "region_code": "32",
    "postal_code": "59224"
  },
  {
    "name": "Thiennes",
    "code": "59590",
    "epci_code": "200040947",
    "departement_code": "59",
    "region_code": "32",
    "postal_code": "59189"
  },
  {
    "name": "Thivencelle",
    "code": "59591",
    "epci_code": "245901160",
    "departement_code": "59",
    "region_code": "32",
    "postal_code": "59163"
  },
  {
    "name": "Thumeries",
    "code": "59592",
    "epci_code": "200041960",
    "departement_code": "59",
    "region_code": "32",
    "postal_code": "59239"
  },
  {
    "name": "Thun-l’Évêque",
    "code": "59593",
    "epci_code": "200068500",
    "departement_code": "59",
    "region_code": "32",
    "postal_code": "59141"
  },
  {
    "name": "Thun-Saint-Amand",
    "code": "59594",
    "epci_code": "200042190",
    "departement_code": "59",
    "region_code": "32",
    "postal_code": "59158"
  },
  {
    "name": "Thun-Saint-Martin",
    "code": "59595",
    "epci_code": "200068500",
    "departement_code": "59",
    "region_code": "32",
    "postal_code": "59141"
  },
  {
    "name": "Tilloy-lez-Marchiennes",
    "code": "59596",
    "epci_code": "245901152",
    "departement_code": "59",
    "region_code": "32",
    "postal_code": "59870"
  },
  {
    "name": "Tilloy-lez-Cambrai",
    "code": "59597",
    "epci_code": "200068500",
    "departement_code": "59",
    "region_code": "32",
    "postal_code": "59554"
  },
  {
    "name": "Toufflers",
    "code": "59598",
    "epci_code": "200093201",
    "departement_code": "59",
    "region_code": "32",
    "postal_code": "59390"
  },
  {
    "name": "Tourcoing",
    "code": "59599",
    "epci_code": "200093201",
    "departement_code": "59",
    "region_code": "32",
    "postal_code": "59200"
  },
  {
    "name": "Tourmignies",
    "code": "59600",
    "epci_code": "200041960",
    "departement_code": "59",
    "region_code": "32",
    "postal_code": "59551"
  },
  {
    "name": "Trélon",
    "code": "59601",
    "epci_code": "200043404",
    "departement_code": "59",
    "region_code": "32",
    "postal_code": "59132"
  },
  {
    "name": "Tressin",
    "code": "59602",
    "epci_code": "200093201",
    "departement_code": "59",
    "region_code": "32",
    "postal_code": "59152"
  },
  {
    "name": "Trith-Saint-Léger",
    "code": "59603",
    "epci_code": "200042190",
    "departement_code": "59",
    "region_code": "32",
    "postal_code": "59125"
  },
  {
    "name": "Troisvilles",
    "code": "59604",
    "epci_code": "200030633",
    "departement_code": "59",
    "region_code": "32",
    "postal_code": "59980"
  },
  {
    "name": "Uxem",
    "code": "59605",
    "epci_code": "200040954",
    "departement_code": "59",
    "region_code": "32",
    "postal_code": "59229"
  },
  {
    "name": "Valenciennes",
    "code": "59606",
    "epci_code": "245901160",
    "departement_code": "59",
    "region_code": "32",
    "postal_code": "59300"
  },
  {
    "name": "Vendegies-au-Bois",
    "code": "59607",
    "epci_code": "200043321",
    "departement_code": "59",
    "region_code": "32",
    "postal_code": "59218"
  },
  {
    "name": "Vendegies-sur-Écaillon",
    "code": "59608",
    "epci_code": "245901038",
    "departement_code": "59",
    "region_code": "32",
    "postal_code": "59213"
  },
  {
    "name": "Vendeville",
    "code": "59609",
    "epci_code": "200093201",
    "departement_code": "59",
    "region_code": "32",
    "postal_code": "59175"
  },
  {
    "name": "Verchain-Maugré",
    "code": "59610",
    "epci_code": "245901160",
    "departement_code": "59",
    "region_code": "32",
    "postal_code": "59227"
  },
  {
    "name": "Verlinghem",
    "code": "59611",
    "epci_code": "200093201",
    "departement_code": "59",
    "region_code": "32",
    "postal_code": "59237"
  },
  {
    "name": "Vertain",
    "code": "59612",
    "epci_code": "245901038",
    "departement_code": "59",
    "region_code": "32",
    "postal_code": "59730"
  },
  {
    "name": "Vicq",
    "code": "59613",
    "epci_code": "245901160",
    "departement_code": "59",
    "region_code": "32",
    "postal_code": "59970"
  },
  {
    "name": "Viesly",
    "code": "59614",
    "epci_code": "245901038",
    "departement_code": "59",
    "region_code": "32",
    "postal_code": "59271"
  },
  {
    "name": "Vieux-Berquin",
    "code": "59615",
    "epci_code": "200040947",
    "departement_code": "59",
    "region_code": "32",
    "postal_code": "59232"
  },
  {
    "name": "Vieux-Condé",
    "code": "59616",
    "epci_code": "245901160",
    "departement_code": "59",
    "region_code": "32",
    "postal_code": "59690"
  },
  {
    "name": "Vieux-Mesnil",
    "code": "59617",
    "epci_code": "200043396",
    "departement_code": "59",
    "region_code": "32",
    "postal_code": "59138"
  },
  {
    "name": "Vieux-Reng",
    "code": "59618",
    "epci_code": "200043396",
    "departement_code": "59",
    "region_code": "32",
    "postal_code": "59600"
  },
  {
    "name": "Villereau",
    "code": "59619",
    "epci_code": "200043321",
    "departement_code": "59",
    "region_code": "32",
    "postal_code": "59530"
  },
  {
    "name": "Villers-au-Tertre",
    "code": "59620",
    "epci_code": "200044618",
    "departement_code": "59",
    "region_code": "32",
    "postal_code": "59234"
  },
  {
    "name": "Villers-en-Cauchies",
    "code": "59622",
    "epci_code": "200068500",
    "departement_code": "59",
    "region_code": "32",
    "postal_code": "59188"
  },
  {
    "name": "Villers-Guislain",
    "code": "59623",
    "epci_code": "200068500",
    "departement_code": "59",
    "region_code": "32",
    "postal_code": "59297"
  },
  {
    "name": "Villers-Outréaux",
    "code": "59624",
    "epci_code": "200030633",
    "departement_code": "59",
    "region_code": "32",
    "postal_code": "59142"
  },
  {
    "name": "Villers-Plouich",
    "code": "59625",
    "epci_code": "200068500",
    "departement_code": "59",
    "region_code": "32",
    "postal_code": "59231"
  },
  {
    "name": "Villers-Pol",
    "code": "59626",
    "epci_code": "200043321",
    "departement_code": "59",
    "region_code": "32",
    "postal_code": "59530"
  },
  {
    "name": "Villers-Sire-Nicole",
    "code": "59627",
    "epci_code": "200043396",
    "departement_code": "59",
    "region_code": "32",
    "postal_code": "59600"
  },
  {
    "name": "Volckerinckhove",
    "code": "59628",
    "epci_code": "200040954",
    "departement_code": "59",
    "region_code": "32",
    "postal_code": "59470"
  },
  {
    "name": "Vred",
    "code": "59629",
    "epci_code": "245901152",
    "departement_code": "59",
    "region_code": "32",
    "postal_code": "59870"
  },
  {
    "name": "Wahagnies",
    "code": "59630",
    "epci_code": "200041960",
    "departement_code": "59",
    "region_code": "32",
    "postal_code": "59261"
  },
  {
    "name": "Walincourt-Selvigny",
    "code": "59631",
    "epci_code": "200030633",
    "departement_code": "59",
    "region_code": "32",
    "postal_code": "59127"
  },
  {
    "name": "Wallers",
    "code": "59632",
    "epci_code": "200042190",
    "departement_code": "59",
    "region_code": "32",
    "postal_code": "59135"
  },
  {
    "name": "Wallers-en-Fagne",
    "code": "59633",
    "epci_code": "200043404",
    "departement_code": "59",
    "region_code": "32",
    "postal_code": "59132"
  },
  {
    "name": "Wallon-Cappel",
    "code": "59634",
    "epci_code": "200040947",
    "departement_code": "59",
    "region_code": "32",
    "postal_code": "59190"
  },
  {
    "name": "Wambaix",
    "code": "59635",
    "epci_code": "200068500",
    "departement_code": "59",
    "region_code": "32",
    "postal_code": "59400"
  },
  {
    "name": "Wambrechies",
    "code": "59636",
    "epci_code": "200093201",
    "departement_code": "59",
    "region_code": "32",
    "postal_code": "59118"
  },
  {
    "name": "Wandignies-Hamage",
    "code": "59637",
    "epci_code": "245901152",
    "departement_code": "59",
    "region_code": "32",
    "postal_code": "59870"
  },
  {
    "name": "Wannehain",
    "code": "59638",
    "epci_code": "200041960",
    "departement_code": "59",
    "region_code": "32",
    "postal_code": "59830"
  },
  {
    "name": "Wargnies-le-Grand",
    "code": "59639",
    "epci_code": "200043321",
    "departement_code": "59",
    "region_code": "32",
    "postal_code": "59144"
  },
  {
    "name": "Wargnies-le-Petit",
    "code": "59640",
    "epci_code": "200043321",
    "departement_code": "59",
    "region_code": "32",
    "postal_code": "59144"
  },
  {
    "name": "Warhem",
    "code": "59641",
    "epci_code": "200040954",
    "departement_code": "59",
    "region_code": "32",
    "postal_code": "59380"
  },
  {
    "name": "Warlaing",
    "code": "59642",
    "epci_code": "245901152",
    "departement_code": "59",
    "region_code": "32",
    "postal_code": "59870"
  },
  {
    "name": "Warneton",
    "code": "59643",
    "epci_code": "200093201",
    "departement_code": "59",
    "region_code": "32",
    "postal_code": "59560"
  },
  {
    "name": "Wasnes-au-Bac",
    "code": "59645",
    "epci_code": "200042190",
    "departement_code": "59",
    "region_code": "32",
    "postal_code": "59252"
  },
  {
    "name": "Wasquehal",
    "code": "59646",
    "epci_code": "200093201",
    "departement_code": "59",
    "region_code": "32",
    "postal_code": "59290"
  },
  {
    "name": "Watten",
    "code": "59647",
    "epci_code": "200040954",
    "departement_code": "59",
    "region_code": "32",
    "postal_code": "59143"
  },
  {
    "name": "Wattignies",
    "code": "59648",
    "epci_code": "200093201",
    "departement_code": "59",
    "region_code": "32",
    "postal_code": "59139"
  },
  {
    "name": "Wattignies-la-Victoire",
    "code": "59649",
    "epci_code": "200043263",
    "departement_code": "59",
    "region_code": "32",
    "postal_code": "59680"
  },
  {
    "name": "Wattrelos",
    "code": "59650",
    "epci_code": "200093201",
    "departement_code": "59",
    "region_code": "32",
    "postal_code": "59150"
  },
  {
    "name": "Wavrechain-sous-Denain",
    "code": "59651",
    "epci_code": "200042190",
    "departement_code": "59",
    "region_code": "32",
    "postal_code": "59220"
  },
  {
    "name": "Wavrechain-sous-Faulx",
    "code": "59652",
    "epci_code": "200042190",
    "departement_code": "59",
    "region_code": "32",
    "postal_code": "59111"
  },
  {
    "name": "Wavrin",
    "code": "59653",
    "epci_code": "200093201",
    "departement_code": "59",
    "region_code": "32",
    "postal_code": "59136"
  },
  {
    "name": "Waziers",
    "code": "59654",
    "epci_code": "200044618",
    "departement_code": "59",
    "region_code": "32",
    "postal_code": "59119"
  },
  {
    "name": "Wemaers-Cappel",
    "code": "59655",
    "epci_code": "200040947",
    "departement_code": "59",
    "region_code": "32",
    "postal_code": "59670"
  },
  {
    "name": "Wervicq-Sud",
    "code": "59656",
    "epci_code": "200093201",
    "departement_code": "59",
    "region_code": "32",
    "postal_code": "59117"
  },
  {
    "name": "West-Cappel",
    "code": "59657",
    "epci_code": "200040954",
    "departement_code": "59",
    "region_code": "32",
    "postal_code": "59380"
  },
  {
    "name": "Wicres",
    "code": "59658",
    "epci_code": "200093201",
    "departement_code": "59",
    "region_code": "32",
    "postal_code": "59134"
  },
  {
    "name": "Wignehies",
    "code": "59659",
    "epci_code": "200043404",
    "departement_code": "59",
    "region_code": "32",
    "postal_code": "59212"
  },
  {
    "name": "Willems",
    "code": "59660",
    "epci_code": "200093201",
    "departement_code": "59",
    "region_code": "32",
    "postal_code": "59780"
  },
  {
    "name": "Willies",
    "code": "59661",
    "epci_code": "200043404",
    "departement_code": "59",
    "region_code": "32",
    "postal_code": "59740"
  },
  {
    "name": "Winnezeele",
    "code": "59662",
    "epci_code": "200040947",
    "departement_code": "59",
    "region_code": "32",
    "postal_code": "59670"
  },
  {
    "name": "Wormhout",
    "code": "59663",
    "epci_code": "200040954",
    "departement_code": "59",
    "region_code": "32",
    "postal_code": "59470"
  },
  {
    "name": "Wulverdinghe",
    "code": "59664",
    "epci_code": "200040954",
    "departement_code": "59",
    "region_code": "32",
    "postal_code": "59143"
  },
  {
    "name": "Wylder",
    "code": "59665",
    "epci_code": "200040954",
    "departement_code": "59",
    "region_code": "32",
    "postal_code": "59380"
  },
  {
    "name": "Zegerscappel",
    "code": "59666",
    "epci_code": "200040954",
    "departement_code": "59",
    "region_code": "32",
    "postal_code": "59470"
  },
  {
    "name": "Zermezeele",
    "code": "59667",
    "epci_code": "200040947",
    "departement_code": "59",
    "region_code": "32",
    "postal_code": "59670"
  },
  {
    "name": "Zuydcoote",
    "code": "59668",
    "epci_code": "245900428",
    "departement_code": "59",
    "region_code": "32",
    "postal_code": "59123"
  },
  {
    "name": "Zuytpeene",
    "code": "59669",
    "epci_code": "200040947",
    "departement_code": "59",
    "region_code": "32",
    "postal_code": "59670"
  },
  {
    "name": "Don",
    "code": "59670",
    "epci_code": "200093201",
    "departement_code": "59",
    "region_code": "32",
    "postal_code": "59272"
  }
]