[
  {
    "name": "Abancourt",
    "code": "60001",
    "epci_code": "246000848",
    "departement_code": "60",
    "region_code": "32",
    "postal_code": "60220"
  },
  {
    "name": "Abbecourt",
    "code": "60002",
    "epci_code": "200067973",
    "departement_code": "60",
    "region_code": "32",
    "postal_code": "60430"
  },
  {
    "name": "Abbeville-Saint-Lucien",
    "code": "60003",
    "epci_code": "200068005",
    "departement_code": "60",
    "region_code": "32",
    "postal_code": "60480"
  },
  {
    "name": "Achy",
    "code": "60004",
    "epci_code": "246000848",
    "departement_code": "60",
    "region_code": "32",
    "postal_code": "60690"
  },
  {
    "name": "Acy-en-Multien",
    "code": "60005",
    "epci_code": "246000871",
    "departement_code": "60",
    "region_code": "32",
    "postal_code": "60620"
  },
  {
    "name": "Les Ageux",
    "code": "60006",
    "epci_code": "246000921",
    "departement_code": "60",
    "region_code": "32",
    "postal_code": "60700"
  },
  {
    "name": "Agnetz",
    "code": "60007",
    "epci_code": "246000376",
    "departement_code": "60",
    "region_code": "32",
    "postal_code": "60600"
  },
  {
    "name": "Airion",
    "code": "60008",
    "epci_code": "246000566",
    "departement_code": "60",
    "region_code": "32",
    "postal_code": "60600"
  },
  {
    "name": "Allonne",
    "code": "60009",
    "epci_code": "200067999",
    "departement_code": "60",
    "region_code": "32",
    "postal_code": "60000"
  },
  {
    "name": "Amblainville",
    "code": "60010",
    "epci_code": "246000582",
    "departement_code": "60",
    "region_code": "32",
    "postal_code": "60110"
  },
  {
    "name": "Amy",
    "code": "60011",
    "epci_code": "246000855",
    "departement_code": "60",
    "region_code": "32",
    "postal_code": "60310"
  },
  {
    "name": "Andeville",
    "code": "60012",
    "epci_code": "246000582",
    "departement_code": "60",
    "region_code": "32",
    "postal_code": "60570"
  },
  {
    "name": "Angicourt",
    "code": "60013",
    "epci_code": "246000921",
    "departement_code": "60",
    "region_code": "32",
    "postal_code": "60940"
  },
  {
    "name": "Angivillers",
    "code": "60014",
    "epci_code": "246000566",
    "departement_code": "60",
    "region_code": "32",
    "postal_code": "60130"
  },
  {
    "name": "Angy",
    "code": "60015",
    "epci_code": "200067973",
    "departement_code": "60",
    "region_code": "32",
    "postal_code": "60250"
  },
  {
    "name": "Ansacq",
    "code": "60016",
    "epci_code": "200067973",
    "departement_code": "60",
    "region_code": "32",
    "postal_code": "60250"
  },
  {
    "name": "Ansauvillers",
    "code": "60017",
    "epci_code": "200068005",
    "departement_code": "60",
    "region_code": "32",
    "postal_code": "60120"
  },
  {
    "name": "Antheuil-Portes",
    "code": "60019",
    "epci_code": "246000855",
    "departement_code": "60",
    "region_code": "32",
    "postal_code": "60162"
  },
  {
    "name": "Antilly",
    "code": "60020",
    "epci_code": "246000871",
    "departement_code": "60",
    "region_code": "32",
    "postal_code": "60620"
  },
  {
    "name": "Appilly",
    "code": "60021",
    "epci_code": "246000756",
    "departement_code": "60",
    "region_code": "32",
    "postal_code": "60400"
  },
  {
    "name": "Apremont",
    "code": "60022",
    "epci_code": "246000764",
    "departement_code": "60",
    "region_code": "32",
    "postal_code": "60300"
  },
  {
    "name": "Armancourt",
    "code": "60023",
    "epci_code": "200067965",
    "departement_code": "60",
    "region_code": "32",
    "postal_code": "60880"
  },
  {
    "name": "Arsy",
    "code": "60024",
    "epci_code": "246000897",
    "departement_code": "60",
    "region_code": "32",
    "postal_code": "60190"
  },
  {
    "name": "Attichy",
    "code": "60025",
    "epci_code": "246000749",
    "departement_code": "60",
    "region_code": "32",
    "postal_code": "60350"
  },
  {
    "name": "Auchy-la-Montagne",
    "code": "60026",
    "epci_code": "200067999",
    "departement_code": "60",
    "region_code": "32",
    "postal_code": "60360"
  },
  {
    "name": "Auger-Saint-Vincent",
    "code": "60027",
    "epci_code": "246000871",
    "departement_code": "60",
    "region_code": "32",
    "postal_code": "60800"
  },
  {
    "name": "Aumont-en-Halatte",
    "code": "60028",
    "epci_code": "200066975",
    "departement_code": "60",
    "region_code": "32",
    "postal_code": "60300"
  },
  {
    "name": "Auneuil",
    "code": "60029",
    "epci_code": "200067999",
    "departement_code": "60",
    "region_code": "32",
    "postal_code": "60390"
  },
  {
    "name": "Auteuil",
    "code": "60030",
    "epci_code": "200067999",
    "departement_code": "60",
    "region_code": "32",
    "postal_code": "60390"
  },
  {
    "name": "Autheuil-en-Valois",
    "code": "60031",
    "epci_code": "246000871",
    "departement_code": "60",
    "region_code": "32",
    "postal_code": "60890"
  },
  {
    "name": "Autrêches",
    "code": "60032",
    "epci_code": "246000749",
    "departement_code": "60",
    "region_code": "32",
    "postal_code": "60350"
  },
  {
    "name": "Avilly-Saint-Léonard",
    "code": "60033",
    "epci_code": "246000764",
    "departement_code": "60",
    "region_code": "32",
    "postal_code": "60300"
  },
  {
    "name": "Avrechy",
    "code": "60034",
    "epci_code": "246000566",
    "departement_code": "60",
    "region_code": "32",
    "postal_code": "60130"
  },
  {
    "name": "Avricourt",
    "code": "60035",
    "epci_code": "246000855",
    "departement_code": "60",
    "region_code": "32",
    "postal_code": "60310"
  },
  {
    "name": "Avrigny",
    "code": "60036",
    "epci_code": "246000897",
    "departement_code": "60",
    "region_code": "32",
    "postal_code": "60190"
  },
  {
    "name": "Babœuf",
    "code": "60037",
    "epci_code": "246000756",
    "departement_code": "60",
    "region_code": "32",
    "postal_code": "60400"
  },
  {
    "name": "Bacouël",
    "code": "60039",
    "epci_code": "200068005",
    "departement_code": "60",
    "region_code": "32",
    "postal_code": "60120"
  },
  {
    "name": "Bailleul-le-Soc",
    "code": "60040",
    "epci_code": "246000897",
    "departement_code": "60",
    "region_code": "32",
    "postal_code": "60190"
  },
  {
    "name": "Bailleul-sur-Thérain",
    "code": "60041",
    "epci_code": "200067999",
    "departement_code": "60",
    "region_code": "32",
    "postal_code": "60930"
  },
  {
    "name": "Bailleval",
    "code": "60042",
    "epci_code": "246000129",
    "departement_code": "60",
    "region_code": "32",
    "postal_code": "60140"
  },
  {
    "name": "Bailly",
    "code": "60043",
    "epci_code": "246000772",
    "departement_code": "60",
    "region_code": "32",
    "postal_code": "60170"
  },
  {
    "name": "Balagny-sur-Thérain",
    "code": "60044",
    "epci_code": "200067973",
    "departement_code": "60",
    "region_code": "32",
    "postal_code": "60250"
  },
  {
    "name": "Barbery",
    "code": "60045",
    "epci_code": "200066975",
    "departement_code": "60",
    "region_code": "32",
    "postal_code": "60810"
  },
  {
    "name": "Bargny",
    "code": "60046",
    "epci_code": "246000871",
    "departement_code": "60",
    "region_code": "32",
    "postal_code": "60620"
  },
  {
    "name": "Baron",
    "code": "60047",
    "epci_code": "246000871",
    "departement_code": "60",
    "region_code": "32",
    "postal_code": "60300"
  },
  {
    "name": "Baugy",
    "code": "60048",
    "epci_code": "246000855",
    "departement_code": "60",
    "region_code": "32",
    "postal_code": "60113"
  },
  {
    "name": "Baugy",
    "code": "60048",
    "epci_code": "246000855",
    "departement_code": "60",
    "region_code": "32",
    "postal_code": "60190"
  },
  {
    "name": "Bazancourt",
    "code": "60049",
    "epci_code": "246000848",
    "departement_code": "60",
    "region_code": "32",
    "postal_code": "60380"
  },
  {
    "name": "Bazicourt",
    "code": "60050",
    "epci_code": "246000921",
    "departement_code": "60",
    "region_code": "32",
    "postal_code": "60700"
  },
  {
    "name": "Beaudéduit",
    "code": "60051",
    "epci_code": "246000848",
    "departement_code": "60",
    "region_code": "32",
    "postal_code": "60210"
  },
  {
    "name": "Beaugies-sous-Bois",
    "code": "60052",
    "epci_code": "246000756",
    "departement_code": "60",
    "region_code": "32",
    "postal_code": "60640"
  },
  {
    "name": "Beaulieu-les-Fontaines",
    "code": "60053",
    "epci_code": "246000855",
    "departement_code": "60",
    "region_code": "32",
    "postal_code": "60310"
  },
  {
    "name": "Beaumont-les-Nonains",
    "code": "60054",
    "epci_code": "246000582",
    "departement_code": "60",
    "region_code": "32",
    "postal_code": "60390"
  },
  {
    "name": "Beaurains-lès-Noyon",
    "code": "60055",
    "epci_code": "246000756",
    "departement_code": "60",
    "region_code": "32",
    "postal_code": "60400"
  },
  {
    "name": "Beaurepaire",
    "code": "60056",
    "epci_code": "246000921",
    "departement_code": "60",
    "region_code": "32",
    "postal_code": "60700"
  },
  {
    "name": "Beauvais",
    "code": "60057",
    "epci_code": "200067999",
    "departement_code": "60",
    "region_code": "32",
    "postal_code": "60000"
  },
  {
    "name": "Beauvoir",
    "code": "60058",
    "epci_code": "200068005",
    "departement_code": "60",
    "region_code": "32",
    "postal_code": "60120"
  },
  {
    "name": "Béhéricourt",
    "code": "60059",
    "epci_code": "246000756",
    "departement_code": "60",
    "region_code": "32",
    "postal_code": "60400"
  },
  {
    "name": "Belle-Église",
    "code": "60060",
    "epci_code": "200067973",
    "departement_code": "60",
    "region_code": "32",
    "postal_code": "60540"
  },
  {
    "name": "Belloy",
    "code": "60061",
    "epci_code": "246000855",
    "departement_code": "60",
    "region_code": "32",
    "postal_code": "60490"
  },
  {
    "name": "Berlancourt",
    "code": "60062",
    "epci_code": "246000756",
    "departement_code": "60",
    "region_code": "32",
    "postal_code": "60640"
  },
  {
    "name": "Berneuil-en-Bray",
    "code": "60063",
    "epci_code": "200067999",
    "departement_code": "60",
    "region_code": "32",
    "postal_code": "60390"
  },
  {
    "name": "Berneuil-sur-Aisne",
    "code": "60064",
    "epci_code": "246000749",
    "departement_code": "60",
    "region_code": "32",
    "postal_code": "60350"
  },
  {
    "name": "Berthecourt",
    "code": "60065",
    "epci_code": "200067973",
    "departement_code": "60",
    "region_code": "32",
    "postal_code": "60370"
  },
  {
    "name": "Béthancourt-en-Valois",
    "code": "60066",
    "epci_code": "246000871",
    "departement_code": "60",
    "region_code": "32",
    "postal_code": "60129"
  },
  {
    "name": "Béthisy-Saint-Martin",
    "code": "60067",
    "epci_code": "200067965",
    "departement_code": "60",
    "region_code": "32",
    "postal_code": "60320"
  },
  {
    "name": "Béthisy-Saint-Pierre",
    "code": "60068",
    "epci_code": "200067965",
    "departement_code": "60",
    "region_code": "32",
    "postal_code": "60320"
  },
  {
    "name": "Betz",
    "code": "60069",
    "epci_code": "246000871",
    "departement_code": "60",
    "region_code": "32",
    "postal_code": "60620"
  },
  {
    "name": "Bienville",
    "code": "60070",
    "epci_code": "200067965",
    "departement_code": "60",
    "region_code": "32",
    "postal_code": "60280"
  },
  {
    "name": "Biermont",
    "code": "60071",
    "epci_code": "246000855",
    "departement_code": "60",
    "region_code": "32",
    "postal_code": "60490"
  },
  {
    "name": "Bitry",
    "code": "60072",
    "epci_code": "246000749",
    "departement_code": "60",
    "region_code": "32",
    "postal_code": "60350"
  },
  {
    "name": "Blacourt",
    "code": "60073",
    "epci_code": "246000913",
    "departement_code": "60",
    "region_code": "32",
    "postal_code": "60650"
  },
  {
    "name": "Blaincourt-lès-Précy",
    "code": "60074",
    "epci_code": "200067973",
    "departement_code": "60",
    "region_code": "32",
    "postal_code": "60460"
  },
  {
    "name": "Blancfossé",
    "code": "60075",
    "epci_code": "200068005",
    "departement_code": "60",
    "region_code": "32",
    "postal_code": "60120"
  },
  {
    "name": "Blargies",
    "code": "60076",
    "epci_code": "246000848",
    "departement_code": "60",
    "region_code": "32",
    "postal_code": "60220"
  },
  {
    "name": "Blicourt",
    "code": "60077",
    "epci_code": "246000848",
    "departement_code": "60",
    "region_code": "32",
    "postal_code": "60860"
  },
  {
    "name": "Blincourt",
    "code": "60078",
    "epci_code": "246000897",
    "departement_code": "60",
    "region_code": "32",
    "postal_code": "60190"
  },
  {
    "name": "Boissy-Fresnoy",
    "code": "60079",
    "epci_code": "246000871",
    "departement_code": "60",
    "region_code": "32",
    "postal_code": "60440"
  },
  {
    "name": "Bonlier",
    "code": "60081",
    "epci_code": "200067999",
    "departement_code": "60",
    "region_code": "32",
    "postal_code": "60510"
  },
  {
    "name": "Bonneuil-les-Eaux",
    "code": "60082",
    "epci_code": "200068005",
    "departement_code": "60",
    "region_code": "32",
    "postal_code": "60120"
  },
  {
    "name": "Bonneuil-en-Valois",
    "code": "60083",
    "epci_code": "246000871",
    "departement_code": "60",
    "region_code": "32",
    "postal_code": "60123"
  },
  {
    "name": "Bonnières",
    "code": "60084",
    "epci_code": "246000848",
    "departement_code": "60",
    "region_code": "32",
    "postal_code": "60112"
  },
  {
    "name": "Bonvillers",
    "code": "60085",
    "epci_code": "200068005",
    "departement_code": "60",
    "region_code": "32",
    "postal_code": "60120"
  },
  {
    "name": "Boran-sur-Oise",
    "code": "60086",
    "epci_code": "200067973",
    "departement_code": "60",
    "region_code": "32",
    "postal_code": "60820"
  },
  {
    "name": "Borest",
    "code": "60087",
    "epci_code": "200066975",
    "departement_code": "60",
    "region_code": "32",
    "postal_code": "60300"
  },
  {
    "name": "Bornel",
    "code": "60088",
    "epci_code": "246000582",
    "departement_code": "60",
    "region_code": "32",
    "postal_code": "60540"
  },
  {
    "name": "Boubiers",
    "code": "60089",
    "epci_code": "246000707",
    "departement_code": "60",
    "region_code": "32",
    "postal_code": "60240"
  },
  {
    "name": "Bouconvillers",
    "code": "60090",
    "epci_code": "246000707",
    "departement_code": "60",
    "region_code": "32",
    "postal_code": "60240"
  },
  {
    "name": "Bouillancy",
    "code": "60091",
    "epci_code": "246000871",
    "departement_code": "60",
    "region_code": "32",
    "postal_code": "60620"
  },
  {
    "name": "Boullarre",
    "code": "60092",
    "epci_code": "246000871",
    "departement_code": "60",
    "region_code": "32",
    "postal_code": "60620"
  },
  {
    "name": "Boulogne-la-Grasse",
    "code": "60093",
    "epci_code": "246000855",
    "departement_code": "60",
    "region_code": "32",
    "postal_code": "60490"
  },
  {
    "name": "Boursonne",
    "code": "60094",
    "epci_code": "246000871",
    "departement_code": "60",
    "region_code": "32",
    "postal_code": "60141"
  },
  {
    "name": "Boury-en-Vexin",
    "code": "60095",
    "epci_code": "246000707",
    "departement_code": "60",
    "region_code": "32",
    "postal_code": "60240"
  },
  {
    "name": "Boutencourt",
    "code": "60097",
    "epci_code": "246000707",
    "departement_code": "60",
    "region_code": "32",
    "postal_code": "60590"
  },
  {
    "name": "Bouvresse",
    "code": "60098",
    "epci_code": "246000848",
    "departement_code": "60",
    "region_code": "32",
    "postal_code": "60220"
  },
  {
    "name": "Braisnes-sur-Aronde",
    "code": "60099",
    "epci_code": "246000855",
    "departement_code": "60",
    "region_code": "32",
    "postal_code": "60113"
  },
  {
    "name": "Brasseuse",
    "code": "60100",
    "epci_code": "200066975",
    "departement_code": "60",
    "region_code": "32",
    "postal_code": "60810"
  },
  {
    "name": "Brégy",
    "code": "60101",
    "epci_code": "246000871",
    "departement_code": "60",
    "region_code": "32",
    "postal_code": "60440"
  },
  {
    "name": "Brenouille",
    "code": "60102",
    "epci_code": "246000921",
    "departement_code": "60",
    "region_code": "32",
    "postal_code": "60870"
  },
  {
    "name": "Bresles",
    "code": "60103",
    "epci_code": "200067999",
    "departement_code": "60",
    "region_code": "32",
    "postal_code": "60510"
  },
  {
    "name": "Breteuil",
    "code": "60104",
    "epci_code": "200068005",
    "departement_code": "60",
    "region_code": "32",
    "postal_code": "60120"
  },
  {
    "name": "Brétigny",
    "code": "60105",
    "epci_code": "246000756",
    "departement_code": "60",
    "region_code": "32",
    "postal_code": "60400"
  },
  {
    "name": "Breuil-le-Sec",
    "code": "60106",
    "epci_code": "246000376",
    "departement_code": "60",
    "region_code": "32",
    "postal_code": "60840"
  },
  {
    "name": "Breuil-le-Vert",
    "code": "60107",
    "epci_code": "246000376",
    "departement_code": "60",
    "region_code": "32",
    "postal_code": "60600"
  },
  {
    "name": "Briot",
    "code": "60108",
    "epci_code": "246000848",
    "departement_code": "60",
    "region_code": "32",
    "postal_code": "60210"
  },
  {
    "name": "Brombos",
    "code": "60109",
    "epci_code": "246000848",
    "departement_code": "60",
    "region_code": "32",
    "postal_code": "60210"
  },
  {
    "name": "Broquiers",
    "code": "60110",
    "epci_code": "246000848",
    "departement_code": "60",
    "region_code": "32",
    "postal_code": "60220"
  },
  {
    "name": "Broyes",
    "code": "60111",
    "epci_code": "200068005",
    "departement_code": "60",
    "region_code": "32",
    "postal_code": "60120"
  },
  {
    "name": "Brunvillers-la-Motte",
    "code": "60112",
    "epci_code": "246000566",
    "departement_code": "60",
    "region_code": "32",
    "postal_code": "60130"
  },
  {
    "name": "Bucamps",
    "code": "60113",
    "epci_code": "200068005",
    "departement_code": "60",
    "region_code": "32",
    "postal_code": "60480"
  },
  {
    "name": "Buicourt",
    "code": "60114",
    "epci_code": "246000848",
    "departement_code": "60",
    "region_code": "32",
    "postal_code": "60380"
  },
  {
    "name": "Bulles",
    "code": "60115",
    "epci_code": "246000566",
    "departement_code": "60",
    "region_code": "32",
    "postal_code": "60130"
  },
  {
    "name": "Bury",
    "code": "60116",
    "epci_code": "246000376",
    "departement_code": "60",
    "region_code": "32",
    "postal_code": "60250"
  },
  {
    "name": "Bussy",
    "code": "60117",
    "epci_code": "246000756",
    "departement_code": "60",
    "region_code": "32",
    "postal_code": "60400"
  },
  {
    "name": "Caisnes",
    "code": "60118",
    "epci_code": "246000756",
    "departement_code": "60",
    "region_code": "32",
    "postal_code": "60400"
  },
  {
    "name": "Cambronne-lès-Ribécourt",
    "code": "60119",
    "epci_code": "246000772",
    "departement_code": "60",
    "region_code": "32",
    "postal_code": "60170"
  },
  {
    "name": "Cambronne-lès-Clermont",
    "code": "60120",
    "epci_code": "246000376",
    "departement_code": "60",
    "region_code": "32",
    "postal_code": "60290"
  },
  {
    "name": "Campagne",
    "code": "60121",
    "epci_code": "246000756",
    "departement_code": "60",
    "region_code": "32",
    "postal_code": "60640"
  },
  {
    "name": "Campeaux",
    "code": "60122",
    "epci_code": "246000848",
    "departement_code": "60",
    "region_code": "32",
    "postal_code": "60220"
  },
  {
    "name": "Campremy",
    "code": "60123",
    "epci_code": "200068005",
    "departement_code": "60",
    "region_code": "32",
    "postal_code": "60480"
  },
  {
    "name": "Candor",
    "code": "60124",
    "epci_code": "246000855",
    "departement_code": "60",
    "region_code": "32",
    "postal_code": "60310"
  },
  {
    "name": "Canly",
    "code": "60125",
    "epci_code": "246000897",
    "departement_code": "60",
    "region_code": "32",
    "postal_code": "60680"
  },
  {
    "name": "Cannectancourt",
    "code": "60126",
    "epci_code": "246000855",
    "departement_code": "60",
    "region_code": "32",
    "postal_code": "60310"
  },
  {
    "name": "Canny-sur-Matz",
    "code": "60127",
    "epci_code": "246000855",
    "departement_code": "60",
    "region_code": "32",
    "postal_code": "60310"
  },
  {
    "name": "Canny-sur-Thérain",
    "code": "60128",
    "epci_code": "246000848",
    "departement_code": "60",
    "region_code": "32",
    "postal_code": "60220"
  },
  {
    "name": "Carlepont",
    "code": "60129",
    "epci_code": "246000756",
    "departement_code": "60",
    "region_code": "32",
    "postal_code": "60170"
  },
  {
    "name": "Catenoy",
    "code": "60130",
    "epci_code": "246000376",
    "departement_code": "60",
    "region_code": "32",
    "postal_code": "60840"
  },
  {
    "name": "Catheux",
    "code": "60131",
    "epci_code": "200068005",
    "departement_code": "60",
    "region_code": "32",
    "postal_code": "60360"
  },
  {
    "name": "Catigny",
    "code": "60132",
    "epci_code": "246000756",
    "departement_code": "60",
    "region_code": "32",
    "postal_code": "60640"
  },
  {
    "name": "Catillon-Fumechon",
    "code": "60133",
    "epci_code": "246000566",
    "departement_code": "60",
    "region_code": "32",
    "postal_code": "60130"
  },
  {
    "name": "Cauffry",
    "code": "60134",
    "epci_code": "246000129",
    "departement_code": "60",
    "region_code": "32",
    "postal_code": "60290"
  },
  {
    "name": "Cauvigny",
    "code": "60135",
    "epci_code": "200067973",
    "departement_code": "60",
    "region_code": "32",
    "postal_code": "60730"
  },
  {
    "name": "Cempuis",
    "code": "60136",
    "epci_code": "246000848",
    "departement_code": "60",
    "region_code": "32",
    "postal_code": "60210"
  },
  {
    "name": "Cernoy",
    "code": "60137",
    "epci_code": "246000566",
    "departement_code": "60",
    "region_code": "32",
    "postal_code": "60190"
  },
  {
    "name": "Chamant",
    "code": "60138",
    "epci_code": "200066975",
    "departement_code": "60",
    "region_code": "32",
    "postal_code": "60300"
  },
  {
    "name": "Chambly",
    "code": "60139",
    "epci_code": "200067973",
    "departement_code": "60",
    "region_code": "32",
    "postal_code": "60230"
  },
  {
    "name": "Chambors",
    "code": "60140",
    "epci_code": "246000707",
    "departement_code": "60",
    "region_code": "32",
    "postal_code": "60240"
  },
  {
    "name": "Chantilly",
    "code": "60141",
    "epci_code": "246000764",
    "departement_code": "60",
    "region_code": "32",
    "postal_code": "60500"
  },
  {
    "name": "La Chapelle-en-Serval",
    "code": "60142",
    "epci_code": "246000764",
    "departement_code": "60",
    "region_code": "32",
    "postal_code": "60520"
  },
  {
    "name": "Chaumont-en-Vexin",
    "code": "60143",
    "epci_code": "246000707",
    "departement_code": "60",
    "region_code": "32",
    "postal_code": "60240"
  },
  {
    "name": "Chavençon",
    "code": "60144",
    "epci_code": "246000582",
    "departement_code": "60",
    "region_code": "32",
    "postal_code": "60240"
  },
  {
    "name": "Chelles",
    "code": "60145",
    "epci_code": "246000749",
    "departement_code": "60",
    "region_code": "32",
    "postal_code": "60350"
  },
  {
    "name": "Chepoix",
    "code": "60146",
    "epci_code": "200068005",
    "departement_code": "60",
    "region_code": "32",
    "postal_code": "60120"
  },
  {
    "name": "Chevincourt",
    "code": "60147",
    "epci_code": "246000772",
    "departement_code": "60",
    "region_code": "32",
    "postal_code": "60150"
  },
  {
    "name": "Chèvreville",
    "code": "60148",
    "epci_code": "246000871",
    "departement_code": "60",
    "region_code": "32",
    "postal_code": "60440"
  },
  {
    "name": "Chevrières",
    "code": "60149",
    "epci_code": "246000897",
    "departement_code": "60",
    "region_code": "32",
    "postal_code": "60710"
  },
  {
    "name": "Chiry-Ourscamp",
    "code": "60150",
    "epci_code": "246000772",
    "departement_code": "60",
    "region_code": "32",
    "postal_code": "60138"
  },
  {
    "name": "Choisy-au-Bac",
    "code": "60151",
    "epci_code": "200067965",
    "departement_code": "60",
    "region_code": "32",
    "postal_code": "60750"
  },
  {
    "name": "Choisy-la-Victoire",
    "code": "60152",
    "epci_code": "246000897",
    "departement_code": "60",
    "region_code": "32",
    "postal_code": "60190"
  },
  {
    "name": "Choqueuse-les-Bénards",
    "code": "60153",
    "epci_code": "200068005",
    "departement_code": "60",
    "region_code": "32",
    "postal_code": "60360"
  },
  {
    "name": "Cinqueux",
    "code": "60154",
    "epci_code": "246000921",
    "departement_code": "60",
    "region_code": "32",
    "postal_code": "60940"
  },
  {
    "name": "Cires-lès-Mello",
    "code": "60155",
    "epci_code": "200067973",
    "departement_code": "60",
    "region_code": "32",
    "postal_code": "60660"
  },
  {
    "name": "Clairoix",
    "code": "60156",
    "epci_code": "200067965",
    "departement_code": "60",
    "region_code": "32",
    "postal_code": "60280"
  },
  {
    "name": "Clermont",
    "code": "60157",
    "epci_code": "246000376",
    "departement_code": "60",
    "region_code": "32",
    "postal_code": "60600"
  },
  {
    "name": "Coivrel",
    "code": "60158",
    "epci_code": "246000566",
    "departement_code": "60",
    "region_code": "32",
    "postal_code": "60420"
  },
  {
    "name": "Compiègne",
    "code": "60159",
    "epci_code": "200067965",
    "departement_code": "60",
    "region_code": "32",
    "postal_code": "60200"
  },
  {
    "name": "Conchy-les-Pots",
    "code": "60160",
    "epci_code": "246000855",
    "departement_code": "60",
    "region_code": "32",
    "postal_code": "60490"
  },
  {
    "name": "Conteville",
    "code": "60161",
    "epci_code": "200068005",
    "departement_code": "60",
    "region_code": "32",
    "postal_code": "60360"
  },
  {
    "name": "Corbeil-Cerf",
    "code": "60162",
    "epci_code": "246000582",
    "departement_code": "60",
    "region_code": "32",
    "postal_code": "60110"
  },
  {
    "name": "Cormeilles",
    "code": "60163",
    "epci_code": "200068005",
    "departement_code": "60",
    "region_code": "32",
    "postal_code": "60120"
  },
  {
    "name": "Le Coudray-Saint-Germer",
    "code": "60164",
    "epci_code": "246000913",
    "departement_code": "60",
    "region_code": "32",
    "postal_code": "60850"
  },
  {
    "name": "Le Coudray-sur-Thelle",
    "code": "60165",
    "epci_code": "200067973",
    "departement_code": "60",
    "region_code": "32",
    "postal_code": "60430"
  },
  {
    "name": "Coudun",
    "code": "60166",
    "epci_code": "246000855",
    "departement_code": "60",
    "region_code": "32",
    "postal_code": "60150"
  },
  {
    "name": "Couloisy",
    "code": "60167",
    "epci_code": "246000749",
    "departement_code": "60",
    "region_code": "32",
    "postal_code": "60350"
  },
  {
    "name": "Courcelles-Epayelles",
    "code": "60168",
    "epci_code": "246000566",
    "departement_code": "60",
    "region_code": "32",
    "postal_code": "60420"
  },
  {
    "name": "Courcelles-lès-Gisors",
    "code": "60169",
    "epci_code": "246000707",
    "departement_code": "60",
    "region_code": "32",
    "postal_code": "60240"
  },
  {
    "name": "Courteuil",
    "code": "60170",
    "epci_code": "200066975",
    "departement_code": "60",
    "region_code": "32",
    "postal_code": "60300"
  },
  {
    "name": "Courtieux",
    "code": "60171",
    "epci_code": "246000749",
    "departement_code": "60",
    "region_code": "32",
    "postal_code": "60350"
  },
  {
    "name": "Coye-la-Forêt",
    "code": "60172",
    "epci_code": "246000764",
    "departement_code": "60",
    "region_code": "32",
    "postal_code": "60580"
  },
  {
    "name": "Cramoisy",
    "code": "60173",
    "epci_code": "200068047",
    "departement_code": "60",
    "region_code": "32",
    "postal_code": "60660"
  },
  {
    "name": "Crapeaumesnil",
    "code": "60174",
    "epci_code": "246000855",
    "departement_code": "60",
    "region_code": "32",
    "postal_code": "60310"
  },
  {
    "name": "Creil",
    "code": "60175",
    "epci_code": "200068047",
    "departement_code": "60",
    "region_code": "32",
    "postal_code": "60100"
  },
  {
    "name": "Crépy-en-Valois",
    "code": "60176",
    "epci_code": "246000871",
    "departement_code": "60",
    "region_code": "32",
    "postal_code": "60800"
  },
  {
    "name": "Cressonsacq",
    "code": "60177",
    "epci_code": "246000566",
    "departement_code": "60",
    "region_code": "32",
    "postal_code": "60190"
  },
  {
    "name": "Crèvecœur-le-Grand",
    "code": "60178",
    "epci_code": "200067999",
    "departement_code": "60",
    "region_code": "32",
    "postal_code": "60360"
  },
  {
    "name": "Crèvecœur-le-Petit",
    "code": "60179",
    "epci_code": "246000566",
    "departement_code": "60",
    "region_code": "32",
    "postal_code": "60420"
  },
  {
    "name": "Crillon",
    "code": "60180",
    "epci_code": "246000848",
    "departement_code": "60",
    "region_code": "32",
    "postal_code": "60112"
  },
  {
    "name": "Crisolles",
    "code": "60181",
    "epci_code": "246000756",
    "departement_code": "60",
    "region_code": "32",
    "postal_code": "60400"
  },
  {
    "name": "Le Crocq",
    "code": "60182",
    "epci_code": "200068005",
    "departement_code": "60",
    "region_code": "32",
    "postal_code": "60120"
  },
  {
    "name": "Croissy-sur-Celle",
    "code": "60183",
    "epci_code": "200068005",
    "departement_code": "60",
    "region_code": "32",
    "postal_code": "60120"
  },
  {
    "name": "Croutoy",
    "code": "60184",
    "epci_code": "246000749",
    "departement_code": "60",
    "region_code": "32",
    "postal_code": "60350"
  },
  {
    "name": "Crouy-en-Thelle",
    "code": "60185",
    "epci_code": "200067973",
    "departement_code": "60",
    "region_code": "32",
    "postal_code": "60530"
  },
  {
    "name": "Cuignières",
    "code": "60186",
    "epci_code": "246000566",
    "departement_code": "60",
    "region_code": "32",
    "postal_code": "60130"
  },
  {
    "name": "Cuigy-en-Bray",
    "code": "60187",
    "epci_code": "246000913",
    "departement_code": "60",
    "region_code": "32",
    "postal_code": "60850"
  },
  {
    "name": "Cuise-la-Motte",
    "code": "60188",
    "epci_code": "246000749",
    "departement_code": "60",
    "region_code": "32",
    "postal_code": "60350"
  },
  {
    "name": "Cuts",
    "code": "60189",
    "epci_code": "246000756",
    "departement_code": "60",
    "region_code": "32",
    "postal_code": "60400"
  },
  {
    "name": "Cuvergnon",
    "code": "60190",
    "epci_code": "246000871",
    "departement_code": "60",
    "region_code": "32",
    "postal_code": "60620"
  },
  {
    "name": "Cuvilly",
    "code": "60191",
    "epci_code": "246000855",
    "departement_code": "60",
    "region_code": "32",
    "postal_code": "60490"
  },
  {
    "name": "Cuy",
    "code": "60192",
    "epci_code": "246000855",
    "departement_code": "60",
    "region_code": "32",
    "postal_code": "60310"
  },
  {
    "name": "Daméraucourt",
    "code": "60193",
    "epci_code": "246000848",
    "departement_code": "60",
    "region_code": "32",
    "postal_code": "60210"
  },
  {
    "name": "Dargies",
    "code": "60194",
    "epci_code": "246000848",
    "departement_code": "60",
    "region_code": "32",
    "postal_code": "60210"
  },
  {
    "name": "Delincourt",
    "code": "60195",
    "epci_code": "246000707",
    "departement_code": "60",
    "region_code": "32",
    "postal_code": "60240"
  },
  {
    "name": "La Drenne",
    "code": "60196",
    "epci_code": "246000582",
    "departement_code": "60",
    "region_code": "32",
    "postal_code": "60790"
  },
  {
    "name": "Dieudonné",
    "code": "60197",
    "epci_code": "200067973",
    "departement_code": "60",
    "region_code": "32",
    "postal_code": "60530"
  },
  {
    "name": "Dives",
    "code": "60198",
    "epci_code": "246000855",
    "departement_code": "60",
    "region_code": "32",
    "postal_code": "60310"
  },
  {
    "name": "Doméliers",
    "code": "60199",
    "epci_code": "200068005",
    "departement_code": "60",
    "region_code": "32",
    "postal_code": "60360"
  },
  {
    "name": "Domfront",
    "code": "60200",
    "epci_code": "246000566",
    "departement_code": "60",
    "region_code": "32",
    "postal_code": "60420"
  },
  {
    "name": "Dompierre",
    "code": "60201",
    "epci_code": "246000566",
    "departement_code": "60",
    "region_code": "32",
    "postal_code": "60420"
  },
  {
    "name": "Duvy",
    "code": "60203",
    "epci_code": "246000871",
    "departement_code": "60",
    "region_code": "32",
    "postal_code": "60800"
  },
  {
    "name": "Écuvilly",
    "code": "60204",
    "epci_code": "246000855",
    "departement_code": "60",
    "region_code": "32",
    "postal_code": "60310"
  },
  {
    "name": "Élencourt",
    "code": "60205",
    "epci_code": "246000848",
    "departement_code": "60",
    "region_code": "32",
    "postal_code": "60210"
  },
  {
    "name": "Élincourt-Sainte-Marguerite",
    "code": "60206",
    "epci_code": "246000855",
    "departement_code": "60",
    "region_code": "32",
    "postal_code": "60157"
  },
  {
    "name": "Éméville",
    "code": "60207",
    "epci_code": "246000871",
    "departement_code": "60",
    "region_code": "32",
    "postal_code": "60123"
  },
  {
    "name": "Énencourt-Léage",
    "code": "60208",
    "epci_code": "246000707",
    "departement_code": "60",
    "region_code": "32",
    "postal_code": "60590"
  },
  {
    "name": "La Corne-en-Vexin",
    "code": "60209",
    "epci_code": "246000707",
    "departement_code": "60",
    "region_code": "32",
    "postal_code": "60240"
  },
  {
    "name": "Épineuse",
    "code": "60210",
    "epci_code": "246000897",
    "departement_code": "60",
    "region_code": "32",
    "postal_code": "60190"
  },
  {
    "name": "Éragny-sur-Epte",
    "code": "60211",
    "epci_code": "246000707",
    "departement_code": "60",
    "region_code": "32",
    "postal_code": "60590"
  },
  {
    "name": "Ercuis",
    "code": "60212",
    "epci_code": "200067973",
    "departement_code": "60",
    "region_code": "32",
    "postal_code": "60530"
  },
  {
    "name": "Ermenonville",
    "code": "60213",
    "epci_code": "246000871",
    "departement_code": "60",
    "region_code": "32",
    "postal_code": "60950"
  },
  {
    "name": "Ernemont-Boutavent",
    "code": "60214",
    "epci_code": "246000848",
    "departement_code": "60",
    "region_code": "32",
    "postal_code": "60380"
  },
  {
    "name": "Erquery",
    "code": "60215",
    "epci_code": "246000376",
    "departement_code": "60",
    "region_code": "32",
    "postal_code": "60600"
  },
  {
    "name": "Erquinvillers",
    "code": "60216",
    "epci_code": "246000566",
    "departement_code": "60",
    "region_code": "32",
    "postal_code": "60130"
  },
  {
    "name": "Escames",
    "code": "60217",
    "epci_code": "246000848",
    "departement_code": "60",
    "region_code": "32",
    "postal_code": "60380"
  },
  {
    "name": "Esches",
    "code": "60218",
    "epci_code": "246000582",
    "departement_code": "60",
    "region_code": "32",
    "postal_code": "60110"
  },
  {
    "name": "Escles-Saint-Pierre",
    "code": "60219",
    "epci_code": "246000848",
    "departement_code": "60",
    "region_code": "32",
    "postal_code": "60220"
  },
  {
    "name": "Espaubourg",
    "code": "60220",
    "epci_code": "246000913",
    "departement_code": "60",
    "region_code": "32",
    "postal_code": "60650"
  },
  {
    "name": "Esquennoy",
    "code": "60221",
    "epci_code": "200068005",
    "departement_code": "60",
    "region_code": "32",
    "postal_code": "60120"
  },
  {
    "name": "Essuiles",
    "code": "60222",
    "epci_code": "246000566",
    "departement_code": "60",
    "region_code": "32",
    "postal_code": "60510"
  },
  {
    "name": "Estrées-Saint-Denis",
    "code": "60223",
    "epci_code": "246000897",
    "departement_code": "60",
    "region_code": "32",
    "postal_code": "60190"
  },
  {
    "name": "Étavigny",
    "code": "60224",
    "epci_code": "246000871",
    "departement_code": "60",
    "region_code": "32",
    "postal_code": "60620"
  },
  {
    "name": "Étouy",
    "code": "60225",
    "epci_code": "246000376",
    "departement_code": "60",
    "region_code": "32",
    "postal_code": "60600"
  },
  {
    "name": "Ève",
    "code": "60226",
    "epci_code": "246000871",
    "departement_code": "60",
    "region_code": "32",
    "postal_code": "60330"
  },
  {
    "name": "Évricourt",
    "code": "60227",
    "epci_code": "246000855",
    "departement_code": "60",
    "region_code": "32",
    "postal_code": "60310"
  },
  {
    "name": "Fay-les-Étangs",
    "code": "60228",
    "epci_code": "246000707",
    "departement_code": "60",
    "region_code": "32",
    "postal_code": "60240"
  },
  {
    "name": "Le Fayel",
    "code": "60229",
    "epci_code": "246000897",
    "departement_code": "60",
    "region_code": "32",
    "postal_code": "60680"
  },
  {
    "name": "Le Fay-Saint-Quentin",
    "code": "60230",
    "epci_code": "200067999",
    "departement_code": "60",
    "region_code": "32",
    "postal_code": "60510"
  },
  {
    "name": "Feigneux",
    "code": "60231",
    "epci_code": "246000871",
    "departement_code": "60",
    "region_code": "32",
    "postal_code": "60800"
  },
  {
    "name": "Ferrières",
    "code": "60232",
    "epci_code": "246000566",
    "departement_code": "60",
    "region_code": "32",
    "postal_code": "60420"
  },
  {
    "name": "Feuquières",
    "code": "60233",
    "epci_code": "246000848",
    "departement_code": "60",
    "region_code": "32",
    "postal_code": "60960"
  },
  {
    "name": "Fitz-James",
    "code": "60234",
    "epci_code": "246000376",
    "departement_code": "60",
    "region_code": "32",
    "postal_code": "60600"
  },
  {
    "name": "Flavacourt",
    "code": "60235",
    "epci_code": "246000913",
    "departement_code": "60",
    "region_code": "32",
    "postal_code": "60590"
  },
  {
    "name": "Flavy-le-Meldeux",
    "code": "60236",
    "epci_code": "246000756",
    "departement_code": "60",
    "region_code": "32",
    "postal_code": "60640"
  },
  {
    "name": "Fléchy",
    "code": "60237",
    "epci_code": "200068005",
    "departement_code": "60",
    "region_code": "32",
    "postal_code": "60120"
  },
  {
    "name": "Fleurines",
    "code": "60238",
    "epci_code": "200066975",
    "departement_code": "60",
    "region_code": "32",
    "postal_code": "60700"
  },
  {
    "name": "Fleury",
    "code": "60239",
    "epci_code": "246000707",
    "departement_code": "60",
    "region_code": "32",
    "postal_code": "60240"
  },
  {
    "name": "Fontaine-Bonneleau",
    "code": "60240",
    "epci_code": "200068005",
    "departement_code": "60",
    "region_code": "32",
    "postal_code": "60360"
  },
  {
    "name": "Fontaine-Chaalis",
    "code": "60241",
    "epci_code": "200066975",
    "departement_code": "60",
    "region_code": "32",
    "postal_code": "60300"
  },
  {
    "name": "Fontaine-Lavaganne",
    "code": "60242",
    "epci_code": "246000848",
    "departement_code": "60",
    "region_code": "32",
    "postal_code": "60690"
  },
  {
    "name": "Fontaine-Saint-Lucien",
    "code": "60243",
    "epci_code": "200067999",
    "departement_code": "60",
    "region_code": "32",
    "postal_code": "60480"
  },
  {
    "name": "Fontenay-Torcy",
    "code": "60244",
    "epci_code": "246000848",
    "departement_code": "60",
    "region_code": "32",
    "postal_code": "60380"
  },
  {
    "name": "Formerie",
    "code": "60245",
    "epci_code": "246000848",
    "departement_code": "60",
    "region_code": "32",
    "postal_code": "60220"
  },
  {
    "name": "Fouilleuse",
    "code": "60247",
    "epci_code": "246000376",
    "departement_code": "60",
    "region_code": "32",
    "postal_code": "60190"
  },
  {
    "name": "Fouilloy",
    "code": "60248",
    "epci_code": "246000848",
    "departement_code": "60",
    "region_code": "32",
    "postal_code": "60220"
  },
  {
    "name": "Foulangues",
    "code": "60249",
    "epci_code": "200067973",
    "departement_code": "60",
    "region_code": "32",
    "postal_code": "60250"
  },
  {
    "name": "Fouquenies",
    "code": "60250",
    "epci_code": "200067999",
    "departement_code": "60",
    "region_code": "32",
    "postal_code": "60000"
  },
  {
    "name": "Fouquerolles",
    "code": "60251",
    "epci_code": "200067999",
    "departement_code": "60",
    "region_code": "32",
    "postal_code": "60510"
  },
  {
    "name": "Fournival",
    "code": "60252",
    "epci_code": "246000566",
    "departement_code": "60",
    "region_code": "32",
    "postal_code": "60130"
  },
  {
    "name": "Francastel",
    "code": "60253",
    "epci_code": "200067999",
    "departement_code": "60",
    "region_code": "32",
    "postal_code": "60480"
  },
  {
    "name": "Francières",
    "code": "60254",
    "epci_code": "246000897",
    "departement_code": "60",
    "region_code": "32",
    "postal_code": "60190"
  },
  {
    "name": "Fréniches",
    "code": "60255",
    "epci_code": "246000756",
    "departement_code": "60",
    "region_code": "32",
    "postal_code": "60640"
  },
  {
    "name": "Montchevreuil",
    "code": "60256",
    "epci_code": "246000582",
    "departement_code": "60",
    "region_code": "32",
    "postal_code": "60240"
  },
  {
    "name": "Fresne-Léguillon",
    "code": "60257",
    "epci_code": "246000707",
    "departement_code": "60",
    "region_code": "32",
    "postal_code": "60240"
  },
  {
    "name": "Fresnières",
    "code": "60258",
    "epci_code": "246000855",
    "departement_code": "60",
    "region_code": "32",
    "postal_code": "60310"
  },
  {
    "name": "Fresnoy-en-Thelle",
    "code": "60259",
    "epci_code": "200067973",
    "departement_code": "60",
    "region_code": "32",
    "postal_code": "60530"
  },
  {
    "name": "Fresnoy-la-Rivière",
    "code": "60260",
    "epci_code": "246000871",
    "departement_code": "60",
    "region_code": "32",
    "postal_code": "60127"
  },
  {
    "name": "Fresnoy-le-Luat",
    "code": "60261",
    "epci_code": "246000871",
    "departement_code": "60",
    "region_code": "32",
    "postal_code": "60800"
  },
  {
    "name": "Le Frestoy-Vaux",
    "code": "60262",
    "epci_code": "246000566",
    "departement_code": "60",
    "region_code": "32",
    "postal_code": "60420"
  },
  {
    "name": "Frétoy-le-Château",
    "code": "60263",
    "epci_code": "246000756",
    "departement_code": "60",
    "region_code": "32",
    "postal_code": "60640"
  },
  {
    "name": "Frocourt",
    "code": "60264",
    "epci_code": "200067999",
    "departement_code": "60",
    "region_code": "32",
    "postal_code": "60000"
  },
  {
    "name": "Froissy",
    "code": "60265",
    "epci_code": "200068005",
    "departement_code": "60",
    "region_code": "32",
    "postal_code": "60480"
  },
  {
    "name": "Le Gallet",
    "code": "60267",
    "epci_code": "200068005",
    "departement_code": "60",
    "region_code": "32",
    "postal_code": "60360"
  },
  {
    "name": "Gannes",
    "code": "60268",
    "epci_code": "246000566",
    "departement_code": "60",
    "region_code": "32",
    "postal_code": "60120"
  },
  {
    "name": "Gaudechart",
    "code": "60269",
    "epci_code": "246000848",
    "departement_code": "60",
    "region_code": "32",
    "postal_code": "60210"
  },
  {
    "name": "Genvry",
    "code": "60270",
    "epci_code": "246000756",
    "departement_code": "60",
    "region_code": "32",
    "postal_code": "60400"
  },
  {
    "name": "Gerberoy",
    "code": "60271",
    "epci_code": "246000848",
    "departement_code": "60",
    "region_code": "32",
    "postal_code": "60380"
  },
  {
    "name": "Gilocourt",
    "code": "60272",
    "epci_code": "246000871",
    "departement_code": "60",
    "region_code": "32",
    "postal_code": "60129"
  },
  {
    "name": "Giraumont",
    "code": "60273",
    "epci_code": "246000855",
    "departement_code": "60",
    "region_code": "32",
    "postal_code": "60150"
  },
  {
    "name": "Glaignes",
    "code": "60274",
    "epci_code": "246000871",
    "departement_code": "60",
    "region_code": "32",
    "postal_code": "60129"
  },
  {
    "name": "Glatigny",
    "code": "60275",
    "epci_code": "246000848",
    "departement_code": "60",
    "region_code": "32",
    "postal_code": "60650"
  },
  {
    "name": "Godenvillers",
    "code": "60276",
    "epci_code": "246000566",
    "departement_code": "60",
    "region_code": "32",
    "postal_code": "60420"
  },
  {
    "name": "Goincourt",
    "code": "60277",
    "epci_code": "200067999",
    "departement_code": "60",
    "region_code": "32",
    "postal_code": "60000"
  },
  {
    "name": "Golancourt",
    "code": "60278",
    "epci_code": "246000756",
    "departement_code": "60",
    "region_code": "32",
    "postal_code": "60640"
  },
  {
    "name": "Gondreville",
    "code": "60279",
    "epci_code": "246000871",
    "departement_code": "60",
    "region_code": "32",
    "postal_code": "60117"
  },
  {
    "name": "Gourchelles",
    "code": "60280",
    "epci_code": "246000848",
    "departement_code": "60",
    "region_code": "32",
    "postal_code": "60220"
  },
  {
    "name": "Gournay-sur-Aronde",
    "code": "60281",
    "epci_code": "246000855",
    "departement_code": "60",
    "region_code": "32",
    "postal_code": "60190"
  },
  {
    "name": "Gouvieux",
    "code": "60282",
    "epci_code": "246000764",
    "departement_code": "60",
    "region_code": "32",
    "postal_code": "60270"
  },
  {
    "name": "Gouy-les-Groseillers",
    "code": "60283",
    "epci_code": "200068005",
    "departement_code": "60",
    "region_code": "32",
    "postal_code": "60120"
  },
  {
    "name": "Grandfresnoy",
    "code": "60284",
    "epci_code": "246000897",
    "departement_code": "60",
    "region_code": "32",
    "postal_code": "60680"
  },
  {
    "name": "Grandvillers-aux-Bois",
    "code": "60285",
    "epci_code": "246000566",
    "departement_code": "60",
    "region_code": "32",
    "postal_code": "60190"
  },
  {
    "name": "Grandvilliers",
    "code": "60286",
    "epci_code": "246000848",
    "departement_code": "60",
    "region_code": "32",
    "postal_code": "60210"
  },
  {
    "name": "Grandrû",
    "code": "60287",
    "epci_code": "246000756",
    "departement_code": "60",
    "region_code": "32",
    "postal_code": "60400"
  },
  {
    "name": "Grémévillers",
    "code": "60288",
    "epci_code": "246000848",
    "departement_code": "60",
    "region_code": "32",
    "postal_code": "60380"
  },
  {
    "name": "Grez",
    "code": "60289",
    "epci_code": "246000848",
    "departement_code": "60",
    "region_code": "32",
    "postal_code": "60210"
  },
  {
    "name": "Guignecourt",
    "code": "60290",
    "epci_code": "200067999",
    "departement_code": "60",
    "region_code": "32",
    "postal_code": "60480"
  },
  {
    "name": "Guiscard",
    "code": "60291",
    "epci_code": "246000756",
    "departement_code": "60",
    "region_code": "32",
    "postal_code": "60640"
  },
  {
    "name": "Gury",
    "code": "60292",
    "epci_code": "246000855",
    "departement_code": "60",
    "region_code": "32",
    "postal_code": "60310"
  },
  {
    "name": "Hadancourt-le-Haut-Clocher",
    "code": "60293",
    "epci_code": "246000707",
    "departement_code": "60",
    "region_code": "32",
    "postal_code": "60240"
  },
  {
    "name": "Hainvillers",
    "code": "60294",
    "epci_code": "246000855",
    "departement_code": "60",
    "region_code": "32",
    "postal_code": "60490"
  },
  {
    "name": "Halloy",
    "code": "60295",
    "epci_code": "246000848",
    "departement_code": "60",
    "region_code": "32",
    "postal_code": "60210"
  },
  {
    "name": "Hannaches",
    "code": "60296",
    "epci_code": "246000848",
    "departement_code": "60",
    "region_code": "32",
    "postal_code": "60650"
  },
  {
    "name": "Le Hamel",
    "code": "60297",
    "epci_code": "246000848",
    "departement_code": "60",
    "region_code": "32",
    "postal_code": "60210"
  },
  {
    "name": "Hanvoile",
    "code": "60298",
    "epci_code": "246000848",
    "departement_code": "60",
    "region_code": "32",
    "postal_code": "60650"
  },
  {
    "name": "Hardivillers",
    "code": "60299",
    "epci_code": "200068005",
    "departement_code": "60",
    "region_code": "32",
    "postal_code": "60120"
  },
  {
    "name": "Haucourt",
    "code": "60301",
    "epci_code": "246000848",
    "departement_code": "60",
    "region_code": "32",
    "postal_code": "60112"
  },
  {
    "name": "Haudivillers",
    "code": "60302",
    "epci_code": "200067999",
    "departement_code": "60",
    "region_code": "32",
    "postal_code": "60510"
  },
  {
    "name": "Hautbos",
    "code": "60303",
    "epci_code": "246000848",
    "departement_code": "60",
    "region_code": "32",
    "postal_code": "60210"
  },
  {
    "name": "Haute-Épine",
    "code": "60304",
    "epci_code": "246000848",
    "departement_code": "60",
    "region_code": "32",
    "postal_code": "60690"
  },
  {
    "name": "Hautefontaine",
    "code": "60305",
    "epci_code": "246000749",
    "departement_code": "60",
    "region_code": "32",
    "postal_code": "60350"
  },
  {
    "name": "Hécourt",
    "code": "60306",
    "epci_code": "246000848",
    "departement_code": "60",
    "region_code": "32",
    "postal_code": "60380"
  },
  {
    "name": "Heilles",
    "code": "60307",
    "epci_code": "200067973",
    "departement_code": "60",
    "region_code": "32",
    "postal_code": "60250"
  },
  {
    "name": "Hémévillers",
    "code": "60308",
    "epci_code": "246000897",
    "departement_code": "60",
    "region_code": "32",
    "postal_code": "60190"
  },
  {
    "name": "Hénonville",
    "code": "60309",
    "epci_code": "246000582",
    "departement_code": "60",
    "region_code": "32",
    "postal_code": "60119"
  },
  {
    "name": "Herchies",
    "code": "60310",
    "epci_code": "200067999",
    "departement_code": "60",
    "region_code": "32",
    "postal_code": "60112"
  },
  {
    "name": "La Hérelle",
    "code": "60311",
    "epci_code": "200068005",
    "departement_code": "60",
    "region_code": "32",
    "postal_code": "60120"
  },
  {
    "name": "Héricourt-sur-Thérain",
    "code": "60312",
    "epci_code": "246000848",
    "departement_code": "60",
    "region_code": "32",
    "postal_code": "60380"
  },
  {
    "name": "Hermes",
    "code": "60313",
    "epci_code": "200067999",
    "departement_code": "60",
    "region_code": "32",
    "postal_code": "60370"
  },
  {
    "name": "Hétomesnil",
    "code": "60314",
    "epci_code": "246000848",
    "departement_code": "60",
    "region_code": "32",
    "postal_code": "60360"
  },
  {
    "name": "Hodenc-en-Bray",
    "code": "60315",
    "epci_code": "246000913",
    "departement_code": "60",
    "region_code": "32",
    "postal_code": "60650"
  },
  {
    "name": "Hodenc-l’Évêque",
    "code": "60316",
    "epci_code": "200067973",
    "departement_code": "60",
    "region_code": "32",
    "postal_code": "60430"
  },
  {
    "name": "Hondainville",
    "code": "60317",
    "epci_code": "200067973",
    "departement_code": "60",
    "region_code": "32",
    "postal_code": "60250"
  },
  {
    "name": "Houdancourt",
    "code": "60318",
    "epci_code": "246000897",
    "departement_code": "60",
    "region_code": "32",
    "postal_code": "60710"
  },
  {
    "name": "La Houssoye",
    "code": "60319",
    "epci_code": "246000707",
    "departement_code": "60",
    "region_code": "32",
    "postal_code": "60390"
  },
  {
    "name": "Ivors",
    "code": "60320",
    "epci_code": "246000871",
    "departement_code": "60",
    "region_code": "32",
    "postal_code": "60141"
  },
  {
    "name": "Ivry-le-Temple",
    "code": "60321",
    "epci_code": "246000582",
    "departement_code": "60",
    "region_code": "32",
    "postal_code": "60173"
  },
  {
    "name": "Jaméricourt",
    "code": "60322",
    "epci_code": "246000707",
    "departement_code": "60",
    "region_code": "32",
    "postal_code": "60240"
  },
  {
    "name": "Janville",
    "code": "60323",
    "epci_code": "200067965",
    "departement_code": "60",
    "region_code": "32",
    "postal_code": "60150"
  },
  {
    "name": "Jaulzy",
    "code": "60324",
    "epci_code": "246000749",
    "departement_code": "60",
    "region_code": "32",
    "postal_code": "60350"
  },
  {
    "name": "Jaux",
    "code": "60325",
    "epci_code": "200067965",
    "departement_code": "60",
    "region_code": "32",
    "postal_code": "60880"
  },
  {
    "name": "Jonquières",
    "code": "60326",
    "epci_code": "200067965",
    "departement_code": "60",
    "region_code": "32",
    "postal_code": "60680"
  },
  {
    "name": "Jouy-sous-Thelle",
    "code": "60327",
    "epci_code": "246000707",
    "departement_code": "60",
    "region_code": "32",
    "postal_code": "60240"
  },
  {
    "name": "Juvignies",
    "code": "60328",
    "epci_code": "200067999",
    "departement_code": "60",
    "region_code": "32",
    "postal_code": "60112"
  },
  {
    "name": "Laberlière",
    "code": "60329",
    "epci_code": "246000855",
    "departement_code": "60",
    "region_code": "32",
    "postal_code": "60310"
  },
  {
    "name": "Laboissière-en-Thelle",
    "code": "60330",
    "epci_code": "246000582",
    "departement_code": "60",
    "region_code": "32",
    "postal_code": "60570"
  },
  {
    "name": "Labosse",
    "code": "60331",
    "epci_code": "246000913",
    "departement_code": "60",
    "region_code": "32",
    "postal_code": "60590"
  },
  {
    "name": "Labruyère",
    "code": "60332",
    "epci_code": "246000129",
    "departement_code": "60",
    "region_code": "32",
    "postal_code": "60140"
  },
  {
    "name": "Lachapelle-aux-Pots",
    "code": "60333",
    "epci_code": "246000913",
    "departement_code": "60",
    "region_code": "32",
    "postal_code": "60650"
  },
  {
    "name": "Lachapelle-Saint-Pierre",
    "code": "60334",
    "epci_code": "200067973",
    "departement_code": "60",
    "region_code": "32",
    "postal_code": "60730"
  },
  {
    "name": "Lachapelle-sous-Gerberoy",
    "code": "60335",
    "epci_code": "246000848",
    "departement_code": "60",
    "region_code": "32",
    "postal_code": "60380"
  },
  {
    "name": "Lachaussée-du-Bois-d’Écu",
    "code": "60336",
    "epci_code": "200067999",
    "departement_code": "60",
    "region_code": "32",
    "postal_code": "60480"
  },
  {
    "name": "Lachelle",
    "code": "60337",
    "epci_code": "200067965",
    "departement_code": "60",
    "region_code": "32",
    "postal_code": "60190"
  },
  {
    "name": "Lacroix-Saint-Ouen",
    "code": "60338",
    "epci_code": "200067965",
    "departement_code": "60",
    "region_code": "32",
    "postal_code": "60610"
  },
  {
    "name": "Lafraye",
    "code": "60339",
    "epci_code": "200067999",
    "departement_code": "60",
    "region_code": "32",
    "postal_code": "60510"
  },
  {
    "name": "Lagny",
    "code": "60340",
    "epci_code": "246000855",
    "departement_code": "60",
    "region_code": "32",
    "postal_code": "60310"
  },
  {
    "name": "Lagny-le-Sec",
    "code": "60341",
    "epci_code": "246000871",
    "departement_code": "60",
    "region_code": "32",
    "postal_code": "60330"
  },
  {
    "name": "Laigneville",
    "code": "60342",
    "epci_code": "246000129",
    "departement_code": "60",
    "region_code": "32",
    "postal_code": "60290"
  },
  {
    "name": "Lalande-en-Son",
    "code": "60343",
    "epci_code": "246000913",
    "departement_code": "60",
    "region_code": "32",
    "postal_code": "60590"
  },
  {
    "name": "Lalandelle",
    "code": "60344",
    "epci_code": "246000913",
    "departement_code": "60",
    "region_code": "32",
    "postal_code": "60850"
  },
  {
    "name": "Lamécourt",
    "code": "60345",
    "epci_code": "246000376",
    "departement_code": "60",
    "region_code": "32",
    "postal_code": "60600"
  },
  {
    "name": "Lamorlaye",
    "code": "60346",
    "epci_code": "246000764",
    "departement_code": "60",
    "region_code": "32",
    "postal_code": "60260"
  },
  {
    "name": "Lannoy-Cuillère",
    "code": "60347",
    "epci_code": "246000848",
    "departement_code": "60",
    "region_code": "32",
    "postal_code": "60220"
  },
  {
    "name": "Larbroye",
    "code": "60348",
    "epci_code": "246000756",
    "departement_code": "60",
    "region_code": "32",
    "postal_code": "60400"
  },
  {
    "name": "Lassigny",
    "code": "60350",
    "epci_code": "246000855",
    "departement_code": "60",
    "region_code": "32",
    "postal_code": "60310"
  },
  {
    "name": "Lataule",
    "code": "60351",
    "epci_code": "246000855",
    "departement_code": "60",
    "region_code": "32",
    "postal_code": "60490"
  },
  {
    "name": "Lattainville",
    "code": "60352",
    "epci_code": "246000707",
    "departement_code": "60",
    "region_code": "32",
    "postal_code": "60240"
  },
  {
    "name": "Lavacquerie",
    "code": "60353",
    "epci_code": "246000848",
    "departement_code": "60",
    "region_code": "32",
    "postal_code": "60120"
  },
  {
    "name": "Laverrière",
    "code": "60354",
    "epci_code": "246000848",
    "departement_code": "60",
    "region_code": "32",
    "postal_code": "60210"
  },
  {
    "name": "Laversines",
    "code": "60355",
    "epci_code": "200067999",
    "departement_code": "60",
    "region_code": "32",
    "postal_code": "60510"
  },
  {
    "name": "Lavilletertre",
    "code": "60356",
    "epci_code": "246000707",
    "departement_code": "60",
    "region_code": "32",
    "postal_code": "60240"
  },
  {
    "name": "Léglantiers",
    "code": "60357",
    "epci_code": "246000566",
    "departement_code": "60",
    "region_code": "32",
    "postal_code": "60420"
  },
  {
    "name": "Lévignen",
    "code": "60358",
    "epci_code": "246000871",
    "departement_code": "60",
    "region_code": "32",
    "postal_code": "60800"
  },
  {
    "name": "Lhéraule",
    "code": "60359",
    "epci_code": "246000913",
    "departement_code": "60",
    "region_code": "32",
    "postal_code": "60650"
  },
  {
    "name": "Liancourt",
    "code": "60360",
    "epci_code": "246000129",
    "departement_code": "60",
    "region_code": "32",
    "postal_code": "60140"
  },
  {
    "name": "Liancourt-Saint-Pierre",
    "code": "60361",
    "epci_code": "246000707",
    "departement_code": "60",
    "region_code": "32",
    "postal_code": "60240"
  },
  {
    "name": "Libermont",
    "code": "60362",
    "epci_code": "246000756",
    "departement_code": "60",
    "region_code": "32",
    "postal_code": "60640"
  },
  {
    "name": "Lierville",
    "code": "60363",
    "epci_code": "246000707",
    "departement_code": "60",
    "region_code": "32",
    "postal_code": "60240"
  },
  {
    "name": "Lieuvillers",
    "code": "60364",
    "epci_code": "246000566",
    "departement_code": "60",
    "region_code": "32",
    "postal_code": "60130"
  },
  {
    "name": "Lihus",
    "code": "60365",
    "epci_code": "246000848",
    "departement_code": "60",
    "region_code": "32",
    "postal_code": "60360"
  },
  {
    "name": "Litz",
    "code": "60366",
    "epci_code": "200067999",
    "departement_code": "60",
    "region_code": "32",
    "postal_code": "60510"
  },
  {
    "name": "Loconville",
    "code": "60367",
    "epci_code": "246000707",
    "departement_code": "60",
    "region_code": "32",
    "postal_code": "60240"
  },
  {
    "name": "Longueil-Annel",
    "code": "60368",
    "epci_code": "246000772",
    "departement_code": "60",
    "region_code": "32",
    "postal_code": "60150"
  },
  {
    "name": "Longueil-Sainte-Marie",
    "code": "60369",
    "epci_code": "246000897",
    "departement_code": "60",
    "region_code": "32",
    "postal_code": "60126"
  },
  {
    "name": "Lormaison",
    "code": "60370",
    "epci_code": "246000582",
    "departement_code": "60",
    "region_code": "32",
    "postal_code": "60110"
  },
  {
    "name": "Loueuse",
    "code": "60371",
    "epci_code": "246000848",
    "departement_code": "60",
    "region_code": "32",
    "postal_code": "60380"
  },
  {
    "name": "Luchy",
    "code": "60372",
    "epci_code": "200067999",
    "departement_code": "60",
    "region_code": "32",
    "postal_code": "60360"
  },
  {
    "name": "Machemont",
    "code": "60373",
    "epci_code": "246000772",
    "departement_code": "60",
    "region_code": "32",
    "postal_code": "60150"
  },
  {
    "name": "Maignelay-Montigny",
    "code": "60374",
    "epci_code": "246000566",
    "departement_code": "60",
    "region_code": "32",
    "postal_code": "60420"
  },
  {
    "name": "Maimbeville",
    "code": "60375",
    "epci_code": "246000376",
    "departement_code": "60",
    "region_code": "32",
    "postal_code": "60600"
  },
  {
    "name": "Maisoncelle-Saint-Pierre",
    "code": "60376",
    "epci_code": "200067999",
    "departement_code": "60",
    "region_code": "32",
    "postal_code": "60112"
  },
  {
    "name": "Maisoncelle-Tuilerie",
    "code": "60377",
    "epci_code": "200068005",
    "departement_code": "60",
    "region_code": "32",
    "postal_code": "60480"
  },
  {
    "name": "Marest-sur-Matz",
    "code": "60378",
    "epci_code": "246000772",
    "departement_code": "60",
    "region_code": "32",
    "postal_code": "60490"
  },
  {
    "name": "Mareuil-la-Motte",
    "code": "60379",
    "epci_code": "246000855",
    "departement_code": "60",
    "region_code": "32",
    "postal_code": "60490"
  },
  {
    "name": "Mareuil-sur-Ourcq",
    "code": "60380",
    "epci_code": "246000871",
    "departement_code": "60",
    "region_code": "32",
    "postal_code": "60890"
  },
  {
    "name": "Margny-aux-Cerises",
    "code": "60381",
    "epci_code": "246000855",
    "departement_code": "60",
    "region_code": "32",
    "postal_code": "60310"
  },
  {
    "name": "Margny-lès-Compiègne",
    "code": "60382",
    "epci_code": "200067965",
    "departement_code": "60",
    "region_code": "32",
    "postal_code": "60280"
  },
  {
    "name": "Margny-sur-Matz",
    "code": "60383",
    "epci_code": "246000855",
    "departement_code": "60",
    "region_code": "32",
    "postal_code": "60490"
  },
  {
    "name": "Marolles",
    "code": "60385",
    "epci_code": "246000871",
    "departement_code": "60",
    "region_code": "32",
    "postal_code": "60890"
  },
  {
    "name": "Marquéglise",
    "code": "60386",
    "epci_code": "246000855",
    "departement_code": "60",
    "region_code": "32",
    "postal_code": "60490"
  },
  {
    "name": "Marseille-en-Beauvaisis",
    "code": "60387",
    "epci_code": "246000848",
    "departement_code": "60",
    "region_code": "32",
    "postal_code": "60690"
  },
  {
    "name": "Martincourt",
    "code": "60388",
    "epci_code": "246000848",
    "departement_code": "60",
    "region_code": "32",
    "postal_code": "60112"
  },
  {
    "name": "Maucourt",
    "code": "60389",
    "epci_code": "246000756",
    "departement_code": "60",
    "region_code": "32",
    "postal_code": "60640"
  },
  {
    "name": "Maulers",
    "code": "60390",
    "epci_code": "200067999",
    "departement_code": "60",
    "region_code": "32",
    "postal_code": "60480"
  },
  {
    "name": "Maysel",
    "code": "60391",
    "epci_code": "200068047",
    "departement_code": "60",
    "region_code": "32",
    "postal_code": "60660"
  },
  {
    "name": "Mélicocq",
    "code": "60392",
    "epci_code": "246000772",
    "departement_code": "60",
    "region_code": "32",
    "postal_code": "60150"
  },
  {
    "name": "Mello",
    "code": "60393",
    "epci_code": "200067973",
    "departement_code": "60",
    "region_code": "32",
    "postal_code": "60660"
  },
  {
    "name": "Ménévillers",
    "code": "60394",
    "epci_code": "246000566",
    "departement_code": "60",
    "region_code": "32",
    "postal_code": "60420"
  },
  {
    "name": "Méru",
    "code": "60395",
    "epci_code": "246000582",
    "departement_code": "60",
    "region_code": "32",
    "postal_code": "60110"
  },
  {
    "name": "Méry-la-Bataille",
    "code": "60396",
    "epci_code": "246000566",
    "departement_code": "60",
    "region_code": "32",
    "postal_code": "60420"
  },
  {
    "name": "Le Mesnil-Conteville",
    "code": "60397",
    "epci_code": "246000848",
    "departement_code": "60",
    "region_code": "32",
    "postal_code": "60210"
  },
  {
    "name": "Le Mesnil-en-Thelle",
    "code": "60398",
    "epci_code": "200067973",
    "departement_code": "60",
    "region_code": "32",
    "postal_code": "60530"
  },
  {
    "name": "Le Mesnil-Saint-Firmin",
    "code": "60399",
    "epci_code": "200068005",
    "departement_code": "60",
    "region_code": "32",
    "postal_code": "60120"
  },
  {
    "name": "Le Mesnil-sur-Bulles",
    "code": "60400",
    "epci_code": "246000566",
    "departement_code": "60",
    "region_code": "32",
    "postal_code": "60130"
  },
  {
    "name": "Le Mesnil-Théribus",
    "code": "60401",
    "epci_code": "246000707",
    "departement_code": "60",
    "region_code": "32",
    "postal_code": "60240"
  },
  {
    "name": "Le Meux",
    "code": "60402",
    "epci_code": "200067965",
    "departement_code": "60",
    "region_code": "32",
    "postal_code": "60880"
  },
  {
    "name": "Milly-sur-Thérain",
    "code": "60403",
    "epci_code": "200067999",
    "departement_code": "60",
    "region_code": "32",
    "postal_code": "60112"
  },
  {
    "name": "Mogneville",
    "code": "60404",
    "epci_code": "246000129",
    "departement_code": "60",
    "region_code": "32",
    "postal_code": "60140"
  },
  {
    "name": "Moliens",
    "code": "60405",
    "epci_code": "246000848",
    "departement_code": "60",
    "region_code": "32",
    "postal_code": "60220"
  },
  {
    "name": "Monceaux",
    "code": "60406",
    "epci_code": "246000921",
    "departement_code": "60",
    "region_code": "32",
    "postal_code": "60940"
  },
  {
    "name": "Monceaux-l’Abbaye",
    "code": "60407",
    "epci_code": "246000848",
    "departement_code": "60",
    "region_code": "32",
    "postal_code": "60220"
  },
  {
    "name": "Monchy-Humières",
    "code": "60408",
    "epci_code": "246000855",
    "departement_code": "60",
    "region_code": "32",
    "postal_code": "60113"
  },
  {
    "name": "Monchy-Saint-Éloi",
    "code": "60409",
    "epci_code": "246000129",
    "departement_code": "60",
    "region_code": "32",
    "postal_code": "60290"
  },
  {
    "name": "Mondescourt",
    "code": "60410",
    "epci_code": "246000756",
    "departement_code": "60",
    "region_code": "32",
    "postal_code": "60400"
  },
  {
    "name": "Monneville",
    "code": "60411",
    "epci_code": "246000707",
    "departement_code": "60",
    "region_code": "32",
    "postal_code": "60240"
  },
  {
    "name": "Montagny-en-Vexin",
    "code": "60412",
    "epci_code": "246000707",
    "departement_code": "60",
    "region_code": "32",
    "postal_code": "60240"
  },
  {
    "name": "Montagny-Sainte-Félicité",
    "code": "60413",
    "epci_code": "246000871",
    "departement_code": "60",
    "region_code": "32",
    "postal_code": "60950"
  },
  {
    "name": "Montataire",
    "code": "60414",
    "epci_code": "200068047",
    "departement_code": "60",
    "region_code": "32",
    "postal_code": "60160"
  },
  {
    "name": "Montépilloy",
    "code": "60415",
    "epci_code": "200066975",
    "departement_code": "60",
    "region_code": "32",
    "postal_code": "60810"
  },
  {
    "name": "Montgérain",
    "code": "60416",
    "epci_code": "246000566",
    "departement_code": "60",
    "region_code": "32",
    "postal_code": "60420"
  },
  {
    "name": "Montiers",
    "code": "60418",
    "epci_code": "246000566",
    "departement_code": "60",
    "region_code": "32",
    "postal_code": "60190"
  },
  {
    "name": "Montjavoult",
    "code": "60420",
    "epci_code": "246000707",
    "departement_code": "60",
    "region_code": "32",
    "postal_code": "60240"
  },
  {
    "name": "Mont-l’Évêque",
    "code": "60421",
    "epci_code": "200066975",
    "departement_code": "60",
    "region_code": "32",
    "postal_code": "60300"
  },
  {
    "name": "Montlognon",
    "code": "60422",
    "epci_code": "200066975",
    "departement_code": "60",
    "region_code": "32",
    "postal_code": "60300"
  },
  {
    "name": "Montmacq",
    "code": "60423",
    "epci_code": "246000772",
    "departement_code": "60",
    "region_code": "32",
    "postal_code": "60150"
  },
  {
    "name": "Montmartin",
    "code": "60424",
    "epci_code": "246000897",
    "departement_code": "60",
    "region_code": "32",
    "postal_code": "60190"
  },
  {
    "name": "Montreuil-sur-Brêche",
    "code": "60425",
    "epci_code": "200068005",
    "departement_code": "60",
    "region_code": "32",
    "postal_code": "60480"
  },
  {
    "name": "Montreuil-sur-Thérain",
    "code": "60426",
    "epci_code": "200067973",
    "departement_code": "60",
    "region_code": "32",
    "postal_code": "60134"
  },
  {
    "name": "Monts",
    "code": "60427",
    "epci_code": "246000582",
    "departement_code": "60",
    "region_code": "32",
    "postal_code": "60119"
  },
  {
    "name": "Le Mont-Saint-Adrien",
    "code": "60428",
    "epci_code": "200067999",
    "departement_code": "60",
    "region_code": "32",
    "postal_code": "60650"
  },
  {
    "name": "Morangles",
    "code": "60429",
    "epci_code": "200067973",
    "departement_code": "60",
    "region_code": "32",
    "postal_code": "60530"
  },
  {
    "name": "Morienval",
    "code": "60430",
    "epci_code": "246000871",
    "departement_code": "60",
    "region_code": "32",
    "postal_code": "60127"
  },
  {
    "name": "Morlincourt",
    "code": "60431",
    "epci_code": "246000756",
    "departement_code": "60",
    "region_code": "32",
    "postal_code": "60400"
  },
  {
    "name": "Mortefontaine",
    "code": "60432",
    "epci_code": "246000764",
    "departement_code": "60",
    "region_code": "32",
    "postal_code": "60128"
  },
  {
    "name": "Mortefontaine-en-Thelle",
    "code": "60433",
    "epci_code": "200067973",
    "departement_code": "60",
    "region_code": "32",
    "postal_code": "60570"
  },
  {
    "name": "Mortemer",
    "code": "60434",
    "epci_code": "246000855",
    "departement_code": "60",
    "region_code": "32",
    "postal_code": "60490"
  },
  {
    "name": "Morvillers",
    "code": "60435",
    "epci_code": "246000848",
    "departement_code": "60",
    "region_code": "32",
    "postal_code": "60380"
  },
  {
    "name": "Mory-Montcrux",
    "code": "60436",
    "epci_code": "200068005",
    "departement_code": "60",
    "region_code": "32",
    "postal_code": "60120"
  },
  {
    "name": "Mouchy-le-Châtel",
    "code": "60437",
    "epci_code": "200067973",
    "departement_code": "60",
    "region_code": "32",
    "postal_code": "60250"
  },
  {
    "name": "Moulin-sous-Touvent",
    "code": "60438",
    "epci_code": "246000749",
    "departement_code": "60",
    "region_code": "32",
    "postal_code": "60350"
  },
  {
    "name": "Mouy",
    "code": "60439",
    "epci_code": "246000376",
    "departement_code": "60",
    "region_code": "32",
    "postal_code": "60250"
  },
  {
    "name": "Moyenneville",
    "code": "60440",
    "epci_code": "246000566",
    "departement_code": "60",
    "region_code": "32",
    "postal_code": "60190"
  },
  {
    "name": "Moyvillers",
    "code": "60441",
    "epci_code": "246000897",
    "departement_code": "60",
    "region_code": "32",
    "postal_code": "60190"
  },
  {
    "name": "Muidorge",
    "code": "60442",
    "epci_code": "200067999",
    "departement_code": "60",
    "region_code": "32",
    "postal_code": "60480"
  },
  {
    "name": "Muirancourt",
    "code": "60443",
    "epci_code": "246000756",
    "departement_code": "60",
    "region_code": "32",
    "postal_code": "60640"
  },
  {
    "name": "Mureaumont",
    "code": "60444",
    "epci_code": "246000848",
    "departement_code": "60",
    "region_code": "32",
    "postal_code": "60220"
  },
  {
    "name": "Nampcel",
    "code": "60445",
    "epci_code": "246000749",
    "departement_code": "60",
    "region_code": "32",
    "postal_code": "60400"
  },
  {
    "name": "Nanteuil-le-Haudouin",
    "code": "60446",
    "epci_code": "246000871",
    "departement_code": "60",
    "region_code": "32",
    "postal_code": "60440"
  },
  {
    "name": "Néry",
    "code": "60447",
    "epci_code": "200067965",
    "departement_code": "60",
    "region_code": "32",
    "postal_code": "60320"
  },
  {
    "name": "Neufchelles",
    "code": "60448",
    "epci_code": "246000871",
    "departement_code": "60",
    "region_code": "32",
    "postal_code": "60890"
  },
  {
    "name": "Neufvy-sur-Aronde",
    "code": "60449",
    "epci_code": "246000855",
    "departement_code": "60",
    "region_code": "32",
    "postal_code": "60190"
  },
  {
    "name": "Neuilly-en-Thelle",
    "code": "60450",
    "epci_code": "200067973",
    "departement_code": "60",
    "region_code": "32",
    "postal_code": "60530"
  },
  {
    "name": "Neuilly-sous-Clermont",
    "code": "60451",
    "epci_code": "246000376",
    "departement_code": "60",
    "region_code": "32",
    "postal_code": "60290"
  },
  {
    "name": "Neuville-Bosc",
    "code": "60452",
    "epci_code": "246000582",
    "departement_code": "60",
    "region_code": "32",
    "postal_code": "60119"
  },
  {
    "name": "La Neuville-en-Hez",
    "code": "60454",
    "epci_code": "200067999",
    "departement_code": "60",
    "region_code": "32",
    "postal_code": "60510"
  },
  {
    "name": "La Neuville-Roy",
    "code": "60456",
    "epci_code": "246000566",
    "departement_code": "60",
    "region_code": "32",
    "postal_code": "60190"
  },
  {
    "name": "La Neuville-Saint-Pierre",
    "code": "60457",
    "epci_code": "200068005",
    "departement_code": "60",
    "region_code": "32",
    "postal_code": "60480"
  },
  {
    "name": "La Neuville-sur-Oudeuil",
    "code": "60458",
    "epci_code": "246000848",
    "departement_code": "60",
    "region_code": "32",
    "postal_code": "60690"
  },
  {
    "name": "La Neuville-sur-Ressons",
    "code": "60459",
    "epci_code": "246000855",
    "departement_code": "60",
    "region_code": "32",
    "postal_code": "60490"
  },
  {
    "name": "La Neuville-Vault",
    "code": "60460",
    "epci_code": "246000848",
    "departement_code": "60",
    "region_code": "32",
    "postal_code": "60112"
  },
  {
    "name": "Nivillers",
    "code": "60461",
    "epci_code": "200067999",
    "departement_code": "60",
    "region_code": "32",
    "postal_code": "60510"
  },
  {
    "name": "Noailles",
    "code": "60462",
    "epci_code": "200067973",
    "departement_code": "60",
    "region_code": "32",
    "postal_code": "60430"
  },
  {
    "name": "Nogent-sur-Oise",
    "code": "60463",
    "epci_code": "200068047",
    "departement_code": "60",
    "region_code": "32",
    "postal_code": "60180"
  },
  {
    "name": "Nointel",
    "code": "60464",
    "epci_code": "246000376",
    "departement_code": "60",
    "region_code": "32",
    "postal_code": "60840"
  },
  {
    "name": "Noirémont",
    "code": "60465",
    "epci_code": "200068005",
    "departement_code": "60",
    "region_code": "32",
    "postal_code": "60480"
  },
  {
    "name": "Noroy",
    "code": "60466",
    "epci_code": "246000566",
    "departement_code": "60",
    "region_code": "32",
    "postal_code": "60130"
  },
  {
    "name": "Nourard-le-Franc",
    "code": "60468",
    "epci_code": "246000566",
    "departement_code": "60",
    "region_code": "32",
    "postal_code": "60130"
  },
  {
    "name": "Novillers",
    "code": "60469",
    "epci_code": "200067973",
    "departement_code": "60",
    "region_code": "32",
    "postal_code": "60730"
  },
  {
    "name": "Noyers-Saint-Martin",
    "code": "60470",
    "epci_code": "200068005",
    "departement_code": "60",
    "region_code": "32",
    "postal_code": "60480"
  },
  {
    "name": "Noyon",
    "code": "60471",
    "epci_code": "246000756",
    "departement_code": "60",
    "region_code": "32",
    "postal_code": "60400"
  },
  {
    "name": "Offoy",
    "code": "60472",
    "epci_code": "246000848",
    "departement_code": "60",
    "region_code": "32",
    "postal_code": "60210"
  },
  {
    "name": "Ognes",
    "code": "60473",
    "epci_code": "246000871",
    "departement_code": "60",
    "region_code": "32",
    "postal_code": "60440"
  },
  {
    "name": "Ognolles",
    "code": "60474",
    "epci_code": "246000855",
    "departement_code": "60",
    "region_code": "32",
    "postal_code": "60310"
  },
  {
    "name": "Omécourt",
    "code": "60476",
    "epci_code": "246000848",
    "departement_code": "60",
    "region_code": "32",
    "postal_code": "60220"
  },
  {
    "name": "Ons-en-Bray",
    "code": "60477",
    "epci_code": "246000913",
    "departement_code": "60",
    "region_code": "32",
    "postal_code": "60650"
  },
  {
    "name": "Ormoy-le-Davien",
    "code": "60478",
    "epci_code": "246000871",
    "departement_code": "60",
    "region_code": "32",
    "postal_code": "60620"
  },
  {
    "name": "Ormoy-Villers",
    "code": "60479",
    "epci_code": "246000871",
    "departement_code": "60",
    "region_code": "32",
    "postal_code": "60800"
  },
  {
    "name": "Oroër",
    "code": "60480",
    "epci_code": "200068005",
    "departement_code": "60",
    "region_code": "32",
    "postal_code": "60510"
  },
  {
    "name": "Orrouy",
    "code": "60481",
    "epci_code": "246000871",
    "departement_code": "60",
    "region_code": "32",
    "postal_code": "60129"
  },
  {
    "name": "Orry-la-Ville",
    "code": "60482",
    "epci_code": "246000764",
    "departement_code": "60",
    "region_code": "32",
    "postal_code": "60560"
  },
  {
    "name": "Orvillers-Sorel",
    "code": "60483",
    "epci_code": "246000855",
    "departement_code": "60",
    "region_code": "32",
    "postal_code": "60490"
  },
  {
    "name": "Oudeuil",
    "code": "60484",
    "epci_code": "246000848",
    "departement_code": "60",
    "region_code": "32",
    "postal_code": "60860"
  },
  {
    "name": "Oursel-Maison",
    "code": "60485",
    "epci_code": "200068005",
    "departement_code": "60",
    "region_code": "32",
    "postal_code": "60480"
  },
  {
    "name": "Paillart",
    "code": "60486",
    "epci_code": "200068005",
    "departement_code": "60",
    "region_code": "32",
    "postal_code": "60120"
  },
  {
    "name": "Parnes",
    "code": "60487",
    "epci_code": "246000707",
    "departement_code": "60",
    "region_code": "32",
    "postal_code": "60240"
  },
  {
    "name": "Passel",
    "code": "60488",
    "epci_code": "246000756",
    "departement_code": "60",
    "region_code": "32",
    "postal_code": "60400"
  },
  {
    "name": "Péroy-les-Gombries",
    "code": "60489",
    "epci_code": "246000871",
    "departement_code": "60",
    "region_code": "32",
    "postal_code": "60440"
  },
  {
    "name": "Pierrefitte-en-Beauvaisis",
    "code": "60490",
    "epci_code": "200067999",
    "departement_code": "60",
    "region_code": "32",
    "postal_code": "60112"
  },
  {
    "name": "Pierrefonds",
    "code": "60491",
    "epci_code": "246000749",
    "departement_code": "60",
    "region_code": "32",
    "postal_code": "60350"
  },
  {
    "name": "Pimprez",
    "code": "60492",
    "epci_code": "246000772",
    "departement_code": "60",
    "region_code": "32",
    "postal_code": "60170"
  },
  {
    "name": "Pisseleu",
    "code": "60493",
    "epci_code": "246000848",
    "departement_code": "60",
    "region_code": "32",
    "postal_code": "60860"
  },
  {
    "name": "Plailly",
    "code": "60494",
    "epci_code": "246000764",
    "departement_code": "60",
    "region_code": "32",
    "postal_code": "60128"
  },
  {
    "name": "Plainval",
    "code": "60495",
    "epci_code": "246000566",
    "departement_code": "60",
    "region_code": "32",
    "postal_code": "60130"
  },
  {
    "name": "Plainville",
    "code": "60496",
    "epci_code": "200068005",
    "departement_code": "60",
    "region_code": "32",
    "postal_code": "60120"
  },
  {
    "name": "Le Plessier-sur-Bulles",
    "code": "60497",
    "epci_code": "246000566",
    "departement_code": "60",
    "region_code": "32",
    "postal_code": "60130"
  },
  {
    "name": "Le Plessier-sur-Saint-Just",
    "code": "60498",
    "epci_code": "246000566",
    "departement_code": "60",
    "region_code": "32",
    "postal_code": "60130"
  },
  {
    "name": "Plessis-de-Roye",
    "code": "60499",
    "epci_code": "246000855",
    "departement_code": "60",
    "region_code": "32",
    "postal_code": "60310"
  },
  {
    "name": "Le Plessis-Belleville",
    "code": "60500",
    "epci_code": "246000871",
    "departement_code": "60",
    "region_code": "32",
    "postal_code": "60330"
  },
  {
    "name": "Le Plessis-Brion",
    "code": "60501",
    "epci_code": "246000772",
    "departement_code": "60",
    "region_code": "32",
    "postal_code": "60150"
  },
  {
    "name": "Le Plessis-Patte-d’Oie",
    "code": "60502",
    "epci_code": "246000756",
    "departement_code": "60",
    "region_code": "32",
    "postal_code": "60640"
  },
  {
    "name": "Le Ployron",
    "code": "60503",
    "epci_code": "246000566",
    "departement_code": "60",
    "region_code": "32",
    "postal_code": "60420"
  },
  {
    "name": "Ponchon",
    "code": "60504",
    "epci_code": "200067973",
    "departement_code": "60",
    "region_code": "32",
    "postal_code": "60430"
  },
  {
    "name": "Pontarmé",
    "code": "60505",
    "epci_code": "200066975",
    "departement_code": "60",
    "region_code": "32",
    "postal_code": "60520"
  },
  {
    "name": "Pont-l’Évêque",
    "code": "60506",
    "epci_code": "246000756",
    "departement_code": "60",
    "region_code": "32",
    "postal_code": "60400"
  },
  {
    "name": "Pontoise-lès-Noyon",
    "code": "60507",
    "epci_code": "246000756",
    "departement_code": "60",
    "region_code": "32",
    "postal_code": "60400"
  },
  {
    "name": "Pontpoint",
    "code": "60508",
    "epci_code": "246000921",
    "departement_code": "60",
    "region_code": "32",
    "postal_code": "60700"
  },
  {
    "name": "Pont-Sainte-Maxence",
    "code": "60509",
    "epci_code": "246000921",
    "departement_code": "60",
    "region_code": "32",
    "postal_code": "60700"
  },
  {
    "name": "Porcheux",
    "code": "60510",
    "epci_code": "246000707",
    "departement_code": "60",
    "region_code": "32",
    "postal_code": "60390"
  },
  {
    "name": "Porquéricourt",
    "code": "60511",
    "epci_code": "246000756",
    "departement_code": "60",
    "region_code": "32",
    "postal_code": "60400"
  },
  {
    "name": "Pouilly",
    "code": "60512",
    "epci_code": "246000582",
    "departement_code": "60",
    "region_code": "32",
    "postal_code": "60790"
  },
  {
    "name": "Précy-sur-Oise",
    "code": "60513",
    "epci_code": "200067973",
    "departement_code": "60",
    "region_code": "32",
    "postal_code": "60460"
  },
  {
    "name": "Prévillers",
    "code": "60514",
    "epci_code": "246000848",
    "departement_code": "60",
    "region_code": "32",
    "postal_code": "60360"
  },
  {
    "name": "Pronleroy",
    "code": "60515",
    "epci_code": "246000566",
    "departement_code": "60",
    "region_code": "32",
    "postal_code": "60190"
  },
  {
    "name": "Puiseux-en-Bray",
    "code": "60516",
    "epci_code": "246000913",
    "departement_code": "60",
    "region_code": "32",
    "postal_code": "60850"
  },
  {
    "name": "Puiseux-le-Hauberger",
    "code": "60517",
    "epci_code": "200067973",
    "departement_code": "60",
    "region_code": "32",
    "postal_code": "60540"
  },
  {
    "name": "Puits-la-Vallée",
    "code": "60518",
    "epci_code": "200068005",
    "departement_code": "60",
    "region_code": "32",
    "postal_code": "60480"
  },
  {
    "name": "Quesmy",
    "code": "60519",
    "epci_code": "246000756",
    "departement_code": "60",
    "region_code": "32",
    "postal_code": "60640"
  },
  {
    "name": "Le Quesnel-Aubry",
    "code": "60520",
    "epci_code": "200068005",
    "departement_code": "60",
    "region_code": "32",
    "postal_code": "60480"
  },
  {
    "name": "Quincampoix-Fleuzy",
    "code": "60521",
    "epci_code": "246000848",
    "departement_code": "60",
    "region_code": "32",
    "postal_code": "60220"
  },
  {
    "name": "Quinquempoix",
    "code": "60522",
    "epci_code": "246000566",
    "departement_code": "60",
    "region_code": "32",
    "postal_code": "60130"
  },
  {
    "name": "Rainvillers",
    "code": "60523",
    "epci_code": "200067999",
    "departement_code": "60",
    "region_code": "32",
    "postal_code": "60155"
  },
  {
    "name": "Rantigny",
    "code": "60524",
    "epci_code": "246000129",
    "departement_code": "60",
    "region_code": "32",
    "postal_code": "60290"
  },
  {
    "name": "Raray",
    "code": "60525",
    "epci_code": "200066975",
    "departement_code": "60",
    "region_code": "32",
    "postal_code": "60810"
  },
  {
    "name": "Ravenel",
    "code": "60526",
    "epci_code": "246000566",
    "departement_code": "60",
    "region_code": "32",
    "postal_code": "60130"
  },
  {
    "name": "Réez-Fosse-Martin",
    "code": "60527",
    "epci_code": "246000871",
    "departement_code": "60",
    "region_code": "32",
    "postal_code": "60620"
  },
  {
    "name": "Reilly",
    "code": "60528",
    "epci_code": "246000707",
    "departement_code": "60",
    "region_code": "32",
    "postal_code": "60240"
  },
  {
    "name": "Rémécourt",
    "code": "60529",
    "epci_code": "246000376",
    "departement_code": "60",
    "region_code": "32",
    "postal_code": "60600"
  },
  {
    "name": "Rémérangles",
    "code": "60530",
    "epci_code": "200067999",
    "departement_code": "60",
    "region_code": "32",
    "postal_code": "60510"
  },
  {
    "name": "Remy",
    "code": "60531",
    "epci_code": "246000897",
    "departement_code": "60",
    "region_code": "32",
    "postal_code": "60190"
  },
  {
    "name": "Ressons-sur-Matz",
    "code": "60533",
    "epci_code": "246000855",
    "departement_code": "60",
    "region_code": "32",
    "postal_code": "60490"
  },
  {
    "name": "Rethondes",
    "code": "60534",
    "epci_code": "246000749",
    "departement_code": "60",
    "region_code": "32",
    "postal_code": "60153"
  },
  {
    "name": "Reuil-sur-Brêche",
    "code": "60535",
    "epci_code": "200068005",
    "departement_code": "60",
    "region_code": "32",
    "postal_code": "60480"
  },
  {
    "name": "Rhuis",
    "code": "60536",
    "epci_code": "246000921",
    "departement_code": "60",
    "region_code": "32",
    "postal_code": "60410"
  },
  {
    "name": "Ribécourt-Dreslincourt",
    "code": "60537",
    "epci_code": "246000772",
    "departement_code": "60",
    "region_code": "32",
    "postal_code": "60170"
  },
  {
    "name": "Ricquebourg",
    "code": "60538",
    "epci_code": "246000855",
    "departement_code": "60",
    "region_code": "32",
    "postal_code": "60490"
  },
  {
    "name": "Rieux",
    "code": "60539",
    "epci_code": "246000921",
    "departement_code": "60",
    "region_code": "32",
    "postal_code": "60870"
  },
  {
    "name": "Rivecourt",
    "code": "60540",
    "epci_code": "246000897",
    "departement_code": "60",
    "region_code": "32",
    "postal_code": "60126"
  },
  {
    "name": "Roberval",
    "code": "60541",
    "epci_code": "246000921",
    "departement_code": "60",
    "region_code": "32",
    "postal_code": "60410"
  },
  {
    "name": "Rochy-Condé",
    "code": "60542",
    "epci_code": "200067999",
    "departement_code": "60",
    "region_code": "32",
    "postal_code": "60510"
  },
  {
    "name": "Rocquemont",
    "code": "60543",
    "epci_code": "246000871",
    "departement_code": "60",
    "region_code": "32",
    "postal_code": "60800"
  },
  {
    "name": "Rocquencourt",
    "code": "60544",
    "epci_code": "200068005",
    "departement_code": "60",
    "region_code": "32",
    "postal_code": "60120"
  },
  {
    "name": "Romescamps",
    "code": "60545",
    "epci_code": "246000848",
    "departement_code": "60",
    "region_code": "32",
    "postal_code": "60220"
  },
  {
    "name": "Rosières",
    "code": "60546",
    "epci_code": "246000871",
    "departement_code": "60",
    "region_code": "32",
    "postal_code": "60440"
  },
  {
    "name": "Rosoy",
    "code": "60547",
    "epci_code": "246000129",
    "departement_code": "60",
    "region_code": "32",
    "postal_code": "60140"
  },
  {
    "name": "Rosoy-en-Multien",
    "code": "60548",
    "epci_code": "246000871",
    "departement_code": "60",
    "region_code": "32",
    "postal_code": "60620"
  },
  {
    "name": "Rotangy",
    "code": "60549",
    "epci_code": "200067999",
    "departement_code": "60",
    "region_code": "32",
    "postal_code": "60360"
  },
  {
    "name": "Rothois",
    "code": "60550",
    "epci_code": "246000848",
    "departement_code": "60",
    "region_code": "32",
    "postal_code": "60690"
  },
  {
    "name": "Rousseloy",
    "code": "60551",
    "epci_code": "200068047",
    "departement_code": "60",
    "region_code": "32",
    "postal_code": "60660"
  },
  {
    "name": "Rouville",
    "code": "60552",
    "epci_code": "246000871",
    "departement_code": "60",
    "region_code": "32",
    "postal_code": "60800"
  },
  {
    "name": "Rouvillers",
    "code": "60553",
    "epci_code": "246000566",
    "departement_code": "60",
    "region_code": "32",
    "postal_code": "60190"
  },
  {
    "name": "Rouvres-en-Multien",
    "code": "60554",
    "epci_code": "246000871",
    "departement_code": "60",
    "region_code": "32",
    "postal_code": "60620"
  },
  {
    "name": "Rouvroy-les-Merles",
    "code": "60555",
    "epci_code": "200068005",
    "departement_code": "60",
    "region_code": "32",
    "postal_code": "60120"
  },
  {
    "name": "Royaucourt",
    "code": "60556",
    "epci_code": "246000566",
    "departement_code": "60",
    "region_code": "32",
    "postal_code": "60420"
  },
  {
    "name": "Roy-Boissy",
    "code": "60557",
    "epci_code": "246000848",
    "departement_code": "60",
    "region_code": "32",
    "postal_code": "60690"
  },
  {
    "name": "Roye-sur-Matz",
    "code": "60558",
    "epci_code": "246000855",
    "departement_code": "60",
    "region_code": "32",
    "postal_code": "60310"
  },
  {
    "name": "La Rue-Saint-Pierre",
    "code": "60559",
    "epci_code": "200067999",
    "departement_code": "60",
    "region_code": "32",
    "postal_code": "60510"
  },
  {
    "name": "Rully",
    "code": "60560",
    "epci_code": "200066975",
    "departement_code": "60",
    "region_code": "32",
    "postal_code": "60810"
  },
  {
    "name": "Russy-Bémont",
    "code": "60561",
    "epci_code": "246000871",
    "departement_code": "60",
    "region_code": "32",
    "postal_code": "60117"
  },
  {
    "name": "Sacy-le-Grand",
    "code": "60562",
    "epci_code": "246000921",
    "departement_code": "60",
    "region_code": "32",
    "postal_code": "60700"
  },
  {
    "name": "Sacy-le-Petit",
    "code": "60563",
    "epci_code": "246000921",
    "departement_code": "60",
    "region_code": "32",
    "postal_code": "60190"
  },
  {
    "name": "Sains-Morainvillers",
    "code": "60564",
    "epci_code": "246000566",
    "departement_code": "60",
    "region_code": "32",
    "postal_code": "60420"
  },
  {
    "name": "Saint-André-Farivillers",
    "code": "60565",
    "epci_code": "200068005",
    "departement_code": "60",
    "region_code": "32",
    "postal_code": "60480"
  },
  {
    "name": "Saint-Arnoult",
    "code": "60566",
    "epci_code": "246000848",
    "departement_code": "60",
    "region_code": "32",
    "postal_code": "60220"
  },
  {
    "name": "Saint-Aubin-en-Bray",
    "code": "60567",
    "epci_code": "246000913",
    "departement_code": "60",
    "region_code": "32",
    "postal_code": "60650"
  },
  {
    "name": "Saint-Aubin-sous-Erquery",
    "code": "60568",
    "epci_code": "246000376",
    "departement_code": "60",
    "region_code": "32",
    "postal_code": "60600"
  },
  {
    "name": "Saint-Crépin-aux-Bois",
    "code": "60569",
    "epci_code": "246000749",
    "departement_code": "60",
    "region_code": "32",
    "postal_code": "60170"
  },
  {
    "name": "Saint-Crépin-Ibouvillers",
    "code": "60570",
    "epci_code": "246000582",
    "departement_code": "60",
    "region_code": "32",
    "postal_code": "60149"
  },
  {
    "name": "Saint-Crépin-Ibouvillers",
    "code": "60570",
    "epci_code": "246000582",
    "departement_code": "60",
    "region_code": "32",
    "postal_code": "60790"
  },
  {
    "name": "Saint-Deniscourt",
    "code": "60571",
    "epci_code": "246000848",
    "departement_code": "60",
    "region_code": "32",
    "postal_code": "60380"
  },
  {
    "name": "Saint-Étienne-Roilaye",
    "code": "60572",
    "epci_code": "246000749",
    "departement_code": "60",
    "region_code": "32",
    "postal_code": "60350"
  },
  {
    "name": "Sainte-Eusoye",
    "code": "60573",
    "epci_code": "200068005",
    "departement_code": "60",
    "region_code": "32",
    "postal_code": "60480"
  },
  {
    "name": "Saint-Félix",
    "code": "60574",
    "epci_code": "200067973",
    "departement_code": "60",
    "region_code": "32",
    "postal_code": "60370"
  },
  {
    "name": "Sainte-Geneviève",
    "code": "60575",
    "epci_code": "200067973",
    "departement_code": "60",
    "region_code": "32",
    "postal_code": "60730"
  },
  {
    "name": "Saint-Germain-la-Poterie",
    "code": "60576",
    "epci_code": "200067999",
    "departement_code": "60",
    "region_code": "32",
    "postal_code": "60650"
  },
  {
    "name": "Saint-Germer-de-Fly",
    "code": "60577",
    "epci_code": "246000913",
    "departement_code": "60",
    "region_code": "32",
    "postal_code": "60850"
  },
  {
    "name": "Saintines",
    "code": "60578",
    "epci_code": "200067965",
    "departement_code": "60",
    "region_code": "32",
    "postal_code": "60410"
  },
  {
    "name": "Saint-Jean-aux-Bois",
    "code": "60579",
    "epci_code": "200067965",
    "departement_code": "60",
    "region_code": "32",
    "postal_code": "60350"
  },
  {
    "name": "Saint-Just-en-Chaussée",
    "code": "60581",
    "epci_code": "246000566",
    "departement_code": "60",
    "region_code": "32",
    "postal_code": "60130"
  },
  {
    "name": "Saint-Léger-aux-Bois",
    "code": "60582",
    "epci_code": "246000772",
    "departement_code": "60",
    "region_code": "32",
    "postal_code": "60170"
  },
  {
    "name": "Saint-Léger-en-Bray",
    "code": "60583",
    "epci_code": "200067999",
    "departement_code": "60",
    "region_code": "32",
    "postal_code": "60155"
  },
  {
    "name": "Saint-Leu-d’Esserent",
    "code": "60584",
    "epci_code": "200068047",
    "departement_code": "60",
    "region_code": "32",
    "postal_code": "60340"
  },
  {
    "name": "Saint-Martin-aux-Bois",
    "code": "60585",
    "epci_code": "246000566",
    "departement_code": "60",
    "region_code": "32",
    "postal_code": "60420"
  },
  {
    "name": "Saint-Martin-le-Nœud",
    "code": "60586",
    "epci_code": "200067999",
    "departement_code": "60",
    "region_code": "32",
    "postal_code": "60000"
  },
  {
    "name": "Saint-Martin-Longueau",
    "code": "60587",
    "epci_code": "246000921",
    "departement_code": "60",
    "region_code": "32",
    "postal_code": "60700"
  },
  {
    "name": "Saint-Maur",
    "code": "60588",
    "epci_code": "246000848",
    "departement_code": "60",
    "region_code": "32",
    "postal_code": "60210"
  },
  {
    "name": "Saint-Maximin",
    "code": "60589",
    "epci_code": "200068047",
    "departement_code": "60",
    "region_code": "32",
    "postal_code": "60740"
  },
  {
    "name": "Saint-Omer-en-Chaussée",
    "code": "60590",
    "epci_code": "246000848",
    "departement_code": "60",
    "region_code": "32",
    "postal_code": "60860"
  },
  {
    "name": "Saint-Paul",
    "code": "60591",
    "epci_code": "200067999",
    "departement_code": "60",
    "region_code": "32",
    "postal_code": "60650"
  },
  {
    "name": "Saint-Pierre-es-Champs",
    "code": "60592",
    "epci_code": "246000913",
    "departement_code": "60",
    "region_code": "32",
    "postal_code": "60850"
  },
  {
    "name": "Saint-Pierre-lès-Bitry",
    "code": "60593",
    "epci_code": "246000749",
    "departement_code": "60",
    "region_code": "32",
    "postal_code": "60350"
  },
  {
    "name": "Saint-Quentin-des-Prés",
    "code": "60594",
    "epci_code": "246000848",
    "departement_code": "60",
    "region_code": "32",
    "postal_code": "60380"
  },
  {
    "name": "Saint-Remy-en-l’Eau",
    "code": "60595",
    "epci_code": "246000566",
    "departement_code": "60",
    "region_code": "32",
    "postal_code": "60130"
  },
  {
    "name": "Saint-Samson-la-Poterie",
    "code": "60596",
    "epci_code": "246000848",
    "departement_code": "60",
    "region_code": "32",
    "postal_code": "60220"
  },
  {
    "name": "Saint-Sauveur",
    "code": "60597",
    "epci_code": "200067965",
    "departement_code": "60",
    "region_code": "32",
    "postal_code": "60320"
  },
  {
    "name": "Saint-Sulpice",
    "code": "60598",
    "epci_code": "200067973",
    "departement_code": "60",
    "region_code": "32",
    "postal_code": "60430"
  },
  {
    "name": "Saint-Thibault",
    "code": "60599",
    "epci_code": "246000848",
    "departement_code": "60",
    "region_code": "32",
    "postal_code": "60210"
  },
  {
    "name": "Saint-Vaast-de-Longmont",
    "code": "60600",
    "epci_code": "200067965",
    "departement_code": "60",
    "region_code": "32",
    "postal_code": "60410"
  },
  {
    "name": "Saint-Vaast-lès-Mello",
    "code": "60601",
    "epci_code": "200068047",
    "departement_code": "60",
    "region_code": "32",
    "postal_code": "60660"
  },
  {
    "name": "Saint-Valery",
    "code": "60602",
    "epci_code": "246000848",
    "departement_code": "60",
    "region_code": "32",
    "postal_code": "60220"
  },
  {
    "name": "Salency",
    "code": "60603",
    "epci_code": "246000756",
    "departement_code": "60",
    "region_code": "32",
    "postal_code": "60400"
  },
  {
    "name": "Sarcus",
    "code": "60604",
    "epci_code": "246000848",
    "departement_code": "60",
    "region_code": "32",
    "postal_code": "60210"
  },
  {
    "name": "Sarnois",
    "code": "60605",
    "epci_code": "246000848",
    "departement_code": "60",
    "region_code": "32",
    "postal_code": "60210"
  },
  {
    "name": "Le Saulchoy",
    "code": "60608",
    "epci_code": "200067999",
    "departement_code": "60",
    "region_code": "32",
    "postal_code": "60360"
  },
  {
    "name": "Savignies",
    "code": "60609",
    "epci_code": "200067999",
    "departement_code": "60",
    "region_code": "32",
    "postal_code": "60650"
  },
  {
    "name": "Sempigny",
    "code": "60610",
    "epci_code": "246000756",
    "departement_code": "60",
    "region_code": "32",
    "postal_code": "60400"
  },
  {
    "name": "Senantes",
    "code": "60611",
    "epci_code": "246000848",
    "departement_code": "60",
    "region_code": "32",
    "postal_code": "60650"
  },
  {
    "name": "Senlis",
    "code": "60612",
    "epci_code": "200066975",
    "departement_code": "60",
    "region_code": "32",
    "postal_code": "60300"
  },
  {
    "name": "Senots",
    "code": "60613",
    "epci_code": "246000707",
    "departement_code": "60",
    "region_code": "32",
    "postal_code": "60240"
  },
  {
    "name": "Serans",
    "code": "60614",
    "epci_code": "246000707",
    "departement_code": "60",
    "region_code": "32",
    "postal_code": "60240"
  },
  {
    "name": "Sérévillers",
    "code": "60615",
    "epci_code": "200068005",
    "departement_code": "60",
    "region_code": "32",
    "postal_code": "60120"
  },
  {
    "name": "Sérifontaine",
    "code": "60616",
    "epci_code": "246000913",
    "departement_code": "60",
    "region_code": "32",
    "postal_code": "60590"
  },
  {
    "name": "Sermaize",
    "code": "60617",
    "epci_code": "246000756",
    "departement_code": "60",
    "region_code": "32",
    "postal_code": "60400"
  },
  {
    "name": "Séry-Magneval",
    "code": "60618",
    "epci_code": "246000871",
    "departement_code": "60",
    "region_code": "32",
    "postal_code": "60800"
  },
  {
    "name": "Silly-le-Long",
    "code": "60619",
    "epci_code": "246000871",
    "departement_code": "60",
    "region_code": "32",
    "postal_code": "60330"
  },
  {
    "name": "Silly-Tillard",
    "code": "60620",
    "epci_code": "200067973",
    "departement_code": "60",
    "region_code": "32",
    "postal_code": "60430"
  },
  {
    "name": "Solente",
    "code": "60621",
    "epci_code": "246000855",
    "departement_code": "60",
    "region_code": "32",
    "postal_code": "60310"
  },
  {
    "name": "Sommereux",
    "code": "60622",
    "epci_code": "246000848",
    "departement_code": "60",
    "region_code": "32",
    "postal_code": "60210"
  },
  {
    "name": "Songeons",
    "code": "60623",
    "epci_code": "246000848",
    "departement_code": "60",
    "region_code": "32",
    "postal_code": "60380"
  },
  {
    "name": "Sully",
    "code": "60624",
    "epci_code": "246000848",
    "departement_code": "60",
    "region_code": "32",
    "postal_code": "60380"
  },
  {
    "name": "Suzoy",
    "code": "60625",
    "epci_code": "246000756",
    "departement_code": "60",
    "region_code": "32",
    "postal_code": "60400"
  },
  {
    "name": "Talmontiers",
    "code": "60626",
    "epci_code": "246000913",
    "departement_code": "60",
    "region_code": "32",
    "postal_code": "60590"
  },
  {
    "name": "Tartigny",
    "code": "60627",
    "epci_code": "200068005",
    "departement_code": "60",
    "region_code": "32",
    "postal_code": "60120"
  },
  {
    "name": "Therdonne",
    "code": "60628",
    "epci_code": "200067999",
    "departement_code": "60",
    "region_code": "32",
    "postal_code": "60510"
  },
  {
    "name": "Thérines",
    "code": "60629",
    "epci_code": "246000848",
    "departement_code": "60",
    "region_code": "32",
    "postal_code": "60380"
  },
  {
    "name": "Thibivillers",
    "code": "60630",
    "epci_code": "246000707",
    "departement_code": "60",
    "region_code": "32",
    "postal_code": "60240"
  },
  {
    "name": "Thiers-sur-Thève",
    "code": "60631",
    "epci_code": "200066975",
    "departement_code": "60",
    "region_code": "32",
    "postal_code": "60520"
  },
  {
    "name": "Thiescourt",
    "code": "60632",
    "epci_code": "246000855",
    "departement_code": "60",
    "region_code": "32",
    "postal_code": "60310"
  },
  {
    "name": "Thieuloy-Saint-Antoine",
    "code": "60633",
    "epci_code": "246000848",
    "departement_code": "60",
    "region_code": "32",
    "postal_code": "60210"
  },
  {
    "name": "Thieux",
    "code": "60634",
    "epci_code": "200068005",
    "departement_code": "60",
    "region_code": "32",
    "postal_code": "60480"
  },
  {
    "name": "Thiverny",
    "code": "60635",
    "epci_code": "200068047",
    "departement_code": "60",
    "region_code": "32",
    "postal_code": "60160"
  },
  {
    "name": "Thourotte",
    "code": "60636",
    "epci_code": "246000772",
    "departement_code": "60",
    "region_code": "32",
    "postal_code": "60150"
  },
  {
    "name": "Thury-en-Valois",
    "code": "60637",
    "epci_code": "246000871",
    "departement_code": "60",
    "region_code": "32",
    "postal_code": "60890"
  },
  {
    "name": "Thury-sous-Clermont",
    "code": "60638",
    "epci_code": "200067973",
    "departement_code": "60",
    "region_code": "32",
    "postal_code": "60250"
  },
  {
    "name": "Tillé",
    "code": "60639",
    "epci_code": "200067999",
    "departement_code": "60",
    "region_code": "32",
    "postal_code": "60000"
  },
  {
    "name": "Tourly",
    "code": "60640",
    "epci_code": "246000707",
    "departement_code": "60",
    "region_code": "32",
    "postal_code": "60240"
  },
  {
    "name": "Tracy-le-Mont",
    "code": "60641",
    "epci_code": "246000749",
    "departement_code": "60",
    "region_code": "32",
    "postal_code": "60170"
  },
  {
    "name": "Tracy-le-Val",
    "code": "60642",
    "epci_code": "246000772",
    "departement_code": "60",
    "region_code": "32",
    "postal_code": "60170"
  },
  {
    "name": "Tricot",
    "code": "60643",
    "epci_code": "246000566",
    "departement_code": "60",
    "region_code": "32",
    "postal_code": "60420"
  },
  {
    "name": "Trie-Château",
    "code": "60644",
    "epci_code": "246000707",
    "departement_code": "60",
    "region_code": "32",
    "postal_code": "60590"
  },
  {
    "name": "Trie-la-Ville",
    "code": "60645",
    "epci_code": "246000707",
    "departement_code": "60",
    "region_code": "32",
    "postal_code": "60590"
  },
  {
    "name": "Troissereux",
    "code": "60646",
    "epci_code": "200067999",
    "departement_code": "60",
    "region_code": "32",
    "postal_code": "60112"
  },
  {
    "name": "Trosly-Breuil",
    "code": "60647",
    "epci_code": "246000749",
    "departement_code": "60",
    "region_code": "32",
    "postal_code": "60350"
  },
  {
    "name": "Troussencourt",
    "code": "60648",
    "epci_code": "200068005",
    "departement_code": "60",
    "region_code": "32",
    "postal_code": "60120"
  },
  {
    "name": "Trumilly",
    "code": "60650",
    "epci_code": "246000871",
    "departement_code": "60",
    "region_code": "32",
    "postal_code": "60800"
  },
  {
    "name": "Ully-Saint-Georges",
    "code": "60651",
    "epci_code": "200067973",
    "departement_code": "60",
    "region_code": "32",
    "postal_code": "60730"
  },
  {
    "name": "Valdampierre",
    "code": "60652",
    "epci_code": "246000582",
    "departement_code": "60",
    "region_code": "32",
    "postal_code": "60790"
  },
  {
    "name": "Valescourt",
    "code": "60653",
    "epci_code": "246000566",
    "departement_code": "60",
    "region_code": "32",
    "postal_code": "60130"
  },
  {
    "name": "Vandélicourt",
    "code": "60654",
    "epci_code": "246000772",
    "departement_code": "60",
    "region_code": "32",
    "postal_code": "60490"
  },
  {
    "name": "Varesnes",
    "code": "60655",
    "epci_code": "246000756",
    "departement_code": "60",
    "region_code": "32",
    "postal_code": "60400"
  },
  {
    "name": "Varinfroy",
    "code": "60656",
    "epci_code": "246000871",
    "departement_code": "60",
    "region_code": "32",
    "postal_code": "60890"
  },
  {
    "name": "Vauchelles",
    "code": "60657",
    "epci_code": "246000756",
    "departement_code": "60",
    "region_code": "32",
    "postal_code": "60400"
  },
  {
    "name": "Vauciennes",
    "code": "60658",
    "epci_code": "246000871",
    "departement_code": "60",
    "region_code": "32",
    "postal_code": "60117"
  },
  {
    "name": "Vaudancourt",
    "code": "60659",
    "epci_code": "246000707",
    "departement_code": "60",
    "region_code": "32",
    "postal_code": "60240"
  },
  {
    "name": "Le Vaumain",
    "code": "60660",
    "epci_code": "246000913",
    "departement_code": "60",
    "region_code": "32",
    "postal_code": "60590"
  },
  {
    "name": "Vaumoise",
    "code": "60661",
    "epci_code": "246000871",
    "departement_code": "60",
    "region_code": "32",
    "postal_code": "60117"
  },
  {
    "name": "Le Vauroux",
    "code": "60662",
    "epci_code": "246000913",
    "departement_code": "60",
    "region_code": "32",
    "postal_code": "60390"
  },
  {
    "name": "Velennes",
    "code": "60663",
    "epci_code": "200067999",
    "departement_code": "60",
    "region_code": "32",
    "postal_code": "60510"
  },
  {
    "name": "Vendeuil-Caply",
    "code": "60664",
    "epci_code": "200068005",
    "departement_code": "60",
    "region_code": "32",
    "postal_code": "60120"
  },
  {
    "name": "Venette",
    "code": "60665",
    "epci_code": "200067965",
    "departement_code": "60",
    "region_code": "32",
    "postal_code": "60280"
  },
  {
    "name": "Ver-sur-Launette",
    "code": "60666",
    "epci_code": "246000871",
    "departement_code": "60",
    "region_code": "32",
    "postal_code": "60950"
  },
  {
    "name": "Verberie",
    "code": "60667",
    "epci_code": "200067965",
    "departement_code": "60",
    "region_code": "32",
    "postal_code": "60410"
  },
  {
    "name": "Verderel-lès-Sauqueuse",
    "code": "60668",
    "epci_code": "200067999",
    "departement_code": "60",
    "region_code": "32",
    "postal_code": "60112"
  },
  {
    "name": "Verderonne",
    "code": "60669",
    "epci_code": "246000129",
    "departement_code": "60",
    "region_code": "32",
    "postal_code": "60140"
  },
  {
    "name": "Verneuil-en-Halatte",
    "code": "60670",
    "epci_code": "246000921",
    "departement_code": "60",
    "region_code": "32",
    "postal_code": "60550"
  },
  {
    "name": "Versigny",
    "code": "60671",
    "epci_code": "246000871",
    "departement_code": "60",
    "region_code": "32",
    "postal_code": "60440"
  },
  {
    "name": "Vez",
    "code": "60672",
    "epci_code": "246000871",
    "departement_code": "60",
    "region_code": "32",
    "postal_code": "60117"
  },
  {
    "name": "Viefvillers",
    "code": "60673",
    "epci_code": "200068005",
    "departement_code": "60",
    "region_code": "32",
    "postal_code": "60360"
  },
  {
    "name": "Vieux-Moulin",
    "code": "60674",
    "epci_code": "200067965",
    "departement_code": "60",
    "region_code": "32",
    "postal_code": "60350"
  },
  {
    "name": "Vignemont",
    "code": "60675",
    "epci_code": "246000855",
    "departement_code": "60",
    "region_code": "32",
    "postal_code": "60162"
  },
  {
    "name": "Ville",
    "code": "60676",
    "epci_code": "246000756",
    "departement_code": "60",
    "region_code": "32",
    "postal_code": "60400"
  },
  {
    "name": "Villembray",
    "code": "60677",
    "epci_code": "246000913",
    "departement_code": "60",
    "region_code": "32",
    "postal_code": "60650"
  },
  {
    "name": "Villeneuve-les-Sablons",
    "code": "60678",
    "epci_code": "246000582",
    "departement_code": "60",
    "region_code": "32",
    "postal_code": "60175"
  },
  {
    "name": "La Villeneuve-sous-Thury",
    "code": "60679",
    "epci_code": "246000871",
    "departement_code": "60",
    "region_code": "32",
    "postal_code": "60890"
  },
  {
    "name": "Villeneuve-sur-Verberie",
    "code": "60680",
    "epci_code": "246000921",
    "departement_code": "60",
    "region_code": "32",
    "postal_code": "60410"
  },
  {
    "name": "Villers-Saint-Barthélemy",
    "code": "60681",
    "epci_code": "246000913",
    "departement_code": "60",
    "region_code": "32",
    "postal_code": "60650"
  },
  {
    "name": "Villers-Saint-Frambourg-Ognon",
    "code": "60682",
    "epci_code": "200066975",
    "departement_code": "60",
    "region_code": "32",
    "postal_code": "60810"
  },
  {
    "name": "Villers-Saint-Genest",
    "code": "60683",
    "epci_code": "246000871",
    "departement_code": "60",
    "region_code": "32",
    "postal_code": "60620"
  },
  {
    "name": "Villers-Saint-Paul",
    "code": "60684",
    "epci_code": "200068047",
    "departement_code": "60",
    "region_code": "32",
    "postal_code": "60870"
  },
  {
    "name": "Villers-Saint-Sépulcre",
    "code": "60685",
    "epci_code": "200067973",
    "departement_code": "60",
    "region_code": "32",
    "postal_code": "60134"
  },
  {
    "name": "Villers-sous-Saint-Leu",
    "code": "60686",
    "epci_code": "200067973",
    "departement_code": "60",
    "region_code": "32",
    "postal_code": "60340"
  },
  {
    "name": "Villers-sur-Auchy",
    "code": "60687",
    "epci_code": "246000913",
    "departement_code": "60",
    "region_code": "32",
    "postal_code": "60650"
  },
  {
    "name": "Villers-sur-Bonnières",
    "code": "60688",
    "epci_code": "246000848",
    "departement_code": "60",
    "region_code": "32",
    "postal_code": "60860"
  },
  {
    "name": "Villers-sur-Coudun",
    "code": "60689",
    "epci_code": "246000855",
    "departement_code": "60",
    "region_code": "32",
    "postal_code": "60150"
  },
  {
    "name": "Villers-Vermont",
    "code": "60691",
    "epci_code": "246000848",
    "departement_code": "60",
    "region_code": "32",
    "postal_code": "60380"
  },
  {
    "name": "Villers-Vicomte",
    "code": "60692",
    "epci_code": "200068005",
    "departement_code": "60",
    "region_code": "32",
    "postal_code": "60120"
  },
  {
    "name": "Villeselve",
    "code": "60693",
    "epci_code": "246000756",
    "departement_code": "60",
    "region_code": "32",
    "postal_code": "60640"
  },
  {
    "name": "Les Hauts-Talican",
    "code": "60694",
    "epci_code": "246000582",
    "departement_code": "60",
    "region_code": "32",
    "postal_code": "60390"
  },
  {
    "name": "Vineuil-Saint-Firmin",
    "code": "60695",
    "epci_code": "246000764",
    "departement_code": "60",
    "region_code": "32",
    "postal_code": "60500"
  },
  {
    "name": "Vrocourt",
    "code": "60697",
    "epci_code": "246000848",
    "departement_code": "60",
    "region_code": "32",
    "postal_code": "60112"
  },
  {
    "name": "Wacquemoulin",
    "code": "60698",
    "epci_code": "246000566",
    "departement_code": "60",
    "region_code": "32",
    "postal_code": "60420"
  },
  {
    "name": "Wambez",
    "code": "60699",
    "epci_code": "246000848",
    "departement_code": "60",
    "region_code": "32",
    "postal_code": "60380"
  },
  {
    "name": "Warluis",
    "code": "60700",
    "epci_code": "200067999",
    "departement_code": "60",
    "region_code": "32",
    "postal_code": "60430"
  },
  {
    "name": "Wavignies",
    "code": "60701",
    "epci_code": "246000566",
    "departement_code": "60",
    "region_code": "32",
    "postal_code": "60130"
  },
  {
    "name": "Welles-Pérennes",
    "code": "60702",
    "epci_code": "246000566",
    "departement_code": "60",
    "region_code": "32",
    "postal_code": "60420"
  },
  {
    "name": "Aux Marais",
    "code": "60703",
    "epci_code": "200067999",
    "departement_code": "60",
    "region_code": "32",
    "postal_code": "60000"
  }
]