[
  {
    "name": "Agencourt",
    "code": "21001",
    "epci_code": "200070894",
    "departement_code": "21",
    "region_code": "27",
    "postal_code": "21700"
  },
  {
    "name": "Agey",
    "code": "21002",
    "epci_code": "200039055",
    "departement_code": "21",
    "region_code": "27",
    "postal_code": "21410"
  },
  {
    "name": "Ahuy",
    "code": "21003",
    "epci_code": "242100410",
    "departement_code": "21",
    "region_code": "27",
    "postal_code": "21121"
  },
  {
    "name": "Aignay-le-Duc",
    "code": "21004",
    "epci_code": "242101434",
    "departement_code": "21",
    "region_code": "27",
    "postal_code": "21510"
  },
  {
    "name": "Aiserey",
    "code": "21005",
    "epci_code": "200000925",
    "departement_code": "21",
    "region_code": "27",
    "postal_code": "21110"
  },
  {
    "name": "Aisey-sur-Seine",
    "code": "21006",
    "epci_code": "242101434",
    "departement_code": "21",
    "region_code": "27",
    "postal_code": "21400"
  },
  {
    "name": "Aisy-sous-Thil",
    "code": "21007",
    "epci_code": "200071017",
    "departement_code": "21",
    "region_code": "27",
    "postal_code": "21390"
  },
  {
    "name": "Alise-Sainte-Reine",
    "code": "21008",
    "epci_code": "242101459",
    "departement_code": "21",
    "region_code": "27",
    "postal_code": "21150"
  },
  {
    "name": "Allerey",
    "code": "21009",
    "epci_code": "200071173",
    "departement_code": "21",
    "region_code": "27",
    "postal_code": "21230"
  },
  {
    "name": "Aloxe-Corton",
    "code": "21010",
    "epci_code": "200006682",
    "departement_code": "21",
    "region_code": "27",
    "postal_code": "21420"
  },
  {
    "name": "Ampilly-les-Bordes",
    "code": "21011",
    "epci_code": "242101434",
    "departement_code": "21",
    "region_code": "27",
    "postal_code": "21450"
  },
  {
    "name": "Ampilly-le-Sec",
    "code": "21012",
    "epci_code": "242101434",
    "departement_code": "21",
    "region_code": "27",
    "postal_code": "21400"
  },
  {
    "name": "Ancey",
    "code": "21013",
    "epci_code": "200039055",
    "departement_code": "21",
    "region_code": "27",
    "postal_code": "21410"
  },
  {
    "name": "Antheuil",
    "code": "21014",
    "epci_code": "200071207",
    "departement_code": "21",
    "region_code": "27",
    "postal_code": "21360"
  },
  {
    "name": "Antigny-la-Ville",
    "code": "21015",
    "epci_code": "200071173",
    "departement_code": "21",
    "region_code": "27",
    "postal_code": "21230"
  },
  {
    "name": "Arceau",
    "code": "21016",
    "epci_code": "200072825",
    "departement_code": "21",
    "region_code": "27",
    "postal_code": "21310"
  },
  {
    "name": "Arcenant",
    "code": "21017",
    "epci_code": "200070894",
    "departement_code": "21",
    "region_code": "27",
    "postal_code": "21700"
  },
  {
    "name": "Arcey",
    "code": "21018",
    "epci_code": "200039055",
    "departement_code": "21",
    "region_code": "27",
    "postal_code": "21410"
  },
  {
    "name": "Arconcey",
    "code": "21020",
    "epci_code": "200071207",
    "departement_code": "21",
    "region_code": "27",
    "postal_code": "21320"
  },
  {
    "name": "Arc-sur-Tille",
    "code": "21021",
    "epci_code": "200069540",
    "departement_code": "21",
    "region_code": "27",
    "postal_code": "21560"
  },
  {
    "name": "Argilly",
    "code": "21022",
    "epci_code": "200070894",
    "departement_code": "21",
    "region_code": "27",
    "postal_code": "21700"
  },
  {
    "name": "Arnay-le-Duc",
    "code": "21023",
    "epci_code": "200071173",
    "departement_code": "21",
    "region_code": "27",
    "postal_code": "21230"
  },
  {
    "name": "Arnay-sous-Vitteaux",
    "code": "21024",
    "epci_code": "200071017",
    "departement_code": "21",
    "region_code": "27",
    "postal_code": "21350"
  },
  {
    "name": "Arrans",
    "code": "21025",
    "epci_code": "242101491",
    "departement_code": "21",
    "region_code": "27",
    "postal_code": "21500"
  },
  {
    "name": "Asnières-en-Montagne",
    "code": "21026",
    "epci_code": "242101491",
    "departement_code": "21",
    "region_code": "27",
    "postal_code": "21500"
  },
  {
    "name": "Asnières-lès-Dijon",
    "code": "21027",
    "epci_code": "200069540",
    "departement_code": "21",
    "region_code": "27",
    "postal_code": "21380"
  },
  {
    "name": "Athée",
    "code": "21028",
    "epci_code": "200070902",
    "departement_code": "21",
    "region_code": "27",
    "postal_code": "21130"
  },
  {
    "name": "Athie",
    "code": "21029",
    "epci_code": "242101491",
    "departement_code": "21",
    "region_code": "27",
    "postal_code": "21500"
  },
  {
    "name": "Aubaine",
    "code": "21030",
    "epci_code": "200071207",
    "departement_code": "21",
    "region_code": "27",
    "postal_code": "21360"
  },
  {
    "name": "Aubigny-en-Plaine",
    "code": "21031",
    "epci_code": "242101509",
    "departement_code": "21",
    "region_code": "27",
    "postal_code": "21170"
  },
  {
    "name": "Aubigny-la-Ronce",
    "code": "21032",
    "epci_code": "200006682",
    "departement_code": "21",
    "region_code": "27",
    "postal_code": "21340"
  },
  {
    "name": "Aubigny-lès-Sombernon",
    "code": "21033",
    "epci_code": "200039055",
    "departement_code": "21",
    "region_code": "27",
    "postal_code": "21540"
  },
  {
    "name": "Autricourt",
    "code": "21034",
    "epci_code": "242101434",
    "departement_code": "21",
    "region_code": "27",
    "postal_code": "21570"
  },
  {
    "name": "Auvillars-sur-Saône",
    "code": "21035",
    "epci_code": "242101509",
    "departement_code": "21",
    "region_code": "27",
    "postal_code": "21250"
  },
  {
    "name": "Auxant",
    "code": "21036",
    "epci_code": "200071207",
    "departement_code": "21",
    "region_code": "27",
    "postal_code": "21360"
  },
  {
    "name": "Auxey-Duresses",
    "code": "21037",
    "epci_code": "200006682",
    "departement_code": "21",
    "region_code": "27",
    "postal_code": "21190"
  },
  {
    "name": "Auxonne",
    "code": "21038",
    "epci_code": "200070902",
    "departement_code": "21",
    "region_code": "27",
    "postal_code": "21130"
  },
  {
    "name": "Avelanges",
    "code": "21039",
    "epci_code": "242100154",
    "departement_code": "21",
    "region_code": "27",
    "postal_code": "21120"
  },
  {
    "name": "Avosnes",
    "code": "21040",
    "epci_code": "200071017",
    "departement_code": "21",
    "region_code": "27",
    "postal_code": "21350"
  },
  {
    "name": "Avot",
    "code": "21041",
    "epci_code": "200070910",
    "departement_code": "21",
    "region_code": "27",
    "postal_code": "21580"
  },
  {
    "name": "Bagnot",
    "code": "21042",
    "epci_code": "242101509",
    "departement_code": "21",
    "region_code": "27",
    "postal_code": "21700"
  },
  {
    "name": "Baigneux-les-Juifs",
    "code": "21043",
    "epci_code": "242101434",
    "departement_code": "21",
    "region_code": "27",
    "postal_code": "21450"
  },
  {
    "name": "Balot",
    "code": "21044",
    "epci_code": "242101434",
    "departement_code": "21",
    "region_code": "27",
    "postal_code": "21330"
  },
  {
    "name": "Barbirey-sur-Ouche",
    "code": "21045",
    "epci_code": "200039055",
    "departement_code": "21",
    "region_code": "27",
    "postal_code": "21410"
  },
  {
    "name": "Bard-le-Régulier",
    "code": "21046",
    "epci_code": "200071173",
    "departement_code": "21",
    "region_code": "27",
    "postal_code": "21430"
  },
  {
    "name": "Bard-lès-Époisses",
    "code": "21047",
    "epci_code": "200071017",
    "departement_code": "21",
    "region_code": "27",
    "postal_code": "21460"
  },
  {
    "name": "Barges",
    "code": "21048",
    "epci_code": "200070894",
    "departement_code": "21",
    "region_code": "27",
    "postal_code": "21910"
  },
  {
    "name": "Barjon",
    "code": "21049",
    "epci_code": "200070910",
    "departement_code": "21",
    "region_code": "27",
    "postal_code": "21580"
  },
  {
    "name": "Baubigny",
    "code": "21050",
    "epci_code": "200006682",
    "departement_code": "21",
    "region_code": "27",
    "postal_code": "21340"
  },
  {
    "name": "Baulme-la-Roche",
    "code": "21051",
    "epci_code": "200039055",
    "departement_code": "21",
    "region_code": "27",
    "postal_code": "21410"
  },
  {
    "name": "Beaulieu",
    "code": "21052",
    "epci_code": "242101434",
    "departement_code": "21",
    "region_code": "27",
    "postal_code": "21510"
  },
  {
    "name": "Beaumont-sur-Vingeanne",
    "code": "21053",
    "epci_code": "200072825",
    "departement_code": "21",
    "region_code": "27",
    "postal_code": "21310"
  },
  {
    "name": "Beaune",
    "code": "21054",
    "epci_code": "200006682",
    "departement_code": "21",
    "region_code": "27",
    "postal_code": "21200"
  },
  {
    "name": "Beaunotte",
    "code": "21055",
    "epci_code": "242101434",
    "departement_code": "21",
    "region_code": "27",
    "postal_code": "21510"
  },
  {
    "name": "Beire-le-Châtel",
    "code": "21056",
    "epci_code": "200072825",
    "departement_code": "21",
    "region_code": "27",
    "postal_code": "21310"
  },
  {
    "name": "Beire-le-Fort",
    "code": "21057",
    "epci_code": "200000925",
    "departement_code": "21",
    "region_code": "27",
    "postal_code": "21110"
  },
  {
    "name": "Belan-sur-Ource",
    "code": "21058",
    "epci_code": "242101434",
    "departement_code": "21",
    "region_code": "27",
    "postal_code": "21570"
  },
  {
    "name": "Bellefond",
    "code": "21059",
    "epci_code": "200069540",
    "departement_code": "21",
    "region_code": "27",
    "postal_code": "21490"
  },
  {
    "name": "Belleneuve",
    "code": "21060",
    "epci_code": "200072825",
    "departement_code": "21",
    "region_code": "27",
    "postal_code": "21310"
  },
  {
    "name": "Bellenod-sur-Seine",
    "code": "21061",
    "epci_code": "242101434",
    "departement_code": "21",
    "region_code": "27",
    "postal_code": "21510"
  },
  {
    "name": "Bellenot-sous-Pouilly",
    "code": "21062",
    "epci_code": "200071207",
    "departement_code": "21",
    "region_code": "27",
    "postal_code": "21320"
  },
  {
    "name": "Beneuvre",
    "code": "21063",
    "epci_code": "242101434",
    "departement_code": "21",
    "region_code": "27",
    "postal_code": "21290"
  },
  {
    "name": "Benoisey",
    "code": "21064",
    "epci_code": "242101491",
    "departement_code": "21",
    "region_code": "27",
    "postal_code": "21500"
  },
  {
    "name": "Bessey-en-Chaume",
    "code": "21065",
    "epci_code": "200071207",
    "departement_code": "21",
    "region_code": "27",
    "postal_code": "21360"
  },
  {
    "name": "Bessey-la-Cour",
    "code": "21066",
    "epci_code": "200071207",
    "departement_code": "21",
    "region_code": "27",
    "postal_code": "21360"
  },
  {
    "name": "Bessey-lès-Cîteaux",
    "code": "21067",
    "epci_code": "200000925",
    "departement_code": "21",
    "region_code": "27",
    "postal_code": "21110"
  },
  {
    "name": "Beurey-Bauguay",
    "code": "21068",
    "epci_code": "200071207",
    "departement_code": "21",
    "region_code": "27",
    "postal_code": "21320"
  },
  {
    "name": "Beurizot",
    "code": "21069",
    "epci_code": "200071017",
    "departement_code": "21",
    "region_code": "27",
    "postal_code": "21350"
  },
  {
    "name": "Bévy",
    "code": "21070",
    "epci_code": "200070894",
    "departement_code": "21",
    "region_code": "27",
    "postal_code": "21220"
  },
  {
    "name": "Bèze",
    "code": "21071",
    "epci_code": "200072825",
    "departement_code": "21",
    "region_code": "27",
    "postal_code": "21310"
  },
  {
    "name": "Bézouotte",
    "code": "21072",
    "epci_code": "200072825",
    "departement_code": "21",
    "region_code": "27",
    "postal_code": "21310"
  },
  {
    "name": "Billey",
    "code": "21074",
    "epci_code": "200070902",
    "departement_code": "21",
    "region_code": "27",
    "postal_code": "21130"
  },
  {
    "name": "Billy-lès-Chanceaux",
    "code": "21075",
    "epci_code": "242101434",
    "departement_code": "21",
    "region_code": "27",
    "postal_code": "21450"
  },
  {
    "name": "Binges",
    "code": "21076",
    "epci_code": "200070902",
    "departement_code": "21",
    "region_code": "27",
    "postal_code": "21270"
  },
  {
    "name": "Bissey-la-Côte",
    "code": "21077",
    "epci_code": "242101434",
    "departement_code": "21",
    "region_code": "27",
    "postal_code": "21520"
  },
  {
    "name": "Bissey-la-Pierre",
    "code": "21078",
    "epci_code": "242101434",
    "departement_code": "21",
    "region_code": "27",
    "postal_code": "21330"
  },
  {
    "name": "Blagny-sur-Vingeanne",
    "code": "21079",
    "epci_code": "200072825",
    "departement_code": "21",
    "region_code": "27",
    "postal_code": "21310"
  },
  {
    "name": "Blaisy-Bas",
    "code": "21080",
    "epci_code": "200039055",
    "departement_code": "21",
    "region_code": "27",
    "postal_code": "21540"
  },
  {
    "name": "Blaisy-Haut",
    "code": "21081",
    "epci_code": "200039055",
    "departement_code": "21",
    "region_code": "27",
    "postal_code": "21540"
  },
  {
    "name": "Blancey",
    "code": "21082",
    "epci_code": "200071207",
    "departement_code": "21",
    "region_code": "27",
    "postal_code": "21320"
  },
  {
    "name": "Blanot",
    "code": "21083",
    "epci_code": "200071173",
    "departement_code": "21",
    "region_code": "27",
    "postal_code": "21430"
  },
  {
    "name": "Source-Seine",
    "code": "21084",
    "epci_code": "242101459",
    "departement_code": "21",
    "region_code": "27",
    "postal_code": "21690"
  },
  {
    "name": "Bligny-le-Sec",
    "code": "21085",
    "epci_code": "200039063",
    "departement_code": "21",
    "region_code": "27",
    "postal_code": "21440"
  },
  {
    "name": "Bligny-lès-Beaune",
    "code": "21086",
    "epci_code": "200006682",
    "departement_code": "21",
    "region_code": "27",
    "postal_code": "21200"
  },
  {
    "name": "Bligny-sur-Ouche",
    "code": "21087",
    "epci_code": "200071207",
    "departement_code": "21",
    "region_code": "27",
    "postal_code": "21360"
  },
  {
    "name": "Boncourt-le-Bois",
    "code": "21088",
    "epci_code": "200070894",
    "departement_code": "21",
    "region_code": "27",
    "postal_code": "21700"
  },
  {
    "name": "Bonnencontre",
    "code": "21089",
    "epci_code": "242101509",
    "departement_code": "21",
    "region_code": "27",
    "postal_code": "21250"
  },
  {
    "name": "Boudreville",
    "code": "21090",
    "epci_code": "242101434",
    "departement_code": "21",
    "region_code": "27",
    "postal_code": "21520"
  },
  {
    "name": "Bouhey",
    "code": "21091",
    "epci_code": "200071207",
    "departement_code": "21",
    "region_code": "27",
    "postal_code": "21360"
  },
  {
    "name": "Bouilland",
    "code": "21092",
    "epci_code": "200006682",
    "departement_code": "21",
    "region_code": "27",
    "postal_code": "21420"
  },
  {
    "name": "Bouix",
    "code": "21093",
    "epci_code": "242101434",
    "departement_code": "21",
    "region_code": "27",
    "postal_code": "21330"
  },
  {
    "name": "Bourberain",
    "code": "21094",
    "epci_code": "200072825",
    "departement_code": "21",
    "region_code": "27",
    "postal_code": "21610"
  },
  {
    "name": "Bousselange",
    "code": "21095",
    "epci_code": "242101509",
    "departement_code": "21",
    "region_code": "27",
    "postal_code": "21250"
  },
  {
    "name": "Boussenois",
    "code": "21096",
    "epci_code": "200070910",
    "departement_code": "21",
    "region_code": "27",
    "postal_code": "21260"
  },
  {
    "name": "Boussey",
    "code": "21097",
    "epci_code": "200071017",
    "departement_code": "21",
    "region_code": "27",
    "postal_code": "21350"
  },
  {
    "name": "Boux-sous-Salmaise",
    "code": "21098",
    "epci_code": "242101459",
    "departement_code": "21",
    "region_code": "27",
    "postal_code": "21690"
  },
  {
    "name": "Bouze-lès-Beaune",
    "code": "21099",
    "epci_code": "200006682",
    "departement_code": "21",
    "region_code": "27",
    "postal_code": "21200"
  },
  {
    "name": "Brain",
    "code": "21100",
    "epci_code": "200071017",
    "departement_code": "21",
    "region_code": "27",
    "postal_code": "21350"
  },
  {
    "name": "Braux",
    "code": "21101",
    "epci_code": "200071017",
    "departement_code": "21",
    "region_code": "27",
    "postal_code": "21390"
  },
  {
    "name": "Brazey-en-Morvan",
    "code": "21102",
    "epci_code": "200071173",
    "departement_code": "21",
    "region_code": "27",
    "postal_code": "21430"
  },
  {
    "name": "Brazey-en-Plaine",
    "code": "21103",
    "epci_code": "242101509",
    "departement_code": "21",
    "region_code": "27",
    "postal_code": "21470"
  },
  {
    "name": "Brémur-et-Vaurois",
    "code": "21104",
    "epci_code": "242101434",
    "departement_code": "21",
    "region_code": "27",
    "postal_code": "21400"
  },
  {
    "name": "Bressey-sur-Tille",
    "code": "21105",
    "epci_code": "242100410",
    "departement_code": "21",
    "region_code": "27",
    "postal_code": "21560"
  },
  {
    "name": "Bretenière",
    "code": "21106",
    "epci_code": "242100410",
    "departement_code": "21",
    "region_code": "27",
    "postal_code": "21110"
  },
  {
    "name": "Bretigny",
    "code": "21107",
    "epci_code": "200069540",
    "departement_code": "21",
    "region_code": "27",
    "postal_code": "21490"
  },
  {
    "name": "Brianny",
    "code": "21108",
    "epci_code": "200071017",
    "departement_code": "21",
    "region_code": "27",
    "postal_code": "21390"
  },
  {
    "name": "Brion-sur-Ource",
    "code": "21109",
    "epci_code": "242101434",
    "departement_code": "21",
    "region_code": "27",
    "postal_code": "21570"
  },
  {
    "name": "Brochon",
    "code": "21110",
    "epci_code": "200070894",
    "departement_code": "21",
    "region_code": "27",
    "postal_code": "21220"
  },
  {
    "name": "Brognon",
    "code": "21111",
    "epci_code": "200069540",
    "departement_code": "21",
    "region_code": "27",
    "postal_code": "21490"
  },
  {
    "name": "Broin",
    "code": "21112",
    "epci_code": "242101509",
    "departement_code": "21",
    "region_code": "27",
    "postal_code": "21250"
  },
  {
    "name": "Broindon",
    "code": "21113",
    "epci_code": "200070894",
    "departement_code": "21",
    "region_code": "27",
    "postal_code": "21220"
  },
  {
    "name": "Buffon",
    "code": "21114",
    "epci_code": "242101491",
    "departement_code": "21",
    "region_code": "27",
    "postal_code": "21500"
  },
  {
    "name": "Buncey",
    "code": "21115",
    "epci_code": "242101434",
    "departement_code": "21",
    "region_code": "27",
    "postal_code": "21400"
  },
  {
    "name": "Bure-les-Templiers",
    "code": "21116",
    "epci_code": "242101434",
    "departement_code": "21",
    "region_code": "27",
    "postal_code": "21290"
  },
  {
    "name": "Busseaut",
    "code": "21117",
    "epci_code": "242101434",
    "departement_code": "21",
    "region_code": "27",
    "postal_code": "21510"
  },
  {
    "name": "Busserotte-et-Montenaille",
    "code": "21118",
    "epci_code": "200070910",
    "departement_code": "21",
    "region_code": "27",
    "postal_code": "21580"
  },
  {
    "name": "Bussières",
    "code": "21119",
    "epci_code": "200070910",
    "departement_code": "21",
    "region_code": "27",
    "postal_code": "21580"
  },
  {
    "name": "La Bussière-sur-Ouche",
    "code": "21120",
    "epci_code": "200071207",
    "departement_code": "21",
    "region_code": "27",
    "postal_code": "21360"
  },
  {
    "name": "Bussy-la-Pesle",
    "code": "21121",
    "epci_code": "200039055",
    "departement_code": "21",
    "region_code": "27",
    "postal_code": "21540"
  },
  {
    "name": "Bussy-le-Grand",
    "code": "21122",
    "epci_code": "242101459",
    "departement_code": "21",
    "region_code": "27",
    "postal_code": "21150"
  },
  {
    "name": "Buxerolles",
    "code": "21123",
    "epci_code": "242101434",
    "departement_code": "21",
    "region_code": "27",
    "postal_code": "21290"
  },
  {
    "name": "Censerey",
    "code": "21124",
    "epci_code": "200071173",
    "departement_code": "21",
    "region_code": "27",
    "postal_code": "21430"
  },
  {
    "name": "Cérilly",
    "code": "21125",
    "epci_code": "242101434",
    "departement_code": "21",
    "region_code": "27",
    "postal_code": "21330"
  },
  {
    "name": "Cessey-sur-Tille",
    "code": "21126",
    "epci_code": "200000925",
    "departement_code": "21",
    "region_code": "27",
    "postal_code": "21110"
  },
  {
    "name": "Chaignay",
    "code": "21127",
    "epci_code": "242100154",
    "departement_code": "21",
    "region_code": "27",
    "postal_code": "21120"
  },
  {
    "name": "Chailly-sur-Armançon",
    "code": "21128",
    "epci_code": "200071207",
    "departement_code": "21",
    "region_code": "27",
    "postal_code": "21320"
  },
  {
    "name": "Chambain",
    "code": "21129",
    "epci_code": "242101434",
    "departement_code": "21",
    "region_code": "27",
    "postal_code": "21290"
  },
  {
    "name": "Chambeire",
    "code": "21130",
    "epci_code": "200000925",
    "departement_code": "21",
    "region_code": "27",
    "postal_code": "21110"
  },
  {
    "name": "Chamblanc",
    "code": "21131",
    "epci_code": "242101509",
    "departement_code": "21",
    "region_code": "27",
    "postal_code": "21250"
  },
  {
    "name": "Chambœuf",
    "code": "21132",
    "epci_code": "200070894",
    "departement_code": "21",
    "region_code": "27",
    "postal_code": "21220"
  },
  {
    "name": "Chambolle-Musigny",
    "code": "21133",
    "epci_code": "200070894",
    "departement_code": "21",
    "region_code": "27",
    "postal_code": "21220"
  },
  {
    "name": "Chamesson",
    "code": "21134",
    "epci_code": "242101434",
    "departement_code": "21",
    "region_code": "27",
    "postal_code": "21400"
  },
  {
    "name": "Champagne-sur-Vingeanne",
    "code": "21135",
    "epci_code": "200072825",
    "departement_code": "21",
    "region_code": "27",
    "postal_code": "21310"
  },
  {
    "name": "Champagny",
    "code": "21136",
    "epci_code": "200039063",
    "departement_code": "21",
    "region_code": "27",
    "postal_code": "21440"
  },
  {
    "name": "Champ-d’Oiseau",
    "code": "21137",
    "epci_code": "242101491",
    "departement_code": "21",
    "region_code": "27",
    "postal_code": "21500"
  },
  {
    "name": "Champdôtre",
    "code": "21138",
    "epci_code": "200070902",
    "departement_code": "21",
    "region_code": "27",
    "postal_code": "21130"
  },
  {
    "name": "Champeau-en-Morvan",
    "code": "21139",
    "epci_code": "242101442",
    "departement_code": "21",
    "region_code": "27",
    "postal_code": "21210"
  },
  {
    "name": "Champignolles",
    "code": "21140",
    "epci_code": "200071173",
    "departement_code": "21",
    "region_code": "27",
    "postal_code": "21230"
  },
  {
    "name": "Champrenault",
    "code": "21141",
    "epci_code": "200071017",
    "departement_code": "21",
    "region_code": "27",
    "postal_code": "21690"
  },
  {
    "name": "Chanceaux",
    "code": "21142",
    "epci_code": "200039063",
    "departement_code": "21",
    "region_code": "27",
    "postal_code": "21440"
  },
  {
    "name": "Channay",
    "code": "21143",
    "epci_code": "242101434",
    "departement_code": "21",
    "region_code": "27",
    "postal_code": "21330"
  },
  {
    "name": "Charencey",
    "code": "21144",
    "epci_code": "242101459",
    "departement_code": "21",
    "region_code": "27",
    "postal_code": "21690"
  },
  {
    "name": "Charigny",
    "code": "21145",
    "epci_code": "200071017",
    "departement_code": "21",
    "region_code": "27",
    "postal_code": "21140"
  },
  {
    "name": "Charmes",
    "code": "21146",
    "epci_code": "200072825",
    "departement_code": "21",
    "region_code": "27",
    "postal_code": "21310"
  },
  {
    "name": "Charny",
    "code": "21147",
    "epci_code": "200071017",
    "departement_code": "21",
    "region_code": "27",
    "postal_code": "21350"
  },
  {
    "name": "Charrey-sur-Saône",
    "code": "21148",
    "epci_code": "242101509",
    "departement_code": "21",
    "region_code": "27",
    "postal_code": "21170"
  },
  {
    "name": "Charrey-sur-Seine",
    "code": "21149",
    "epci_code": "242101434",
    "departement_code": "21",
    "region_code": "27",
    "postal_code": "21400"
  },
  {
    "name": "Chassagne-Montrachet",
    "code": "21150",
    "epci_code": "200006682",
    "departement_code": "21",
    "region_code": "27",
    "postal_code": "21190"
  },
  {
    "name": "Chassey",
    "code": "21151",
    "epci_code": "200071017",
    "departement_code": "21",
    "region_code": "27",
    "postal_code": "21150"
  },
  {
    "name": "Châteauneuf",
    "code": "21152",
    "epci_code": "200071207",
    "departement_code": "21",
    "region_code": "27",
    "postal_code": "21320"
  },
  {
    "name": "Châtellenot",
    "code": "21153",
    "epci_code": "200071207",
    "departement_code": "21",
    "region_code": "27",
    "postal_code": "21320"
  },
  {
    "name": "Châtillon-sur-Seine",
    "code": "21154",
    "epci_code": "242101434",
    "departement_code": "21",
    "region_code": "27",
    "postal_code": "21400"
  },
  {
    "name": "Chaudenay-la-Ville",
    "code": "21155",
    "epci_code": "200071207",
    "departement_code": "21",
    "region_code": "27",
    "postal_code": "21360"
  },
  {
    "name": "Chaudenay-le-Château",
    "code": "21156",
    "epci_code": "200071207",
    "departement_code": "21",
    "region_code": "27",
    "postal_code": "21360"
  },
  {
    "name": "Chaugey",
    "code": "21157",
    "epci_code": "242101434",
    "departement_code": "21",
    "region_code": "27",
    "postal_code": "21290"
  },
  {
    "name": "Chaume-et-Courchamp",
    "code": "21158",
    "epci_code": "200072825",
    "departement_code": "21",
    "region_code": "27",
    "postal_code": "21610"
  },
  {
    "name": "La Chaume",
    "code": "21159",
    "epci_code": "242101434",
    "departement_code": "21",
    "region_code": "27",
    "postal_code": "21520"
  },
  {
    "name": "Chaume-lès-Baigneux",
    "code": "21160",
    "epci_code": "242101434",
    "departement_code": "21",
    "region_code": "27",
    "postal_code": "21450"
  },
  {
    "name": "Chaumont-le-Bois",
    "code": "21161",
    "epci_code": "242101434",
    "departement_code": "21",
    "region_code": "27",
    "postal_code": "21400"
  },
  {
    "name": "Chaux",
    "code": "21162",
    "epci_code": "200070894",
    "departement_code": "21",
    "region_code": "27",
    "postal_code": "21700"
  },
  {
    "name": "Chazeuil",
    "code": "21163",
    "epci_code": "200070910",
    "departement_code": "21",
    "region_code": "27",
    "postal_code": "21260"
  },
  {
    "name": "Chazilly",
    "code": "21164",
    "epci_code": "200071207",
    "departement_code": "21",
    "region_code": "27",
    "postal_code": "21320"
  },
  {
    "name": "Chemin-d’Aisey",
    "code": "21165",
    "epci_code": "242101434",
    "departement_code": "21",
    "region_code": "27",
    "postal_code": "21400"
  },
  {
    "name": "Chenôve",
    "code": "21166",
    "epci_code": "242100410",
    "departement_code": "21",
    "region_code": "27",
    "postal_code": "21300"
  },
  {
    "name": "Cheuge",
    "code": "21167",
    "epci_code": "200072825",
    "departement_code": "21",
    "region_code": "27",
    "postal_code": "21310"
  },
  {
    "name": "Chevannay",
    "code": "21168",
    "epci_code": "200071017",
    "departement_code": "21",
    "region_code": "27",
    "postal_code": "21540"
  },
  {
    "name": "Chevannes",
    "code": "21169",
    "epci_code": "200070894",
    "departement_code": "21",
    "region_code": "27",
    "postal_code": "21220"
  },
  {
    "name": "Chevigny-en-Valière",
    "code": "21170",
    "epci_code": "200006682",
    "departement_code": "21",
    "region_code": "27",
    "postal_code": "21200"
  },
  {
    "name": "Chevigny-Saint-Sauveur",
    "code": "21171",
    "epci_code": "242100410",
    "departement_code": "21",
    "region_code": "27",
    "postal_code": "21800"
  },
  {
    "name": "Chivres",
    "code": "21172",
    "epci_code": "242101509",
    "departement_code": "21",
    "region_code": "27",
    "postal_code": "21820"
  },
  {
    "name": "Chorey-les-Beaune",
    "code": "21173",
    "epci_code": "200006682",
    "departement_code": "21",
    "region_code": "27",
    "postal_code": "21200"
  },
  {
    "name": "Cirey-lès-Pontailler",
    "code": "21175",
    "epci_code": "200070902",
    "departement_code": "21",
    "region_code": "27",
    "postal_code": "21270"
  },
  {
    "name": "Civry-en-Montagne",
    "code": "21176",
    "epci_code": "200071207",
    "departement_code": "21",
    "region_code": "27",
    "postal_code": "21320"
  },
  {
    "name": "Clamerey",
    "code": "21177",
    "epci_code": "200071017",
    "departement_code": "21",
    "region_code": "27",
    "postal_code": "21390"
  },
  {
    "name": "Valforêt",
    "code": "21178",
    "epci_code": "200070894",
    "departement_code": "21",
    "region_code": "27",
    "postal_code": "21220"
  },
  {
    "name": "Clénay",
    "code": "21179",
    "epci_code": "200069540",
    "departement_code": "21",
    "region_code": "27",
    "postal_code": "21490"
  },
  {
    "name": "Cléry",
    "code": "21180",
    "epci_code": "200070902",
    "departement_code": "21",
    "region_code": "27",
    "postal_code": "21270"
  },
  {
    "name": "Clomot",
    "code": "21181",
    "epci_code": "200071173",
    "departement_code": "21",
    "region_code": "27",
    "postal_code": "21230"
  },
  {
    "name": "Collonges-lès-Bévy",
    "code": "21182",
    "epci_code": "200070894",
    "departement_code": "21",
    "region_code": "27",
    "postal_code": "21220"
  },
  {
    "name": "Collonges-et-Premières",
    "code": "21183",
    "epci_code": "200000925",
    "departement_code": "21",
    "region_code": "27",
    "postal_code": "21110"
  },
  {
    "name": "Colombier",
    "code": "21184",
    "epci_code": "200071207",
    "departement_code": "21",
    "region_code": "27",
    "postal_code": "21360"
  },
  {
    "name": "Combertault",
    "code": "21185",
    "epci_code": "200006682",
    "departement_code": "21",
    "region_code": "27",
    "postal_code": "21200"
  },
  {
    "name": "Comblanchien",
    "code": "21186",
    "epci_code": "200070894",
    "departement_code": "21",
    "region_code": "27",
    "postal_code": "21700"
  },
  {
    "name": "Commarin",
    "code": "21187",
    "epci_code": "200071207",
    "departement_code": "21",
    "region_code": "27",
    "postal_code": "21320"
  },
  {
    "name": "Corberon",
    "code": "21189",
    "epci_code": "200006682",
    "departement_code": "21",
    "region_code": "27",
    "postal_code": "21250"
  },
  {
    "name": "Corcelles-les-Arts",
    "code": "21190",
    "epci_code": "200006682",
    "departement_code": "21",
    "region_code": "27",
    "postal_code": "21190"
  },
  {
    "name": "Corcelles-lès-Cîteaux",
    "code": "21191",
    "epci_code": "200070894",
    "departement_code": "21",
    "region_code": "27",
    "postal_code": "21910"
  },
  {
    "name": "Corcelles-les-Monts",
    "code": "21192",
    "epci_code": "242100410",
    "departement_code": "21",
    "region_code": "27",
    "postal_code": "21160"
  },
  {
    "name": "Corgengoux",
    "code": "21193",
    "epci_code": "200006682",
    "departement_code": "21",
    "region_code": "27",
    "postal_code": "21250"
  },
  {
    "name": "Corgoloin",
    "code": "21194",
    "epci_code": "200070894",
    "departement_code": "21",
    "region_code": "27",
    "postal_code": "21700"
  },
  {
    "name": "Cormot-Vauchignon",
    "code": "21195",
    "epci_code": "200006682",
    "departement_code": "21",
    "region_code": "27",
    "postal_code": "21340"
  },
  {
    "name": "Corpeau",
    "code": "21196",
    "epci_code": "200006682",
    "departement_code": "21",
    "region_code": "27",
    "postal_code": "21190"
  },
  {
    "name": "Corpoyer-la-Chapelle",
    "code": "21197",
    "epci_code": "242101459",
    "departement_code": "21",
    "region_code": "27",
    "postal_code": "21150"
  },
  {
    "name": "Corrombles",
    "code": "21198",
    "epci_code": "200071017",
    "departement_code": "21",
    "region_code": "27",
    "postal_code": "21460"
  },
  {
    "name": "Corsaint",
    "code": "21199",
    "epci_code": "200071017",
    "departement_code": "21",
    "region_code": "27",
    "postal_code": "21460"
  },
  {
    "name": "Couchey",
    "code": "21200",
    "epci_code": "200070894",
    "departement_code": "21",
    "region_code": "27",
    "postal_code": "21160"
  },
  {
    "name": "Coulmier-le-Sec",
    "code": "21201",
    "epci_code": "242101434",
    "departement_code": "21",
    "region_code": "27",
    "postal_code": "21400"
  },
  {
    "name": "Courban",
    "code": "21202",
    "epci_code": "242101434",
    "departement_code": "21",
    "region_code": "27",
    "postal_code": "21520"
  },
  {
    "name": "Courcelles-Frémoy",
    "code": "21203",
    "epci_code": "200071017",
    "departement_code": "21",
    "region_code": "27",
    "postal_code": "21460"
  },
  {
    "name": "Courcelles-lès-Montbard",
    "code": "21204",
    "epci_code": "242101491",
    "departement_code": "21",
    "region_code": "27",
    "postal_code": "21500"
  },
  {
    "name": "Courcelles-lès-Semur",
    "code": "21205",
    "epci_code": "200071017",
    "departement_code": "21",
    "region_code": "27",
    "postal_code": "21140"
  },
  {
    "name": "Courlon",
    "code": "21207",
    "epci_code": "200070910",
    "departement_code": "21",
    "region_code": "27",
    "postal_code": "21580"
  },
  {
    "name": "Courtivron",
    "code": "21208",
    "epci_code": "242100154",
    "departement_code": "21",
    "region_code": "27",
    "postal_code": "21120"
  },
  {
    "name": "Couternon",
    "code": "21209",
    "epci_code": "200069540",
    "departement_code": "21",
    "region_code": "27",
    "postal_code": "21560"
  },
  {
    "name": "Créancey",
    "code": "21210",
    "epci_code": "200071207",
    "departement_code": "21",
    "region_code": "27",
    "postal_code": "21320"
  },
  {
    "name": "Crécey-sur-Tille",
    "code": "21211",
    "epci_code": "242100154",
    "departement_code": "21",
    "region_code": "27",
    "postal_code": "21120"
  },
  {
    "name": "Crépand",
    "code": "21212",
    "epci_code": "242101491",
    "departement_code": "21",
    "region_code": "27",
    "postal_code": "21500"
  },
  {
    "name": "Crugey",
    "code": "21214",
    "epci_code": "200071207",
    "departement_code": "21",
    "region_code": "27",
    "postal_code": "21360"
  },
  {
    "name": "Cuiserey",
    "code": "21215",
    "epci_code": "200072825",
    "departement_code": "21",
    "region_code": "27",
    "postal_code": "21310"
  },
  {
    "name": "Culètre",
    "code": "21216",
    "epci_code": "200071173",
    "departement_code": "21",
    "region_code": "27",
    "postal_code": "21230"
  },
  {
    "name": "Curley",
    "code": "21217",
    "epci_code": "200070894",
    "departement_code": "21",
    "region_code": "27",
    "postal_code": "21220"
  },
  {
    "name": "Curtil-Saint-Seine",
    "code": "21218",
    "epci_code": "200039063",
    "departement_code": "21",
    "region_code": "27",
    "postal_code": "21380"
  },
  {
    "name": "Curtil-Vergy",
    "code": "21219",
    "epci_code": "200070894",
    "departement_code": "21",
    "region_code": "27",
    "postal_code": "21220"
  },
  {
    "name": "Cussey-les-Forges",
    "code": "21220",
    "epci_code": "200070910",
    "departement_code": "21",
    "region_code": "27",
    "postal_code": "21580"
  },
  {
    "name": "Cussy-la-Colonne",
    "code": "21221",
    "epci_code": "200071207",
    "departement_code": "21",
    "region_code": "27",
    "postal_code": "21360"
  },
  {
    "name": "Cussy-le-Châtel",
    "code": "21222",
    "epci_code": "200071173",
    "departement_code": "21",
    "region_code": "27",
    "postal_code": "21230"
  },
  {
    "name": "Daix",
    "code": "21223",
    "epci_code": "242100410",
    "departement_code": "21",
    "region_code": "27",
    "postal_code": "21121"
  },
  {
    "name": "Dampierre-en-Montagne",
    "code": "21224",
    "epci_code": "200071017",
    "departement_code": "21",
    "region_code": "27",
    "postal_code": "21350"
  },
  {
    "name": "Dampierre-et-Flée",
    "code": "21225",
    "epci_code": "200072825",
    "departement_code": "21",
    "region_code": "27",
    "postal_code": "21310"
  },
  {
    "name": "Darcey",
    "code": "21226",
    "epci_code": "242101459",
    "departement_code": "21",
    "region_code": "27",
    "postal_code": "21150"
  },
  {
    "name": "Darois",
    "code": "21227",
    "epci_code": "200039063",
    "departement_code": "21",
    "region_code": "27",
    "postal_code": "21121"
  },
  {
    "name": "Détain-et-Bruant",
    "code": "21228",
    "epci_code": "200070894",
    "departement_code": "21",
    "region_code": "27",
    "postal_code": "21220"
  },
  {
    "name": "Diancey",
    "code": "21229",
    "epci_code": "200071173",
    "departement_code": "21",
    "region_code": "27",
    "postal_code": "21430"
  },
  {
    "name": "Diénay",
    "code": "21230",
    "epci_code": "242100154",
    "departement_code": "21",
    "region_code": "27",
    "postal_code": "21120"
  },
  {
    "name": "Dijon",
    "code": "21231",
    "epci_code": "242100410",
    "departement_code": "21",
    "region_code": "27",
    "postal_code": "21000"
  },
  {
    "name": "Dompierre-en-Morvan",
    "code": "21232",
    "epci_code": "200071017",
    "departement_code": "21",
    "region_code": "27",
    "postal_code": "21390"
  },
  {
    "name": "Drambon",
    "code": "21233",
    "epci_code": "200070902",
    "departement_code": "21",
    "region_code": "27",
    "postal_code": "21270"
  },
  {
    "name": "Drée",
    "code": "21234",
    "epci_code": "200039055",
    "departement_code": "21",
    "region_code": "27",
    "postal_code": "21540"
  },
  {
    "name": "Duesme",
    "code": "21235",
    "epci_code": "242101434",
    "departement_code": "21",
    "region_code": "27",
    "postal_code": "21510"
  },
  {
    "name": "Ébaty",
    "code": "21236",
    "epci_code": "200006682",
    "departement_code": "21",
    "region_code": "27",
    "postal_code": "21190"
  },
  {
    "name": "Échalot",
    "code": "21237",
    "epci_code": "242101434",
    "departement_code": "21",
    "region_code": "27",
    "postal_code": "21510"
  },
  {
    "name": "Échannay",
    "code": "21238",
    "epci_code": "200039055",
    "departement_code": "21",
    "region_code": "27",
    "postal_code": "21540"
  },
  {
    "name": "Échenon",
    "code": "21239",
    "epci_code": "242101509",
    "departement_code": "21",
    "region_code": "27",
    "postal_code": "21170"
  },
  {
    "name": "Échevannes",
    "code": "21240",
    "epci_code": "242100154",
    "departement_code": "21",
    "region_code": "27",
    "postal_code": "21120"
  },
  {
    "name": "Échevronne",
    "code": "21241",
    "epci_code": "200006682",
    "departement_code": "21",
    "region_code": "27",
    "postal_code": "21420"
  },
  {
    "name": "Échigey",
    "code": "21242",
    "epci_code": "200000925",
    "departement_code": "21",
    "region_code": "27",
    "postal_code": "21110"
  },
  {
    "name": "Écutigny",
    "code": "21243",
    "epci_code": "200071207",
    "departement_code": "21",
    "region_code": "27",
    "postal_code": "21360"
  },
  {
    "name": "Éguilly",
    "code": "21244",
    "epci_code": "200071207",
    "departement_code": "21",
    "region_code": "27",
    "postal_code": "21320"
  },
  {
    "name": "Épagny",
    "code": "21245",
    "epci_code": "242100154",
    "departement_code": "21",
    "region_code": "27",
    "postal_code": "21380"
  },
  {
    "name": "Épernay-sous-Gevrey",
    "code": "21246",
    "epci_code": "200070894",
    "departement_code": "21",
    "region_code": "27",
    "postal_code": "21220"
  },
  {
    "name": "Époisses",
    "code": "21247",
    "epci_code": "200071017",
    "departement_code": "21",
    "region_code": "27",
    "postal_code": "21460"
  },
  {
    "name": "Éringes",
    "code": "21248",
    "epci_code": "242101491",
    "departement_code": "21",
    "region_code": "27",
    "postal_code": "21500"
  },
  {
    "name": "Esbarres",
    "code": "21249",
    "epci_code": "242101509",
    "departement_code": "21",
    "region_code": "27",
    "postal_code": "21170"
  },
  {
    "name": "Essarois",
    "code": "21250",
    "epci_code": "242101434",
    "departement_code": "21",
    "region_code": "27",
    "postal_code": "21290"
  },
  {
    "name": "Essey",
    "code": "21251",
    "epci_code": "200071207",
    "departement_code": "21",
    "region_code": "27",
    "postal_code": "21320"
  },
  {
    "name": "Étais",
    "code": "21252",
    "epci_code": "242101491",
    "departement_code": "21",
    "region_code": "27",
    "postal_code": "21500"
  },
  {
    "name": "Étalante",
    "code": "21253",
    "epci_code": "242101434",
    "departement_code": "21",
    "region_code": "27",
    "postal_code": "21510"
  },
  {
    "name": "L’Étang-Vergy",
    "code": "21254",
    "epci_code": "200070894",
    "departement_code": "21",
    "region_code": "27",
    "postal_code": "21220"
  },
  {
    "name": "Étaules",
    "code": "21255",
    "epci_code": "200039063",
    "departement_code": "21",
    "region_code": "27",
    "postal_code": "21121"
  },
  {
    "name": "Étevaux",
    "code": "21256",
    "epci_code": "200070902",
    "departement_code": "21",
    "region_code": "27",
    "postal_code": "21270"
  },
  {
    "name": "Étormay",
    "code": "21257",
    "epci_code": "242101434",
    "departement_code": "21",
    "region_code": "27",
    "postal_code": "21450"
  },
  {
    "name": "Étrochey",
    "code": "21258",
    "epci_code": "242101434",
    "departement_code": "21",
    "region_code": "27",
    "postal_code": "21400"
  },
  {
    "name": "Fain-lès-Montbard",
    "code": "21259",
    "epci_code": "242101491",
    "departement_code": "21",
    "region_code": "27",
    "postal_code": "21500"
  },
  {
    "name": "Fain-lès-Moutiers",
    "code": "21260",
    "epci_code": "242101491",
    "departement_code": "21",
    "region_code": "27",
    "postal_code": "21500"
  },
  {
    "name": "Fauverney",
    "code": "21261",
    "epci_code": "200000925",
    "departement_code": "21",
    "region_code": "27",
    "postal_code": "21110"
  },
  {
    "name": "Faverolles-lès-Lucey",
    "code": "21262",
    "epci_code": "242101434",
    "departement_code": "21",
    "region_code": "27",
    "postal_code": "21290"
  },
  {
    "name": "Fénay",
    "code": "21263",
    "epci_code": "242100410",
    "departement_code": "21",
    "region_code": "27",
    "postal_code": "21600"
  },
  {
    "name": "Le Fête",
    "code": "21264",
    "epci_code": "200071173",
    "departement_code": "21",
    "region_code": "27",
    "postal_code": "21230"
  },
  {
    "name": "Fixin",
    "code": "21265",
    "epci_code": "200070894",
    "departement_code": "21",
    "region_code": "27",
    "postal_code": "21220"
  },
  {
    "name": "Flacey",
    "code": "21266",
    "epci_code": "200069540",
    "departement_code": "21",
    "region_code": "27",
    "postal_code": "21490"
  },
  {
    "name": "Flagey-Echézeaux",
    "code": "21267",
    "epci_code": "200070894",
    "departement_code": "21",
    "region_code": "27",
    "postal_code": "21640"
  },
  {
    "name": "Flagey-lès-Auxonne",
    "code": "21268",
    "epci_code": "200070902",
    "departement_code": "21",
    "region_code": "27",
    "postal_code": "21130"
  },
  {
    "name": "Flammerans",
    "code": "21269",
    "epci_code": "200070902",
    "departement_code": "21",
    "region_code": "27",
    "postal_code": "21130"
  },
  {
    "name": "Flavignerot",
    "code": "21270",
    "epci_code": "242100410",
    "departement_code": "21",
    "region_code": "27",
    "postal_code": "21160"
  },
  {
    "name": "Flavigny-sur-Ozerain",
    "code": "21271",
    "epci_code": "242101459",
    "departement_code": "21",
    "region_code": "27",
    "postal_code": "21150"
  },
  {
    "name": "Le Val-Larrey",
    "code": "21272",
    "epci_code": "200071017",
    "departement_code": "21",
    "region_code": "27",
    "postal_code": "21140"
  },
  {
    "name": "Le Val-Larrey",
    "code": "21272",
    "epci_code": "200071017",
    "departement_code": "21",
    "region_code": "27",
    "postal_code": "21390"
  },
  {
    "name": "Fleurey-sur-Ouche",
    "code": "21273",
    "epci_code": "200039055",
    "departement_code": "21",
    "region_code": "27",
    "postal_code": "21410"
  },
  {
    "name": "Foissy",
    "code": "21274",
    "epci_code": "200071173",
    "departement_code": "21",
    "region_code": "27",
    "postal_code": "21230"
  },
  {
    "name": "Foncegrive",
    "code": "21275",
    "epci_code": "200070910",
    "departement_code": "21",
    "region_code": "27",
    "postal_code": "21260"
  },
  {
    "name": "Fontaines-en-Duesmois",
    "code": "21276",
    "epci_code": "242101434",
    "departement_code": "21",
    "region_code": "27",
    "postal_code": "21450"
  },
  {
    "name": "Fontaine-Française",
    "code": "21277",
    "epci_code": "200072825",
    "departement_code": "21",
    "region_code": "27",
    "postal_code": "21610"
  },
  {
    "name": "Fontaine-lès-Dijon",
    "code": "21278",
    "epci_code": "242100410",
    "departement_code": "21",
    "region_code": "27",
    "postal_code": "21121"
  },
  {
    "name": "Fontaines-les-Sèches",
    "code": "21279",
    "epci_code": "242101491",
    "departement_code": "21",
    "region_code": "27",
    "postal_code": "21330"
  },
  {
    "name": "Fontangy",
    "code": "21280",
    "epci_code": "200071017",
    "departement_code": "21",
    "region_code": "27",
    "postal_code": "21390"
  },
  {
    "name": "Fontenelle",
    "code": "21281",
    "epci_code": "200072825",
    "departement_code": "21",
    "region_code": "27",
    "postal_code": "21610"
  },
  {
    "name": "Forléans",
    "code": "21282",
    "epci_code": "200071017",
    "departement_code": "21",
    "region_code": "27",
    "postal_code": "21460"
  },
  {
    "name": "Fraignot-et-Vesvrotte",
    "code": "21283",
    "epci_code": "200070910",
    "departement_code": "21",
    "region_code": "27",
    "postal_code": "21580"
  },
  {
    "name": "Francheville",
    "code": "21284",
    "epci_code": "200039063",
    "departement_code": "21",
    "region_code": "27",
    "postal_code": "21440"
  },
  {
    "name": "Franxault",
    "code": "21285",
    "epci_code": "242101509",
    "departement_code": "21",
    "region_code": "27",
    "postal_code": "21170"
  },
  {
    "name": "Frénois",
    "code": "21286",
    "epci_code": "200039063",
    "departement_code": "21",
    "region_code": "27",
    "postal_code": "21120"
  },
  {
    "name": "Fresnes",
    "code": "21287",
    "epci_code": "242101491",
    "departement_code": "21",
    "region_code": "27",
    "postal_code": "21500"
  },
  {
    "name": "Frôlois",
    "code": "21288",
    "epci_code": "242101459",
    "departement_code": "21",
    "region_code": "27",
    "postal_code": "21150"
  },
  {
    "name": "Fussey",
    "code": "21289",
    "epci_code": "200070894",
    "departement_code": "21",
    "region_code": "27",
    "postal_code": "21700"
  },
  {
    "name": "Gemeaux",
    "code": "21290",
    "epci_code": "242100154",
    "departement_code": "21",
    "region_code": "27",
    "postal_code": "21120"
  },
  {
    "name": "Genay",
    "code": "21291",
    "epci_code": "200071017",
    "departement_code": "21",
    "region_code": "27",
    "postal_code": "21140"
  },
  {
    "name": "Genlis",
    "code": "21292",
    "epci_code": "200000925",
    "departement_code": "21",
    "region_code": "27",
    "postal_code": "21110"
  },
  {
    "name": "Gergueil",
    "code": "21293",
    "epci_code": "200039055",
    "departement_code": "21",
    "region_code": "27",
    "postal_code": "21410"
  },
  {
    "name": "Gerland",
    "code": "21294",
    "epci_code": "200070894",
    "departement_code": "21",
    "region_code": "27",
    "postal_code": "21700"
  },
  {
    "name": "Gevrey-Chambertin",
    "code": "21295",
    "epci_code": "200070894",
    "departement_code": "21",
    "region_code": "27",
    "postal_code": "21220"
  },
  {
    "name": "Gevrolles",
    "code": "21296",
    "epci_code": "242101434",
    "departement_code": "21",
    "region_code": "27",
    "postal_code": "21520"
  },
  {
    "name": "Gilly-lès-Cîteaux",
    "code": "21297",
    "epci_code": "200070894",
    "departement_code": "21",
    "region_code": "27",
    "postal_code": "21640"
  },
  {
    "name": "Gissey-le-Vieil",
    "code": "21298",
    "epci_code": "200071017",
    "departement_code": "21",
    "region_code": "27",
    "postal_code": "21350"
  },
  {
    "name": "Gissey-sous-Flavigny",
    "code": "21299",
    "epci_code": "242101459",
    "departement_code": "21",
    "region_code": "27",
    "postal_code": "21150"
  },
  {
    "name": "Gissey-sur-Ouche",
    "code": "21300",
    "epci_code": "200039055",
    "departement_code": "21",
    "region_code": "27",
    "postal_code": "21410"
  },
  {
    "name": "Glanon",
    "code": "21301",
    "epci_code": "242101509",
    "departement_code": "21",
    "region_code": "27",
    "postal_code": "21250"
  },
  {
    "name": "Gomméville",
    "code": "21302",
    "epci_code": "242101434",
    "departement_code": "21",
    "region_code": "27",
    "postal_code": "21400"
  },
  {
    "name": "Les Goulles",
    "code": "21303",
    "epci_code": "242101434",
    "departement_code": "21",
    "region_code": "27",
    "postal_code": "21520"
  },
  {
    "name": "Grancey-le-Château-Neuvelle",
    "code": "21304",
    "epci_code": "200070910",
    "departement_code": "21",
    "region_code": "27",
    "postal_code": "21580"
  },
  {
    "name": "Grancey-sur-Ource",
    "code": "21305",
    "epci_code": "242101434",
    "departement_code": "21",
    "region_code": "27",
    "postal_code": "21570"
  },
  {
    "name": "Grenant-lès-Sombernon",
    "code": "21306",
    "epci_code": "200039055",
    "departement_code": "21",
    "region_code": "27",
    "postal_code": "21540"
  },
  {
    "name": "Grésigny-Sainte-Reine",
    "code": "21307",
    "epci_code": "242101459",
    "departement_code": "21",
    "region_code": "27",
    "postal_code": "21150"
  },
  {
    "name": "Grignon",
    "code": "21308",
    "epci_code": "242101459",
    "departement_code": "21",
    "region_code": "27",
    "postal_code": "21150"
  },
  {
    "name": "Griselles",
    "code": "21309",
    "epci_code": "242101434",
    "departement_code": "21",
    "region_code": "27",
    "postal_code": "21330"
  },
  {
    "name": "Grosbois-en-Montagne",
    "code": "21310",
    "epci_code": "200039055",
    "departement_code": "21",
    "region_code": "27",
    "postal_code": "21540"
  },
  {
    "name": "Grosbois-lès-Tichey",
    "code": "21311",
    "epci_code": "242101509",
    "departement_code": "21",
    "region_code": "27",
    "postal_code": "21250"
  },
  {
    "name": "Gurgy-la-Ville",
    "code": "21312",
    "epci_code": "242101434",
    "departement_code": "21",
    "region_code": "27",
    "postal_code": "21290"
  },
  {
    "name": "Gurgy-le-Château",
    "code": "21313",
    "epci_code": "242101434",
    "departement_code": "21",
    "region_code": "27",
    "postal_code": "21290"
  },
  {
    "name": "Hauteroche",
    "code": "21314",
    "epci_code": "242101459",
    "departement_code": "21",
    "region_code": "27",
    "postal_code": "21150"
  },
  {
    "name": "Hauteville-lès-Dijon",
    "code": "21315",
    "epci_code": "242100410",
    "departement_code": "21",
    "region_code": "27",
    "postal_code": "21121"
  },
  {
    "name": "Heuilley-sur-Saône",
    "code": "21316",
    "epci_code": "200070902",
    "departement_code": "21",
    "region_code": "27",
    "postal_code": "21270"
  },
  {
    "name": "Is-sur-Tille",
    "code": "21317",
    "epci_code": "242100154",
    "departement_code": "21",
    "region_code": "27",
    "postal_code": "21120"
  },
  {
    "name": "Izeure",
    "code": "21319",
    "epci_code": "200000925",
    "departement_code": "21",
    "region_code": "27",
    "postal_code": "21110"
  },
  {
    "name": "Izier",
    "code": "21320",
    "epci_code": "200000925",
    "departement_code": "21",
    "region_code": "27",
    "postal_code": "21110"
  },
  {
    "name": "Jailly-les-Moulins",
    "code": "21321",
    "epci_code": "242101459",
    "departement_code": "21",
    "region_code": "27",
    "postal_code": "21150"
  },
  {
    "name": "Jallanges",
    "code": "21322",
    "epci_code": "242101509",
    "departement_code": "21",
    "region_code": "27",
    "postal_code": "21250"
  },
  {
    "name": "Jancigny",
    "code": "21323",
    "epci_code": "200072825",
    "departement_code": "21",
    "region_code": "27",
    "postal_code": "21310"
  },
  {
    "name": "Jeux-lès-Bard",
    "code": "21324",
    "epci_code": "200071017",
    "departement_code": "21",
    "region_code": "27",
    "postal_code": "21460"
  },
  {
    "name": "Jouey",
    "code": "21325",
    "epci_code": "200071173",
    "departement_code": "21",
    "region_code": "27",
    "postal_code": "21230"
  },
  {
    "name": "Jours-lès-Baigneux",
    "code": "21326",
    "epci_code": "242101434",
    "departement_code": "21",
    "region_code": "27",
    "postal_code": "21450"
  },
  {
    "name": "Val-Mont",
    "code": "21327",
    "epci_code": "200006682",
    "departement_code": "21",
    "region_code": "27",
    "postal_code": "21340"
  },
  {
    "name": "Juillenay",
    "code": "21328",
    "epci_code": "200071017",
    "departement_code": "21",
    "region_code": "27",
    "postal_code": "21210"
  },
  {
    "name": "Juilly",
    "code": "21329",
    "epci_code": "200071017",
    "departement_code": "21",
    "region_code": "27",
    "postal_code": "21140"
  },
  {
    "name": "Labergement-Foigney",
    "code": "21330",
    "epci_code": "200000925",
    "departement_code": "21",
    "region_code": "27",
    "postal_code": "21110"
  },
  {
    "name": "Labergement-lès-Auxonne",
    "code": "21331",
    "epci_code": "200070902",
    "departement_code": "21",
    "region_code": "27",
    "postal_code": "21130"
  },
  {
    "name": "Labergement-lès-Seurre",
    "code": "21332",
    "epci_code": "242101509",
    "departement_code": "21",
    "region_code": "27",
    "postal_code": "21820"
  },
  {
    "name": "Labruyère",
    "code": "21333",
    "epci_code": "242101509",
    "departement_code": "21",
    "region_code": "27",
    "postal_code": "21250"
  },
  {
    "name": "Lacanche",
    "code": "21334",
    "epci_code": "200071173",
    "departement_code": "21",
    "region_code": "27",
    "postal_code": "21230"
  },
  {
    "name": "Lacour-d’Arcenay",
    "code": "21335",
    "epci_code": "200071017",
    "departement_code": "21",
    "region_code": "27",
    "postal_code": "21210"
  },
  {
    "name": "Laignes",
    "code": "21336",
    "epci_code": "242101434",
    "departement_code": "21",
    "region_code": "27",
    "postal_code": "21330"
  },
  {
    "name": "Lamarche-sur-Saône",
    "code": "21337",
    "epci_code": "200070902",
    "departement_code": "21",
    "region_code": "27",
    "postal_code": "21760"
  },
  {
    "name": "Lamargelle",
    "code": "21338",
    "epci_code": "200039063",
    "departement_code": "21",
    "region_code": "27",
    "postal_code": "21440"
  },
  {
    "name": "Lantenay",
    "code": "21339",
    "epci_code": "200039055",
    "departement_code": "21",
    "region_code": "27",
    "postal_code": "21370"
  },
  {
    "name": "Lanthes",
    "code": "21340",
    "epci_code": "242101509",
    "departement_code": "21",
    "region_code": "27",
    "postal_code": "21250"
  },
  {
    "name": "Lantilly",
    "code": "21341",
    "epci_code": "200071017",
    "departement_code": "21",
    "region_code": "27",
    "postal_code": "21140"
  },
  {
    "name": "Laperrière-sur-Saône",
    "code": "21342",
    "epci_code": "242101509",
    "departement_code": "21",
    "region_code": "27",
    "postal_code": "21170"
  },
  {
    "name": "Larrey",
    "code": "21343",
    "epci_code": "242101434",
    "departement_code": "21",
    "region_code": "27",
    "postal_code": "21330"
  },
  {
    "name": "Lechâtelet",
    "code": "21344",
    "epci_code": "242101509",
    "departement_code": "21",
    "region_code": "27",
    "postal_code": "21250"
  },
  {
    "name": "Léry",
    "code": "21345",
    "epci_code": "200039063",
    "departement_code": "21",
    "region_code": "27",
    "postal_code": "21440"
  },
  {
    "name": "Leuglay",
    "code": "21346",
    "epci_code": "242101434",
    "departement_code": "21",
    "region_code": "27",
    "postal_code": "21290"
  },
  {
    "name": "Levernois",
    "code": "21347",
    "epci_code": "200006682",
    "departement_code": "21",
    "region_code": "27",
    "postal_code": "21200"
  },
  {
    "name": "Licey-sur-Vingeanne",
    "code": "21348",
    "epci_code": "200072825",
    "departement_code": "21",
    "region_code": "27",
    "postal_code": "21610"
  },
  {
    "name": "Liernais",
    "code": "21349",
    "epci_code": "200071173",
    "departement_code": "21",
    "region_code": "27",
    "postal_code": "21430"
  },
  {
    "name": "Lignerolles",
    "code": "21350",
    "epci_code": "242101434",
    "departement_code": "21",
    "region_code": "27",
    "postal_code": "21520"
  },
  {
    "name": "Longchamp",
    "code": "21351",
    "epci_code": "200000925",
    "departement_code": "21",
    "region_code": "27",
    "postal_code": "21110"
  },
  {
    "name": "Longeault-Pluvault",
    "code": "21352",
    "epci_code": "200000925",
    "departement_code": "21",
    "region_code": "27",
    "postal_code": "21110"
  },
  {
    "name": "Longecourt-en-Plaine",
    "code": "21353",
    "epci_code": "200000925",
    "departement_code": "21",
    "region_code": "27",
    "postal_code": "21110"
  },
  {
    "name": "Longecourt-lès-Culêtre",
    "code": "21354",
    "epci_code": "200071173",
    "departement_code": "21",
    "region_code": "27",
    "postal_code": "21230"
  },
  {
    "name": "Longvic",
    "code": "21355",
    "epci_code": "242100410",
    "departement_code": "21",
    "region_code": "27",
    "postal_code": "21600"
  },
  {
    "name": "Losne",
    "code": "21356",
    "epci_code": "242101509",
    "departement_code": "21",
    "region_code": "27",
    "postal_code": "21170"
  },
  {
    "name": "Louesme",
    "code": "21357",
    "epci_code": "242101434",
    "departement_code": "21",
    "region_code": "27",
    "postal_code": "21520"
  },
  {
    "name": "Lucenay-le-Duc",
    "code": "21358",
    "epci_code": "242101491",
    "departement_code": "21",
    "region_code": "27",
    "postal_code": "21150"
  },
  {
    "name": "Lucey",
    "code": "21359",
    "epci_code": "242101434",
    "departement_code": "21",
    "region_code": "27",
    "postal_code": "21290"
  },
  {
    "name": "Lusigny-sur-Ouche",
    "code": "21360",
    "epci_code": "200071207",
    "departement_code": "21",
    "region_code": "27",
    "postal_code": "21360"
  },
  {
    "name": "Lux",
    "code": "21361",
    "epci_code": "242100154",
    "departement_code": "21",
    "region_code": "27",
    "postal_code": "21120"
  },
  {
    "name": "Maconge",
    "code": "21362",
    "epci_code": "200071207",
    "departement_code": "21",
    "region_code": "27",
    "postal_code": "21320"
  },
  {
    "name": "Magnien",
    "code": "21363",
    "epci_code": "200071173",
    "departement_code": "21",
    "region_code": "27",
    "postal_code": "21230"
  },
  {
    "name": "Magny-Lambert",
    "code": "21364",
    "epci_code": "242101434",
    "departement_code": "21",
    "region_code": "27",
    "postal_code": "21450"
  },
  {
    "name": "Magny-la-Ville",
    "code": "21365",
    "epci_code": "200071017",
    "departement_code": "21",
    "region_code": "27",
    "postal_code": "21140"
  },
  {
    "name": "Magny-lès-Aubigny",
    "code": "21366",
    "epci_code": "242101509",
    "departement_code": "21",
    "region_code": "27",
    "postal_code": "21170"
  },
  {
    "name": "Magny-Montarlot",
    "code": "21367",
    "epci_code": "200070902",
    "departement_code": "21",
    "region_code": "27",
    "postal_code": "21130"
  },
  {
    "name": "Magny-lès-Villers",
    "code": "21368",
    "epci_code": "200070894",
    "departement_code": "21",
    "region_code": "27",
    "postal_code": "21700"
  },
  {
    "name": "Magny-Saint-Médard",
    "code": "21369",
    "epci_code": "200072825",
    "departement_code": "21",
    "region_code": "27",
    "postal_code": "21310"
  },
  {
    "name": "Magny-sur-Tille",
    "code": "21370",
    "epci_code": "242100410",
    "departement_code": "21",
    "region_code": "27",
    "postal_code": "21110"
  },
  {
    "name": "Les Maillys",
    "code": "21371",
    "epci_code": "200070902",
    "departement_code": "21",
    "region_code": "27",
    "postal_code": "21130"
  },
  {
    "name": "Maisey-le-Duc",
    "code": "21372",
    "epci_code": "242101434",
    "departement_code": "21",
    "region_code": "27",
    "postal_code": "21400"
  },
  {
    "name": "Mâlain",
    "code": "21373",
    "epci_code": "200039055",
    "departement_code": "21",
    "region_code": "27",
    "postal_code": "21410"
  },
  {
    "name": "Maligny",
    "code": "21374",
    "epci_code": "200071173",
    "departement_code": "21",
    "region_code": "27",
    "postal_code": "21230"
  },
  {
    "name": "Manlay",
    "code": "21375",
    "epci_code": "200071173",
    "departement_code": "21",
    "region_code": "27",
    "postal_code": "21430"
  },
  {
    "name": "Marandeuil",
    "code": "21376",
    "epci_code": "200070902",
    "departement_code": "21",
    "region_code": "27",
    "postal_code": "21270"
  },
  {
    "name": "Marcellois",
    "code": "21377",
    "epci_code": "200071017",
    "departement_code": "21",
    "region_code": "27",
    "postal_code": "21350"
  },
  {
    "name": "Marcenay",
    "code": "21378",
    "epci_code": "242101434",
    "departement_code": "21",
    "region_code": "27",
    "postal_code": "21330"
  },
  {
    "name": "Marcheseuil",
    "code": "21379",
    "epci_code": "200071173",
    "departement_code": "21",
    "region_code": "27",
    "postal_code": "21430"
  },
  {
    "name": "Marcigny-sous-Thil",
    "code": "21380",
    "epci_code": "200071017",
    "departement_code": "21",
    "region_code": "27",
    "postal_code": "21390"
  },
  {
    "name": "Marcilly-et-Dracy",
    "code": "21381",
    "epci_code": "200071017",
    "departement_code": "21",
    "region_code": "27",
    "postal_code": "21350"
  },
  {
    "name": "Marcilly-Ogny",
    "code": "21382",
    "epci_code": "200071207",
    "departement_code": "21",
    "region_code": "27",
    "postal_code": "21320"
  },
  {
    "name": "Marcilly-sur-Tille",
    "code": "21383",
    "epci_code": "242100154",
    "departement_code": "21",
    "region_code": "27",
    "postal_code": "21120"
  },
  {
    "name": "Marey-lès-Fussey",
    "code": "21384",
    "epci_code": "200070894",
    "departement_code": "21",
    "region_code": "27",
    "postal_code": "21700"
  },
  {
    "name": "Marey-sur-Tille",
    "code": "21385",
    "epci_code": "242100154",
    "departement_code": "21",
    "region_code": "27",
    "postal_code": "21120"
  },
  {
    "name": "Marigny-le-Cahouët",
    "code": "21386",
    "epci_code": "242101459",
    "departement_code": "21",
    "region_code": "27",
    "postal_code": "21150"
  },
  {
    "name": "Marigny-lès-Reullée",
    "code": "21387",
    "epci_code": "200006682",
    "departement_code": "21",
    "region_code": "27",
    "postal_code": "21200"
  },
  {
    "name": "Marliens",
    "code": "21388",
    "epci_code": "200000925",
    "departement_code": "21",
    "region_code": "27",
    "postal_code": "21110"
  },
  {
    "name": "Marmagne",
    "code": "21389",
    "epci_code": "242101491",
    "departement_code": "21",
    "region_code": "27",
    "postal_code": "21500"
  },
  {
    "name": "Marsannay-la-Côte",
    "code": "21390",
    "epci_code": "242100410",
    "departement_code": "21",
    "region_code": "27",
    "postal_code": "21160"
  },
  {
    "name": "Marsannay-le-Bois",
    "code": "21391",
    "epci_code": "242100154",
    "departement_code": "21",
    "region_code": "27",
    "postal_code": "21380"
  },
  {
    "name": "Martrois",
    "code": "21392",
    "epci_code": "200071207",
    "departement_code": "21",
    "region_code": "27",
    "postal_code": "21320"
  },
  {
    "name": "Massingy",
    "code": "21393",
    "epci_code": "242101434",
    "departement_code": "21",
    "region_code": "27",
    "postal_code": "21400"
  },
  {
    "name": "Massingy-lès-Semur",
    "code": "21394",
    "epci_code": "200071017",
    "departement_code": "21",
    "region_code": "27",
    "postal_code": "21140"
  },
  {
    "name": "Massingy-lès-Vitteaux",
    "code": "21395",
    "epci_code": "200071017",
    "departement_code": "21",
    "region_code": "27",
    "postal_code": "21350"
  },
  {
    "name": "Mauvilly",
    "code": "21396",
    "epci_code": "242101434",
    "departement_code": "21",
    "region_code": "27",
    "postal_code": "21510"
  },
  {
    "name": "Mavilly-Mandelot",
    "code": "21397",
    "epci_code": "200006682",
    "departement_code": "21",
    "region_code": "27",
    "postal_code": "21190"
  },
  {
    "name": "Maxilly-sur-Saône",
    "code": "21398",
    "epci_code": "200070902",
    "departement_code": "21",
    "region_code": "27",
    "postal_code": "21270"
  },
  {
    "name": "Meilly-sur-Rouvres",
    "code": "21399",
    "epci_code": "200071207",
    "departement_code": "21",
    "region_code": "27",
    "postal_code": "21320"
  },
  {
    "name": "Le Meix",
    "code": "21400",
    "epci_code": "200070910",
    "departement_code": "21",
    "region_code": "27",
    "postal_code": "21580"
  },
  {
    "name": "Meloisey",
    "code": "21401",
    "epci_code": "200006682",
    "departement_code": "21",
    "region_code": "27",
    "postal_code": "21190"
  },
  {
    "name": "Menesble",
    "code": "21402",
    "epci_code": "242101434",
    "departement_code": "21",
    "region_code": "27",
    "postal_code": "21290"
  },
  {
    "name": "Ménessaire",
    "code": "21403",
    "epci_code": "200071173",
    "departement_code": "21",
    "region_code": "27",
    "postal_code": "21430"
  },
  {
    "name": "Ménétreux-le-Pitois",
    "code": "21404",
    "epci_code": "242101459",
    "departement_code": "21",
    "region_code": "27",
    "postal_code": "21150"
  },
  {
    "name": "Merceuil",
    "code": "21405",
    "epci_code": "200006682",
    "departement_code": "21",
    "region_code": "27",
    "postal_code": "21190"
  },
  {
    "name": "Mesmont",
    "code": "21406",
    "epci_code": "200039055",
    "departement_code": "21",
    "region_code": "27",
    "postal_code": "21540"
  },
  {
    "name": "Messanges",
    "code": "21407",
    "epci_code": "200070894",
    "departement_code": "21",
    "region_code": "27",
    "postal_code": "21220"
  },
  {
    "name": "Messigny-et-Vantoux",
    "code": "21408",
    "epci_code": "200039063",
    "departement_code": "21",
    "region_code": "27",
    "postal_code": "21380"
  },
  {
    "name": "Meuilley",
    "code": "21409",
    "epci_code": "200070894",
    "departement_code": "21",
    "region_code": "27",
    "postal_code": "21700"
  },
  {
    "name": "Meulson",
    "code": "21410",
    "epci_code": "242101434",
    "departement_code": "21",
    "region_code": "27",
    "postal_code": "21510"
  },
  {
    "name": "Meursanges",
    "code": "21411",
    "epci_code": "200006682",
    "departement_code": "21",
    "region_code": "27",
    "postal_code": "21200"
  },
  {
    "name": "Meursault",
    "code": "21412",
    "epci_code": "200006682",
    "departement_code": "21",
    "region_code": "27",
    "postal_code": "21190"
  },
  {
    "name": "Millery",
    "code": "21413",
    "epci_code": "200071017",
    "departement_code": "21",
    "region_code": "27",
    "postal_code": "21140"
  },
  {
    "name": "Mimeure",
    "code": "21414",
    "epci_code": "200071173",
    "departement_code": "21",
    "region_code": "27",
    "postal_code": "21230"
  },
  {
    "name": "Minot",
    "code": "21415",
    "epci_code": "242101434",
    "departement_code": "21",
    "region_code": "27",
    "postal_code": "21510"
  },
  {
    "name": "Mirebeau-sur-Bèze",
    "code": "21416",
    "epci_code": "200072825",
    "departement_code": "21",
    "region_code": "27",
    "postal_code": "21310"
  },
  {
    "name": "Missery",
    "code": "21417",
    "epci_code": "200071017",
    "departement_code": "21",
    "region_code": "27",
    "postal_code": "21210"
  },
  {
    "name": "Moitron",
    "code": "21418",
    "epci_code": "242101434",
    "departement_code": "21",
    "region_code": "27",
    "postal_code": "21510"
  },
  {
    "name": "Molesme",
    "code": "21419",
    "epci_code": "242101434",
    "departement_code": "21",
    "region_code": "27",
    "postal_code": "21330"
  },
  {
    "name": "Molinot",
    "code": "21420",
    "epci_code": "200006682",
    "departement_code": "21",
    "region_code": "27",
    "postal_code": "21340"
  },
  {
    "name": "Moloy",
    "code": "21421",
    "epci_code": "242100154",
    "departement_code": "21",
    "region_code": "27",
    "postal_code": "21120"
  },
  {
    "name": "Molphey",
    "code": "21422",
    "epci_code": "242101442",
    "departement_code": "21",
    "region_code": "27",
    "postal_code": "21210"
  },
  {
    "name": "Montagny-lès-Beaune",
    "code": "21423",
    "epci_code": "200006682",
    "departement_code": "21",
    "region_code": "27",
    "postal_code": "21200"
  },
  {
    "name": "Montagny-lès-Seurre",
    "code": "21424",
    "epci_code": "242101509",
    "departement_code": "21",
    "region_code": "27",
    "postal_code": "21250"
  },
  {
    "name": "Montbard",
    "code": "21425",
    "epci_code": "242101491",
    "departement_code": "21",
    "region_code": "27",
    "postal_code": "21500"
  },
  {
    "name": "Montberthault",
    "code": "21426",
    "epci_code": "200071017",
    "departement_code": "21",
    "region_code": "27",
    "postal_code": "21460"
  },
  {
    "name": "Montceau-et-Écharnant",
    "code": "21427",
    "epci_code": "200071207",
    "departement_code": "21",
    "region_code": "27",
    "postal_code": "21360"
  },
  {
    "name": "Monthelie",
    "code": "21428",
    "epci_code": "200006682",
    "departement_code": "21",
    "region_code": "27",
    "postal_code": "21190"
  },
  {
    "name": "Montigny-Montfort",
    "code": "21429",
    "epci_code": "242101491",
    "departement_code": "21",
    "region_code": "27",
    "postal_code": "21500"
  },
  {
    "name": "Montigny-Saint-Barthélemy",
    "code": "21430",
    "epci_code": "200071017",
    "departement_code": "21",
    "region_code": "27",
    "postal_code": "21390"
  },
  {
    "name": "Montigny-sur-Armançon",
    "code": "21431",
    "epci_code": "200071017",
    "departement_code": "21",
    "region_code": "27",
    "postal_code": "21140"
  },
  {
    "name": "Montigny-sur-Aube",
    "code": "21432",
    "epci_code": "242101434",
    "departement_code": "21",
    "region_code": "27",
    "postal_code": "21520"
  },
  {
    "name": "Montigny-Mornay-Villeneuve-sur-Vingeanne",
    "code": "21433",
    "epci_code": "200072825",
    "departement_code": "21",
    "region_code": "27",
    "postal_code": "21610"
  },
  {
    "name": "Montlay-en-Auxois",
    "code": "21434",
    "epci_code": "200071017",
    "departement_code": "21",
    "region_code": "27",
    "postal_code": "21210"
  },
  {
    "name": "Montliot-et-Courcelles",
    "code": "21435",
    "epci_code": "242101434",
    "departement_code": "21",
    "region_code": "27",
    "postal_code": "21400"
  },
  {
    "name": "Montmain",
    "code": "21436",
    "epci_code": "242101509",
    "departement_code": "21",
    "region_code": "27",
    "postal_code": "21250"
  },
  {
    "name": "Montmançon",
    "code": "21437",
    "epci_code": "200070902",
    "departement_code": "21",
    "region_code": "27",
    "postal_code": "21270"
  },
  {
    "name": "Montmoyen",
    "code": "21438",
    "epci_code": "242101434",
    "departement_code": "21",
    "region_code": "27",
    "postal_code": "21290"
  },
  {
    "name": "Montoillot",
    "code": "21439",
    "epci_code": "200039055",
    "departement_code": "21",
    "region_code": "27",
    "postal_code": "21540"
  },
  {
    "name": "Montot",
    "code": "21440",
    "epci_code": "242101509",
    "departement_code": "21",
    "region_code": "27",
    "postal_code": "21170"
  },
  {
    "name": "Mont-Saint-Jean",
    "code": "21441",
    "epci_code": "200071207",
    "departement_code": "21",
    "region_code": "27",
    "postal_code": "21320"
  },
  {
    "name": "Morey-Saint-Denis",
    "code": "21442",
    "epci_code": "200070894",
    "departement_code": "21",
    "region_code": "27",
    "postal_code": "21220"
  },
  {
    "name": "Mosson",
    "code": "21444",
    "epci_code": "242101434",
    "departement_code": "21",
    "region_code": "27",
    "postal_code": "21400"
  },
  {
    "name": "La Motte-Ternant",
    "code": "21445",
    "epci_code": "242101442",
    "departement_code": "21",
    "region_code": "27",
    "postal_code": "21210"
  },
  {
    "name": "Moutiers-Saint-Jean",
    "code": "21446",
    "epci_code": "242101491",
    "departement_code": "21",
    "region_code": "27",
    "postal_code": "21500"
  },
  {
    "name": "Musigny",
    "code": "21447",
    "epci_code": "200071173",
    "departement_code": "21",
    "region_code": "27",
    "postal_code": "21230"
  },
  {
    "name": "Mussy-la-Fosse",
    "code": "21448",
    "epci_code": "242101459",
    "departement_code": "21",
    "region_code": "27",
    "postal_code": "21150"
  },
  {
    "name": "Nan-sous-Thil",
    "code": "21449",
    "epci_code": "200071017",
    "departement_code": "21",
    "region_code": "27",
    "postal_code": "21390"
  },
  {
    "name": "Nantoux",
    "code": "21450",
    "epci_code": "200006682",
    "departement_code": "21",
    "region_code": "27",
    "postal_code": "21190"
  },
  {
    "name": "Nesle-et-Massoult",
    "code": "21451",
    "epci_code": "242101491",
    "departement_code": "21",
    "region_code": "27",
    "postal_code": "21330"
  },
  {
    "name": "Neuilly-Crimolois",
    "code": "21452",
    "epci_code": "242100410",
    "departement_code": "21",
    "region_code": "27",
    "postal_code": "21800"
  },
  {
    "name": "Nicey",
    "code": "21454",
    "epci_code": "242101434",
    "departement_code": "21",
    "region_code": "27",
    "postal_code": "21330"
  },
  {
    "name": "Nod-sur-Seine",
    "code": "21455",
    "epci_code": "242101434",
    "departement_code": "21",
    "region_code": "27",
    "postal_code": "21400"
  },
  {
    "name": "Nogent-lès-Montbard",
    "code": "21456",
    "epci_code": "242101491",
    "departement_code": "21",
    "region_code": "27",
    "postal_code": "21500"
  },
  {
    "name": "Noidan",
    "code": "21457",
    "epci_code": "200071017",
    "departement_code": "21",
    "region_code": "27",
    "postal_code": "21390"
  },
  {
    "name": "Noiron-sous-Gevrey",
    "code": "21458",
    "epci_code": "200070894",
    "departement_code": "21",
    "region_code": "27",
    "postal_code": "21910"
  },
  {
    "name": "Noiron-sur-Bèze",
    "code": "21459",
    "epci_code": "200072825",
    "departement_code": "21",
    "region_code": "27",
    "postal_code": "21310"
  },
  {
    "name": "Noiron-sur-Seine",
    "code": "21460",
    "epci_code": "242101434",
    "departement_code": "21",
    "region_code": "27",
    "postal_code": "21400"
  },
  {
    "name": "Nolay",
    "code": "21461",
    "epci_code": "200006682",
    "departement_code": "21",
    "region_code": "27",
    "postal_code": "21340"
  },
  {
    "name": "Norges-la-Ville",
    "code": "21462",
    "epci_code": "200069540",
    "departement_code": "21",
    "region_code": "27",
    "postal_code": "21490"
  },
  {
    "name": "Normier",
    "code": "21463",
    "epci_code": "200071017",
    "departement_code": "21",
    "region_code": "27",
    "postal_code": "21390"
  },
  {
    "name": "Nuits-Saint-Georges",
    "code": "21464",
    "epci_code": "200070894",
    "departement_code": "21",
    "region_code": "27",
    "postal_code": "21700"
  },
  {
    "name": "Obtrée",
    "code": "21465",
    "epci_code": "242101434",
    "departement_code": "21",
    "region_code": "27",
    "postal_code": "21400"
  },
  {
    "name": "Oigny",
    "code": "21466",
    "epci_code": "242101434",
    "departement_code": "21",
    "region_code": "27",
    "postal_code": "21450"
  },
  {
    "name": "Oisilly",
    "code": "21467",
    "epci_code": "200072825",
    "departement_code": "21",
    "region_code": "27",
    "postal_code": "21310"
  },
  {
    "name": "Orain",
    "code": "21468",
    "epci_code": "200072825",
    "departement_code": "21",
    "region_code": "27",
    "postal_code": "21610"
  },
  {
    "name": "Orgeux",
    "code": "21469",
    "epci_code": "200069540",
    "departement_code": "21",
    "region_code": "27",
    "postal_code": "21490"
  },
  {
    "name": "Origny",
    "code": "21470",
    "epci_code": "242101434",
    "departement_code": "21",
    "region_code": "27",
    "postal_code": "21510"
  },
  {
    "name": "Orret",
    "code": "21471",
    "epci_code": "242101434",
    "departement_code": "21",
    "region_code": "27",
    "postal_code": "21450"
  },
  {
    "name": "Orville",
    "code": "21472",
    "epci_code": "200070910",
    "departement_code": "21",
    "region_code": "27",
    "postal_code": "21260"
  },
  {
    "name": "Ouges",
    "code": "21473",
    "epci_code": "242100410",
    "departement_code": "21",
    "region_code": "27",
    "postal_code": "21600"
  },
  {
    "name": "Pagny-la-Ville",
    "code": "21474",
    "epci_code": "242101509",
    "departement_code": "21",
    "region_code": "27",
    "postal_code": "21250"
  },
  {
    "name": "Pagny-le-Château",
    "code": "21475",
    "epci_code": "242101509",
    "departement_code": "21",
    "region_code": "27",
    "postal_code": "21250"
  },
  {
    "name": "Painblanc",
    "code": "21476",
    "epci_code": "200071207",
    "departement_code": "21",
    "region_code": "27",
    "postal_code": "21360"
  },
  {
    "name": "Panges",
    "code": "21477",
    "epci_code": "200039063",
    "departement_code": "21",
    "region_code": "27",
    "postal_code": "21540"
  },
  {
    "name": "Pasques",
    "code": "21478",
    "epci_code": "200039055",
    "departement_code": "21",
    "region_code": "27",
    "postal_code": "21370"
  },
  {
    "name": "Pellerey",
    "code": "21479",
    "epci_code": "200039063",
    "departement_code": "21",
    "region_code": "27",
    "postal_code": "21440"
  },
  {
    "name": "Pernand-Vergelesses",
    "code": "21480",
    "epci_code": "200006682",
    "departement_code": "21",
    "region_code": "27",
    "postal_code": "21420"
  },
  {
    "name": "Perrigny-lès-Dijon",
    "code": "21481",
    "epci_code": "242100410",
    "departement_code": "21",
    "region_code": "27",
    "postal_code": "21160"
  },
  {
    "name": "Perrigny-sur-l’Ognon",
    "code": "21482",
    "epci_code": "200070902",
    "departement_code": "21",
    "region_code": "27",
    "postal_code": "21270"
  },
  {
    "name": "Pichanges",
    "code": "21483",
    "epci_code": "242100154",
    "departement_code": "21",
    "region_code": "27",
    "postal_code": "21120"
  },
  {
    "name": "Planay",
    "code": "21484",
    "epci_code": "242101491",
    "departement_code": "21",
    "region_code": "27",
    "postal_code": "21500"
  },
  {
    "name": "Plombières-lès-Dijon",
    "code": "21485",
    "epci_code": "242100410",
    "departement_code": "21",
    "region_code": "27",
    "postal_code": "21370"
  },
  {
    "name": "Pluvet",
    "code": "21487",
    "epci_code": "200000925",
    "departement_code": "21",
    "region_code": "27",
    "postal_code": "21110"
  },
  {
    "name": "Poinçon-lès-Larrey",
    "code": "21488",
    "epci_code": "242101434",
    "departement_code": "21",
    "region_code": "27",
    "postal_code": "21330"
  },
  {
    "name": "Poiseul-la-Grange",
    "code": "21489",
    "epci_code": "200039063",
    "departement_code": "21",
    "region_code": "27",
    "postal_code": "21440"
  },
  {
    "name": "Poiseul-la-Ville-et-Laperrière",
    "code": "21490",
    "epci_code": "242101434",
    "departement_code": "21",
    "region_code": "27",
    "postal_code": "21450"
  },
  {
    "name": "Poiseul-lès-Saulx",
    "code": "21491",
    "epci_code": "242100154",
    "departement_code": "21",
    "region_code": "27",
    "postal_code": "21120"
  },
  {
    "name": "Pommard",
    "code": "21492",
    "epci_code": "200006682",
    "departement_code": "21",
    "region_code": "27",
    "postal_code": "21630"
  },
  {
    "name": "Poncey-lès-Athée",
    "code": "21493",
    "epci_code": "200070902",
    "departement_code": "21",
    "region_code": "27",
    "postal_code": "21130"
  },
  {
    "name": "Poncey-sur-l’Ignon",
    "code": "21494",
    "epci_code": "200039063",
    "departement_code": "21",
    "region_code": "27",
    "postal_code": "21440"
  },
  {
    "name": "Pont",
    "code": "21495",
    "epci_code": "200070902",
    "departement_code": "21",
    "region_code": "27",
    "postal_code": "21130"
  },
  {
    "name": "Pontailler-sur-Saône",
    "code": "21496",
    "epci_code": "200070902",
    "departement_code": "21",
    "region_code": "27",
    "postal_code": "21270"
  },
  {
    "name": "Pont-et-Massène",
    "code": "21497",
    "epci_code": "200071017",
    "departement_code": "21",
    "region_code": "27",
    "postal_code": "21140"
  },
  {
    "name": "Posanges",
    "code": "21498",
    "epci_code": "200071017",
    "departement_code": "21",
    "region_code": "27",
    "postal_code": "21350"
  },
  {
    "name": "Pothières",
    "code": "21499",
    "epci_code": "242101434",
    "departement_code": "21",
    "region_code": "27",
    "postal_code": "21400"
  },
  {
    "name": "Pouillenay",
    "code": "21500",
    "epci_code": "242101459",
    "departement_code": "21",
    "region_code": "27",
    "postal_code": "21150"
  },
  {
    "name": "Pouilly-en-Auxois",
    "code": "21501",
    "epci_code": "200071207",
    "departement_code": "21",
    "region_code": "27",
    "postal_code": "21320"
  },
  {
    "name": "Pouilly-sur-Saône",
    "code": "21502",
    "epci_code": "242101509",
    "departement_code": "21",
    "region_code": "27",
    "postal_code": "21250"
  },
  {
    "name": "Pouilly-sur-Vingeanne",
    "code": "21503",
    "epci_code": "200072825",
    "departement_code": "21",
    "region_code": "27",
    "postal_code": "21610"
  },
  {
    "name": "Prâlon",
    "code": "21504",
    "epci_code": "200039055",
    "departement_code": "21",
    "region_code": "27",
    "postal_code": "21410"
  },
  {
    "name": "Précy-sous-Thil",
    "code": "21505",
    "epci_code": "200071017",
    "departement_code": "21",
    "region_code": "27",
    "postal_code": "21390"
  },
  {
    "name": "Premeaux-Prissey",
    "code": "21506",
    "epci_code": "200070894",
    "departement_code": "21",
    "region_code": "27",
    "postal_code": "21700"
  },
  {
    "name": "Prenois",
    "code": "21508",
    "epci_code": "200039063",
    "departement_code": "21",
    "region_code": "27",
    "postal_code": "21370"
  },
  {
    "name": "Prusly-sur-Ource",
    "code": "21510",
    "epci_code": "242101434",
    "departement_code": "21",
    "region_code": "27",
    "postal_code": "21400"
  },
  {
    "name": "Puits",
    "code": "21511",
    "epci_code": "242101434",
    "departement_code": "21",
    "region_code": "27",
    "postal_code": "21400"
  },
  {
    "name": "Puligny-Montrachet",
    "code": "21512",
    "epci_code": "200006682",
    "departement_code": "21",
    "region_code": "27",
    "postal_code": "21190"
  },
  {
    "name": "Quemigny-sur-Seine",
    "code": "21514",
    "epci_code": "242101434",
    "departement_code": "21",
    "region_code": "27",
    "postal_code": "21510"
  },
  {
    "name": "Quetigny",
    "code": "21515",
    "epci_code": "242100410",
    "departement_code": "21",
    "region_code": "27",
    "postal_code": "21800"
  },
  {
    "name": "Quincerot",
    "code": "21516",
    "epci_code": "242101491",
    "departement_code": "21",
    "region_code": "27",
    "postal_code": "21500"
  },
  {
    "name": "Quincey",
    "code": "21517",
    "epci_code": "200070894",
    "departement_code": "21",
    "region_code": "27",
    "postal_code": "21700"
  },
  {
    "name": "Quincy-le-Vicomte",
    "code": "21518",
    "epci_code": "242101491",
    "departement_code": "21",
    "region_code": "27",
    "postal_code": "21500"
  },
  {
    "name": "Recey-sur-Ource",
    "code": "21519",
    "epci_code": "242101434",
    "departement_code": "21",
    "region_code": "27",
    "postal_code": "21290"
  },
  {
    "name": "Remilly-en-Montagne",
    "code": "21520",
    "epci_code": "200039055",
    "departement_code": "21",
    "region_code": "27",
    "postal_code": "21540"
  },
  {
    "name": "Remilly-sur-Tille",
    "code": "21521",
    "epci_code": "200069540",
    "departement_code": "21",
    "region_code": "27",
    "postal_code": "21560"
  },
  {
    "name": "Renève",
    "code": "21522",
    "epci_code": "200072825",
    "departement_code": "21",
    "region_code": "27",
    "postal_code": "21310"
  },
  {
    "name": "Reulle-Vergy",
    "code": "21523",
    "epci_code": "200070894",
    "departement_code": "21",
    "region_code": "27",
    "postal_code": "21220"
  },
  {
    "name": "Riel-les-Eaux",
    "code": "21524",
    "epci_code": "242101434",
    "departement_code": "21",
    "region_code": "27",
    "postal_code": "21570"
  },
  {
    "name": "La Roche-en-Brenil",
    "code": "21525",
    "epci_code": "242101442",
    "departement_code": "21",
    "region_code": "27",
    "postal_code": "21530"
  },
  {
    "name": "Rochefort-sur-Brévon",
    "code": "21526",
    "epci_code": "242101434",
    "departement_code": "21",
    "region_code": "27",
    "postal_code": "21510"
  },
  {
    "name": "La Rochepot",
    "code": "21527",
    "epci_code": "200006682",
    "departement_code": "21",
    "region_code": "27",
    "postal_code": "21340"
  },
  {
    "name": "La Roche-Vanneau",
    "code": "21528",
    "epci_code": "242101459",
    "departement_code": "21",
    "region_code": "27",
    "postal_code": "21150"
  },
  {
    "name": "Roilly",
    "code": "21529",
    "epci_code": "200071017",
    "departement_code": "21",
    "region_code": "27",
    "postal_code": "21390"
  },
  {
    "name": "Rougemont",
    "code": "21530",
    "epci_code": "242101491",
    "departement_code": "21",
    "region_code": "27",
    "postal_code": "21500"
  },
  {
    "name": "Rouvray",
    "code": "21531",
    "epci_code": "242101442",
    "departement_code": "21",
    "region_code": "27",
    "postal_code": "21530"
  },
  {
    "name": "Rouvres-en-Plaine",
    "code": "21532",
    "epci_code": "200000925",
    "departement_code": "21",
    "region_code": "27",
    "postal_code": "21110"
  },
  {
    "name": "Rouvres-sous-Meilly",
    "code": "21533",
    "epci_code": "200071207",
    "departement_code": "21",
    "region_code": "27",
    "postal_code": "21320"
  },
  {
    "name": "Ruffey-lès-Beaune",
    "code": "21534",
    "epci_code": "200006682",
    "departement_code": "21",
    "region_code": "27",
    "postal_code": "21200"
  },
  {
    "name": "Ruffey-lès-Echirey",
    "code": "21535",
    "epci_code": "200069540",
    "departement_code": "21",
    "region_code": "27",
    "postal_code": "21490"
  },
  {
    "name": "Sacquenay",
    "code": "21536",
    "epci_code": "200070910",
    "departement_code": "21",
    "region_code": "27",
    "postal_code": "21260"
  },
  {
    "name": "Saffres",
    "code": "21537",
    "epci_code": "200071017",
    "departement_code": "21",
    "region_code": "27",
    "postal_code": "21350"
  },
  {
    "name": "Saint-Andeux",
    "code": "21538",
    "epci_code": "242101442",
    "departement_code": "21",
    "region_code": "27",
    "postal_code": "21530"
  },
  {
    "name": "Saint-Anthot",
    "code": "21539",
    "epci_code": "200039055",
    "departement_code": "21",
    "region_code": "27",
    "postal_code": "21540"
  },
  {
    "name": "Saint-Apollinaire",
    "code": "21540",
    "epci_code": "242100410",
    "departement_code": "21",
    "region_code": "27",
    "postal_code": "21850"
  },
  {
    "name": "Saint-Aubin",
    "code": "21541",
    "epci_code": "200006682",
    "departement_code": "21",
    "region_code": "27",
    "postal_code": "21190"
  },
  {
    "name": "Saint-Bernard",
    "code": "21542",
    "epci_code": "200070894",
    "departement_code": "21",
    "region_code": "27",
    "postal_code": "21700"
  },
  {
    "name": "Saint-Broing-les-Moines",
    "code": "21543",
    "epci_code": "242101434",
    "departement_code": "21",
    "region_code": "27",
    "postal_code": "21290"
  },
  {
    "name": "Sainte-Colombe-en-Auxois",
    "code": "21544",
    "epci_code": "200071017",
    "departement_code": "21",
    "region_code": "27",
    "postal_code": "21350"
  },
  {
    "name": "Sainte-Colombe-sur-Seine",
    "code": "21545",
    "epci_code": "242101434",
    "departement_code": "21",
    "region_code": "27",
    "postal_code": "21400"
  },
  {
    "name": "Saint-Didier",
    "code": "21546",
    "epci_code": "242101442",
    "departement_code": "21",
    "region_code": "27",
    "postal_code": "21210"
  },
  {
    "name": "Saint-Euphrône",
    "code": "21547",
    "epci_code": "200071017",
    "departement_code": "21",
    "region_code": "27",
    "postal_code": "21140"
  },
  {
    "name": "Saint-Germain-de-Modéon",
    "code": "21548",
    "epci_code": "242101442",
    "departement_code": "21",
    "region_code": "27",
    "postal_code": "21530"
  },
  {
    "name": "Saint-Germain-le-Rocheux",
    "code": "21549",
    "epci_code": "242101434",
    "departement_code": "21",
    "region_code": "27",
    "postal_code": "21510"
  },
  {
    "name": "Saint-Germain-lès-Senailly",
    "code": "21550",
    "epci_code": "242101491",
    "departement_code": "21",
    "region_code": "27",
    "postal_code": "21500"
  },
  {
    "name": "Saint-Hélier",
    "code": "21552",
    "epci_code": "200071017",
    "departement_code": "21",
    "region_code": "27",
    "postal_code": "21690"
  },
  {
    "name": "Saint-Jean-de-Bœuf",
    "code": "21553",
    "epci_code": "200039055",
    "departement_code": "21",
    "region_code": "27",
    "postal_code": "21410"
  },
  {
    "name": "Saint-Jean-de-Losne",
    "code": "21554",
    "epci_code": "242101509",
    "departement_code": "21",
    "region_code": "27",
    "postal_code": "21170"
  },
  {
    "name": "Saint-Julien",
    "code": "21555",
    "epci_code": "200069540",
    "departement_code": "21",
    "region_code": "27",
    "postal_code": "21490"
  },
  {
    "name": "Saint-Léger-Triey",
    "code": "21556",
    "epci_code": "200070902",
    "departement_code": "21",
    "region_code": "27",
    "postal_code": "21270"
  },
  {
    "name": "Saint-Marc-sur-Seine",
    "code": "21557",
    "epci_code": "242101434",
    "departement_code": "21",
    "region_code": "27",
    "postal_code": "21450"
  },
  {
    "name": "Sainte-Marie-la-Blanche",
    "code": "21558",
    "epci_code": "200006682",
    "departement_code": "21",
    "region_code": "27",
    "postal_code": "21200"
  },
  {
    "name": "Sainte-Marie-sur-Ouche",
    "code": "21559",
    "epci_code": "200039055",
    "departement_code": "21",
    "region_code": "27",
    "postal_code": "21410"
  },
  {
    "name": "Saint-Martin-de-la-Mer",
    "code": "21560",
    "epci_code": "200071173",
    "departement_code": "21",
    "region_code": "27",
    "postal_code": "21210"
  },
  {
    "name": "Saint-Martin-du-Mont",
    "code": "21561",
    "epci_code": "200039063",
    "departement_code": "21",
    "region_code": "27",
    "postal_code": "21440"
  },
  {
    "name": "Saint-Maurice-sur-Vingeanne",
    "code": "21562",
    "epci_code": "200072825",
    "departement_code": "21",
    "region_code": "27",
    "postal_code": "21610"
  },
  {
    "name": "Saint-Mesmin",
    "code": "21563",
    "epci_code": "200071017",
    "departement_code": "21",
    "region_code": "27",
    "postal_code": "21540"
  },
  {
    "name": "Saint-Nicolas-lès-Cîteaux",
    "code": "21564",
    "epci_code": "200070894",
    "departement_code": "21",
    "region_code": "27",
    "postal_code": "21700"
  },
  {
    "name": "Saint-Philibert",
    "code": "21565",
    "epci_code": "200070894",
    "departement_code": "21",
    "region_code": "27",
    "postal_code": "21220"
  },
  {
    "name": "Saint-Pierre-en-Vaux",
    "code": "21566",
    "epci_code": "200071173",
    "departement_code": "21",
    "region_code": "27",
    "postal_code": "21230"
  },
  {
    "name": "Saint-Prix-lès-Arnay",
    "code": "21567",
    "epci_code": "200071173",
    "departement_code": "21",
    "region_code": "27",
    "postal_code": "21230"
  },
  {
    "name": "Saint-Rémy",
    "code": "21568",
    "epci_code": "242101491",
    "departement_code": "21",
    "region_code": "27",
    "postal_code": "21500"
  },
  {
    "name": "Saint-Romain",
    "code": "21569",
    "epci_code": "200006682",
    "departement_code": "21",
    "region_code": "27",
    "postal_code": "21190"
  },
  {
    "name": "Sainte-Sabine",
    "code": "21570",
    "epci_code": "200071207",
    "departement_code": "21",
    "region_code": "27",
    "postal_code": "21320"
  },
  {
    "name": "Saint-Sauveur",
    "code": "21571",
    "epci_code": "200070902",
    "departement_code": "21",
    "region_code": "27",
    "postal_code": "21270"
  },
  {
    "name": "Saint-Seine-en-Bâche",
    "code": "21572",
    "epci_code": "242101509",
    "departement_code": "21",
    "region_code": "27",
    "postal_code": "21130"
  },
  {
    "name": "Saint-Seine-l’Abbaye",
    "code": "21573",
    "epci_code": "200039063",
    "departement_code": "21",
    "region_code": "27",
    "postal_code": "21440"
  },
  {
    "name": "Saint-Seine-sur-Vingeanne",
    "code": "21574",
    "epci_code": "200072825",
    "departement_code": "21",
    "region_code": "27",
    "postal_code": "21610"
  },
  {
    "name": "Saint-Symphorien-sur-Saône",
    "code": "21575",
    "epci_code": "242101509",
    "departement_code": "21",
    "region_code": "27",
    "postal_code": "21170"
  },
  {
    "name": "Saint-Thibault",
    "code": "21576",
    "epci_code": "200071017",
    "departement_code": "21",
    "region_code": "27",
    "postal_code": "21350"
  },
  {
    "name": "Saint-Usage",
    "code": "21577",
    "epci_code": "242101509",
    "departement_code": "21",
    "region_code": "27",
    "postal_code": "21170"
  },
  {
    "name": "Saint-Victor-sur-Ouche",
    "code": "21578",
    "epci_code": "200039055",
    "departement_code": "21",
    "region_code": "27",
    "postal_code": "21410"
  },
  {
    "name": "Salives",
    "code": "21579",
    "epci_code": "200070910",
    "departement_code": "21",
    "region_code": "27",
    "postal_code": "21580"
  },
  {
    "name": "Salmaise",
    "code": "21580",
    "epci_code": "242101459",
    "departement_code": "21",
    "region_code": "27",
    "postal_code": "21690"
  },
  {
    "name": "Samerey",
    "code": "21581",
    "epci_code": "242101509",
    "departement_code": "21",
    "region_code": "27",
    "postal_code": "21170"
  },
  {
    "name": "Santenay",
    "code": "21582",
    "epci_code": "200006682",
    "departement_code": "21",
    "region_code": "27",
    "postal_code": "21590"
  },
  {
    "name": "Santosse",
    "code": "21583",
    "epci_code": "200006682",
    "departement_code": "21",
    "region_code": "27",
    "postal_code": "21340"
  },
  {
    "name": "Saulieu",
    "code": "21584",
    "epci_code": "242101442",
    "departement_code": "21",
    "region_code": "27",
    "postal_code": "21210"
  },
  {
    "name": "Saulon-la-Chapelle",
    "code": "21585",
    "epci_code": "200070894",
    "departement_code": "21",
    "region_code": "27",
    "postal_code": "21910"
  },
  {
    "name": "Saulon-la-Rue",
    "code": "21586",
    "epci_code": "200070894",
    "departement_code": "21",
    "region_code": "27",
    "postal_code": "21910"
  },
  {
    "name": "Saulx-le-Duc",
    "code": "21587",
    "epci_code": "242100154",
    "departement_code": "21",
    "region_code": "27",
    "postal_code": "21120"
  },
  {
    "name": "Saussey",
    "code": "21588",
    "epci_code": "200071207",
    "departement_code": "21",
    "region_code": "27",
    "postal_code": "21360"
  },
  {
    "name": "Saussy",
    "code": "21589",
    "epci_code": "200039063",
    "departement_code": "21",
    "region_code": "27",
    "postal_code": "21380"
  },
  {
    "name": "Savigny-lès-Beaune",
    "code": "21590",
    "epci_code": "200006682",
    "departement_code": "21",
    "region_code": "27",
    "postal_code": "21420"
  },
  {
    "name": "Savigny-le-Sec",
    "code": "21591",
    "epci_code": "200039063",
    "departement_code": "21",
    "region_code": "27",
    "postal_code": "21380"
  },
  {
    "name": "Savigny-sous-Mâlain",
    "code": "21592",
    "epci_code": "200039055",
    "departement_code": "21",
    "region_code": "27",
    "postal_code": "21540"
  },
  {
    "name": "Savilly",
    "code": "21593",
    "epci_code": "200071173",
    "departement_code": "21",
    "region_code": "27",
    "postal_code": "21430"
  },
  {
    "name": "Savoisy",
    "code": "21594",
    "epci_code": "242101434",
    "departement_code": "21",
    "region_code": "27",
    "postal_code": "21500"
  },
  {
    "name": "Savolles",
    "code": "21595",
    "epci_code": "200072825",
    "departement_code": "21",
    "region_code": "27",
    "postal_code": "21310"
  },
  {
    "name": "Savouges",
    "code": "21596",
    "epci_code": "200070894",
    "departement_code": "21",
    "region_code": "27",
    "postal_code": "21910"
  },
  {
    "name": "Segrois",
    "code": "21597",
    "epci_code": "200070894",
    "departement_code": "21",
    "region_code": "27",
    "postal_code": "21220"
  },
  {
    "name": "Seigny",
    "code": "21598",
    "epci_code": "242101491",
    "departement_code": "21",
    "region_code": "27",
    "postal_code": "21150"
  },
  {
    "name": "Selongey",
    "code": "21599",
    "epci_code": "200070910",
    "departement_code": "21",
    "region_code": "27",
    "postal_code": "21260"
  },
  {
    "name": "Semarey",
    "code": "21600",
    "epci_code": "200071207",
    "departement_code": "21",
    "region_code": "27",
    "postal_code": "21320"
  },
  {
    "name": "Semezanges",
    "code": "21601",
    "epci_code": "200070894",
    "departement_code": "21",
    "region_code": "27",
    "postal_code": "21220"
  },
  {
    "name": "Semond",
    "code": "21602",
    "epci_code": "242101434",
    "departement_code": "21",
    "region_code": "27",
    "postal_code": "21450"
  },
  {
    "name": "Semur-en-Auxois",
    "code": "21603",
    "epci_code": "200071017",
    "departement_code": "21",
    "region_code": "27",
    "postal_code": "21140"
  },
  {
    "name": "Senailly",
    "code": "21604",
    "epci_code": "242101491",
    "departement_code": "21",
    "region_code": "27",
    "postal_code": "21500"
  },
  {
    "name": "Sennecey-lès-Dijon",
    "code": "21605",
    "epci_code": "242100410",
    "departement_code": "21",
    "region_code": "27",
    "postal_code": "21800"
  },
  {
    "name": "Ladoix-Serrigny",
    "code": "21606",
    "epci_code": "200006682",
    "departement_code": "21",
    "region_code": "27",
    "postal_code": "21550"
  },
  {
    "name": "Seurre",
    "code": "21607",
    "epci_code": "242101509",
    "departement_code": "21",
    "region_code": "27",
    "postal_code": "21250"
  },
  {
    "name": "Sincey-lès-Rouvray",
    "code": "21608",
    "epci_code": "242101442",
    "departement_code": "21",
    "region_code": "27",
    "postal_code": "21530"
  },
  {
    "name": "Soirans",
    "code": "21609",
    "epci_code": "200070902",
    "departement_code": "21",
    "region_code": "27",
    "postal_code": "21110"
  },
  {
    "name": "Soissons-sur-Nacey",
    "code": "21610",
    "epci_code": "200070902",
    "departement_code": "21",
    "region_code": "27",
    "postal_code": "21270"
  },
  {
    "name": "Sombernon",
    "code": "21611",
    "epci_code": "200039055",
    "departement_code": "21",
    "region_code": "27",
    "postal_code": "21540"
  },
  {
    "name": "Souhey",
    "code": "21612",
    "epci_code": "200071017",
    "departement_code": "21",
    "region_code": "27",
    "postal_code": "21140"
  },
  {
    "name": "Soussey-sur-Brionne",
    "code": "21613",
    "epci_code": "200071017",
    "departement_code": "21",
    "region_code": "27",
    "postal_code": "21350"
  },
  {
    "name": "Spoy",
    "code": "21614",
    "epci_code": "242100154",
    "departement_code": "21",
    "region_code": "27",
    "postal_code": "21120"
  },
  {
    "name": "Sussey",
    "code": "21615",
    "epci_code": "200071173",
    "departement_code": "21",
    "region_code": "27",
    "postal_code": "21430"
  },
  {
    "name": "Tailly",
    "code": "21616",
    "epci_code": "200006682",
    "departement_code": "21",
    "region_code": "27",
    "postal_code": "21190"
  },
  {
    "name": "Talant",
    "code": "21617",
    "epci_code": "242100410",
    "departement_code": "21",
    "region_code": "27",
    "postal_code": "21240"
  },
  {
    "name": "Talmay",
    "code": "21618",
    "epci_code": "200070902",
    "departement_code": "21",
    "region_code": "27",
    "postal_code": "21270"
  },
  {
    "name": "Tanay",
    "code": "21619",
    "epci_code": "200072825",
    "departement_code": "21",
    "region_code": "27",
    "postal_code": "21310"
  },
  {
    "name": "Tarsul",
    "code": "21620",
    "epci_code": "242100154",
    "departement_code": "21",
    "region_code": "27",
    "postal_code": "21120"
  },
  {
    "name": "Tart-le-Bas",
    "code": "21622",
    "epci_code": "200000925",
    "departement_code": "21",
    "region_code": "27",
    "postal_code": "21110"
  },
  {
    "name": "Tart",
    "code": "21623",
    "epci_code": "200000925",
    "departement_code": "21",
    "region_code": "27",
    "postal_code": "21110"
  },
  {
    "name": "Tellecey",
    "code": "21624",
    "epci_code": "200070902",
    "departement_code": "21",
    "region_code": "27",
    "postal_code": "21270"
  },
  {
    "name": "Ternant",
    "code": "21625",
    "epci_code": "200070894",
    "departement_code": "21",
    "region_code": "27",
    "postal_code": "21220"
  },
  {
    "name": "Terrefondrée",
    "code": "21626",
    "epci_code": "242101434",
    "departement_code": "21",
    "region_code": "27",
    "postal_code": "21290"
  },
  {
    "name": "Thenissey",
    "code": "21627",
    "epci_code": "242101459",
    "departement_code": "21",
    "region_code": "27",
    "postal_code": "21150"
  },
  {
    "name": "Thoires",
    "code": "21628",
    "epci_code": "242101434",
    "departement_code": "21",
    "region_code": "27",
    "postal_code": "21570"
  },
  {
    "name": "Thoisy-la-Berchère",
    "code": "21629",
    "epci_code": "242101442",
    "departement_code": "21",
    "region_code": "27",
    "postal_code": "21210"
  },
  {
    "name": "Thoisy-le-Désert",
    "code": "21630",
    "epci_code": "200071207",
    "departement_code": "21",
    "region_code": "27",
    "postal_code": "21320"
  },
  {
    "name": "Thomirey",
    "code": "21631",
    "epci_code": "200071207",
    "departement_code": "21",
    "region_code": "27",
    "postal_code": "21360"
  },
  {
    "name": "Thorey-en-Plaine",
    "code": "21632",
    "epci_code": "200000925",
    "departement_code": "21",
    "region_code": "27",
    "postal_code": "21110"
  },
  {
    "name": "Thorey-sous-Charny",
    "code": "21633",
    "epci_code": "200071017",
    "departement_code": "21",
    "region_code": "27",
    "postal_code": "21350"
  },
  {
    "name": "Thorey-sur-Ouche",
    "code": "21634",
    "epci_code": "200071207",
    "departement_code": "21",
    "region_code": "27",
    "postal_code": "21360"
  },
  {
    "name": "Thoste",
    "code": "21635",
    "epci_code": "200071017",
    "departement_code": "21",
    "region_code": "27",
    "postal_code": "21460"
  },
  {
    "name": "Thury",
    "code": "21636",
    "epci_code": "200006682",
    "departement_code": "21",
    "region_code": "27",
    "postal_code": "21340"
  },
  {
    "name": "Tichey",
    "code": "21637",
    "epci_code": "242101509",
    "departement_code": "21",
    "region_code": "27",
    "postal_code": "21250"
  },
  {
    "name": "Til-Châtel",
    "code": "21638",
    "epci_code": "242100154",
    "departement_code": "21",
    "region_code": "27",
    "postal_code": "21120"
  },
  {
    "name": "Tillenay",
    "code": "21639",
    "epci_code": "200070902",
    "departement_code": "21",
    "region_code": "27",
    "postal_code": "21130"
  },
  {
    "name": "Torcy-et-Pouligny",
    "code": "21640",
    "epci_code": "200071017",
    "departement_code": "21",
    "region_code": "27",
    "postal_code": "21460"
  },
  {
    "name": "Touillon",
    "code": "21641",
    "epci_code": "242101491",
    "departement_code": "21",
    "region_code": "27",
    "postal_code": "21500"
  },
  {
    "name": "Toutry",
    "code": "21642",
    "epci_code": "200071017",
    "departement_code": "21",
    "region_code": "27",
    "postal_code": "21460"
  },
  {
    "name": "Tréclun",
    "code": "21643",
    "epci_code": "200070902",
    "departement_code": "21",
    "region_code": "27",
    "postal_code": "21130"
  },
  {
    "name": "Trochères",
    "code": "21644",
    "epci_code": "200072825",
    "departement_code": "21",
    "region_code": "27",
    "postal_code": "21310"
  },
  {
    "name": "Trouhans",
    "code": "21645",
    "epci_code": "242101509",
    "departement_code": "21",
    "region_code": "27",
    "postal_code": "21170"
  },
  {
    "name": "Trouhaut",
    "code": "21646",
    "epci_code": "200039063",
    "departement_code": "21",
    "region_code": "27",
    "postal_code": "21440"
  },
  {
    "name": "Trugny",
    "code": "21647",
    "epci_code": "242101509",
    "departement_code": "21",
    "region_code": "27",
    "postal_code": "21250"
  },
  {
    "name": "Turcey",
    "code": "21648",
    "epci_code": "200039063",
    "departement_code": "21",
    "region_code": "27",
    "postal_code": "21540"
  },
  {
    "name": "Uncey-le-Franc",
    "code": "21649",
    "epci_code": "200071017",
    "departement_code": "21",
    "region_code": "27",
    "postal_code": "21350"
  },
  {
    "name": "Urcy",
    "code": "21650",
    "epci_code": "200070894",
    "departement_code": "21",
    "region_code": "27",
    "postal_code": "21220"
  },
  {
    "name": "Val-Suzon",
    "code": "21651",
    "epci_code": "200039063",
    "departement_code": "21",
    "region_code": "27",
    "postal_code": "21121"
  },
  {
    "name": "Vandenesse-en-Auxois",
    "code": "21652",
    "epci_code": "200071207",
    "departement_code": "21",
    "region_code": "27",
    "postal_code": "21320"
  },
  {
    "name": "Vannaire",
    "code": "21653",
    "epci_code": "242101434",
    "departement_code": "21",
    "region_code": "27",
    "postal_code": "21400"
  },
  {
    "name": "Vanvey",
    "code": "21655",
    "epci_code": "242101434",
    "departement_code": "21",
    "region_code": "27",
    "postal_code": "21400"
  },
  {
    "name": "Varanges",
    "code": "21656",
    "epci_code": "200000925",
    "departement_code": "21",
    "region_code": "27",
    "postal_code": "21110"
  },
  {
    "name": "Varois-et-Chaignot",
    "code": "21657",
    "epci_code": "200069540",
    "departement_code": "21",
    "region_code": "27",
    "postal_code": "21490"
  },
  {
    "name": "Vaux-Saules",
    "code": "21659",
    "epci_code": "200039063",
    "departement_code": "21",
    "region_code": "27",
    "postal_code": "21440"
  },
  {
    "name": "Veilly",
    "code": "21660",
    "epci_code": "200071207",
    "departement_code": "21",
    "region_code": "27",
    "postal_code": "21360"
  },
  {
    "name": "Velars-sur-Ouche",
    "code": "21661",
    "epci_code": "200039055",
    "departement_code": "21",
    "region_code": "27",
    "postal_code": "21370"
  },
  {
    "name": "Velogny",
    "code": "21662",
    "epci_code": "200071017",
    "departement_code": "21",
    "region_code": "27",
    "postal_code": "21350"
  },
  {
    "name": "Venarey-les-Laumes",
    "code": "21663",
    "epci_code": "242101459",
    "departement_code": "21",
    "region_code": "27",
    "postal_code": "21150"
  },
  {
    "name": "Verdonnet",
    "code": "21664",
    "epci_code": "242101491",
    "departement_code": "21",
    "region_code": "27",
    "postal_code": "21330"
  },
  {
    "name": "Vernois-lès-Vesvres",
    "code": "21665",
    "epci_code": "200070910",
    "departement_code": "21",
    "region_code": "27",
    "postal_code": "21260"
  },
  {
    "name": "Vernot",
    "code": "21666",
    "epci_code": "242100154",
    "departement_code": "21",
    "region_code": "27",
    "postal_code": "21120"
  },
  {
    "name": "Véronnes",
    "code": "21667",
    "epci_code": "200070910",
    "departement_code": "21",
    "region_code": "27",
    "postal_code": "21260"
  },
  {
    "name": "Verrey-sous-Drée",
    "code": "21669",
    "epci_code": "200039055",
    "departement_code": "21",
    "region_code": "27",
    "postal_code": "21540"
  },
  {
    "name": "Verrey-sous-Salmaise",
    "code": "21670",
    "epci_code": "242101459",
    "departement_code": "21",
    "region_code": "27",
    "postal_code": "21690"
  },
  {
    "name": "Vertault",
    "code": "21671",
    "epci_code": "242101434",
    "departement_code": "21",
    "region_code": "27",
    "postal_code": "21330"
  },
  {
    "name": "Vesvres",
    "code": "21672",
    "epci_code": "200071017",
    "departement_code": "21",
    "region_code": "27",
    "postal_code": "21350"
  },
  {
    "name": "Veuvey-sur-Ouche",
    "code": "21673",
    "epci_code": "200071207",
    "departement_code": "21",
    "region_code": "27",
    "postal_code": "21360"
  },
  {
    "name": "Veuxhaulles-sur-Aube",
    "code": "21674",
    "epci_code": "242101434",
    "departement_code": "21",
    "region_code": "27",
    "postal_code": "21520"
  },
  {
    "name": "Vianges",
    "code": "21675",
    "epci_code": "200071173",
    "departement_code": "21",
    "region_code": "27",
    "postal_code": "21430"
  },
  {
    "name": "Vic-de-Chassenay",
    "code": "21676",
    "epci_code": "200071017",
    "departement_code": "21",
    "region_code": "27",
    "postal_code": "21140"
  },
  {
    "name": "Vic-des-Prés",
    "code": "21677",
    "epci_code": "200071207",
    "departement_code": "21",
    "region_code": "27",
    "postal_code": "21360"
  },
  {
    "name": "Vic-sous-Thil",
    "code": "21678",
    "epci_code": "200071017",
    "departement_code": "21",
    "region_code": "27",
    "postal_code": "21390"
  },
  {
    "name": "Vieilmoulin",
    "code": "21679",
    "epci_code": "200039055",
    "departement_code": "21",
    "region_code": "27",
    "postal_code": "21540"
  },
  {
    "name": "Vielverge",
    "code": "21680",
    "epci_code": "200070902",
    "departement_code": "21",
    "region_code": "27",
    "postal_code": "21270"
  },
  {
    "name": "Vieux-Château",
    "code": "21681",
    "epci_code": "200071017",
    "departement_code": "21",
    "region_code": "27",
    "postal_code": "21460"
  },
  {
    "name": "Viévigne",
    "code": "21682",
    "epci_code": "200072825",
    "departement_code": "21",
    "region_code": "27",
    "postal_code": "21310"
  },
  {
    "name": "Viévy",
    "code": "21683",
    "epci_code": "200071173",
    "departement_code": "21",
    "region_code": "27",
    "postal_code": "21230"
  },
  {
    "name": "Vignoles",
    "code": "21684",
    "epci_code": "200006682",
    "departement_code": "21",
    "region_code": "27",
    "postal_code": "21200"
  },
  {
    "name": "Villaines-en-Duesmois",
    "code": "21685",
    "epci_code": "242101434",
    "departement_code": "21",
    "region_code": "27",
    "postal_code": "21450"
  },
  {
    "name": "Villaines-les-Prévôtes",
    "code": "21686",
    "epci_code": "242101491",
    "departement_code": "21",
    "region_code": "27",
    "postal_code": "21500"
  },
  {
    "name": "Villargoix",
    "code": "21687",
    "epci_code": "242101442",
    "departement_code": "21",
    "region_code": "27",
    "postal_code": "21210"
  },
  {
    "name": "Villars-Fontaine",
    "code": "21688",
    "epci_code": "200070894",
    "departement_code": "21",
    "region_code": "27",
    "postal_code": "21700"
  },
  {
    "name": "Villars-et-Villenotte",
    "code": "21689",
    "epci_code": "200071017",
    "departement_code": "21",
    "region_code": "27",
    "postal_code": "21140"
  },
  {
    "name": "Villeberny",
    "code": "21690",
    "epci_code": "200071017",
    "departement_code": "21",
    "region_code": "27",
    "postal_code": "21350"
  },
  {
    "name": "Villebichot",
    "code": "21691",
    "epci_code": "200070894",
    "departement_code": "21",
    "region_code": "27",
    "postal_code": "21700"
  },
  {
    "name": "Villecomte",
    "code": "21692",
    "epci_code": "242100154",
    "departement_code": "21",
    "region_code": "27",
    "postal_code": "21120"
  },
  {
    "name": "Villedieu",
    "code": "21693",
    "epci_code": "242101434",
    "departement_code": "21",
    "region_code": "27",
    "postal_code": "21330"
  },
  {
    "name": "Villeferry",
    "code": "21694",
    "epci_code": "200071017",
    "departement_code": "21",
    "region_code": "27",
    "postal_code": "21350"
  },
  {
    "name": "La Villeneuve-les-Convers",
    "code": "21695",
    "epci_code": "242101459",
    "departement_code": "21",
    "region_code": "27",
    "postal_code": "21450"
  },
  {
    "name": "Villeneuve-sous-Charigny",
    "code": "21696",
    "epci_code": "200071017",
    "departement_code": "21",
    "region_code": "27",
    "postal_code": "21140"
  },
  {
    "name": "Villers-la-Faye",
    "code": "21698",
    "epci_code": "200070894",
    "departement_code": "21",
    "region_code": "27",
    "postal_code": "21700"
  },
  {
    "name": "Villers-les-Pots",
    "code": "21699",
    "epci_code": "200070902",
    "departement_code": "21",
    "region_code": "27",
    "postal_code": "21130"
  },
  {
    "name": "Villers-Patras",
    "code": "21700",
    "epci_code": "242101434",
    "departement_code": "21",
    "region_code": "27",
    "postal_code": "21400"
  },
  {
    "name": "Villers-Rotin",
    "code": "21701",
    "epci_code": "200070902",
    "departement_code": "21",
    "region_code": "27",
    "postal_code": "21130"
  },
  {
    "name": "Villey-sur-Tille",
    "code": "21702",
    "epci_code": "242100154",
    "departement_code": "21",
    "region_code": "27",
    "postal_code": "21120"
  },
  {
    "name": "Villiers-en-Morvan",
    "code": "21703",
    "epci_code": "200071173",
    "departement_code": "21",
    "region_code": "27",
    "postal_code": "21430"
  },
  {
    "name": "Villiers-le-Duc",
    "code": "21704",
    "epci_code": "242101434",
    "departement_code": "21",
    "region_code": "27",
    "postal_code": "21400"
  },
  {
    "name": "Villotte-Saint-Seine",
    "code": "21705",
    "epci_code": "200039063",
    "departement_code": "21",
    "region_code": "27",
    "postal_code": "21690"
  },
  {
    "name": "Villotte-sur-Ource",
    "code": "21706",
    "epci_code": "242101434",
    "departement_code": "21",
    "region_code": "27",
    "postal_code": "21400"
  },
  {
    "name": "Villy-en-Auxois",
    "code": "21707",
    "epci_code": "200071017",
    "departement_code": "21",
    "region_code": "27",
    "postal_code": "21350"
  },
  {
    "name": "Villy-le-Moutier",
    "code": "21708",
    "epci_code": "200070894",
    "departement_code": "21",
    "region_code": "27",
    "postal_code": "21250"
  },
  {
    "name": "Viserny",
    "code": "21709",
    "epci_code": "242101491",
    "departement_code": "21",
    "region_code": "27",
    "postal_code": "21500"
  },
  {
    "name": "Vitteaux",
    "code": "21710",
    "epci_code": "200071017",
    "departement_code": "21",
    "region_code": "27",
    "postal_code": "21350"
  },
  {
    "name": "Vix",
    "code": "21711",
    "epci_code": "242101434",
    "departement_code": "21",
    "region_code": "27",
    "postal_code": "21400"
  },
  {
    "name": "Volnay",
    "code": "21712",
    "epci_code": "200006682",
    "departement_code": "21",
    "region_code": "27",
    "postal_code": "21190"
  },
  {
    "name": "Vonges",
    "code": "21713",
    "epci_code": "200070902",
    "departement_code": "21",
    "region_code": "27",
    "postal_code": "21270"
  },
  {
    "name": "Vosne-Romanée",
    "code": "21714",
    "epci_code": "200070894",
    "departement_code": "21",
    "region_code": "27",
    "postal_code": "21700"
  },
  {
    "name": "Voudenay",
    "code": "21715",
    "epci_code": "200071173",
    "departement_code": "21",
    "region_code": "27",
    "postal_code": "21230"
  },
  {
    "name": "Vougeot",
    "code": "21716",
    "epci_code": "200070894",
    "departement_code": "21",
    "region_code": "27",
    "postal_code": "21640"
  },
  {
    "name": "Voulaines-les-Templiers",
    "code": "21717",
    "epci_code": "242101434",
    "departement_code": "21",
    "region_code": "27",
    "postal_code": "21290"
  }
]