[
  {
    "name": "Aguts",
    "code": "81001",
    "epci_code": "248100158",
    "departement_code": "81",
    "region_code": "76",
    "postal_code": "81470"
  },
  {
    "name": "Aiguefonde",
    "code": "81002",
    "epci_code": "248100430",
    "departement_code": "81",
    "region_code": "76",
    "postal_code": "81200"
  },
  {
    "name": "Alban",
    "code": "81003",
    "epci_code": "200034031",
    "departement_code": "81",
    "region_code": "76",
    "postal_code": "81250"
  },
  {
    "name": "Albi",
    "code": "81004",
    "epci_code": "248100737",
    "departement_code": "81",
    "region_code": "76",
    "postal_code": "81000"
  },
  {
    "name": "Albine",
    "code": "81005",
    "epci_code": "248100745",
    "departement_code": "81",
    "region_code": "76",
    "postal_code": "81240"
  },
  {
    "name": "Algans",
    "code": "81006",
    "epci_code": "248100158",
    "departement_code": "81",
    "region_code": "76",
    "postal_code": "81470"
  },
  {
    "name": "Alos",
    "code": "81007",
    "epci_code": "200066124",
    "departement_code": "81",
    "region_code": "76",
    "postal_code": "81140"
  },
  {
    "name": "Almayrac",
    "code": "81008",
    "epci_code": "200040905",
    "departement_code": "81",
    "region_code": "76",
    "postal_code": "81190"
  },
  {
    "name": "Amarens",
    "code": "81009",
    "epci_code": "200034064",
    "departement_code": "81",
    "region_code": "76",
    "postal_code": "81170"
  },
  {
    "name": "Ambialet",
    "code": "81010",
    "epci_code": "200034031",
    "departement_code": "81",
    "region_code": "76",
    "postal_code": "81430"
  },
  {
    "name": "Ambres",
    "code": "81011",
    "epci_code": "200034023",
    "departement_code": "81",
    "region_code": "76",
    "postal_code": "81500"
  },
  {
    "name": "Andillac",
    "code": "81012",
    "epci_code": "200066124",
    "departement_code": "81",
    "region_code": "76",
    "postal_code": "81140"
  },
  {
    "name": "Andouque",
    "code": "81013",
    "epci_code": "248100497",
    "departement_code": "81",
    "region_code": "76",
    "postal_code": "81350"
  },
  {
    "name": "Anglès",
    "code": "81014",
    "epci_code": "200066553",
    "departement_code": "81",
    "region_code": "76",
    "postal_code": "81260"
  },
  {
    "name": "Appelle",
    "code": "81015",
    "epci_code": "248100158",
    "departement_code": "81",
    "region_code": "76",
    "postal_code": "81700"
  },
  {
    "name": "Arfons",
    "code": "81016",
    "epci_code": "243100567",
    "departement_code": "81",
    "region_code": "76",
    "postal_code": "81110"
  },
  {
    "name": "Arifat",
    "code": "81017",
    "epci_code": "200034049",
    "departement_code": "81",
    "region_code": "76",
    "postal_code": "81360"
  },
  {
    "name": "Arthès",
    "code": "81018",
    "epci_code": "248100737",
    "departement_code": "81",
    "region_code": "76",
    "postal_code": "81160"
  },
  {
    "name": "Assac",
    "code": "81019",
    "epci_code": "248100497",
    "departement_code": "81",
    "region_code": "76",
    "postal_code": "81340"
  },
  {
    "name": "Aussac",
    "code": "81020",
    "epci_code": "200066124",
    "departement_code": "81",
    "region_code": "76",
    "postal_code": "81600"
  },
  {
    "name": "Aussillon",
    "code": "81021",
    "epci_code": "248100430",
    "departement_code": "81",
    "region_code": "76",
    "postal_code": "81200"
  },
  {
    "name": "Bannières",
    "code": "81022",
    "epci_code": "200034023",
    "departement_code": "81",
    "region_code": "76",
    "postal_code": "81500"
  },
  {
    "name": "Barre",
    "code": "81023",
    "epci_code": "200066553",
    "departement_code": "81",
    "region_code": "76",
    "postal_code": "81320"
  },
  {
    "name": "Beauvais-sur-Tescou",
    "code": "81024",
    "epci_code": "200066124",
    "departement_code": "81",
    "region_code": "76",
    "postal_code": "81630"
  },
  {
    "name": "Belcastel",
    "code": "81025",
    "epci_code": "200034023",
    "departement_code": "81",
    "region_code": "76",
    "postal_code": "81500"
  },
  {
    "name": "Bellegarde-Marsal",
    "code": "81026",
    "epci_code": "200034031",
    "departement_code": "81",
    "region_code": "76",
    "postal_code": "81430"
  },
  {
    "name": "Belleserre",
    "code": "81027",
    "epci_code": "243100567",
    "departement_code": "81",
    "region_code": "76",
    "postal_code": "81540"
  },
  {
    "name": "Berlats",
    "code": "81028",
    "epci_code": "200066553",
    "departement_code": "81",
    "region_code": "76",
    "postal_code": "81260"
  },
  {
    "name": "Bernac",
    "code": "81029",
    "epci_code": "200066124",
    "departement_code": "81",
    "region_code": "76",
    "postal_code": "81150"
  },
  {
    "name": "Bertre",
    "code": "81030",
    "epci_code": "248100158",
    "departement_code": "81",
    "region_code": "76",
    "postal_code": "81700"
  },
  {
    "name": "Le Bez",
    "code": "81031",
    "epci_code": "200066561",
    "departement_code": "81",
    "region_code": "76",
    "postal_code": "81260"
  },
  {
    "name": "Blan",
    "code": "81032",
    "epci_code": "243100567",
    "departement_code": "81",
    "region_code": "76",
    "postal_code": "81700"
  },
  {
    "name": "Blaye-les-Mines",
    "code": "81033",
    "epci_code": "200040905",
    "departement_code": "81",
    "region_code": "76",
    "postal_code": "81400"
  },
  {
    "name": "Boissezon",
    "code": "81034",
    "epci_code": "248100430",
    "departement_code": "81",
    "region_code": "76",
    "postal_code": "81490"
  },
  {
    "name": "Bournazel",
    "code": "81035",
    "epci_code": "200034064",
    "departement_code": "81",
    "region_code": "76",
    "postal_code": "81170"
  },
  {
    "name": "Bout-du-Pont-de-Larn",
    "code": "81036",
    "epci_code": "248100745",
    "departement_code": "81",
    "region_code": "76",
    "postal_code": "81660"
  },
  {
    "name": "Brassac",
    "code": "81037",
    "epci_code": "200066561",
    "departement_code": "81",
    "region_code": "76",
    "postal_code": "81260"
  },
  {
    "name": "Brens",
    "code": "81038",
    "epci_code": "200066124",
    "departement_code": "81",
    "region_code": "76",
    "postal_code": "81600"
  },
  {
    "name": "Briatexte",
    "code": "81039",
    "epci_code": "200066124",
    "departement_code": "81",
    "region_code": "76",
    "postal_code": "81390"
  },
  {
    "name": "Brousse",
    "code": "81040",
    "epci_code": "200034056",
    "departement_code": "81",
    "region_code": "76",
    "postal_code": "81440"
  },
  {
    "name": "Broze",
    "code": "81041",
    "epci_code": "200066124",
    "departement_code": "81",
    "region_code": "76",
    "postal_code": "81600"
  },
  {
    "name": "Burlats",
    "code": "81042",
    "epci_code": "200066561",
    "departement_code": "81",
    "region_code": "76",
    "postal_code": "81100"
  },
  {
    "name": "Busque",
    "code": "81043",
    "epci_code": "200066124",
    "departement_code": "81",
    "region_code": "76",
    "postal_code": "81300"
  },
  {
    "name": "Cabanès",
    "code": "81044",
    "epci_code": "200034056",
    "departement_code": "81",
    "region_code": "76",
    "postal_code": "81500"
  },
  {
    "name": "Les Cabannes",
    "code": "81045",
    "epci_code": "200034064",
    "departement_code": "81",
    "region_code": "76",
    "postal_code": "81170"
  },
  {
    "name": "Cadalen",
    "code": "81046",
    "epci_code": "200066124",
    "departement_code": "81",
    "region_code": "76",
    "postal_code": "81600"
  },
  {
    "name": "Cadix",
    "code": "81047",
    "epci_code": "248100497",
    "departement_code": "81",
    "region_code": "76",
    "postal_code": "81340"
  },
  {
    "name": "Cagnac-les-Mines",
    "code": "81048",
    "epci_code": "200040905",
    "departement_code": "81",
    "region_code": "76",
    "postal_code": "81130"
  },
  {
    "name": "Cahuzac",
    "code": "81049",
    "epci_code": "243100567",
    "departement_code": "81",
    "region_code": "76",
    "postal_code": "81540"
  },
  {
    "name": "Cambon-lès-Lavaur",
    "code": "81050",
    "epci_code": "248100158",
    "departement_code": "81",
    "region_code": "76",
    "postal_code": "81470"
  },
  {
    "name": "Cahuzac-sur-Vère",
    "code": "81051",
    "epci_code": "200066124",
    "departement_code": "81",
    "region_code": "76",
    "postal_code": "81140"
  },
  {
    "name": "Cambon",
    "code": "81052",
    "epci_code": "248100737",
    "departement_code": "81",
    "region_code": "76",
    "postal_code": "81990"
  },
  {
    "name": "Cambounès",
    "code": "81053",
    "epci_code": "200066561",
    "departement_code": "81",
    "region_code": "76",
    "postal_code": "81260"
  },
  {
    "name": "Cambounet-sur-le-Sor",
    "code": "81054",
    "epci_code": "248100158",
    "departement_code": "81",
    "region_code": "76",
    "postal_code": "81580"
  },
  {
    "name": "Les Cammazes",
    "code": "81055",
    "epci_code": "243100567",
    "departement_code": "81",
    "region_code": "76",
    "postal_code": "81540"
  },
  {
    "name": "Campagnac",
    "code": "81056",
    "epci_code": "200066124",
    "departement_code": "81",
    "region_code": "76",
    "postal_code": "81140"
  },
  {
    "name": "Carbes",
    "code": "81058",
    "epci_code": "200034056",
    "departement_code": "81",
    "region_code": "76",
    "postal_code": "81570"
  },
  {
    "name": "Carlus",
    "code": "81059",
    "epci_code": "248100737",
    "departement_code": "81",
    "region_code": "76",
    "postal_code": "81990"
  },
  {
    "name": "Carmaux",
    "code": "81060",
    "epci_code": "200040905",
    "departement_code": "81",
    "region_code": "76",
    "postal_code": "81400"
  },
  {
    "name": "Castanet",
    "code": "81061",
    "epci_code": "200066124",
    "departement_code": "81",
    "region_code": "76",
    "postal_code": "81150"
  },
  {
    "name": "Fontrieu",
    "code": "81062",
    "epci_code": "200066561",
    "departement_code": "81",
    "region_code": "76",
    "postal_code": "81260"
  },
  {
    "name": "Castelnau-de-Lévis",
    "code": "81063",
    "epci_code": "248100737",
    "departement_code": "81",
    "region_code": "76",
    "postal_code": "81150"
  },
  {
    "name": "Castelnau-de-Montmiral",
    "code": "81064",
    "epci_code": "200066124",
    "departement_code": "81",
    "region_code": "76",
    "postal_code": "81140"
  },
  {
    "name": "Castres",
    "code": "81065",
    "epci_code": "248100430",
    "departement_code": "81",
    "region_code": "76",
    "postal_code": "81100"
  },
  {
    "name": "Caucalières",
    "code": "81066",
    "epci_code": "248100430",
    "departement_code": "81",
    "region_code": "76",
    "postal_code": "81200"
  },
  {
    "name": "Cestayrols",
    "code": "81067",
    "epci_code": "200066124",
    "departement_code": "81",
    "region_code": "76",
    "postal_code": "81150"
  },
  {
    "name": "Combefa",
    "code": "81068",
    "epci_code": "200040905",
    "departement_code": "81",
    "region_code": "76",
    "postal_code": "81640"
  },
  {
    "name": "Cordes-sur-Ciel",
    "code": "81069",
    "epci_code": "200034064",
    "departement_code": "81",
    "region_code": "76",
    "postal_code": "81170"
  },
  {
    "name": "Coufouleux",
    "code": "81070",
    "epci_code": "200066124",
    "departement_code": "81",
    "region_code": "76",
    "postal_code": "81800"
  },
  {
    "name": "Courris",
    "code": "81071",
    "epci_code": "248100497",
    "departement_code": "81",
    "region_code": "76",
    "postal_code": "81340"
  },
  {
    "name": "Crespin",
    "code": "81072",
    "epci_code": "200040905",
    "departement_code": "81",
    "region_code": "76",
    "postal_code": "81350"
  },
  {
    "name": "Crespinet",
    "code": "81073",
    "epci_code": "248100497",
    "departement_code": "81",
    "region_code": "76",
    "postal_code": "81350"
  },
  {
    "name": "Cunac",
    "code": "81074",
    "epci_code": "248100737",
    "departement_code": "81",
    "region_code": "76",
    "postal_code": "81990"
  },
  {
    "name": "Cuq",
    "code": "81075",
    "epci_code": "200034056",
    "departement_code": "81",
    "region_code": "76",
    "postal_code": "81570"
  },
  {
    "name": "Cuq-Toulza",
    "code": "81076",
    "epci_code": "248100158",
    "departement_code": "81",
    "region_code": "76",
    "postal_code": "81470"
  },
  {
    "name": "Curvalle",
    "code": "81077",
    "epci_code": "200034031",
    "departement_code": "81",
    "region_code": "76",
    "postal_code": "81250"
  },
  {
    "name": "Damiatte",
    "code": "81078",
    "epci_code": "200034056",
    "departement_code": "81",
    "region_code": "76",
    "postal_code": "81220"
  },
  {
    "name": "Dénat",
    "code": "81079",
    "epci_code": "248100737",
    "departement_code": "81",
    "region_code": "76",
    "postal_code": "81120"
  },
  {
    "name": "Donnazac",
    "code": "81080",
    "epci_code": "200034064",
    "departement_code": "81",
    "region_code": "76",
    "postal_code": "81170"
  },
  {
    "name": "Dourgne",
    "code": "81081",
    "epci_code": "248100158",
    "departement_code": "81",
    "region_code": "76",
    "postal_code": "81110"
  },
  {
    "name": "Le Dourn",
    "code": "81082",
    "epci_code": "248100497",
    "departement_code": "81",
    "region_code": "76",
    "postal_code": "81340"
  },
  {
    "name": "Durfort",
    "code": "81083",
    "epci_code": "243100567",
    "departement_code": "81",
    "region_code": "76",
    "postal_code": "81540"
  },
  {
    "name": "Escoussens",
    "code": "81084",
    "epci_code": "248100158",
    "departement_code": "81",
    "region_code": "76",
    "postal_code": "81290"
  },
  {
    "name": "Lacapelle-Escroux",
    "code": "81085",
    "epci_code": "200066553",
    "departement_code": "81",
    "region_code": "76",
    "postal_code": "81530"
  },
  {
    "name": "Espérausses",
    "code": "81086",
    "epci_code": "200066553",
    "departement_code": "81",
    "region_code": "76",
    "postal_code": "81260"
  },
  {
    "name": "Fayssac",
    "code": "81087",
    "epci_code": "200066124",
    "departement_code": "81",
    "region_code": "76",
    "postal_code": "81150"
  },
  {
    "name": "Fauch",
    "code": "81088",
    "epci_code": "200034049",
    "departement_code": "81",
    "region_code": "76",
    "postal_code": "81120"
  },
  {
    "name": "Faussergues",
    "code": "81089",
    "epci_code": "248100497",
    "departement_code": "81",
    "region_code": "76",
    "postal_code": "81340"
  },
  {
    "name": "Fénols",
    "code": "81090",
    "epci_code": "200066124",
    "departement_code": "81",
    "region_code": "76",
    "postal_code": "81600"
  },
  {
    "name": "Fiac",
    "code": "81092",
    "epci_code": "200034056",
    "departement_code": "81",
    "region_code": "76",
    "postal_code": "81500"
  },
  {
    "name": "Florentin",
    "code": "81093",
    "epci_code": "200066124",
    "departement_code": "81",
    "region_code": "76",
    "postal_code": "81150"
  },
  {
    "name": "Fraissines",
    "code": "81094",
    "epci_code": "248100497",
    "departement_code": "81",
    "region_code": "76",
    "postal_code": "81340"
  },
  {
    "name": "Frausseilles",
    "code": "81095",
    "epci_code": "200034064",
    "departement_code": "81",
    "region_code": "76",
    "postal_code": "81170"
  },
  {
    "name": "Le Fraysse",
    "code": "81096",
    "epci_code": "200034031",
    "departement_code": "81",
    "region_code": "76",
    "postal_code": "81430"
  },
  {
    "name": "Fréjairolles",
    "code": "81097",
    "epci_code": "248100737",
    "departement_code": "81",
    "region_code": "76",
    "postal_code": "81990"
  },
  {
    "name": "Fréjeville",
    "code": "81098",
    "epci_code": "200034056",
    "departement_code": "81",
    "region_code": "76",
    "postal_code": "81570"
  },
  {
    "name": "Gaillac",
    "code": "81099",
    "epci_code": "200066124",
    "departement_code": "81",
    "region_code": "76",
    "postal_code": "81600"
  },
  {
    "name": "Garrevaques",
    "code": "81100",
    "epci_code": "243100567",
    "departement_code": "81",
    "region_code": "76",
    "postal_code": "81700"
  },
  {
    "name": "Le Garric",
    "code": "81101",
    "epci_code": "200040905",
    "departement_code": "81",
    "region_code": "76",
    "postal_code": "81450"
  },
  {
    "name": "Garrigues",
    "code": "81102",
    "epci_code": "200034023",
    "departement_code": "81",
    "region_code": "76",
    "postal_code": "81500"
  },
  {
    "name": "Gijounet",
    "code": "81103",
    "epci_code": "200066553",
    "departement_code": "81",
    "region_code": "76",
    "postal_code": "81530"
  },
  {
    "name": "Giroussens",
    "code": "81104",
    "epci_code": "200066124",
    "departement_code": "81",
    "region_code": "76",
    "postal_code": "81500"
  },
  {
    "name": "Graulhet",
    "code": "81105",
    "epci_code": "200066124",
    "departement_code": "81",
    "region_code": "76",
    "postal_code": "81300"
  },
  {
    "name": "Grazac",
    "code": "81106",
    "epci_code": "200066124",
    "departement_code": "81",
    "region_code": "76",
    "postal_code": "81800"
  },
  {
    "name": "Itzac",
    "code": "81108",
    "epci_code": "200066124",
    "departement_code": "81",
    "region_code": "76",
    "postal_code": "81170"
  },
  {
    "name": "Jonquières",
    "code": "81109",
    "epci_code": "200034056",
    "departement_code": "81",
    "region_code": "76",
    "postal_code": "81440"
  },
  {
    "name": "Jouqueviel",
    "code": "81110",
    "epci_code": "200040905",
    "departement_code": "81",
    "region_code": "76",
    "postal_code": "81190"
  },
  {
    "name": "Labarthe-Bleys",
    "code": "81111",
    "epci_code": "200034064",
    "departement_code": "81",
    "region_code": "76",
    "postal_code": "81170"
  },
  {
    "name": "Labastide-de-Lévis",
    "code": "81112",
    "epci_code": "200066124",
    "departement_code": "81",
    "region_code": "76",
    "postal_code": "81150"
  },
  {
    "name": "Labastide-Gabausse",
    "code": "81114",
    "epci_code": "200040905",
    "departement_code": "81",
    "region_code": "76",
    "postal_code": "81400"
  },
  {
    "name": "Labastide-Rouairoux",
    "code": "81115",
    "epci_code": "248100745",
    "departement_code": "81",
    "region_code": "76",
    "postal_code": "81270"
  },
  {
    "name": "Labastide-Saint-Georges",
    "code": "81116",
    "epci_code": "200034023",
    "departement_code": "81",
    "region_code": "76",
    "postal_code": "81500"
  },
  {
    "name": "Labessière-Candeil",
    "code": "81117",
    "epci_code": "200066124",
    "departement_code": "81",
    "region_code": "76",
    "postal_code": "81300"
  },
  {
    "name": "Laboulbène",
    "code": "81118",
    "epci_code": "200034056",
    "departement_code": "81",
    "region_code": "76",
    "postal_code": "81100"
  },
  {
    "name": "Laboutarie",
    "code": "81119",
    "epci_code": "200034049",
    "departement_code": "81",
    "region_code": "76",
    "postal_code": "81120"
  },
  {
    "name": "Labruguière",
    "code": "81120",
    "epci_code": "248100430",
    "departement_code": "81",
    "region_code": "76",
    "postal_code": "81290"
  },
  {
    "name": "Lacabarède",
    "code": "81121",
    "epci_code": "248100745",
    "departement_code": "81",
    "region_code": "76",
    "postal_code": "81240"
  },
  {
    "name": "Lacapelle-Pinet",
    "code": "81122",
    "epci_code": "248100497",
    "departement_code": "81",
    "region_code": "76",
    "postal_code": "81340"
  },
  {
    "name": "Lacapelle-Ségalar",
    "code": "81123",
    "epci_code": "200034064",
    "departement_code": "81",
    "region_code": "76",
    "postal_code": "81170"
  },
  {
    "name": "Lacaune",
    "code": "81124",
    "epci_code": "200066553",
    "departement_code": "81",
    "region_code": "76",
    "postal_code": "81230"
  },
  {
    "name": "Lacaze",
    "code": "81125",
    "epci_code": "200066561",
    "departement_code": "81",
    "region_code": "76",
    "postal_code": "81330"
  },
  {
    "name": "Lacougotte-Cadoul",
    "code": "81126",
    "epci_code": "200034023",
    "departement_code": "81",
    "region_code": "76",
    "postal_code": "81500"
  },
  {
    "name": "Lacroisille",
    "code": "81127",
    "epci_code": "248100158",
    "departement_code": "81",
    "region_code": "76",
    "postal_code": "81470"
  },
  {
    "name": "Lacrouzette",
    "code": "81128",
    "epci_code": "200066561",
    "departement_code": "81",
    "region_code": "76",
    "postal_code": "81210"
  },
  {
    "name": "Lagardiolle",
    "code": "81129",
    "epci_code": "248100158",
    "departement_code": "81",
    "region_code": "76",
    "postal_code": "81110"
  },
  {
    "name": "Lagarrigue",
    "code": "81130",
    "epci_code": "248100430",
    "departement_code": "81",
    "region_code": "76",
    "postal_code": "81090"
  },
  {
    "name": "Lagrave",
    "code": "81131",
    "epci_code": "200066124",
    "departement_code": "81",
    "region_code": "76",
    "postal_code": "81150"
  },
  {
    "name": "Guitalens-L’Albarède",
    "code": "81132",
    "epci_code": "200034056",
    "departement_code": "81",
    "region_code": "76",
    "postal_code": "81220"
  },
  {
    "name": "Lamillarié",
    "code": "81133",
    "epci_code": "200034049",
    "departement_code": "81",
    "region_code": "76",
    "postal_code": "81120"
  },
  {
    "name": "Lamontélarié",
    "code": "81134",
    "epci_code": "200066553",
    "departement_code": "81",
    "region_code": "76",
    "postal_code": "81260"
  },
  {
    "name": "Laparrouquial",
    "code": "81135",
    "epci_code": "200034064",
    "departement_code": "81",
    "region_code": "76",
    "postal_code": "81640"
  },
  {
    "name": "Larroque",
    "code": "81136",
    "epci_code": "200066124",
    "departement_code": "81",
    "region_code": "76",
    "postal_code": "81140"
  },
  {
    "name": "Lasfaillades",
    "code": "81137",
    "epci_code": "200066561",
    "departement_code": "81",
    "region_code": "76",
    "postal_code": "81260"
  },
  {
    "name": "Lasgraisses",
    "code": "81138",
    "epci_code": "200066124",
    "departement_code": "81",
    "region_code": "76",
    "postal_code": "81300"
  },
  {
    "name": "Lautrec",
    "code": "81139",
    "epci_code": "200034056",
    "departement_code": "81",
    "region_code": "76",
    "postal_code": "81440"
  },
  {
    "name": "Lavaur",
    "code": "81140",
    "epci_code": "200034023",
    "departement_code": "81",
    "region_code": "76",
    "postal_code": "81500"
  },
  {
    "name": "Lédas-et-Penthiès",
    "code": "81141",
    "epci_code": "248100497",
    "departement_code": "81",
    "region_code": "76",
    "postal_code": "81340"
  },
  {
    "name": "Lempaut",
    "code": "81142",
    "epci_code": "243100567",
    "departement_code": "81",
    "region_code": "76",
    "postal_code": "81700"
  },
  {
    "name": "Lescout",
    "code": "81143",
    "epci_code": "248100158",
    "departement_code": "81",
    "region_code": "76",
    "postal_code": "81110"
  },
  {
    "name": "Lescure-d’Albigeois",
    "code": "81144",
    "epci_code": "248100737",
    "departement_code": "81",
    "region_code": "76",
    "postal_code": "81380"
  },
  {
    "name": "Lisle-sur-Tarn",
    "code": "81145",
    "epci_code": "200066124",
    "departement_code": "81",
    "region_code": "76",
    "postal_code": "81310"
  },
  {
    "name": "Livers-Cazelles",
    "code": "81146",
    "epci_code": "200034064",
    "departement_code": "81",
    "region_code": "76",
    "postal_code": "81170"
  },
  {
    "name": "Lombers",
    "code": "81147",
    "epci_code": "200034049",
    "departement_code": "81",
    "region_code": "76",
    "postal_code": "81120"
  },
  {
    "name": "Loubers",
    "code": "81148",
    "epci_code": "200034064",
    "departement_code": "81",
    "region_code": "76",
    "postal_code": "81170"
  },
  {
    "name": "Loupiac",
    "code": "81149",
    "epci_code": "200066124",
    "departement_code": "81",
    "region_code": "76",
    "postal_code": "81800"
  },
  {
    "name": "Lugan",
    "code": "81150",
    "epci_code": "200034023",
    "departement_code": "81",
    "region_code": "76",
    "postal_code": "81500"
  },
  {
    "name": "Magrin",
    "code": "81151",
    "epci_code": "200034056",
    "departement_code": "81",
    "region_code": "76",
    "postal_code": "81220"
  },
  {
    "name": "Mailhoc",
    "code": "81152",
    "epci_code": "200040905",
    "departement_code": "81",
    "region_code": "76",
    "postal_code": "81130"
  },
  {
    "name": "Marnaves",
    "code": "81154",
    "epci_code": "200034064",
    "departement_code": "81",
    "region_code": "76",
    "postal_code": "81170"
  },
  {
    "name": "Marssac-sur-Tarn",
    "code": "81156",
    "epci_code": "248100737",
    "departement_code": "81",
    "region_code": "76",
    "postal_code": "81150"
  },
  {
    "name": "Marzens",
    "code": "81157",
    "epci_code": "200034023",
    "departement_code": "81",
    "region_code": "76",
    "postal_code": "81500"
  },
  {
    "name": "Le Masnau-Massuguiès",
    "code": "81158",
    "epci_code": "200066561",
    "departement_code": "81",
    "region_code": "76",
    "postal_code": "81530"
  },
  {
    "name": "Massac-Séran",
    "code": "81159",
    "epci_code": "200034023",
    "departement_code": "81",
    "region_code": "76",
    "postal_code": "81500"
  },
  {
    "name": "Massaguel",
    "code": "81160",
    "epci_code": "248100158",
    "departement_code": "81",
    "region_code": "76",
    "postal_code": "81110"
  },
  {
    "name": "Massals",
    "code": "81161",
    "epci_code": "200034031",
    "departement_code": "81",
    "region_code": "76",
    "postal_code": "81250"
  },
  {
    "name": "Maurens-Scopont",
    "code": "81162",
    "epci_code": "248100158",
    "departement_code": "81",
    "region_code": "76",
    "postal_code": "81470"
  },
  {
    "name": "Mazamet",
    "code": "81163",
    "epci_code": "248100430",
    "departement_code": "81",
    "region_code": "76",
    "postal_code": "81200"
  },
  {
    "name": "Mézens",
    "code": "81164",
    "epci_code": "200066124",
    "departement_code": "81",
    "region_code": "76",
    "postal_code": "81800"
  },
  {
    "name": "Milhars",
    "code": "81165",
    "epci_code": "200034064",
    "departement_code": "81",
    "region_code": "76",
    "postal_code": "81170"
  },
  {
    "name": "Milhavet",
    "code": "81166",
    "epci_code": "200040905",
    "departement_code": "81",
    "region_code": "76",
    "postal_code": "81130"
  },
  {
    "name": "Miolles",
    "code": "81167",
    "epci_code": "200034031",
    "departement_code": "81",
    "region_code": "76",
    "postal_code": "81250"
  },
  {
    "name": "Mirandol-Bourgnounac",
    "code": "81168",
    "epci_code": "200040905",
    "departement_code": "81",
    "region_code": "76",
    "postal_code": "81190"
  },
  {
    "name": "Missècle",
    "code": "81169",
    "epci_code": "200034056",
    "departement_code": "81",
    "region_code": "76",
    "postal_code": "81300"
  },
  {
    "name": "Monestiés",
    "code": "81170",
    "epci_code": "200040905",
    "departement_code": "81",
    "region_code": "76",
    "postal_code": "81640"
  },
  {
    "name": "Montans",
    "code": "81171",
    "epci_code": "200066124",
    "departement_code": "81",
    "region_code": "76",
    "postal_code": "81600"
  },
  {
    "name": "Montauriol",
    "code": "81172",
    "epci_code": "200040905",
    "departement_code": "81",
    "region_code": "76",
    "postal_code": "81190"
  },
  {
    "name": "Montcabrier",
    "code": "81173",
    "epci_code": "200034023",
    "departement_code": "81",
    "region_code": "76",
    "postal_code": "81500"
  },
  {
    "name": "Montdragon",
    "code": "81174",
    "epci_code": "200034056",
    "departement_code": "81",
    "region_code": "76",
    "postal_code": "81440"
  },
  {
    "name": "Montdurausse",
    "code": "81175",
    "epci_code": "200066124",
    "departement_code": "81",
    "region_code": "76",
    "postal_code": "81630"
  },
  {
    "name": "Montels",
    "code": "81176",
    "epci_code": "200066124",
    "departement_code": "81",
    "region_code": "76",
    "postal_code": "81140"
  },
  {
    "name": "Montfa",
    "code": "81177",
    "epci_code": "200066561",
    "departement_code": "81",
    "region_code": "76",
    "postal_code": "81210"
  },
  {
    "name": "Montgaillard",
    "code": "81178",
    "epci_code": "200066124",
    "departement_code": "81",
    "region_code": "76",
    "postal_code": "81630"
  },
  {
    "name": "Montgey",
    "code": "81179",
    "epci_code": "243100567",
    "departement_code": "81",
    "region_code": "76",
    "postal_code": "81470"
  },
  {
    "name": "Montirat",
    "code": "81180",
    "epci_code": "200040905",
    "departement_code": "81",
    "region_code": "76",
    "postal_code": "81190"
  },
  {
    "name": "Montpinier",
    "code": "81181",
    "epci_code": "200034056",
    "departement_code": "81",
    "region_code": "76",
    "postal_code": "81440"
  },
  {
    "name": "Montredon-Labessonnié",
    "code": "81182",
    "epci_code": "200034049",
    "departement_code": "81",
    "region_code": "76",
    "postal_code": "81360"
  },
  {
    "name": "Mont-Roc",
    "code": "81183",
    "epci_code": "200034031",
    "departement_code": "81",
    "region_code": "76",
    "postal_code": "81120"
  },
  {
    "name": "Montrosier",
    "code": "81184",
    "epci_code": "248200107",
    "departement_code": "81",
    "region_code": "76",
    "postal_code": "81170"
  },
  {
    "name": "Montvalen",
    "code": "81185",
    "epci_code": "200066124",
    "departement_code": "81",
    "region_code": "76",
    "postal_code": "81630"
  },
  {
    "name": "Moularès",
    "code": "81186",
    "epci_code": "200040905",
    "departement_code": "81",
    "region_code": "76",
    "postal_code": "81190"
  },
  {
    "name": "Moulayrès",
    "code": "81187",
    "epci_code": "200034056",
    "departement_code": "81",
    "region_code": "76",
    "postal_code": "81300"
  },
  {
    "name": "Moulin-Mage",
    "code": "81188",
    "epci_code": "200066553",
    "departement_code": "81",
    "region_code": "76",
    "postal_code": "81320"
  },
  {
    "name": "Mouzens",
    "code": "81189",
    "epci_code": "248100158",
    "departement_code": "81",
    "region_code": "76",
    "postal_code": "81470"
  },
  {
    "name": "Mouzieys-Teulet",
    "code": "81190",
    "epci_code": "200034031",
    "departement_code": "81",
    "region_code": "76",
    "postal_code": "81430"
  },
  {
    "name": "Mouzieys-Panens",
    "code": "81191",
    "epci_code": "200034064",
    "departement_code": "81",
    "region_code": "76",
    "postal_code": "81170"
  },
  {
    "name": "Murat-sur-Vèbre",
    "code": "81192",
    "epci_code": "200066553",
    "departement_code": "81",
    "region_code": "76",
    "postal_code": "81320"
  },
  {
    "name": "Nages",
    "code": "81193",
    "epci_code": "200066553",
    "departement_code": "81",
    "region_code": "76",
    "postal_code": "81320"
  },
  {
    "name": "Navès",
    "code": "81195",
    "epci_code": "248100430",
    "departement_code": "81",
    "region_code": "76",
    "postal_code": "81710"
  },
  {
    "name": "Noailhac",
    "code": "81196",
    "epci_code": "248100430",
    "departement_code": "81",
    "region_code": "76",
    "postal_code": "81490"
  },
  {
    "name": "Noailles",
    "code": "81197",
    "epci_code": "200034064",
    "departement_code": "81",
    "region_code": "76",
    "postal_code": "81170"
  },
  {
    "name": "Orban",
    "code": "81198",
    "epci_code": "200034049",
    "departement_code": "81",
    "region_code": "76",
    "postal_code": "81120"
  },
  {
    "name": "Padiès",
    "code": "81199",
    "epci_code": "248100497",
    "departement_code": "81",
    "region_code": "76",
    "postal_code": "81340"
  },
  {
    "name": "Palleville",
    "code": "81200",
    "epci_code": "243100567",
    "departement_code": "81",
    "region_code": "76",
    "postal_code": "81700"
  },
  {
    "name": "Pampelonne",
    "code": "81201",
    "epci_code": "200040905",
    "departement_code": "81",
    "region_code": "76",
    "postal_code": "81190"
  },
  {
    "name": "Parisot",
    "code": "81202",
    "epci_code": "200066124",
    "departement_code": "81",
    "region_code": "76",
    "postal_code": "81310"
  },
  {
    "name": "Paulinet",
    "code": "81203",
    "epci_code": "200034031",
    "departement_code": "81",
    "region_code": "76",
    "postal_code": "81250"
  },
  {
    "name": "Payrin-Augmontel",
    "code": "81204",
    "epci_code": "248100430",
    "departement_code": "81",
    "region_code": "76",
    "postal_code": "81660"
  },
  {
    "name": "Péchaudier",
    "code": "81205",
    "epci_code": "248100158",
    "departement_code": "81",
    "region_code": "76",
    "postal_code": "81470"
  },
  {
    "name": "Penne",
    "code": "81206",
    "epci_code": "200034064",
    "departement_code": "81",
    "region_code": "76",
    "postal_code": "81140"
  },
  {
    "name": "Peyregoux",
    "code": "81207",
    "epci_code": "200034056",
    "departement_code": "81",
    "region_code": "76",
    "postal_code": "81440"
  },
  {
    "name": "Peyrole",
    "code": "81208",
    "epci_code": "200066124",
    "departement_code": "81",
    "region_code": "76",
    "postal_code": "81310"
  },
  {
    "name": "Pont-de-Larn",
    "code": "81209",
    "epci_code": "248100430",
    "departement_code": "81",
    "region_code": "76",
    "postal_code": "81660"
  },
  {
    "name": "Poudis",
    "code": "81210",
    "epci_code": "243100567",
    "departement_code": "81",
    "region_code": "76",
    "postal_code": "81700"
  },
  {
    "name": "Poulan-Pouzols",
    "code": "81211",
    "epci_code": "200034049",
    "departement_code": "81",
    "region_code": "76",
    "postal_code": "81120"
  },
  {
    "name": "Prades",
    "code": "81212",
    "epci_code": "200034056",
    "departement_code": "81",
    "region_code": "76",
    "postal_code": "81220"
  },
  {
    "name": "Pratviel",
    "code": "81213",
    "epci_code": "200034056",
    "departement_code": "81",
    "region_code": "76",
    "postal_code": "81500"
  },
  {
    "name": "Puéchoursi",
    "code": "81214",
    "epci_code": "243100567",
    "departement_code": "81",
    "region_code": "76",
    "postal_code": "81470"
  },
  {
    "name": "Puybegon",
    "code": "81215",
    "epci_code": "200066124",
    "departement_code": "81",
    "region_code": "76",
    "postal_code": "81390"
  },
  {
    "name": "Puycalvel",
    "code": "81216",
    "epci_code": "200034056",
    "departement_code": "81",
    "region_code": "76",
    "postal_code": "81440"
  },
  {
    "name": "Puycelsi",
    "code": "81217",
    "epci_code": "200066124",
    "departement_code": "81",
    "region_code": "76",
    "postal_code": "81140"
  },
  {
    "name": "Puygouzon",
    "code": "81218",
    "epci_code": "248100737",
    "departement_code": "81",
    "region_code": "76",
    "postal_code": "81120"
  },
  {
    "name": "Puygouzon",
    "code": "81218",
    "epci_code": "248100737",
    "departement_code": "81",
    "region_code": "76",
    "postal_code": "81990"
  },
  {
    "name": "Puylaurens",
    "code": "81219",
    "epci_code": "248100158",
    "departement_code": "81",
    "region_code": "76",
    "postal_code": "81700"
  },
  {
    "name": "Rabastens",
    "code": "81220",
    "epci_code": "200066124",
    "departement_code": "81",
    "region_code": "76",
    "postal_code": "81800"
  },
  {
    "name": "Rayssac",
    "code": "81221",
    "epci_code": "200034031",
    "departement_code": "81",
    "region_code": "76",
    "postal_code": "81330"
  },
  {
    "name": "Réalmont",
    "code": "81222",
    "epci_code": "200034049",
    "departement_code": "81",
    "region_code": "76",
    "postal_code": "81120"
  },
  {
    "name": "Le Rialet",
    "code": "81223",
    "epci_code": "248100745",
    "departement_code": "81",
    "region_code": "76",
    "postal_code": "81240"
  },
  {
    "name": "Le Riols",
    "code": "81224",
    "epci_code": "200034064",
    "departement_code": "81",
    "region_code": "76",
    "postal_code": "81170"
  },
  {
    "name": "Rivières",
    "code": "81225",
    "epci_code": "200066124",
    "departement_code": "81",
    "region_code": "76",
    "postal_code": "81600"
  },
  {
    "name": "Roquecourbe",
    "code": "81227",
    "epci_code": "200066561",
    "departement_code": "81",
    "region_code": "76",
    "postal_code": "81210"
  },
  {
    "name": "Roquemaure",
    "code": "81228",
    "epci_code": "200066124",
    "departement_code": "81",
    "region_code": "76",
    "postal_code": "81800"
  },
  {
    "name": "Roquevidal",
    "code": "81229",
    "epci_code": "200034023",
    "departement_code": "81",
    "region_code": "76",
    "postal_code": "81470"
  },
  {
    "name": "Rosières",
    "code": "81230",
    "epci_code": "200040905",
    "departement_code": "81",
    "region_code": "76",
    "postal_code": "81400"
  },
  {
    "name": "Rouairoux",
    "code": "81231",
    "epci_code": "248100745",
    "departement_code": "81",
    "region_code": "76",
    "postal_code": "81240"
  },
  {
    "name": "Rouffiac",
    "code": "81232",
    "epci_code": "248100737",
    "departement_code": "81",
    "region_code": "76",
    "postal_code": "81150"
  },
  {
    "name": "Terre-de-Bancalié",
    "code": "81233",
    "epci_code": "200034049",
    "departement_code": "81",
    "region_code": "76",
    "postal_code": "81120"
  },
  {
    "name": "Roussayrolles",
    "code": "81234",
    "epci_code": "200034064",
    "departement_code": "81",
    "region_code": "76",
    "postal_code": "81140"
  },
  {
    "name": "Saint-Affrique-les-Montagnes",
    "code": "81235",
    "epci_code": "248100158",
    "departement_code": "81",
    "region_code": "76",
    "postal_code": "81290"
  },
  {
    "name": "Saint-Agnan",
    "code": "81236",
    "epci_code": "200034023",
    "departement_code": "81",
    "region_code": "76",
    "postal_code": "81500"
  },
  {
    "name": "Saint-Amancet",
    "code": "81237",
    "epci_code": "243100567",
    "departement_code": "81",
    "region_code": "76",
    "postal_code": "81110"
  },
  {
    "name": "Saint-Amans-Soult",
    "code": "81238",
    "epci_code": "248100430",
    "departement_code": "81",
    "region_code": "76",
    "postal_code": "81240"
  },
  {
    "name": "Saint-Amans-Valtoret",
    "code": "81239",
    "epci_code": "248100745",
    "departement_code": "81",
    "region_code": "76",
    "postal_code": "81240"
  },
  {
    "name": "Saint-André",
    "code": "81240",
    "epci_code": "200034031",
    "departement_code": "81",
    "region_code": "76",
    "postal_code": "81250"
  },
  {
    "name": "Saint-Avit",
    "code": "81242",
    "epci_code": "248100158",
    "departement_code": "81",
    "region_code": "76",
    "postal_code": "81110"
  },
  {
    "name": "Saint-Beauzile",
    "code": "81243",
    "epci_code": "200066124",
    "departement_code": "81",
    "region_code": "76",
    "postal_code": "81140"
  },
  {
    "name": "Saint-Benoît-de-Carmaux",
    "code": "81244",
    "epci_code": "200040905",
    "departement_code": "81",
    "region_code": "76",
    "postal_code": "81400"
  },
  {
    "name": "Saint-Christophe",
    "code": "81245",
    "epci_code": "200040905",
    "departement_code": "81",
    "region_code": "76",
    "postal_code": "81190"
  },
  {
    "name": "Sainte-Cécile-du-Cayrou",
    "code": "81246",
    "epci_code": "200066124",
    "departement_code": "81",
    "region_code": "76",
    "postal_code": "81140"
  },
  {
    "name": "Saint-Cirgue",
    "code": "81247",
    "epci_code": "248100497",
    "departement_code": "81",
    "region_code": "76",
    "postal_code": "81340"
  },
  {
    "name": "Saint-Gauzens",
    "code": "81248",
    "epci_code": "200066124",
    "departement_code": "81",
    "region_code": "76",
    "postal_code": "81390"
  },
  {
    "name": "Sainte-Gemme",
    "code": "81249",
    "epci_code": "200040905",
    "departement_code": "81",
    "region_code": "76",
    "postal_code": "81190"
  },
  {
    "name": "Saint-Genest-de-Contest",
    "code": "81250",
    "epci_code": "200034056",
    "departement_code": "81",
    "region_code": "76",
    "postal_code": "81440"
  },
  {
    "name": "Saint-Germain-des-Prés",
    "code": "81251",
    "epci_code": "248100158",
    "departement_code": "81",
    "region_code": "76",
    "postal_code": "81700"
  },
  {
    "name": "Saint-Germier",
    "code": "81252",
    "epci_code": "200066561",
    "departement_code": "81",
    "region_code": "76",
    "postal_code": "81210"
  },
  {
    "name": "Saint-Grégoire",
    "code": "81253",
    "epci_code": "248100497",
    "departement_code": "81",
    "region_code": "76",
    "postal_code": "81350"
  },
  {
    "name": "Saint-Jean-de-Marcel",
    "code": "81254",
    "epci_code": "200040905",
    "departement_code": "81",
    "region_code": "76",
    "postal_code": "81350"
  },
  {
    "name": "Saint-Jean-de-Rives",
    "code": "81255",
    "epci_code": "200034023",
    "departement_code": "81",
    "region_code": "76",
    "postal_code": "81500"
  },
  {
    "name": "Saint-Jean-de-Vals",
    "code": "81256",
    "epci_code": "200066561",
    "departement_code": "81",
    "region_code": "76",
    "postal_code": "81210"
  },
  {
    "name": "Saint-Juéry",
    "code": "81257",
    "epci_code": "248100737",
    "departement_code": "81",
    "region_code": "76",
    "postal_code": "81160"
  },
  {
    "name": "Saint-Julien-du-Puy",
    "code": "81258",
    "epci_code": "200034056",
    "departement_code": "81",
    "region_code": "76",
    "postal_code": "81440"
  },
  {
    "name": "Saint-Julien-Gaulène",
    "code": "81259",
    "epci_code": "248100497",
    "departement_code": "81",
    "region_code": "76",
    "postal_code": "81340"
  },
  {
    "name": "Saint-Lieux-lès-Lavaur",
    "code": "81261",
    "epci_code": "200034023",
    "departement_code": "81",
    "region_code": "76",
    "postal_code": "81500"
  },
  {
    "name": "Saint-Marcel-Campes",
    "code": "81262",
    "epci_code": "200034064",
    "departement_code": "81",
    "region_code": "76",
    "postal_code": "81170"
  },
  {
    "name": "Saint-Martin-Laguépie",
    "code": "81263",
    "epci_code": "200034064",
    "departement_code": "81",
    "region_code": "76",
    "postal_code": "81170"
  },
  {
    "name": "Saint-Michel-Labadié",
    "code": "81264",
    "epci_code": "248100497",
    "departement_code": "81",
    "region_code": "76",
    "postal_code": "81340"
  },
  {
    "name": "Saint-Michel-de-Vax",
    "code": "81265",
    "epci_code": "200034064",
    "departement_code": "81",
    "region_code": "76",
    "postal_code": "81140"
  },
  {
    "name": "Saint-Paul-Cap-de-Joux",
    "code": "81266",
    "epci_code": "200034056",
    "departement_code": "81",
    "region_code": "76",
    "postal_code": "81220"
  },
  {
    "name": "Saint-Pierre-de-Trivisy",
    "code": "81267",
    "epci_code": "200066561",
    "departement_code": "81",
    "region_code": "76",
    "postal_code": "81330"
  },
  {
    "name": "Saint-Salvi-de-Carcavès",
    "code": "81268",
    "epci_code": "200066553",
    "departement_code": "81",
    "region_code": "76",
    "postal_code": "81530"
  },
  {
    "name": "Saint-Salvy-de-la-Balme",
    "code": "81269",
    "epci_code": "200066561",
    "departement_code": "81",
    "region_code": "76",
    "postal_code": "81490"
  },
  {
    "name": "Saint-Sernin-lès-Lavaur",
    "code": "81270",
    "epci_code": "248100158",
    "departement_code": "81",
    "region_code": "76",
    "postal_code": "81700"
  },
  {
    "name": "Saint-Sulpice-la-Pointe",
    "code": "81271",
    "epci_code": "200034023",
    "departement_code": "81",
    "region_code": "76",
    "postal_code": "81370"
  },
  {
    "name": "Saint-Urcisse",
    "code": "81272",
    "epci_code": "200066124",
    "departement_code": "81",
    "region_code": "76",
    "postal_code": "81630"
  },
  {
    "name": "Saïx",
    "code": "81273",
    "epci_code": "248100158",
    "departement_code": "81",
    "region_code": "76",
    "postal_code": "81710"
  },
  {
    "name": "Saliès",
    "code": "81274",
    "epci_code": "248100737",
    "departement_code": "81",
    "region_code": "76",
    "postal_code": "81990"
  },
  {
    "name": "Salles",
    "code": "81275",
    "epci_code": "200034064",
    "departement_code": "81",
    "region_code": "76",
    "postal_code": "81640"
  },
  {
    "name": "Salvagnac",
    "code": "81276",
    "epci_code": "200066124",
    "departement_code": "81",
    "region_code": "76",
    "postal_code": "81630"
  },
  {
    "name": "Saussenac",
    "code": "81277",
    "epci_code": "248100497",
    "departement_code": "81",
    "region_code": "76",
    "postal_code": "81350"
  },
  {
    "name": "Sauveterre",
    "code": "81278",
    "epci_code": "248100745",
    "departement_code": "81",
    "region_code": "76",
    "postal_code": "81240"
  },
  {
    "name": "La Sauzière-Saint-Jean",
    "code": "81279",
    "epci_code": "200066124",
    "departement_code": "81",
    "region_code": "76",
    "postal_code": "81630"
  },
  {
    "name": "Le Ségur",
    "code": "81280",
    "epci_code": "200040905",
    "departement_code": "81",
    "region_code": "76",
    "postal_code": "81640"
  },
  {
    "name": "Sémalens",
    "code": "81281",
    "epci_code": "248100158",
    "departement_code": "81",
    "region_code": "76",
    "postal_code": "81570"
  },
  {
    "name": "Senaux",
    "code": "81282",
    "epci_code": "200066553",
    "departement_code": "81",
    "region_code": "76",
    "postal_code": "81530"
  },
  {
    "name": "Senouillac",
    "code": "81283",
    "epci_code": "200066124",
    "departement_code": "81",
    "region_code": "76",
    "postal_code": "81600"
  },
  {
    "name": "Le Sequestre",
    "code": "81284",
    "epci_code": "248100737",
    "departement_code": "81",
    "region_code": "76",
    "postal_code": "81990"
  },
  {
    "name": "Sérénac",
    "code": "81285",
    "epci_code": "248100497",
    "departement_code": "81",
    "region_code": "76",
    "postal_code": "81350"
  },
  {
    "name": "Serviès",
    "code": "81286",
    "epci_code": "200034056",
    "departement_code": "81",
    "region_code": "76",
    "postal_code": "81220"
  },
  {
    "name": "Sieurac",
    "code": "81287",
    "epci_code": "200034049",
    "departement_code": "81",
    "region_code": "76",
    "postal_code": "81120"
  },
  {
    "name": "Sorèze",
    "code": "81288",
    "epci_code": "243100567",
    "departement_code": "81",
    "region_code": "76",
    "postal_code": "81540"
  },
  {
    "name": "Soual",
    "code": "81289",
    "epci_code": "248100158",
    "departement_code": "81",
    "region_code": "76",
    "postal_code": "81580"
  },
  {
    "name": "Souel",
    "code": "81290",
    "epci_code": "200034064",
    "departement_code": "81",
    "region_code": "76",
    "postal_code": "81170"
  },
  {
    "name": "Taïx",
    "code": "81291",
    "epci_code": "200040905",
    "departement_code": "81",
    "region_code": "76",
    "postal_code": "81130"
  },
  {
    "name": "Tanus",
    "code": "81292",
    "epci_code": "200040905",
    "departement_code": "81",
    "region_code": "76",
    "postal_code": "81190"
  },
  {
    "name": "Tauriac",
    "code": "81293",
    "epci_code": "200066124",
    "departement_code": "81",
    "region_code": "76",
    "postal_code": "81630"
  },
  {
    "name": "Técou",
    "code": "81294",
    "epci_code": "200066124",
    "departement_code": "81",
    "region_code": "76",
    "postal_code": "81600"
  },
  {
    "name": "Teillet",
    "code": "81295",
    "epci_code": "200034031",
    "departement_code": "81",
    "region_code": "76",
    "postal_code": "81120"
  },
  {
    "name": "Terssac",
    "code": "81297",
    "epci_code": "248100737",
    "departement_code": "81",
    "region_code": "76",
    "postal_code": "81150"
  },
  {
    "name": "Teulat",
    "code": "81298",
    "epci_code": "200034023",
    "departement_code": "81",
    "region_code": "76",
    "postal_code": "81500"
  },
  {
    "name": "Teyssode",
    "code": "81299",
    "epci_code": "200034056",
    "departement_code": "81",
    "region_code": "76",
    "postal_code": "81220"
  },
  {
    "name": "Tonnac",
    "code": "81300",
    "epci_code": "200066124",
    "departement_code": "81",
    "region_code": "76",
    "postal_code": "81170"
  },
  {
    "name": "Tréban",
    "code": "81302",
    "epci_code": "200040905",
    "departement_code": "81",
    "region_code": "76",
    "postal_code": "81190"
  },
  {
    "name": "Trébas",
    "code": "81303",
    "epci_code": "248100497",
    "departement_code": "81",
    "region_code": "76",
    "postal_code": "81340"
  },
  {
    "name": "Trévien",
    "code": "81304",
    "epci_code": "200040905",
    "departement_code": "81",
    "region_code": "76",
    "postal_code": "81190"
  },
  {
    "name": "Vabre",
    "code": "81305",
    "epci_code": "200066561",
    "departement_code": "81",
    "region_code": "76",
    "postal_code": "81330"
  },
  {
    "name": "Valderiès",
    "code": "81306",
    "epci_code": "200040905",
    "departement_code": "81",
    "region_code": "76",
    "postal_code": "81350"
  },
  {
    "name": "Valdurenque",
    "code": "81307",
    "epci_code": "248100430",
    "departement_code": "81",
    "region_code": "76",
    "postal_code": "81090"
  },
  {
    "name": "Valence-d’Albigeois",
    "code": "81308",
    "epci_code": "248100497",
    "departement_code": "81",
    "region_code": "76",
    "postal_code": "81340"
  },
  {
    "name": "Vaour",
    "code": "81309",
    "epci_code": "200034064",
    "departement_code": "81",
    "region_code": "76",
    "postal_code": "81140"
  },
  {
    "name": "Veilhes",
    "code": "81310",
    "epci_code": "200034023",
    "departement_code": "81",
    "region_code": "76",
    "postal_code": "81500"
  },
  {
    "name": "Vénès",
    "code": "81311",
    "epci_code": "200034056",
    "departement_code": "81",
    "region_code": "76",
    "postal_code": "81440"
  },
  {
    "name": "Verdalle",
    "code": "81312",
    "epci_code": "248100158",
    "departement_code": "81",
    "region_code": "76",
    "postal_code": "81110"
  },
  {
    "name": "Le Verdier",
    "code": "81313",
    "epci_code": "200066124",
    "departement_code": "81",
    "region_code": "76",
    "postal_code": "81140"
  },
  {
    "name": "Viane",
    "code": "81314",
    "epci_code": "200066553",
    "departement_code": "81",
    "region_code": "76",
    "postal_code": "81530"
  },
  {
    "name": "Vielmur-sur-Agout",
    "code": "81315",
    "epci_code": "200034056",
    "departement_code": "81",
    "region_code": "76",
    "postal_code": "81570"
  },
  {
    "name": "Vieux",
    "code": "81316",
    "epci_code": "200066124",
    "departement_code": "81",
    "region_code": "76",
    "postal_code": "81140"
  },
  {
    "name": "Villefranche-d’Albigeois",
    "code": "81317",
    "epci_code": "200034031",
    "departement_code": "81",
    "region_code": "76",
    "postal_code": "81430"
  },
  {
    "name": "Villeneuve-lès-Lavaur",
    "code": "81318",
    "epci_code": "200034023",
    "departement_code": "81",
    "region_code": "76",
    "postal_code": "81500"
  },
  {
    "name": "Villeneuve-sur-Vère",
    "code": "81319",
    "epci_code": "200040905",
    "departement_code": "81",
    "region_code": "76",
    "postal_code": "81130"
  },
  {
    "name": "Vindrac-Alayrac",
    "code": "81320",
    "epci_code": "200034064",
    "departement_code": "81",
    "region_code": "76",
    "postal_code": "81170"
  },
  {
    "name": "Le Vintrou",
    "code": "81321",
    "epci_code": "248100745",
    "departement_code": "81",
    "region_code": "76",
    "postal_code": "81240"
  },
  {
    "name": "Virac",
    "code": "81322",
    "epci_code": "200040905",
    "departement_code": "81",
    "region_code": "76",
    "postal_code": "81640"
  },
  {
    "name": "Viterbe",
    "code": "81323",
    "epci_code": "200034056",
    "departement_code": "81",
    "region_code": "76",
    "postal_code": "81220"
  },
  {
    "name": "Viviers-lès-Lavaur",
    "code": "81324",
    "epci_code": "200034023",
    "departement_code": "81",
    "region_code": "76",
    "postal_code": "81500"
  },
  {
    "name": "Viviers-lès-Montagnes",
    "code": "81325",
    "epci_code": "248100158",
    "departement_code": "81",
    "region_code": "76",
    "postal_code": "81290"
  },
  {
    "name": "Sainte-Croix",
    "code": "81326",
    "epci_code": "200040905",
    "departement_code": "81",
    "region_code": "76",
    "postal_code": "81150"
  }
]