[
  {
    "name": "Abainville",
    "code": "55001",
    "epci_code": "200066108",
    "departement_code": "55",
    "region_code": "44",
    "postal_code": "55130"
  },
  {
    "name": "Abaucourt-Hautecourt",
    "code": "55002",
    "epci_code": "245501242",
    "departement_code": "55",
    "region_code": "44",
    "postal_code": "55400"
  },
  {
    "name": "Aincreville",
    "code": "55004",
    "epci_code": "200066132",
    "departement_code": "55",
    "region_code": "44",
    "postal_code": "55110"
  },
  {
    "name": "Amanty",
    "code": "55005",
    "epci_code": "200066108",
    "departement_code": "55",
    "region_code": "44",
    "postal_code": "55130"
  },
  {
    "name": "Ambly-sur-Meuse",
    "code": "55007",
    "epci_code": "200066165",
    "departement_code": "55",
    "region_code": "44",
    "postal_code": "55300"
  },
  {
    "name": "Amel-sur-l’Étang",
    "code": "55008",
    "epci_code": "200066173",
    "departement_code": "55",
    "region_code": "44",
    "postal_code": "55230"
  },
  {
    "name": "Ancemont",
    "code": "55009",
    "epci_code": "200066165",
    "departement_code": "55",
    "region_code": "44",
    "postal_code": "55320"
  },
  {
    "name": "Ancerville",
    "code": "55010",
    "epci_code": "200066108",
    "departement_code": "55",
    "region_code": "44",
    "postal_code": "55170"
  },
  {
    "name": "Andernay",
    "code": "55011",
    "epci_code": "245501184",
    "departement_code": "55",
    "region_code": "44",
    "postal_code": "55800"
  },
  {
    "name": "Apremont-la-Forêt",
    "code": "55012",
    "epci_code": "200034874",
    "departement_code": "55",
    "region_code": "44",
    "postal_code": "55300"
  },
  {
    "name": "Arrancy-sur-Crusnes",
    "code": "55013",
    "epci_code": "200066173",
    "departement_code": "55",
    "region_code": "44",
    "postal_code": "55230"
  },
  {
    "name": "Aubréville",
    "code": "55014",
    "epci_code": "200066116",
    "departement_code": "55",
    "region_code": "44",
    "postal_code": "55120"
  },
  {
    "name": "Aulnois-en-Perthois",
    "code": "55015",
    "epci_code": "200066108",
    "departement_code": "55",
    "region_code": "44",
    "postal_code": "55170"
  },
  {
    "name": "Autrécourt-sur-Aire",
    "code": "55017",
    "epci_code": "200066140",
    "departement_code": "55",
    "region_code": "44",
    "postal_code": "55120"
  },
  {
    "name": "Autréville-Saint-Lambert",
    "code": "55018",
    "epci_code": "200066132",
    "departement_code": "55",
    "region_code": "44",
    "postal_code": "55700"
  },
  {
    "name": "Avillers-Sainte-Croix",
    "code": "55021",
    "epci_code": "245501176",
    "departement_code": "55",
    "region_code": "44",
    "postal_code": "55210"
  },
  {
    "name": "Avioth",
    "code": "55022",
    "epci_code": "245501259",
    "departement_code": "55",
    "region_code": "44",
    "postal_code": "55600"
  },
  {
    "name": "Avocourt",
    "code": "55023",
    "epci_code": "200066116",
    "departement_code": "55",
    "region_code": "44",
    "postal_code": "55270"
  },
  {
    "name": "Azannes-et-Soumazannes",
    "code": "55024",
    "epci_code": "200066173",
    "departement_code": "55",
    "region_code": "44",
    "postal_code": "55150"
  },
  {
    "name": "Baâlon",
    "code": "55025",
    "epci_code": "200066132",
    "departement_code": "55",
    "region_code": "44",
    "postal_code": "55700"
  },
  {
    "name": "Badonvilliers-Gérauvilliers",
    "code": "55026",
    "epci_code": "200066108",
    "departement_code": "55",
    "region_code": "44",
    "postal_code": "55130"
  },
  {
    "name": "Bannoncourt",
    "code": "55027",
    "epci_code": "245500327",
    "departement_code": "55",
    "region_code": "44",
    "postal_code": "55300"
  },
  {
    "name": "Bantheville",
    "code": "55028",
    "epci_code": "200066132",
    "departement_code": "55",
    "region_code": "44",
    "postal_code": "55110"
  },
  {
    "name": "Bar-le-Duc",
    "code": "55029",
    "epci_code": "200033025",
    "departement_code": "55",
    "region_code": "44",
    "postal_code": "55000"
  },
  {
    "name": "Baudonvilliers",
    "code": "55031",
    "epci_code": "200066108",
    "departement_code": "55",
    "region_code": "44",
    "postal_code": "55170"
  },
  {
    "name": "Baudrémont",
    "code": "55032",
    "epci_code": "200066140",
    "departement_code": "55",
    "region_code": "44",
    "postal_code": "55260"
  },
  {
    "name": "Baulny",
    "code": "55033",
    "epci_code": "200066116",
    "departement_code": "55",
    "region_code": "44",
    "postal_code": "55270"
  },
  {
    "name": "Bazeilles-sur-Othain",
    "code": "55034",
    "epci_code": "245501259",
    "departement_code": "55",
    "region_code": "44",
    "postal_code": "55600"
  },
  {
    "name": "Bazincourt-sur-Saulx",
    "code": "55035",
    "epci_code": "200066108",
    "departement_code": "55",
    "region_code": "44",
    "postal_code": "55170"
  },
  {
    "name": "Beauclair",
    "code": "55036",
    "epci_code": "200066132",
    "departement_code": "55",
    "region_code": "44",
    "postal_code": "55700"
  },
  {
    "name": "Beaufort-en-Argonne",
    "code": "55037",
    "epci_code": "200066132",
    "departement_code": "55",
    "region_code": "44",
    "postal_code": "55700"
  },
  {
    "name": "Beaulieu-en-Argonne",
    "code": "55038",
    "epci_code": "200066140",
    "departement_code": "55",
    "region_code": "44",
    "postal_code": "55250"
  },
  {
    "name": "Beaumont-en-Verdunois",
    "code": "55039",
    "epci_code": "200049187",
    "departement_code": "55",
    "region_code": "44",
    "postal_code": "55100"
  },
  {
    "name": "Beausite",
    "code": "55040",
    "epci_code": "200066140",
    "departement_code": "55",
    "region_code": "44",
    "postal_code": "55250"
  },
  {
    "name": "Behonne",
    "code": "55041",
    "epci_code": "200033025",
    "departement_code": "55",
    "region_code": "44",
    "postal_code": "55000"
  },
  {
    "name": "Belleray",
    "code": "55042",
    "epci_code": "200049187",
    "departement_code": "55",
    "region_code": "44",
    "postal_code": "55100"
  },
  {
    "name": "Belleville-sur-Meuse",
    "code": "55043",
    "epci_code": "200049187",
    "departement_code": "55",
    "region_code": "44",
    "postal_code": "55430"
  },
  {
    "name": "Belrain",
    "code": "55044",
    "epci_code": "200066140",
    "departement_code": "55",
    "region_code": "44",
    "postal_code": "55260"
  },
  {
    "name": "Belrupt-en-Verdunois",
    "code": "55045",
    "epci_code": "200066165",
    "departement_code": "55",
    "region_code": "44",
    "postal_code": "55100"
  },
  {
    "name": "Beney-en-Woëvre",
    "code": "55046",
    "epci_code": "200034874",
    "departement_code": "55",
    "region_code": "44",
    "postal_code": "55210"
  },
  {
    "name": "Béthelainville",
    "code": "55047",
    "epci_code": "200049187",
    "departement_code": "55",
    "region_code": "44",
    "postal_code": "55100"
  },
  {
    "name": "Béthincourt",
    "code": "55048",
    "epci_code": "200049187",
    "departement_code": "55",
    "region_code": "44",
    "postal_code": "55270"
  },
  {
    "name": "Beurey-sur-Saulx",
    "code": "55049",
    "epci_code": "200033025",
    "departement_code": "55",
    "region_code": "44",
    "postal_code": "55000"
  },
  {
    "name": "Bezonvaux",
    "code": "55050",
    "epci_code": "200049187",
    "departement_code": "55",
    "region_code": "44",
    "postal_code": "55100"
  },
  {
    "name": "Biencourt-sur-Orge",
    "code": "55051",
    "epci_code": "200066108",
    "departement_code": "55",
    "region_code": "44",
    "postal_code": "55290"
  },
  {
    "name": "Billy-sous-Mangiennes",
    "code": "55053",
    "epci_code": "200066173",
    "departement_code": "55",
    "region_code": "44",
    "postal_code": "55230"
  },
  {
    "name": "Bislée",
    "code": "55054",
    "epci_code": "245500327",
    "departement_code": "55",
    "region_code": "44",
    "postal_code": "55300"
  },
  {
    "name": "Blanzée",
    "code": "55055",
    "epci_code": "245501242",
    "departement_code": "55",
    "region_code": "44",
    "postal_code": "55400"
  },
  {
    "name": "Boinville-en-Woëvre",
    "code": "55057",
    "epci_code": "245501242",
    "departement_code": "55",
    "region_code": "44",
    "postal_code": "55400"
  },
  {
    "name": "Boncourt-sur-Meuse",
    "code": "55058",
    "epci_code": "200066157",
    "departement_code": "55",
    "region_code": "44",
    "postal_code": "55200"
  },
  {
    "name": "Bonnet",
    "code": "55059",
    "epci_code": "200066108",
    "departement_code": "55",
    "region_code": "44",
    "postal_code": "55130"
  },
  {
    "name": "Bonzée",
    "code": "55060",
    "epci_code": "245501176",
    "departement_code": "55",
    "region_code": "44",
    "postal_code": "55160"
  },
  {
    "name": "Le Bouchon-sur-Saulx",
    "code": "55061",
    "epci_code": "200066108",
    "departement_code": "55",
    "region_code": "44",
    "postal_code": "55500"
  },
  {
    "name": "Bouconville-sur-Madt",
    "code": "55062",
    "epci_code": "200034874",
    "departement_code": "55",
    "region_code": "44",
    "postal_code": "55300"
  },
  {
    "name": "Bouligny",
    "code": "55063",
    "epci_code": "200070290",
    "departement_code": "55",
    "region_code": "44",
    "postal_code": "55240"
  },
  {
    "name": "Bouquemont",
    "code": "55064",
    "epci_code": "200066140",
    "departement_code": "55",
    "region_code": "44",
    "postal_code": "55300"
  },
  {
    "name": "Boureuilles",
    "code": "55065",
    "epci_code": "200066116",
    "departement_code": "55",
    "region_code": "44",
    "postal_code": "55270"
  },
  {
    "name": "Bovée-sur-Barboure",
    "code": "55066",
    "epci_code": "200066157",
    "departement_code": "55",
    "region_code": "44",
    "postal_code": "55190"
  },
  {
    "name": "Boviolles",
    "code": "55067",
    "epci_code": "200066157",
    "departement_code": "55",
    "region_code": "44",
    "postal_code": "55500"
  },
  {
    "name": "Brabant-en-Argonne",
    "code": "55068",
    "epci_code": "200066116",
    "departement_code": "55",
    "region_code": "44",
    "postal_code": "55120"
  },
  {
    "name": "Brabant-le-Roi",
    "code": "55069",
    "epci_code": "245501184",
    "departement_code": "55",
    "region_code": "44",
    "postal_code": "55800"
  },
  {
    "name": "Brabant-sur-Meuse",
    "code": "55070",
    "epci_code": "200066116",
    "departement_code": "55",
    "region_code": "44",
    "postal_code": "55100"
  },
  {
    "name": "Brandeville",
    "code": "55071",
    "epci_code": "200066173",
    "departement_code": "55",
    "region_code": "44",
    "postal_code": "55150"
  },
  {
    "name": "Braquis",
    "code": "55072",
    "epci_code": "245501242",
    "departement_code": "55",
    "region_code": "44",
    "postal_code": "55400"
  },
  {
    "name": "Bras-sur-Meuse",
    "code": "55073",
    "epci_code": "200049187",
    "departement_code": "55",
    "region_code": "44",
    "postal_code": "55100"
  },
  {
    "name": "Brauvilliers",
    "code": "55075",
    "epci_code": "200066108",
    "departement_code": "55",
    "region_code": "44",
    "postal_code": "55170"
  },
  {
    "name": "Bréhéville",
    "code": "55076",
    "epci_code": "200066173",
    "departement_code": "55",
    "region_code": "44",
    "postal_code": "55150"
  },
  {
    "name": "Breux",
    "code": "55077",
    "epci_code": "245501259",
    "departement_code": "55",
    "region_code": "44",
    "postal_code": "55600"
  },
  {
    "name": "Brieulles-sur-Meuse",
    "code": "55078",
    "epci_code": "200066132",
    "departement_code": "55",
    "region_code": "44",
    "postal_code": "55110"
  },
  {
    "name": "Brillon-en-Barrois",
    "code": "55079",
    "epci_code": "200066108",
    "departement_code": "55",
    "region_code": "44",
    "postal_code": "55000"
  },
  {
    "name": "Brixey-aux-Chanoines",
    "code": "55080",
    "epci_code": "200066157",
    "departement_code": "55",
    "region_code": "44",
    "postal_code": "55140"
  },
  {
    "name": "Brizeaux",
    "code": "55081",
    "epci_code": "200066140",
    "departement_code": "55",
    "region_code": "44",
    "postal_code": "55250"
  },
  {
    "name": "Brocourt-en-Argonne",
    "code": "55082",
    "epci_code": "200066116",
    "departement_code": "55",
    "region_code": "44",
    "postal_code": "55120"
  },
  {
    "name": "Brouennes",
    "code": "55083",
    "epci_code": "200066132",
    "departement_code": "55",
    "region_code": "44",
    "postal_code": "55700"
  },
  {
    "name": "Broussey-en-Blois",
    "code": "55084",
    "epci_code": "200066157",
    "departement_code": "55",
    "region_code": "44",
    "postal_code": "55190"
  },
  {
    "name": "Broussey-Raulecourt",
    "code": "55085",
    "epci_code": "200034874",
    "departement_code": "55",
    "region_code": "44",
    "postal_code": "55200"
  },
  {
    "name": "Bure",
    "code": "55087",
    "epci_code": "200066108",
    "departement_code": "55",
    "region_code": "44",
    "postal_code": "55290"
  },
  {
    "name": "Burey-en-Vaux",
    "code": "55088",
    "epci_code": "200066157",
    "departement_code": "55",
    "region_code": "44",
    "postal_code": "55140"
  },
  {
    "name": "Burey-la-Côte",
    "code": "55089",
    "epci_code": "200066157",
    "departement_code": "55",
    "region_code": "44",
    "postal_code": "55140"
  },
  {
    "name": "Buxières-sous-les-Côtes",
    "code": "55093",
    "epci_code": "200034874",
    "departement_code": "55",
    "region_code": "44",
    "postal_code": "55300"
  },
  {
    "name": "Buzy-Darmont",
    "code": "55094",
    "epci_code": "245501242",
    "departement_code": "55",
    "region_code": "44",
    "postal_code": "55400"
  },
  {
    "name": "Cesse",
    "code": "55095",
    "epci_code": "200066132",
    "departement_code": "55",
    "region_code": "44",
    "postal_code": "55700"
  },
  {
    "name": "Chaillon",
    "code": "55096",
    "epci_code": "200034874",
    "departement_code": "55",
    "region_code": "44",
    "postal_code": "55210"
  },
  {
    "name": "Chalaines",
    "code": "55097",
    "epci_code": "200066157",
    "departement_code": "55",
    "region_code": "44",
    "postal_code": "55140"
  },
  {
    "name": "Champneuville",
    "code": "55099",
    "epci_code": "200049187",
    "departement_code": "55",
    "region_code": "44",
    "postal_code": "55100"
  },
  {
    "name": "Champougny",
    "code": "55100",
    "epci_code": "200066157",
    "departement_code": "55",
    "region_code": "44",
    "postal_code": "55140"
  },
  {
    "name": "Chardogne",
    "code": "55101",
    "epci_code": "200033025",
    "departement_code": "55",
    "region_code": "44",
    "postal_code": "55000"
  },
  {
    "name": "Charny-sur-Meuse",
    "code": "55102",
    "epci_code": "200049187",
    "departement_code": "55",
    "region_code": "44",
    "postal_code": "55100"
  },
  {
    "name": "Charpentry",
    "code": "55103",
    "epci_code": "200066116",
    "departement_code": "55",
    "region_code": "44",
    "postal_code": "55270"
  },
  {
    "name": "Chassey-Beaupré",
    "code": "55104",
    "epci_code": "200066108",
    "departement_code": "55",
    "region_code": "44",
    "postal_code": "55130"
  },
  {
    "name": "Châtillon-sous-les-Côtes",
    "code": "55105",
    "epci_code": "245501242",
    "departement_code": "55",
    "region_code": "44",
    "postal_code": "55400"
  },
  {
    "name": "Chattancourt",
    "code": "55106",
    "epci_code": "200049187",
    "departement_code": "55",
    "region_code": "44",
    "postal_code": "55100"
  },
  {
    "name": "Chaumont-devant-Damvillers",
    "code": "55107",
    "epci_code": "200066173",
    "departement_code": "55",
    "region_code": "44",
    "postal_code": "55150"
  },
  {
    "name": "Chaumont-sur-Aire",
    "code": "55108",
    "epci_code": "200066140",
    "departement_code": "55",
    "region_code": "44",
    "postal_code": "55260"
  },
  {
    "name": "Chauvency-le-Château",
    "code": "55109",
    "epci_code": "245501259",
    "departement_code": "55",
    "region_code": "44",
    "postal_code": "55600"
  },
  {
    "name": "Chauvency-Saint-Hubert",
    "code": "55110",
    "epci_code": "245501259",
    "departement_code": "55",
    "region_code": "44",
    "postal_code": "55600"
  },
  {
    "name": "Chauvoncourt",
    "code": "55111",
    "epci_code": "245500327",
    "departement_code": "55",
    "region_code": "44",
    "postal_code": "55300"
  },
  {
    "name": "Cheppy",
    "code": "55113",
    "epci_code": "200066116",
    "departement_code": "55",
    "region_code": "44",
    "postal_code": "55270"
  },
  {
    "name": "Chonville-Malaumont",
    "code": "55114",
    "epci_code": "200066157",
    "departement_code": "55",
    "region_code": "44",
    "postal_code": "55200"
  },
  {
    "name": "Cierges-sous-Montfaucon",
    "code": "55115",
    "epci_code": "200066116",
    "departement_code": "55",
    "region_code": "44",
    "postal_code": "55270"
  },
  {
    "name": "Le Claon",
    "code": "55116",
    "epci_code": "200066116",
    "departement_code": "55",
    "region_code": "44",
    "postal_code": "55120"
  },
  {
    "name": "Clermont-en-Argonne",
    "code": "55117",
    "epci_code": "200066116",
    "departement_code": "55",
    "region_code": "44",
    "postal_code": "55120"
  },
  {
    "name": "Cléry-le-Grand",
    "code": "55118",
    "epci_code": "200066132",
    "departement_code": "55",
    "region_code": "44",
    "postal_code": "55110"
  },
  {
    "name": "Cléry-le-Petit",
    "code": "55119",
    "epci_code": "200066132",
    "departement_code": "55",
    "region_code": "44",
    "postal_code": "55110"
  },
  {
    "name": "Combles-en-Barrois",
    "code": "55120",
    "epci_code": "200033025",
    "departement_code": "55",
    "region_code": "44",
    "postal_code": "55000"
  },
  {
    "name": "Combres-sous-les-Côtes",
    "code": "55121",
    "epci_code": "245501176",
    "departement_code": "55",
    "region_code": "44",
    "postal_code": "55160"
  },
  {
    "name": "Commercy",
    "code": "55122",
    "epci_code": "200066157",
    "departement_code": "55",
    "region_code": "44",
    "postal_code": "55200"
  },
  {
    "name": "Les Hauts-de-Chée",
    "code": "55123",
    "epci_code": "200066140",
    "departement_code": "55",
    "region_code": "44",
    "postal_code": "55000"
  },
  {
    "name": "Consenvoye",
    "code": "55124",
    "epci_code": "200066116",
    "departement_code": "55",
    "region_code": "44",
    "postal_code": "55110"
  },
  {
    "name": "Contrisson",
    "code": "55125",
    "epci_code": "245501184",
    "departement_code": "55",
    "region_code": "44",
    "postal_code": "55800"
  },
  {
    "name": "Courcelles-en-Barrois",
    "code": "55127",
    "epci_code": "200066140",
    "departement_code": "55",
    "region_code": "44",
    "postal_code": "55260"
  },
  {
    "name": "Courcelles-sur-Aire",
    "code": "55128",
    "epci_code": "200066140",
    "departement_code": "55",
    "region_code": "44",
    "postal_code": "55260"
  },
  {
    "name": "Courouvre",
    "code": "55129",
    "epci_code": "200066140",
    "departement_code": "55",
    "region_code": "44",
    "postal_code": "55260"
  },
  {
    "name": "Cousances-les-Forges",
    "code": "55132",
    "epci_code": "200066108",
    "departement_code": "55",
    "region_code": "44",
    "postal_code": "55170"
  },
  {
    "name": "Couvertpuis",
    "code": "55133",
    "epci_code": "200066108",
    "departement_code": "55",
    "region_code": "44",
    "postal_code": "55290"
  },
  {
    "name": "Couvonges",
    "code": "55134",
    "epci_code": "245501184",
    "departement_code": "55",
    "region_code": "44",
    "postal_code": "55800"
  },
  {
    "name": "Cuisy",
    "code": "55137",
    "epci_code": "200066116",
    "departement_code": "55",
    "region_code": "44",
    "postal_code": "55270"
  },
  {
    "name": "Culey",
    "code": "55138",
    "epci_code": "200033025",
    "departement_code": "55",
    "region_code": "44",
    "postal_code": "55000"
  },
  {
    "name": "Cumières-le-Mort-Homme",
    "code": "55139",
    "epci_code": "200049187",
    "departement_code": "55",
    "region_code": "44",
    "postal_code": "55100"
  },
  {
    "name": "Cunel",
    "code": "55140",
    "epci_code": "200066132",
    "departement_code": "55",
    "region_code": "44",
    "postal_code": "55110"
  },
  {
    "name": "Dagonville",
    "code": "55141",
    "epci_code": "200066157",
    "departement_code": "55",
    "region_code": "44",
    "postal_code": "55500"
  },
  {
    "name": "Dainville-Bertheléville",
    "code": "55142",
    "epci_code": "200066108",
    "departement_code": "55",
    "region_code": "44",
    "postal_code": "55130"
  },
  {
    "name": "Damloup",
    "code": "55143",
    "epci_code": "245501242",
    "departement_code": "55",
    "region_code": "44",
    "postal_code": "55400"
  },
  {
    "name": "Dammarie-sur-Saulx",
    "code": "55144",
    "epci_code": "200066108",
    "departement_code": "55",
    "region_code": "44",
    "postal_code": "55500"
  },
  {
    "name": "Damvillers",
    "code": "55145",
    "epci_code": "200066173",
    "departement_code": "55",
    "region_code": "44",
    "postal_code": "55150"
  },
  {
    "name": "Dannevoux",
    "code": "55146",
    "epci_code": "200066132",
    "departement_code": "55",
    "region_code": "44",
    "postal_code": "55110"
  },
  {
    "name": "Delouze-Rosières",
    "code": "55148",
    "epci_code": "200066108",
    "departement_code": "55",
    "region_code": "44",
    "postal_code": "55130"
  },
  {
    "name": "Delut",
    "code": "55149",
    "epci_code": "200066173",
    "departement_code": "55",
    "region_code": "44",
    "postal_code": "55150"
  },
  {
    "name": "Demange-Baudignécourt",
    "code": "55150",
    "epci_code": "200066108",
    "departement_code": "55",
    "region_code": "44",
    "postal_code": "55130"
  },
  {
    "name": "Dieppe-sous-Douaumont",
    "code": "55153",
    "epci_code": "245501242",
    "departement_code": "55",
    "region_code": "44",
    "postal_code": "55400"
  },
  {
    "name": "Dieue-sur-Meuse",
    "code": "55154",
    "epci_code": "200066165",
    "departement_code": "55",
    "region_code": "44",
    "postal_code": "55320"
  },
  {
    "name": "Dombasle-en-Argonne",
    "code": "55155",
    "epci_code": "200066116",
    "departement_code": "55",
    "region_code": "44",
    "postal_code": "55120"
  },
  {
    "name": "Dombras",
    "code": "55156",
    "epci_code": "200066173",
    "departement_code": "55",
    "region_code": "44",
    "postal_code": "55150"
  },
  {
    "name": "Dommartin-la-Montagne",
    "code": "55157",
    "epci_code": "245501176",
    "departement_code": "55",
    "region_code": "44",
    "postal_code": "55160"
  },
  {
    "name": "Dommary-Baroncourt",
    "code": "55158",
    "epci_code": "200066173",
    "departement_code": "55",
    "region_code": "44",
    "postal_code": "55240"
  },
  {
    "name": "Dompcevrin",
    "code": "55159",
    "epci_code": "245500327",
    "departement_code": "55",
    "region_code": "44",
    "postal_code": "55300"
  },
  {
    "name": "Dompierre-aux-Bois",
    "code": "55160",
    "epci_code": "245500327",
    "departement_code": "55",
    "region_code": "44",
    "postal_code": "55300"
  },
  {
    "name": "Domremy-la-Canne",
    "code": "55162",
    "epci_code": "200066173",
    "departement_code": "55",
    "region_code": "44",
    "postal_code": "55240"
  },
  {
    "name": "Doncourt-aux-Templiers",
    "code": "55163",
    "epci_code": "245501176",
    "departement_code": "55",
    "region_code": "44",
    "postal_code": "55160"
  },
  {
    "name": "Doulcon",
    "code": "55165",
    "epci_code": "200066132",
    "departement_code": "55",
    "region_code": "44",
    "postal_code": "55110"
  },
  {
    "name": "Dugny-sur-Meuse",
    "code": "55166",
    "epci_code": "200066165",
    "departement_code": "55",
    "region_code": "44",
    "postal_code": "55100"
  },
  {
    "name": "Dun-sur-Meuse",
    "code": "55167",
    "epci_code": "200066132",
    "departement_code": "55",
    "region_code": "44",
    "postal_code": "55110"
  },
  {
    "name": "Duzey",
    "code": "55168",
    "epci_code": "200066173",
    "departement_code": "55",
    "region_code": "44",
    "postal_code": "55230"
  },
  {
    "name": "Écouviez",
    "code": "55169",
    "epci_code": "245501259",
    "departement_code": "55",
    "region_code": "44",
    "postal_code": "55600"
  },
  {
    "name": "Écurey-en-Verdunois",
    "code": "55170",
    "epci_code": "200066173",
    "departement_code": "55",
    "region_code": "44",
    "postal_code": "55150"
  },
  {
    "name": "Eix",
    "code": "55171",
    "epci_code": "245501242",
    "departement_code": "55",
    "region_code": "44",
    "postal_code": "55400"
  },
  {
    "name": "Les Éparges",
    "code": "55172",
    "epci_code": "245501176",
    "departement_code": "55",
    "region_code": "44",
    "postal_code": "55160"
  },
  {
    "name": "Épiez-sur-Meuse",
    "code": "55173",
    "epci_code": "200066157",
    "departement_code": "55",
    "region_code": "44",
    "postal_code": "55140"
  },
  {
    "name": "Épinonville",
    "code": "55174",
    "epci_code": "200066116",
    "departement_code": "55",
    "region_code": "44",
    "postal_code": "55270"
  },
  {
    "name": "Érize-la-Brûlée",
    "code": "55175",
    "epci_code": "200066140",
    "departement_code": "55",
    "region_code": "44",
    "postal_code": "55260"
  },
  {
    "name": "Érize-la-Petite",
    "code": "55177",
    "epci_code": "200066140",
    "departement_code": "55",
    "region_code": "44",
    "postal_code": "55260"
  },
  {
    "name": "Érize-Saint-Dizier",
    "code": "55178",
    "epci_code": "200066140",
    "departement_code": "55",
    "region_code": "44",
    "postal_code": "55000"
  },
  {
    "name": "Erneville-aux-Bois",
    "code": "55179",
    "epci_code": "200066157",
    "departement_code": "55",
    "region_code": "44",
    "postal_code": "55500"
  },
  {
    "name": "Esnes-en-Argonne",
    "code": "55180",
    "epci_code": "200066116",
    "departement_code": "55",
    "region_code": "44",
    "postal_code": "55100"
  },
  {
    "name": "Étain",
    "code": "55181",
    "epci_code": "245501242",
    "departement_code": "55",
    "region_code": "44",
    "postal_code": "55400"
  },
  {
    "name": "Éton",
    "code": "55182",
    "epci_code": "200066173",
    "departement_code": "55",
    "region_code": "44",
    "postal_code": "55240"
  },
  {
    "name": "Étraye",
    "code": "55183",
    "epci_code": "200066173",
    "departement_code": "55",
    "region_code": "44",
    "postal_code": "55150"
  },
  {
    "name": "Euville",
    "code": "55184",
    "epci_code": "200066157",
    "departement_code": "55",
    "region_code": "44",
    "postal_code": "55200"
  },
  {
    "name": "Èvres",
    "code": "55185",
    "epci_code": "200066140",
    "departement_code": "55",
    "region_code": "44",
    "postal_code": "55250"
  },
  {
    "name": "Fains-Véel",
    "code": "55186",
    "epci_code": "200033025",
    "departement_code": "55",
    "region_code": "44",
    "postal_code": "55000"
  },
  {
    "name": "Flassigny",
    "code": "55188",
    "epci_code": "245501259",
    "departement_code": "55",
    "region_code": "44",
    "postal_code": "55600"
  },
  {
    "name": "Fleury-devant-Douaumont",
    "code": "55189",
    "epci_code": "200049187",
    "departement_code": "55",
    "region_code": "44",
    "postal_code": "55100"
  },
  {
    "name": "Foameix-Ornel",
    "code": "55191",
    "epci_code": "245501242",
    "departement_code": "55",
    "region_code": "44",
    "postal_code": "55400"
  },
  {
    "name": "Fontaines-Saint-Clair",
    "code": "55192",
    "epci_code": "200066132",
    "departement_code": "55",
    "region_code": "44",
    "postal_code": "55110"
  },
  {
    "name": "Forges-sur-Meuse",
    "code": "55193",
    "epci_code": "200066116",
    "departement_code": "55",
    "region_code": "44",
    "postal_code": "55110"
  },
  {
    "name": "Foucaucourt-sur-Thabas",
    "code": "55194",
    "epci_code": "200066140",
    "departement_code": "55",
    "region_code": "44",
    "postal_code": "55250"
  },
  {
    "name": "Fouchères-aux-Bois",
    "code": "55195",
    "epci_code": "200066108",
    "departement_code": "55",
    "region_code": "44",
    "postal_code": "55500"
  },
  {
    "name": "Frémeréville-sous-les-Côtes",
    "code": "55196",
    "epci_code": "200034874",
    "departement_code": "55",
    "region_code": "44",
    "postal_code": "55200"
  },
  {
    "name": "Fresnes-au-Mont",
    "code": "55197",
    "epci_code": "200066140",
    "departement_code": "55",
    "region_code": "44",
    "postal_code": "55260"
  },
  {
    "name": "Fresnes-en-Woëvre",
    "code": "55198",
    "epci_code": "245501176",
    "departement_code": "55",
    "region_code": "44",
    "postal_code": "55160"
  },
  {
    "name": "Froidos",
    "code": "55199",
    "epci_code": "200066116",
    "departement_code": "55",
    "region_code": "44",
    "postal_code": "55120"
  },
  {
    "name": "Fromeréville-les-Vallons",
    "code": "55200",
    "epci_code": "200049187",
    "departement_code": "55",
    "region_code": "44",
    "postal_code": "55100"
  },
  {
    "name": "Fromezey",
    "code": "55201",
    "epci_code": "245501242",
    "departement_code": "55",
    "region_code": "44",
    "postal_code": "55400"
  },
  {
    "name": "Futeau",
    "code": "55202",
    "epci_code": "200066116",
    "departement_code": "55",
    "region_code": "44",
    "postal_code": "55120"
  },
  {
    "name": "Génicourt-sur-Meuse",
    "code": "55204",
    "epci_code": "200066165",
    "departement_code": "55",
    "region_code": "44",
    "postal_code": "55320"
  },
  {
    "name": "Gercourt-et-Drillancourt",
    "code": "55206",
    "epci_code": "200066116",
    "departement_code": "55",
    "region_code": "44",
    "postal_code": "55110"
  },
  {
    "name": "Géry",
    "code": "55207",
    "epci_code": "200066140",
    "departement_code": "55",
    "region_code": "44",
    "postal_code": "55000"
  },
  {
    "name": "Gesnes-en-Argonne",
    "code": "55208",
    "epci_code": "200066116",
    "departement_code": "55",
    "region_code": "44",
    "postal_code": "55110"
  },
  {
    "name": "Gimécourt",
    "code": "55210",
    "epci_code": "200066140",
    "departement_code": "55",
    "region_code": "44",
    "postal_code": "55260"
  },
  {
    "name": "Gincrey",
    "code": "55211",
    "epci_code": "245501242",
    "departement_code": "55",
    "region_code": "44",
    "postal_code": "55400"
  },
  {
    "name": "Girauvoisin",
    "code": "55212",
    "epci_code": "200034874",
    "departement_code": "55",
    "region_code": "44",
    "postal_code": "55200"
  },
  {
    "name": "Givrauval",
    "code": "55214",
    "epci_code": "200033025",
    "departement_code": "55",
    "region_code": "44",
    "postal_code": "55500"
  },
  {
    "name": "Gondrecourt-le-Château",
    "code": "55215",
    "epci_code": "200066108",
    "departement_code": "55",
    "region_code": "44",
    "postal_code": "55130"
  },
  {
    "name": "Gouraincourt",
    "code": "55216",
    "epci_code": "200066173",
    "departement_code": "55",
    "region_code": "44",
    "postal_code": "55230"
  },
  {
    "name": "Goussaincourt",
    "code": "55217",
    "epci_code": "200066157",
    "departement_code": "55",
    "region_code": "44",
    "postal_code": "55140"
  },
  {
    "name": "Gremilly",
    "code": "55218",
    "epci_code": "200066173",
    "departement_code": "55",
    "region_code": "44",
    "postal_code": "55150"
  },
  {
    "name": "Grimaucourt-en-Woëvre",
    "code": "55219",
    "epci_code": "245501242",
    "departement_code": "55",
    "region_code": "44",
    "postal_code": "55400"
  },
  {
    "name": "Grimaucourt-près-Sampigny",
    "code": "55220",
    "epci_code": "200066157",
    "departement_code": "55",
    "region_code": "44",
    "postal_code": "55500"
  },
  {
    "name": "Guerpont",
    "code": "55221",
    "epci_code": "200033025",
    "departement_code": "55",
    "region_code": "44",
    "postal_code": "55000"
  },
  {
    "name": "Gussainville",
    "code": "55222",
    "epci_code": "245501242",
    "departement_code": "55",
    "region_code": "44",
    "postal_code": "55400"
  },
  {
    "name": "Haironville",
    "code": "55224",
    "epci_code": "200066108",
    "departement_code": "55",
    "region_code": "44",
    "postal_code": "55000"
  },
  {
    "name": "Halles-sous-les-Côtes",
    "code": "55225",
    "epci_code": "200066132",
    "departement_code": "55",
    "region_code": "44",
    "postal_code": "55700"
  },
  {
    "name": "Han-lès-Juvigny",
    "code": "55226",
    "epci_code": "245501259",
    "departement_code": "55",
    "region_code": "44",
    "postal_code": "55600"
  },
  {
    "name": "Hannonville-sous-les-Côtes",
    "code": "55228",
    "epci_code": "245501176",
    "departement_code": "55",
    "region_code": "44",
    "postal_code": "55210"
  },
  {
    "name": "Han-sur-Meuse",
    "code": "55229",
    "epci_code": "245500327",
    "departement_code": "55",
    "region_code": "44",
    "postal_code": "55300"
  },
  {
    "name": "Harville",
    "code": "55232",
    "epci_code": "245501176",
    "departement_code": "55",
    "region_code": "44",
    "postal_code": "55160"
  },
  {
    "name": "Haudainville",
    "code": "55236",
    "epci_code": "200049187",
    "departement_code": "55",
    "region_code": "44",
    "postal_code": "55100"
  },
  {
    "name": "Haudiomont",
    "code": "55237",
    "epci_code": "245501176",
    "departement_code": "55",
    "region_code": "44",
    "postal_code": "55160"
  },
  {
    "name": "Haumont-près-Samogneux",
    "code": "55239",
    "epci_code": "200049187",
    "departement_code": "55",
    "region_code": "44",
    "postal_code": "55100"
  },
  {
    "name": "Heippes",
    "code": "55241",
    "epci_code": "200066165",
    "departement_code": "55",
    "region_code": "44",
    "postal_code": "55220"
  },
  {
    "name": "Hennemont",
    "code": "55242",
    "epci_code": "245501176",
    "departement_code": "55",
    "region_code": "44",
    "postal_code": "55160"
  },
  {
    "name": "Herbeuville",
    "code": "55243",
    "epci_code": "245501176",
    "departement_code": "55",
    "region_code": "44",
    "postal_code": "55210"
  },
  {
    "name": "Herméville-en-Woëvre",
    "code": "55244",
    "epci_code": "245501242",
    "departement_code": "55",
    "region_code": "44",
    "postal_code": "55400"
  },
  {
    "name": "Heudicourt-sous-les-Côtes",
    "code": "55245",
    "epci_code": "200034874",
    "departement_code": "55",
    "region_code": "44",
    "postal_code": "55210"
  },
  {
    "name": "Hévilliers",
    "code": "55246",
    "epci_code": "200066108",
    "departement_code": "55",
    "region_code": "44",
    "postal_code": "55290"
  },
  {
    "name": "Horville-en-Ornois",
    "code": "55247",
    "epci_code": "200066108",
    "departement_code": "55",
    "region_code": "44",
    "postal_code": "55130"
  },
  {
    "name": "Houdelaincourt",
    "code": "55248",
    "epci_code": "200066108",
    "departement_code": "55",
    "region_code": "44",
    "postal_code": "55130"
  },
  {
    "name": "Inor",
    "code": "55250",
    "epci_code": "200066132",
    "departement_code": "55",
    "region_code": "44",
    "postal_code": "55700"
  },
  {
    "name": "Ippécourt",
    "code": "55251",
    "epci_code": "200066140",
    "departement_code": "55",
    "region_code": "44",
    "postal_code": "55220"
  },
  {
    "name": "Iré-le-Sec",
    "code": "55252",
    "epci_code": "245501259",
    "departement_code": "55",
    "region_code": "44",
    "postal_code": "55600"
  },
  {
    "name": "Les Islettes",
    "code": "55253",
    "epci_code": "200066116",
    "departement_code": "55",
    "region_code": "44",
    "postal_code": "55120"
  },
  {
    "name": "Les Trois-Domaines",
    "code": "55254",
    "epci_code": "200066140",
    "departement_code": "55",
    "region_code": "44",
    "postal_code": "55220"
  },
  {
    "name": "Jametz",
    "code": "55255",
    "epci_code": "245501259",
    "departement_code": "55",
    "region_code": "44",
    "postal_code": "55600"
  },
  {
    "name": "Jonville-en-Woëvre",
    "code": "55256",
    "epci_code": "200034874",
    "departement_code": "55",
    "region_code": "44",
    "postal_code": "55160"
  },
  {
    "name": "Jouy-en-Argonne",
    "code": "55257",
    "epci_code": "200066116",
    "departement_code": "55",
    "region_code": "44",
    "postal_code": "55120"
  },
  {
    "name": "Geville",
    "code": "55258",
    "epci_code": "200034874",
    "departement_code": "55",
    "region_code": "44",
    "postal_code": "55200"
  },
  {
    "name": "Julvécourt",
    "code": "55260",
    "epci_code": "200066165",
    "departement_code": "55",
    "region_code": "44",
    "postal_code": "55120"
  },
  {
    "name": "Juvigny-en-Perthois",
    "code": "55261",
    "epci_code": "200066108",
    "departement_code": "55",
    "region_code": "44",
    "postal_code": "55170"
  },
  {
    "name": "Juvigny-sur-Loison",
    "code": "55262",
    "epci_code": "245501259",
    "departement_code": "55",
    "region_code": "44",
    "postal_code": "55600"
  },
  {
    "name": "Kœur-la-Grande",
    "code": "55263",
    "epci_code": "245500327",
    "departement_code": "55",
    "region_code": "44",
    "postal_code": "55300"
  },
  {
    "name": "Kœur-la-Petite",
    "code": "55264",
    "epci_code": "245500327",
    "departement_code": "55",
    "region_code": "44",
    "postal_code": "55300"
  },
  {
    "name": "Labeuville",
    "code": "55265",
    "epci_code": "245501176",
    "departement_code": "55",
    "region_code": "44",
    "postal_code": "55160"
  },
  {
    "name": "Lachalade",
    "code": "55266",
    "epci_code": "200066116",
    "departement_code": "55",
    "region_code": "44",
    "postal_code": "55120"
  },
  {
    "name": "Lachaussée",
    "code": "55267",
    "epci_code": "200034874",
    "departement_code": "55",
    "region_code": "44",
    "postal_code": "55210"
  },
  {
    "name": "Lacroix-sur-Meuse",
    "code": "55268",
    "epci_code": "245500327",
    "departement_code": "55",
    "region_code": "44",
    "postal_code": "55300"
  },
  {
    "name": "Lahaymeix",
    "code": "55269",
    "epci_code": "200066140",
    "departement_code": "55",
    "region_code": "44",
    "postal_code": "55260"
  },
  {
    "name": "Lahayville",
    "code": "55270",
    "epci_code": "200034874",
    "departement_code": "55",
    "region_code": "44",
    "postal_code": "55300"
  },
  {
    "name": "Laheycourt",
    "code": "55271",
    "epci_code": "245501184",
    "departement_code": "55",
    "region_code": "44",
    "postal_code": "55800"
  },
  {
    "name": "Laimont",
    "code": "55272",
    "epci_code": "245501184",
    "departement_code": "55",
    "region_code": "44",
    "postal_code": "55800"
  },
  {
    "name": "Lamorville",
    "code": "55274",
    "epci_code": "200034874",
    "departement_code": "55",
    "region_code": "44",
    "postal_code": "55300"
  },
  {
    "name": "Lamouilly",
    "code": "55275",
    "epci_code": "200066132",
    "departement_code": "55",
    "region_code": "44",
    "postal_code": "55700"
  },
  {
    "name": "Landrecourt-Lempire",
    "code": "55276",
    "epci_code": "200066165",
    "departement_code": "55",
    "region_code": "44",
    "postal_code": "55100"
  },
  {
    "name": "Laneuville-au-Rupt",
    "code": "55278",
    "epci_code": "200066157",
    "departement_code": "55",
    "region_code": "44",
    "postal_code": "55190"
  },
  {
    "name": "Laneuville-sur-Meuse",
    "code": "55279",
    "epci_code": "200066132",
    "departement_code": "55",
    "region_code": "44",
    "postal_code": "55700"
  },
  {
    "name": "Lanhères",
    "code": "55280",
    "epci_code": "245501242",
    "departement_code": "55",
    "region_code": "44",
    "postal_code": "55400"
  },
  {
    "name": "Latour-en-Woëvre",
    "code": "55281",
    "epci_code": "245501176",
    "departement_code": "55",
    "region_code": "44",
    "postal_code": "55160"
  },
  {
    "name": "Lavallée",
    "code": "55282",
    "epci_code": "200066140",
    "departement_code": "55",
    "region_code": "44",
    "postal_code": "55260"
  },
  {
    "name": "Lavincourt",
    "code": "55284",
    "epci_code": "200066108",
    "departement_code": "55",
    "region_code": "44",
    "postal_code": "55170"
  },
  {
    "name": "Lavoye",
    "code": "55285",
    "epci_code": "200066140",
    "departement_code": "55",
    "region_code": "44",
    "postal_code": "55120"
  },
  {
    "name": "Lemmes",
    "code": "55286",
    "epci_code": "200066165",
    "departement_code": "55",
    "region_code": "44",
    "postal_code": "55220"
  },
  {
    "name": "Lérouville",
    "code": "55288",
    "epci_code": "200066157",
    "departement_code": "55",
    "region_code": "44",
    "postal_code": "55200"
  },
  {
    "name": "Levoncourt",
    "code": "55289",
    "epci_code": "200066140",
    "departement_code": "55",
    "region_code": "44",
    "postal_code": "55260"
  },
  {
    "name": "Lignières-sur-Aire",
    "code": "55290",
    "epci_code": "200066140",
    "departement_code": "55",
    "region_code": "44",
    "postal_code": "55260"
  },
  {
    "name": "Ligny-en-Barrois",
    "code": "55291",
    "epci_code": "200033025",
    "departement_code": "55",
    "region_code": "44",
    "postal_code": "55500"
  },
  {
    "name": "Liny-devant-Dun",
    "code": "55292",
    "epci_code": "200066132",
    "departement_code": "55",
    "region_code": "44",
    "postal_code": "55110"
  },
  {
    "name": "Lion-devant-Dun",
    "code": "55293",
    "epci_code": "200066132",
    "departement_code": "55",
    "region_code": "44",
    "postal_code": "55110"
  },
  {
    "name": "Lisle-en-Barrois",
    "code": "55295",
    "epci_code": "200066140",
    "departement_code": "55",
    "region_code": "44",
    "postal_code": "55250"
  },
  {
    "name": "L’Isle-en-Rigault",
    "code": "55296",
    "epci_code": "200066108",
    "departement_code": "55",
    "region_code": "44",
    "postal_code": "55000"
  },
  {
    "name": "Lissey",
    "code": "55297",
    "epci_code": "200066173",
    "departement_code": "55",
    "region_code": "44",
    "postal_code": "55150"
  },
  {
    "name": "Loisey",
    "code": "55298",
    "epci_code": "200033025",
    "departement_code": "55",
    "region_code": "44",
    "postal_code": "55000"
  },
  {
    "name": "Loison",
    "code": "55299",
    "epci_code": "200066173",
    "departement_code": "55",
    "region_code": "44",
    "postal_code": "55230"
  },
  {
    "name": "Longeaux",
    "code": "55300",
    "epci_code": "200033025",
    "departement_code": "55",
    "region_code": "44",
    "postal_code": "55500"
  },
  {
    "name": "Longchamps-sur-Aire",
    "code": "55301",
    "epci_code": "200066140",
    "departement_code": "55",
    "region_code": "44",
    "postal_code": "55260"
  },
  {
    "name": "Longeville-en-Barrois",
    "code": "55302",
    "epci_code": "200033025",
    "departement_code": "55",
    "region_code": "44",
    "postal_code": "55000"
  },
  {
    "name": "Loupmont",
    "code": "55303",
    "epci_code": "200034874",
    "departement_code": "55",
    "region_code": "44",
    "postal_code": "55300"
  },
  {
    "name": "Louppy-le-Château",
    "code": "55304",
    "epci_code": "200066140",
    "departement_code": "55",
    "region_code": "44",
    "postal_code": "55800"
  },
  {
    "name": "Louppy-sur-Loison",
    "code": "55306",
    "epci_code": "245501259",
    "departement_code": "55",
    "region_code": "44",
    "postal_code": "55600"
  },
  {
    "name": "Louvemont-Côte-du-Poivre",
    "code": "55307",
    "epci_code": "200049187",
    "departement_code": "55",
    "region_code": "44",
    "postal_code": "55100"
  },
  {
    "name": "Luzy-Saint-Martin",
    "code": "55310",
    "epci_code": "200066132",
    "departement_code": "55",
    "region_code": "44",
    "postal_code": "55700"
  },
  {
    "name": "Maizeray",
    "code": "55311",
    "epci_code": "245501176",
    "departement_code": "55",
    "region_code": "44",
    "postal_code": "55160"
  },
  {
    "name": "Maizey",
    "code": "55312",
    "epci_code": "245500327",
    "departement_code": "55",
    "region_code": "44",
    "postal_code": "55300"
  },
  {
    "name": "Malancourt",
    "code": "55313",
    "epci_code": "200066116",
    "departement_code": "55",
    "region_code": "44",
    "postal_code": "55270"
  },
  {
    "name": "Mandres-en-Barrois",
    "code": "55315",
    "epci_code": "200066108",
    "departement_code": "55",
    "region_code": "44",
    "postal_code": "55290"
  },
  {
    "name": "Mangiennes",
    "code": "55316",
    "epci_code": "200066173",
    "departement_code": "55",
    "region_code": "44",
    "postal_code": "55150"
  },
  {
    "name": "Manheulles",
    "code": "55317",
    "epci_code": "245501176",
    "departement_code": "55",
    "region_code": "44",
    "postal_code": "55160"
  },
  {
    "name": "Marchéville-en-Woëvre",
    "code": "55320",
    "epci_code": "245501176",
    "departement_code": "55",
    "region_code": "44",
    "postal_code": "55160"
  },
  {
    "name": "Marre",
    "code": "55321",
    "epci_code": "200049187",
    "departement_code": "55",
    "region_code": "44",
    "postal_code": "55100"
  },
  {
    "name": "Marson-sur-Barboure",
    "code": "55322",
    "epci_code": "200066157",
    "departement_code": "55",
    "region_code": "44",
    "postal_code": "55190"
  },
  {
    "name": "Martincourt-sur-Meuse",
    "code": "55323",
    "epci_code": "200066132",
    "departement_code": "55",
    "region_code": "44",
    "postal_code": "55700"
  },
  {
    "name": "Marville",
    "code": "55324",
    "epci_code": "245501259",
    "departement_code": "55",
    "region_code": "44",
    "postal_code": "55600"
  },
  {
    "name": "Maucourt-sur-Orne",
    "code": "55325",
    "epci_code": "245501242",
    "departement_code": "55",
    "region_code": "44",
    "postal_code": "55400"
  },
  {
    "name": "Maulan",
    "code": "55326",
    "epci_code": "200066108",
    "departement_code": "55",
    "region_code": "44",
    "postal_code": "55500"
  },
  {
    "name": "Mauvages",
    "code": "55327",
    "epci_code": "200066108",
    "departement_code": "55",
    "region_code": "44",
    "postal_code": "55190"
  },
  {
    "name": "Maxey-sur-Vaise",
    "code": "55328",
    "epci_code": "200066157",
    "departement_code": "55",
    "region_code": "44",
    "postal_code": "55140"
  },
  {
    "name": "Mécrin",
    "code": "55329",
    "epci_code": "200066157",
    "departement_code": "55",
    "region_code": "44",
    "postal_code": "55300"
  },
  {
    "name": "Méligny-le-Grand",
    "code": "55330",
    "epci_code": "200066157",
    "departement_code": "55",
    "region_code": "44",
    "postal_code": "55190"
  },
  {
    "name": "Méligny-le-Petit",
    "code": "55331",
    "epci_code": "200066157",
    "departement_code": "55",
    "region_code": "44",
    "postal_code": "55190"
  },
  {
    "name": "Menaucourt",
    "code": "55332",
    "epci_code": "200033025",
    "departement_code": "55",
    "region_code": "44",
    "postal_code": "55500"
  },
  {
    "name": "Ménil-aux-Bois",
    "code": "55333",
    "epci_code": "245500327",
    "departement_code": "55",
    "region_code": "44",
    "postal_code": "55260"
  },
  {
    "name": "Ménil-la-Horgne",
    "code": "55334",
    "epci_code": "200066157",
    "departement_code": "55",
    "region_code": "44",
    "postal_code": "55190"
  },
  {
    "name": "Ménil-sur-Saulx",
    "code": "55335",
    "epci_code": "200066108",
    "departement_code": "55",
    "region_code": "44",
    "postal_code": "55500"
  },
  {
    "name": "Merles-sur-Loison",
    "code": "55336",
    "epci_code": "200066173",
    "departement_code": "55",
    "region_code": "44",
    "postal_code": "55150"
  },
  {
    "name": "Milly-sur-Bradon",
    "code": "55338",
    "epci_code": "200066132",
    "departement_code": "55",
    "region_code": "44",
    "postal_code": "55110"
  },
  {
    "name": "Mogeville",
    "code": "55339",
    "epci_code": "245501242",
    "departement_code": "55",
    "region_code": "44",
    "postal_code": "55400"
  },
  {
    "name": "Mognéville",
    "code": "55340",
    "epci_code": "245501184",
    "departement_code": "55",
    "region_code": "44",
    "postal_code": "55800"
  },
  {
    "name": "Moirey-Flabas-Crépion",
    "code": "55341",
    "epci_code": "200066173",
    "departement_code": "55",
    "region_code": "44",
    "postal_code": "55150"
  },
  {
    "name": "Montblainville",
    "code": "55343",
    "epci_code": "200066116",
    "departement_code": "55",
    "region_code": "44",
    "postal_code": "55270"
  },
  {
    "name": "Montbras",
    "code": "55344",
    "epci_code": "200066157",
    "departement_code": "55",
    "region_code": "44",
    "postal_code": "55140"
  },
  {
    "name": "Mont-devant-Sassey",
    "code": "55345",
    "epci_code": "200066132",
    "departement_code": "55",
    "region_code": "44",
    "postal_code": "55110"
  },
  {
    "name": "Montfaucon-d’Argonne",
    "code": "55346",
    "epci_code": "200066116",
    "departement_code": "55",
    "region_code": "44",
    "postal_code": "55270"
  },
  {
    "name": "Les Monthairons",
    "code": "55347",
    "epci_code": "200066165",
    "departement_code": "55",
    "region_code": "44",
    "postal_code": "55320"
  },
  {
    "name": "Montiers-sur-Saulx",
    "code": "55348",
    "epci_code": "200066108",
    "departement_code": "55",
    "region_code": "44",
    "postal_code": "55290"
  },
  {
    "name": "Montigny-devant-Sassey",
    "code": "55349",
    "epci_code": "200066132",
    "departement_code": "55",
    "region_code": "44",
    "postal_code": "55110"
  },
  {
    "name": "Montigny-lès-Vaucouleurs",
    "code": "55350",
    "epci_code": "200066157",
    "departement_code": "55",
    "region_code": "44",
    "postal_code": "55140"
  },
  {
    "name": "Montmédy",
    "code": "55351",
    "epci_code": "245501259",
    "departement_code": "55",
    "region_code": "44",
    "postal_code": "55600"
  },
  {
    "name": "Montplonne",
    "code": "55352",
    "epci_code": "200066108",
    "departement_code": "55",
    "region_code": "44",
    "postal_code": "55000"
  },
  {
    "name": "Montsec",
    "code": "55353",
    "epci_code": "200034874",
    "departement_code": "55",
    "region_code": "44",
    "postal_code": "55300"
  },
  {
    "name": "Montzéville",
    "code": "55355",
    "epci_code": "200049187",
    "departement_code": "55",
    "region_code": "44",
    "postal_code": "55100"
  },
  {
    "name": "Moranville",
    "code": "55356",
    "epci_code": "245501242",
    "departement_code": "55",
    "region_code": "44",
    "postal_code": "55400"
  },
  {
    "name": "Morgemoulin",
    "code": "55357",
    "epci_code": "245501242",
    "departement_code": "55",
    "region_code": "44",
    "postal_code": "55400"
  },
  {
    "name": "Chanteraine",
    "code": "55358",
    "epci_code": "200033025",
    "departement_code": "55",
    "region_code": "44",
    "postal_code": "55500"
  },
  {
    "name": "Morley",
    "code": "55359",
    "epci_code": "200066108",
    "departement_code": "55",
    "region_code": "44",
    "postal_code": "55290"
  },
  {
    "name": "Mouilly",
    "code": "55360",
    "epci_code": "245501176",
    "departement_code": "55",
    "region_code": "44",
    "postal_code": "55320"
  },
  {
    "name": "Moulainville",
    "code": "55361",
    "epci_code": "245501242",
    "departement_code": "55",
    "region_code": "44",
    "postal_code": "55400"
  },
  {
    "name": "Moulins-Saint-Hubert",
    "code": "55362",
    "epci_code": "200066132",
    "departement_code": "55",
    "region_code": "44",
    "postal_code": "55700"
  },
  {
    "name": "Moulotte",
    "code": "55363",
    "epci_code": "245501176",
    "departement_code": "55",
    "region_code": "44",
    "postal_code": "55160"
  },
  {
    "name": "Mouzay",
    "code": "55364",
    "epci_code": "200066132",
    "departement_code": "55",
    "region_code": "44",
    "postal_code": "55700"
  },
  {
    "name": "Murvaux",
    "code": "55365",
    "epci_code": "200066132",
    "departement_code": "55",
    "region_code": "44",
    "postal_code": "55110"
  },
  {
    "name": "Val-d’Ornain",
    "code": "55366",
    "epci_code": "200033025",
    "departement_code": "55",
    "region_code": "44",
    "postal_code": "55000"
  },
  {
    "name": "Muzeray",
    "code": "55367",
    "epci_code": "200066173",
    "departement_code": "55",
    "region_code": "44",
    "postal_code": "55230"
  },
  {
    "name": "Naives-en-Blois",
    "code": "55368",
    "epci_code": "200066157",
    "departement_code": "55",
    "region_code": "44",
    "postal_code": "55190"
  },
  {
    "name": "Naives-Rosières",
    "code": "55369",
    "epci_code": "200033025",
    "departement_code": "55",
    "region_code": "44",
    "postal_code": "55000"
  },
  {
    "name": "Naix-aux-Forges",
    "code": "55370",
    "epci_code": "200033025",
    "departement_code": "55",
    "region_code": "44",
    "postal_code": "55500"
  },
  {
    "name": "Nançois-le-Grand",
    "code": "55371",
    "epci_code": "200066157",
    "departement_code": "55",
    "region_code": "44",
    "postal_code": "55500"
  },
  {
    "name": "Nançois-sur-Ornain",
    "code": "55372",
    "epci_code": "200033025",
    "departement_code": "55",
    "region_code": "44",
    "postal_code": "55500"
  },
  {
    "name": "Nant-le-Grand",
    "code": "55373",
    "epci_code": "200033025",
    "departement_code": "55",
    "region_code": "44",
    "postal_code": "55500"
  },
  {
    "name": "Nant-le-Petit",
    "code": "55374",
    "epci_code": "200066108",
    "departement_code": "55",
    "region_code": "44",
    "postal_code": "55500"
  },
  {
    "name": "Nantillois",
    "code": "55375",
    "epci_code": "200066132",
    "departement_code": "55",
    "region_code": "44",
    "postal_code": "55270"
  },
  {
    "name": "Nantois",
    "code": "55376",
    "epci_code": "200033025",
    "departement_code": "55",
    "region_code": "44",
    "postal_code": "55500"
  },
  {
    "name": "Nepvant",
    "code": "55377",
    "epci_code": "200066132",
    "departement_code": "55",
    "region_code": "44",
    "postal_code": "55700"
  },
  {
    "name": "Nettancourt",
    "code": "55378",
    "epci_code": "245501184",
    "departement_code": "55",
    "region_code": "44",
    "postal_code": "55800"
  },
  {
    "name": "Le Neufour",
    "code": "55379",
    "epci_code": "200066116",
    "departement_code": "55",
    "region_code": "44",
    "postal_code": "55120"
  },
  {
    "name": "Neuville-en-Verdunois",
    "code": "55380",
    "epci_code": "200066140",
    "departement_code": "55",
    "region_code": "44",
    "postal_code": "55260"
  },
  {
    "name": "Neuville-lès-Vaucouleurs",
    "code": "55381",
    "epci_code": "200066157",
    "departement_code": "55",
    "region_code": "44",
    "postal_code": "55140"
  },
  {
    "name": "Neuville-sur-Ornain",
    "code": "55382",
    "epci_code": "245501184",
    "departement_code": "55",
    "region_code": "44",
    "postal_code": "55800"
  },
  {
    "name": "Neuvilly-en-Argonne",
    "code": "55383",
    "epci_code": "200066116",
    "departement_code": "55",
    "region_code": "44",
    "postal_code": "55120"
  },
  {
    "name": "Nicey-sur-Aire",
    "code": "55384",
    "epci_code": "200066140",
    "departement_code": "55",
    "region_code": "44",
    "postal_code": "55260"
  },
  {
    "name": "Nixéville-Blercourt",
    "code": "55385",
    "epci_code": "200066165",
    "departement_code": "55",
    "region_code": "44",
    "postal_code": "55120"
  },
  {
    "name": "Nonsard-Lamarche",
    "code": "55386",
    "epci_code": "200034874",
    "departement_code": "55",
    "region_code": "44",
    "postal_code": "55210"
  },
  {
    "name": "Nouillonpont",
    "code": "55387",
    "epci_code": "200066173",
    "departement_code": "55",
    "region_code": "44",
    "postal_code": "55230"
  },
  {
    "name": "Noyers-Auzécourt",
    "code": "55388",
    "epci_code": "245501184",
    "departement_code": "55",
    "region_code": "44",
    "postal_code": "55800"
  },
  {
    "name": "Nubécourt",
    "code": "55389",
    "epci_code": "200066140",
    "departement_code": "55",
    "region_code": "44",
    "postal_code": "55250"
  },
  {
    "name": "Olizy-sur-Chiers",
    "code": "55391",
    "epci_code": "200066132",
    "departement_code": "55",
    "region_code": "44",
    "postal_code": "55700"
  },
  {
    "name": "Ornes",
    "code": "55394",
    "epci_code": "200049187",
    "departement_code": "55",
    "region_code": "44",
    "postal_code": "55150"
  },
  {
    "name": "Osches",
    "code": "55395",
    "epci_code": "200066165",
    "departement_code": "55",
    "region_code": "44",
    "postal_code": "55220"
  },
  {
    "name": "Ourches-sur-Meuse",
    "code": "55396",
    "epci_code": "200066157",
    "departement_code": "55",
    "region_code": "44",
    "postal_code": "55190"
  },
  {
    "name": "Pagny-la-Blanche-Côte",
    "code": "55397",
    "epci_code": "200066157",
    "departement_code": "55",
    "region_code": "44",
    "postal_code": "55140"
  },
  {
    "name": "Pagny-sur-Meuse",
    "code": "55398",
    "epci_code": "200066157",
    "departement_code": "55",
    "region_code": "44",
    "postal_code": "55190"
  },
  {
    "name": "Pareid",
    "code": "55399",
    "epci_code": "245501176",
    "departement_code": "55",
    "region_code": "44",
    "postal_code": "55160"
  },
  {
    "name": "Parfondrupt",
    "code": "55400",
    "epci_code": "245501242",
    "departement_code": "55",
    "region_code": "44",
    "postal_code": "55400"
  },
  {
    "name": "Les Paroches",
    "code": "55401",
    "epci_code": "245500327",
    "departement_code": "55",
    "region_code": "44",
    "postal_code": "55300"
  },
  {
    "name": "Peuvillers",
    "code": "55403",
    "epci_code": "200066173",
    "departement_code": "55",
    "region_code": "44",
    "postal_code": "55150"
  },
  {
    "name": "Pierrefitte-sur-Aire",
    "code": "55404",
    "epci_code": "200066140",
    "departement_code": "55",
    "region_code": "44",
    "postal_code": "55260"
  },
  {
    "name": "Pillon",
    "code": "55405",
    "epci_code": "200066173",
    "departement_code": "55",
    "region_code": "44",
    "postal_code": "55230"
  },
  {
    "name": "Pintheville",
    "code": "55406",
    "epci_code": "245501176",
    "departement_code": "55",
    "region_code": "44",
    "postal_code": "55160"
  },
  {
    "name": "Pont-sur-Meuse",
    "code": "55407",
    "epci_code": "200066157",
    "departement_code": "55",
    "region_code": "44",
    "postal_code": "55200"
  },
  {
    "name": "Pouilly-sur-Meuse",
    "code": "55408",
    "epci_code": "200066132",
    "departement_code": "55",
    "region_code": "44",
    "postal_code": "55700"
  },
  {
    "name": "Pretz-en-Argonne",
    "code": "55409",
    "epci_code": "200066140",
    "departement_code": "55",
    "region_code": "44",
    "postal_code": "55250"
  },
  {
    "name": "Quincy-Landzécourt",
    "code": "55410",
    "epci_code": "245501259",
    "departement_code": "55",
    "region_code": "44",
    "postal_code": "55600"
  },
  {
    "name": "Rambluzin-et-Benoite-Vaux",
    "code": "55411",
    "epci_code": "200066165",
    "departement_code": "55",
    "region_code": "44",
    "postal_code": "55220"
  },
  {
    "name": "Rambucourt",
    "code": "55412",
    "epci_code": "200034874",
    "departement_code": "55",
    "region_code": "44",
    "postal_code": "55300"
  },
  {
    "name": "Rancourt-sur-Ornain",
    "code": "55414",
    "epci_code": "245501184",
    "departement_code": "55",
    "region_code": "44",
    "postal_code": "55800"
  },
  {
    "name": "Ranzières",
    "code": "55415",
    "epci_code": "245500327",
    "departement_code": "55",
    "region_code": "44",
    "postal_code": "55300"
  },
  {
    "name": "Rarécourt",
    "code": "55416",
    "epci_code": "200066116",
    "departement_code": "55",
    "region_code": "44",
    "postal_code": "55120"
  },
  {
    "name": "Récicourt",
    "code": "55419",
    "epci_code": "200066116",
    "departement_code": "55",
    "region_code": "44",
    "postal_code": "55120"
  },
  {
    "name": "Récourt-le-Creux",
    "code": "55420",
    "epci_code": "200066165",
    "departement_code": "55",
    "region_code": "44",
    "postal_code": "55220"
  },
  {
    "name": "Reffroy",
    "code": "55421",
    "epci_code": "200066157",
    "departement_code": "55",
    "region_code": "44",
    "postal_code": "55190"
  },
  {
    "name": "Regnéville-sur-Meuse",
    "code": "55422",
    "epci_code": "200066116",
    "departement_code": "55",
    "region_code": "44",
    "postal_code": "55110"
  },
  {
    "name": "Rembercourt-Sommaisne",
    "code": "55423",
    "epci_code": "200066140",
    "departement_code": "55",
    "region_code": "44",
    "postal_code": "55250"
  },
  {
    "name": "Remennecourt",
    "code": "55424",
    "epci_code": "245501184",
    "departement_code": "55",
    "region_code": "44",
    "postal_code": "55800"
  },
  {
    "name": "Remoiville",
    "code": "55425",
    "epci_code": "245501259",
    "departement_code": "55",
    "region_code": "44",
    "postal_code": "55600"
  },
  {
    "name": "Resson",
    "code": "55426",
    "epci_code": "200033025",
    "departement_code": "55",
    "region_code": "44",
    "postal_code": "55000"
  },
  {
    "name": "Revigny-sur-Ornain",
    "code": "55427",
    "epci_code": "245501184",
    "departement_code": "55",
    "region_code": "44",
    "postal_code": "55800"
  },
  {
    "name": "Réville-aux-Bois",
    "code": "55428",
    "epci_code": "200066173",
    "departement_code": "55",
    "region_code": "44",
    "postal_code": "55150"
  },
  {
    "name": "Riaville",
    "code": "55429",
    "epci_code": "245501176",
    "departement_code": "55",
    "region_code": "44",
    "postal_code": "55160"
  },
  {
    "name": "Ribeaucourt",
    "code": "55430",
    "epci_code": "200066108",
    "departement_code": "55",
    "region_code": "44",
    "postal_code": "55290"
  },
  {
    "name": "Richecourt",
    "code": "55431",
    "epci_code": "200034874",
    "departement_code": "55",
    "region_code": "44",
    "postal_code": "55300"
  },
  {
    "name": "Rigny-la-Salle",
    "code": "55433",
    "epci_code": "200066157",
    "departement_code": "55",
    "region_code": "44",
    "postal_code": "55140"
  },
  {
    "name": "Rigny-Saint-Martin",
    "code": "55434",
    "epci_code": "200066157",
    "departement_code": "55",
    "region_code": "44",
    "postal_code": "55140"
  },
  {
    "name": "Robert-Espagne",
    "code": "55435",
    "epci_code": "200033025",
    "departement_code": "55",
    "region_code": "44",
    "postal_code": "55000"
  },
  {
    "name": "Les Roises",
    "code": "55436",
    "epci_code": "200066108",
    "departement_code": "55",
    "region_code": "44",
    "postal_code": "55130"
  },
  {
    "name": "Romagne-sous-les-Côtes",
    "code": "55437",
    "epci_code": "200066173",
    "departement_code": "55",
    "region_code": "44",
    "postal_code": "55150"
  },
  {
    "name": "Romagne-sous-Montfaucon",
    "code": "55438",
    "epci_code": "200066116",
    "departement_code": "55",
    "region_code": "44",
    "postal_code": "55110"
  },
  {
    "name": "Ronvaux",
    "code": "55439",
    "epci_code": "245501176",
    "departement_code": "55",
    "region_code": "44",
    "postal_code": "55160"
  },
  {
    "name": "Raival",
    "code": "55442",
    "epci_code": "200066140",
    "departement_code": "55",
    "region_code": "44",
    "postal_code": "55260"
  },
  {
    "name": "Rouvres-en-Woëvre",
    "code": "55443",
    "epci_code": "245501242",
    "departement_code": "55",
    "region_code": "44",
    "postal_code": "55400"
  },
  {
    "name": "Rouvrois-sur-Meuse",
    "code": "55444",
    "epci_code": "245500327",
    "departement_code": "55",
    "region_code": "44",
    "postal_code": "55300"
  },
  {
    "name": "Rouvrois-sur-Othain",
    "code": "55445",
    "epci_code": "200066173",
    "departement_code": "55",
    "region_code": "44",
    "postal_code": "55230"
  },
  {
    "name": "Rumont",
    "code": "55446",
    "epci_code": "200033025",
    "departement_code": "55",
    "region_code": "44",
    "postal_code": "55000"
  },
  {
    "name": "Rupt-aux-Nonains",
    "code": "55447",
    "epci_code": "200066108",
    "departement_code": "55",
    "region_code": "44",
    "postal_code": "55170"
  },
  {
    "name": "Rupt-devant-Saint-Mihiel",
    "code": "55448",
    "epci_code": "200066140",
    "departement_code": "55",
    "region_code": "44",
    "postal_code": "55260"
  },
  {
    "name": "Rupt-en-Woëvre",
    "code": "55449",
    "epci_code": "200066165",
    "departement_code": "55",
    "region_code": "44",
    "postal_code": "55320"
  },
  {
    "name": "Rupt-sur-Othain",
    "code": "55450",
    "epci_code": "200066173",
    "departement_code": "55",
    "region_code": "44",
    "postal_code": "55150"
  },
  {
    "name": "Saint-Amand-sur-Ornain",
    "code": "55452",
    "epci_code": "200033025",
    "departement_code": "55",
    "region_code": "44",
    "postal_code": "55500"
  },
  {
    "name": "Saint-André-en-Barrois",
    "code": "55453",
    "epci_code": "200066165",
    "departement_code": "55",
    "region_code": "44",
    "postal_code": "55220"
  },
  {
    "name": "Saint-Aubin-sur-Aire",
    "code": "55454",
    "epci_code": "200066157",
    "departement_code": "55",
    "region_code": "44",
    "postal_code": "55500"
  },
  {
    "name": "Saint-Germain-sur-Meuse",
    "code": "55456",
    "epci_code": "200066157",
    "departement_code": "55",
    "region_code": "44",
    "postal_code": "55140"
  },
  {
    "name": "Saint-Hilaire-en-Woëvre",
    "code": "55457",
    "epci_code": "245501176",
    "departement_code": "55",
    "region_code": "44",
    "postal_code": "55160"
  },
  {
    "name": "Saint-Jean-lès-Buzy",
    "code": "55458",
    "epci_code": "245501242",
    "departement_code": "55",
    "region_code": "44",
    "postal_code": "55400"
  },
  {
    "name": "Saint-Joire",
    "code": "55459",
    "epci_code": "200066108",
    "departement_code": "55",
    "region_code": "44",
    "postal_code": "55130"
  },
  {
    "name": "Saint-Julien-sous-les-Côtes",
    "code": "55460",
    "epci_code": "200034874",
    "departement_code": "55",
    "region_code": "44",
    "postal_code": "55200"
  },
  {
    "name": "Saint-Laurent-sur-Othain",
    "code": "55461",
    "epci_code": "200066173",
    "departement_code": "55",
    "region_code": "44",
    "postal_code": "55150"
  },
  {
    "name": "Saint-Maurice-sous-les-Côtes",
    "code": "55462",
    "epci_code": "200034874",
    "departement_code": "55",
    "region_code": "44",
    "postal_code": "55210"
  },
  {
    "name": "Saint-Mihiel",
    "code": "55463",
    "epci_code": "245500327",
    "departement_code": "55",
    "region_code": "44",
    "postal_code": "55300"
  },
  {
    "name": "Saint-Pierrevillers",
    "code": "55464",
    "epci_code": "200066173",
    "departement_code": "55",
    "region_code": "44",
    "postal_code": "55230"
  },
  {
    "name": "Saint-Remy-la-Calonne",
    "code": "55465",
    "epci_code": "245501176",
    "departement_code": "55",
    "region_code": "44",
    "postal_code": "55160"
  },
  {
    "name": "Salmagne",
    "code": "55466",
    "epci_code": "200033025",
    "departement_code": "55",
    "region_code": "44",
    "postal_code": "55000"
  },
  {
    "name": "Sampigny",
    "code": "55467",
    "epci_code": "245500327",
    "departement_code": "55",
    "region_code": "44",
    "postal_code": "55300"
  },
  {
    "name": "Samogneux",
    "code": "55468",
    "epci_code": "200049187",
    "departement_code": "55",
    "region_code": "44",
    "postal_code": "55100"
  },
  {
    "name": "Sassey-sur-Meuse",
    "code": "55469",
    "epci_code": "200066132",
    "departement_code": "55",
    "region_code": "44",
    "postal_code": "55110"
  },
  {
    "name": "Saudrupt",
    "code": "55470",
    "epci_code": "200066108",
    "departement_code": "55",
    "region_code": "44",
    "postal_code": "55000"
  },
  {
    "name": "Saulmory-Villefranche",
    "code": "55471",
    "epci_code": "200066132",
    "departement_code": "55",
    "region_code": "44",
    "postal_code": "55110"
  },
  {
    "name": "Saulvaux",
    "code": "55472",
    "epci_code": "200066157",
    "departement_code": "55",
    "region_code": "44",
    "postal_code": "55500"
  },
  {
    "name": "Saulx-lès-Champlon",
    "code": "55473",
    "epci_code": "245501176",
    "departement_code": "55",
    "region_code": "44",
    "postal_code": "55160"
  },
  {
    "name": "Sauvigny",
    "code": "55474",
    "epci_code": "200066157",
    "departement_code": "55",
    "region_code": "44",
    "postal_code": "55140"
  },
  {
    "name": "Sauvoy",
    "code": "55475",
    "epci_code": "200066157",
    "departement_code": "55",
    "region_code": "44",
    "postal_code": "55190"
  },
  {
    "name": "Savonnières-devant-Bar",
    "code": "55476",
    "epci_code": "200033025",
    "departement_code": "55",
    "region_code": "44",
    "postal_code": "55000"
  },
  {
    "name": "Savonnières-en-Perthois",
    "code": "55477",
    "epci_code": "200066108",
    "departement_code": "55",
    "region_code": "44",
    "postal_code": "55170"
  },
  {
    "name": "Seigneulles",
    "code": "55479",
    "epci_code": "200066140",
    "departement_code": "55",
    "region_code": "44",
    "postal_code": "55000"
  },
  {
    "name": "Senon",
    "code": "55481",
    "epci_code": "200066173",
    "departement_code": "55",
    "region_code": "44",
    "postal_code": "55230"
  },
  {
    "name": "Senoncourt-les-Maujouy",
    "code": "55482",
    "epci_code": "200066165",
    "departement_code": "55",
    "region_code": "44",
    "postal_code": "55220"
  },
  {
    "name": "Septsarges",
    "code": "55484",
    "epci_code": "200066116",
    "departement_code": "55",
    "region_code": "44",
    "postal_code": "55270"
  },
  {
    "name": "Sepvigny",
    "code": "55485",
    "epci_code": "200066157",
    "departement_code": "55",
    "region_code": "44",
    "postal_code": "55140"
  },
  {
    "name": "Seuzey",
    "code": "55487",
    "epci_code": "245500327",
    "departement_code": "55",
    "region_code": "44",
    "postal_code": "55300"
  },
  {
    "name": "Silmont",
    "code": "55488",
    "epci_code": "200033025",
    "departement_code": "55",
    "region_code": "44",
    "postal_code": "55000"
  },
  {
    "name": "Sivry-la-Perche",
    "code": "55489",
    "epci_code": "200049187",
    "departement_code": "55",
    "region_code": "44",
    "postal_code": "55100"
  },
  {
    "name": "Sivry-sur-Meuse",
    "code": "55490",
    "epci_code": "200066132",
    "departement_code": "55",
    "region_code": "44",
    "postal_code": "55110"
  },
  {
    "name": "Sommedieue",
    "code": "55492",
    "epci_code": "200066165",
    "departement_code": "55",
    "region_code": "44",
    "postal_code": "55320"
  },
  {
    "name": "Sommeilles",
    "code": "55493",
    "epci_code": "245501184",
    "departement_code": "55",
    "region_code": "44",
    "postal_code": "55800"
  },
  {
    "name": "Sommelonne",
    "code": "55494",
    "epci_code": "200066108",
    "departement_code": "55",
    "region_code": "44",
    "postal_code": "55170"
  },
  {
    "name": "Sorbey",
    "code": "55495",
    "epci_code": "200066173",
    "departement_code": "55",
    "region_code": "44",
    "postal_code": "55230"
  },
  {
    "name": "Sorcy-Saint-Martin",
    "code": "55496",
    "epci_code": "200066157",
    "departement_code": "55",
    "region_code": "44",
    "postal_code": "55190"
  },
  {
    "name": "Les Souhesmes-Rampont",
    "code": "55497",
    "epci_code": "200066165",
    "departement_code": "55",
    "region_code": "44",
    "postal_code": "55220"
  },
  {
    "name": "Souilly",
    "code": "55498",
    "epci_code": "200066165",
    "departement_code": "55",
    "region_code": "44",
    "postal_code": "55220"
  },
  {
    "name": "Spincourt",
    "code": "55500",
    "epci_code": "200066173",
    "departement_code": "55",
    "region_code": "44",
    "postal_code": "55230"
  },
  {
    "name": "Stainville",
    "code": "55501",
    "epci_code": "200066108",
    "departement_code": "55",
    "region_code": "44",
    "postal_code": "55500"
  },
  {
    "name": "Stenay",
    "code": "55502",
    "epci_code": "200066132",
    "departement_code": "55",
    "region_code": "44",
    "postal_code": "55700"
  },
  {
    "name": "Taillancourt",
    "code": "55503",
    "epci_code": "200066157",
    "departement_code": "55",
    "region_code": "44",
    "postal_code": "55140"
  },
  {
    "name": "Tannois",
    "code": "55504",
    "epci_code": "200033025",
    "departement_code": "55",
    "region_code": "44",
    "postal_code": "55000"
  },
  {
    "name": "Thierville-sur-Meuse",
    "code": "55505",
    "epci_code": "200049187",
    "departement_code": "55",
    "region_code": "44",
    "postal_code": "55840"
  },
  {
    "name": "Thillombois",
    "code": "55506",
    "epci_code": "200066140",
    "departement_code": "55",
    "region_code": "44",
    "postal_code": "55260"
  },
  {
    "name": "Thillot",
    "code": "55507",
    "epci_code": "245501176",
    "departement_code": "55",
    "region_code": "44",
    "postal_code": "55210"
  },
  {
    "name": "Thonne-la-Long",
    "code": "55508",
    "epci_code": "245501259",
    "departement_code": "55",
    "region_code": "44",
    "postal_code": "55600"
  },
  {
    "name": "Thonne-le-Thil",
    "code": "55509",
    "epci_code": "245501259",
    "departement_code": "55",
    "region_code": "44",
    "postal_code": "55600"
  },
  {
    "name": "Thonne-les-Près",
    "code": "55510",
    "epci_code": "245501259",
    "departement_code": "55",
    "region_code": "44",
    "postal_code": "55600"
  },
  {
    "name": "Thonnelle",
    "code": "55511",
    "epci_code": "245501259",
    "departement_code": "55",
    "region_code": "44",
    "postal_code": "55600"
  },
  {
    "name": "Tilly-sur-Meuse",
    "code": "55512",
    "epci_code": "200066165",
    "departement_code": "55",
    "region_code": "44",
    "postal_code": "55220"
  },
  {
    "name": "Trémont-sur-Saulx",
    "code": "55514",
    "epci_code": "200033025",
    "departement_code": "55",
    "region_code": "44",
    "postal_code": "55000"
  },
  {
    "name": "Trésauvaux",
    "code": "55515",
    "epci_code": "245501176",
    "departement_code": "55",
    "region_code": "44",
    "postal_code": "55160"
  },
  {
    "name": "Tréveray",
    "code": "55516",
    "epci_code": "200066108",
    "departement_code": "55",
    "region_code": "44",
    "postal_code": "55130"
  },
  {
    "name": "Seuil-d’Argonne",
    "code": "55517",
    "epci_code": "200066140",
    "departement_code": "55",
    "region_code": "44",
    "postal_code": "55250"
  },
  {
    "name": "Cousances-lès-Triconville",
    "code": "55518",
    "epci_code": "200066157",
    "departement_code": "55",
    "region_code": "44",
    "postal_code": "55500"
  },
  {
    "name": "Tronville-en-Barrois",
    "code": "55519",
    "epci_code": "200033025",
    "departement_code": "55",
    "region_code": "44",
    "postal_code": "55310"
  },
  {
    "name": "Troussey",
    "code": "55520",
    "epci_code": "200066157",
    "departement_code": "55",
    "region_code": "44",
    "postal_code": "55190"
  },
  {
    "name": "Troyon",
    "code": "55521",
    "epci_code": "245500327",
    "departement_code": "55",
    "region_code": "44",
    "postal_code": "55300"
  },
  {
    "name": "Ugny-sur-Meuse",
    "code": "55522",
    "epci_code": "200066157",
    "departement_code": "55",
    "region_code": "44",
    "postal_code": "55140"
  },
  {
    "name": "Vacherauville",
    "code": "55523",
    "epci_code": "200049187",
    "departement_code": "55",
    "region_code": "44",
    "postal_code": "55100"
  },
  {
    "name": "Vadelaincourt",
    "code": "55525",
    "epci_code": "200066165",
    "departement_code": "55",
    "region_code": "44",
    "postal_code": "55220"
  },
  {
    "name": "Vadonville",
    "code": "55526",
    "epci_code": "200066157",
    "departement_code": "55",
    "region_code": "44",
    "postal_code": "55200"
  },
  {
    "name": "Varennes-en-Argonne",
    "code": "55527",
    "epci_code": "200066116",
    "departement_code": "55",
    "region_code": "44",
    "postal_code": "55270"
  },
  {
    "name": "Varnéville",
    "code": "55528",
    "epci_code": "200034874",
    "departement_code": "55",
    "region_code": "44",
    "postal_code": "55300"
  },
  {
    "name": "Valbois",
    "code": "55530",
    "epci_code": "200034874",
    "departement_code": "55",
    "region_code": "44",
    "postal_code": "55300"
  },
  {
    "name": "Vassincourt",
    "code": "55531",
    "epci_code": "245501184",
    "departement_code": "55",
    "region_code": "44",
    "postal_code": "55800"
  },
  {
    "name": "Vaubecourt",
    "code": "55532",
    "epci_code": "200066140",
    "departement_code": "55",
    "region_code": "44",
    "postal_code": "55250"
  },
  {
    "name": "Vaucouleurs",
    "code": "55533",
    "epci_code": "200066157",
    "departement_code": "55",
    "region_code": "44",
    "postal_code": "55140"
  },
  {
    "name": "Vaudeville-le-Haut",
    "code": "55534",
    "epci_code": "200066108",
    "departement_code": "55",
    "region_code": "44",
    "postal_code": "55130"
  },
  {
    "name": "Vaudoncourt",
    "code": "55535",
    "epci_code": "200066173",
    "departement_code": "55",
    "region_code": "44",
    "postal_code": "55230"
  },
  {
    "name": "Vauquois",
    "code": "55536",
    "epci_code": "200066116",
    "departement_code": "55",
    "region_code": "44",
    "postal_code": "55270"
  },
  {
    "name": "Douaumont-Vaux",
    "code": "55537",
    "epci_code": "200049187",
    "departement_code": "55",
    "region_code": "44",
    "postal_code": "55100"
  },
  {
    "name": "Douaumont-Vaux",
    "code": "55537",
    "epci_code": "200049187",
    "departement_code": "55",
    "region_code": "44",
    "postal_code": "55400"
  },
  {
    "name": "Vaux-lès-Palameix",
    "code": "55540",
    "epci_code": "245500327",
    "departement_code": "55",
    "region_code": "44",
    "postal_code": "55300"
  },
  {
    "name": "Vavincourt",
    "code": "55541",
    "epci_code": "200033025",
    "departement_code": "55",
    "region_code": "44",
    "postal_code": "55000"
  },
  {
    "name": "Velaines",
    "code": "55543",
    "epci_code": "200033025",
    "departement_code": "55",
    "region_code": "44",
    "postal_code": "55500"
  },
  {
    "name": "Velosnes",
    "code": "55544",
    "epci_code": "245501259",
    "departement_code": "55",
    "region_code": "44",
    "postal_code": "55600"
  },
  {
    "name": "Verdun",
    "code": "55545",
    "epci_code": "200049187",
    "departement_code": "55",
    "region_code": "44",
    "postal_code": "55100"
  },
  {
    "name": "Verneuil-Grand",
    "code": "55546",
    "epci_code": "245501259",
    "departement_code": "55",
    "region_code": "44",
    "postal_code": "55600"
  },
  {
    "name": "Verneuil-Petit",
    "code": "55547",
    "epci_code": "245501259",
    "departement_code": "55",
    "region_code": "44",
    "postal_code": "55600"
  },
  {
    "name": "Véry",
    "code": "55549",
    "epci_code": "200066116",
    "departement_code": "55",
    "region_code": "44",
    "postal_code": "55270"
  },
  {
    "name": "Vigneulles-lès-Hattonchâtel",
    "code": "55551",
    "epci_code": "200034874",
    "departement_code": "55",
    "region_code": "44",
    "postal_code": "55210"
  },
  {
    "name": "Vigneul-sous-Montmédy",
    "code": "55552",
    "epci_code": "245501259",
    "departement_code": "55",
    "region_code": "44",
    "postal_code": "55600"
  },
  {
    "name": "Vignot",
    "code": "55553",
    "epci_code": "200066157",
    "departement_code": "55",
    "region_code": "44",
    "postal_code": "55200"
  },
  {
    "name": "Villécloye",
    "code": "55554",
    "epci_code": "245501259",
    "departement_code": "55",
    "region_code": "44",
    "postal_code": "55600"
  },
  {
    "name": "Ville-devant-Belrain",
    "code": "55555",
    "epci_code": "200066140",
    "departement_code": "55",
    "region_code": "44",
    "postal_code": "55260"
  },
  {
    "name": "Ville-devant-Chaumont",
    "code": "55556",
    "epci_code": "200066173",
    "departement_code": "55",
    "region_code": "44",
    "postal_code": "55150"
  },
  {
    "name": "Ville-en-Woëvre",
    "code": "55557",
    "epci_code": "245501176",
    "departement_code": "55",
    "region_code": "44",
    "postal_code": "55160"
  },
  {
    "name": "Villeroy-sur-Méholle",
    "code": "55559",
    "epci_code": "200066157",
    "departement_code": "55",
    "region_code": "44",
    "postal_code": "55190"
  },
  {
    "name": "Villers-aux-Vents",
    "code": "55560",
    "epci_code": "245501184",
    "departement_code": "55",
    "region_code": "44",
    "postal_code": "55800"
  },
  {
    "name": "Villers-devant-Dun",
    "code": "55561",
    "epci_code": "200066132",
    "departement_code": "55",
    "region_code": "44",
    "postal_code": "55110"
  },
  {
    "name": "Villers-le-Sec",
    "code": "55562",
    "epci_code": "200066108",
    "departement_code": "55",
    "region_code": "44",
    "postal_code": "55500"
  },
  {
    "name": "Villers-lès-Mangiennes",
    "code": "55563",
    "epci_code": "200066173",
    "departement_code": "55",
    "region_code": "44",
    "postal_code": "55150"
  },
  {
    "name": "Villers-sous-Pareid",
    "code": "55565",
    "epci_code": "245501176",
    "departement_code": "55",
    "region_code": "44",
    "postal_code": "55160"
  },
  {
    "name": "Villers-sur-Meuse",
    "code": "55566",
    "epci_code": "200066165",
    "departement_code": "55",
    "region_code": "44",
    "postal_code": "55220"
  },
  {
    "name": "Ville-sur-Cousances",
    "code": "55567",
    "epci_code": "200066165",
    "departement_code": "55",
    "region_code": "44",
    "postal_code": "55120"
  },
  {
    "name": "Ville-sur-Saulx",
    "code": "55568",
    "epci_code": "200066108",
    "departement_code": "55",
    "region_code": "44",
    "postal_code": "55000"
  },
  {
    "name": "Villotte-devant-Louppy",
    "code": "55569",
    "epci_code": "200066140",
    "departement_code": "55",
    "region_code": "44",
    "postal_code": "55250"
  },
  {
    "name": "Villotte-sur-Aire",
    "code": "55570",
    "epci_code": "200066140",
    "departement_code": "55",
    "region_code": "44",
    "postal_code": "55260"
  },
  {
    "name": "Vilosnes-Haraumont",
    "code": "55571",
    "epci_code": "200066132",
    "departement_code": "55",
    "region_code": "44",
    "postal_code": "55110"
  },
  {
    "name": "Vittarville",
    "code": "55572",
    "epci_code": "200066173",
    "departement_code": "55",
    "region_code": "44",
    "postal_code": "55150"
  },
  {
    "name": "Void-Vacon",
    "code": "55573",
    "epci_code": "200066157",
    "departement_code": "55",
    "region_code": "44",
    "postal_code": "55190"
  },
  {
    "name": "Vouthon-Bas",
    "code": "55574",
    "epci_code": "200066108",
    "departement_code": "55",
    "region_code": "44",
    "postal_code": "55130"
  },
  {
    "name": "Vouthon-Haut",
    "code": "55575",
    "epci_code": "200066108",
    "departement_code": "55",
    "region_code": "44",
    "postal_code": "55130"
  },
  {
    "name": "Waly",
    "code": "55577",
    "epci_code": "200066140",
    "departement_code": "55",
    "region_code": "44",
    "postal_code": "55250"
  },
  {
    "name": "Warcq",
    "code": "55578",
    "epci_code": "245501242",
    "departement_code": "55",
    "region_code": "44",
    "postal_code": "55400"
  },
  {
    "name": "Watronville",
    "code": "55579",
    "epci_code": "245501176",
    "departement_code": "55",
    "region_code": "44",
    "postal_code": "55160"
  },
  {
    "name": "Wavrille",
    "code": "55580",
    "epci_code": "200066173",
    "departement_code": "55",
    "region_code": "44",
    "postal_code": "55150"
  },
  {
    "name": "Willeroncourt",
    "code": "55581",
    "epci_code": "200066157",
    "departement_code": "55",
    "region_code": "44",
    "postal_code": "55500"
  },
  {
    "name": "Wiseppe",
    "code": "55582",
    "epci_code": "200066132",
    "departement_code": "55",
    "region_code": "44",
    "postal_code": "55700"
  },
  {
    "name": "Woël",
    "code": "55583",
    "epci_code": "245501176",
    "departement_code": "55",
    "region_code": "44",
    "postal_code": "55210"
  },
  {
    "name": "Woimbey",
    "code": "55584",
    "epci_code": "200066140",
    "departement_code": "55",
    "region_code": "44",
    "postal_code": "55300"
  },
  {
    "name": "Xivray-et-Marvoisin",
    "code": "55586",
    "epci_code": "200034874",
    "departement_code": "55",
    "region_code": "44",
    "postal_code": "55300"
  }
]