[
  {
    "name": "Ablain-Saint-Nazaire",
    "code": "62001",
    "epci_code": "246200364",
    "departement_code": "62",
    "region_code": "32",
    "postal_code": "62153"
  },
  {
    "name": "Ablainzevelle",
    "code": "62002",
    "epci_code": "200035442",
    "departement_code": "62",
    "region_code": "32",
    "postal_code": "62116"
  },
  {
    "name": "Acheville",
    "code": "62003",
    "epci_code": "246200364",
    "departement_code": "62",
    "region_code": "32",
    "postal_code": "62320"
  },
  {
    "name": "Achicourt",
    "code": "62004",
    "epci_code": "200033579",
    "departement_code": "62",
    "region_code": "32",
    "postal_code": "62217"
  },
  {
    "name": "Achiet-le-Grand",
    "code": "62005",
    "epci_code": "200035442",
    "departement_code": "62",
    "region_code": "32",
    "postal_code": "62121"
  },
  {
    "name": "Achiet-le-Petit",
    "code": "62006",
    "epci_code": "200035442",
    "departement_code": "62",
    "region_code": "32",
    "postal_code": "62121"
  },
  {
    "name": "Acq",
    "code": "62007",
    "epci_code": "200033579",
    "departement_code": "62",
    "region_code": "32",
    "postal_code": "62144"
  },
  {
    "name": "Acquin-Westbécourt",
    "code": "62008",
    "epci_code": "246201016",
    "departement_code": "62",
    "region_code": "32",
    "postal_code": "62380"
  },
  {
    "name": "Adinfer",
    "code": "62009",
    "epci_code": "200069482",
    "departement_code": "62",
    "region_code": "32",
    "postal_code": "62116"
  },
  {
    "name": "Affringues",
    "code": "62010",
    "epci_code": "246201016",
    "departement_code": "62",
    "region_code": "32",
    "postal_code": "62380"
  },
  {
    "name": "Agnez-lès-Duisans",
    "code": "62011",
    "epci_code": "200069482",
    "departement_code": "62",
    "region_code": "32",
    "postal_code": "62161"
  },
  {
    "name": "Agnières",
    "code": "62012",
    "epci_code": "200069482",
    "departement_code": "62",
    "region_code": "32",
    "postal_code": "62690"
  },
  {
    "name": "Agny",
    "code": "62013",
    "epci_code": "200033579",
    "departement_code": "62",
    "region_code": "32",
    "postal_code": "62217"
  },
  {
    "name": "Aire-sur-la-Lys",
    "code": "62014",
    "epci_code": "200069037",
    "departement_code": "62",
    "region_code": "32",
    "postal_code": "62120"
  },
  {
    "name": "Airon-Notre-Dame",
    "code": "62015",
    "epci_code": "200069029",
    "departement_code": "62",
    "region_code": "32",
    "postal_code": "62180"
  },
  {
    "name": "Airon-Saint-Vaast",
    "code": "62016",
    "epci_code": "200069029",
    "departement_code": "62",
    "region_code": "32",
    "postal_code": "62180"
  },
  {
    "name": "Aix-en-Ergny",
    "code": "62017",
    "epci_code": "200069235",
    "departement_code": "62",
    "region_code": "32",
    "postal_code": "62650"
  },
  {
    "name": "Aix-en-Issart",
    "code": "62018",
    "epci_code": "200044030",
    "departement_code": "62",
    "region_code": "32",
    "postal_code": "62170"
  },
  {
    "name": "Aix-Noulette",
    "code": "62019",
    "epci_code": "246200364",
    "departement_code": "62",
    "region_code": "32",
    "postal_code": "62160"
  },
  {
    "name": "Alembon",
    "code": "62020",
    "epci_code": "200072478",
    "departement_code": "62",
    "region_code": "32",
    "postal_code": "62850"
  },
  {
    "name": "Alette",
    "code": "62021",
    "epci_code": "200069235",
    "departement_code": "62",
    "region_code": "32",
    "postal_code": "62650"
  },
  {
    "name": "Alincthun",
    "code": "62022",
    "epci_code": "200018083",
    "departement_code": "62",
    "region_code": "32",
    "postal_code": "62142"
  },
  {
    "name": "Allouagne",
    "code": "62023",
    "epci_code": "200072460",
    "departement_code": "62",
    "region_code": "32",
    "postal_code": "62157"
  },
  {
    "name": "Alquines",
    "code": "62024",
    "epci_code": "246201016",
    "departement_code": "62",
    "region_code": "32",
    "postal_code": "62850"
  },
  {
    "name": "Ambleteuse",
    "code": "62025",
    "epci_code": "246200380",
    "departement_code": "62",
    "region_code": "32",
    "postal_code": "62164"
  },
  {
    "name": "Ambricourt",
    "code": "62026",
    "epci_code": "200069235",
    "departement_code": "62",
    "region_code": "32",
    "postal_code": "62310"
  },
  {
    "name": "Ambrines",
    "code": "62027",
    "epci_code": "200069482",
    "departement_code": "62",
    "region_code": "32",
    "postal_code": "62127"
  },
  {
    "name": "Ames",
    "code": "62028",
    "epci_code": "200072460",
    "departement_code": "62",
    "region_code": "32",
    "postal_code": "62190"
  },
  {
    "name": "Amettes",
    "code": "62029",
    "epci_code": "200072460",
    "departement_code": "62",
    "region_code": "32",
    "postal_code": "62260"
  },
  {
    "name": "Amplier",
    "code": "62030",
    "epci_code": "200069482",
    "departement_code": "62",
    "region_code": "32",
    "postal_code": "62760"
  },
  {
    "name": "Andres",
    "code": "62031",
    "epci_code": "200072478",
    "departement_code": "62",
    "region_code": "32",
    "postal_code": "62340"
  },
  {
    "name": "Angres",
    "code": "62032",
    "epci_code": "246200364",
    "departement_code": "62",
    "region_code": "32",
    "postal_code": "62143"
  },
  {
    "name": "Annay",
    "code": "62033",
    "epci_code": "246200364",
    "departement_code": "62",
    "region_code": "32",
    "postal_code": "62880"
  },
  {
    "name": "Annequin",
    "code": "62034",
    "epci_code": "200072460",
    "departement_code": "62",
    "region_code": "32",
    "postal_code": "62149"
  },
  {
    "name": "Annezin",
    "code": "62035",
    "epci_code": "200072460",
    "departement_code": "62",
    "region_code": "32",
    "postal_code": "62232"
  },
  {
    "name": "Anvin",
    "code": "62036",
    "epci_code": "200069672",
    "departement_code": "62",
    "region_code": "32",
    "postal_code": "62134"
  },
  {
    "name": "Anzin-Saint-Aubin",
    "code": "62037",
    "epci_code": "200033579",
    "departement_code": "62",
    "region_code": "32",
    "postal_code": "62223"
  },
  {
    "name": "Ardres",
    "code": "62038",
    "epci_code": "200072478",
    "departement_code": "62",
    "region_code": "32",
    "postal_code": "62610"
  },
  {
    "name": "Arleux-en-Gohelle",
    "code": "62039",
    "epci_code": "200044048",
    "departement_code": "62",
    "region_code": "32",
    "postal_code": "62580"
  },
  {
    "name": "Arques",
    "code": "62040",
    "epci_code": "200069037",
    "departement_code": "62",
    "region_code": "32",
    "postal_code": "62510"
  },
  {
    "name": "Arras",
    "code": "62041",
    "epci_code": "200033579",
    "departement_code": "62",
    "region_code": "32",
    "postal_code": "62000"
  },
  {
    "name": "Athies",
    "code": "62042",
    "epci_code": "200033579",
    "departement_code": "62",
    "region_code": "32",
    "postal_code": "62223"
  },
  {
    "name": "Les Attaques",
    "code": "62043",
    "epci_code": "200090751",
    "departement_code": "62",
    "region_code": "32",
    "postal_code": "62730"
  },
  {
    "name": "Attin",
    "code": "62044",
    "epci_code": "200069029",
    "departement_code": "62",
    "region_code": "32",
    "postal_code": "62170"
  },
  {
    "name": "Aubigny-en-Artois",
    "code": "62045",
    "epci_code": "200069482",
    "departement_code": "62",
    "region_code": "32",
    "postal_code": "62690"
  },
  {
    "name": "Aubin-Saint-Vaast",
    "code": "62046",
    "epci_code": "200044030",
    "departement_code": "62",
    "region_code": "32",
    "postal_code": "62140"
  },
  {
    "name": "Aubrometz",
    "code": "62047",
    "epci_code": "200069672",
    "departement_code": "62",
    "region_code": "32",
    "postal_code": "62390"
  },
  {
    "name": "Auchel",
    "code": "62048",
    "epci_code": "200072460",
    "departement_code": "62",
    "region_code": "32",
    "postal_code": "62260"
  },
  {
    "name": "Auchy-au-Bois",
    "code": "62049",
    "epci_code": "200072460",
    "departement_code": "62",
    "region_code": "32",
    "postal_code": "62190"
  },
  {
    "name": "Auchy-lès-Hesdin",
    "code": "62050",
    "epci_code": "200044030",
    "departement_code": "62",
    "region_code": "32",
    "postal_code": "62770"
  },
  {
    "name": "Auchy-les-Mines",
    "code": "62051",
    "epci_code": "200072460",
    "departement_code": "62",
    "region_code": "32",
    "postal_code": "62138"
  },
  {
    "name": "Audembert",
    "code": "62052",
    "epci_code": "246200380",
    "departement_code": "62",
    "region_code": "32",
    "postal_code": "62250"
  },
  {
    "name": "Audincthun",
    "code": "62053",
    "epci_code": "200069037",
    "departement_code": "62",
    "region_code": "32",
    "postal_code": "62560"
  },
  {
    "name": "Audinghen",
    "code": "62054",
    "epci_code": "246200380",
    "departement_code": "62",
    "region_code": "32",
    "postal_code": "62179"
  },
  {
    "name": "Audrehem",
    "code": "62055",
    "epci_code": "246201016",
    "departement_code": "62",
    "region_code": "32",
    "postal_code": "62890"
  },
  {
    "name": "Audresselles",
    "code": "62056",
    "epci_code": "246200380",
    "departement_code": "62",
    "region_code": "32",
    "postal_code": "62164"
  },
  {
    "name": "Audruicq",
    "code": "62057",
    "epci_code": "246200844",
    "departement_code": "62",
    "region_code": "32",
    "postal_code": "62370"
  },
  {
    "name": "Aumerval",
    "code": "62058",
    "epci_code": "200069672",
    "departement_code": "62",
    "region_code": "32",
    "postal_code": "62550"
  },
  {
    "name": "Autingues",
    "code": "62059",
    "epci_code": "200072478",
    "departement_code": "62",
    "region_code": "32",
    "postal_code": "62610"
  },
  {
    "name": "Auxi-le-Château",
    "code": "62060",
    "epci_code": "200069672",
    "departement_code": "62",
    "region_code": "32",
    "postal_code": "62390"
  },
  {
    "name": "Averdoingt",
    "code": "62061",
    "epci_code": "200069672",
    "departement_code": "62",
    "region_code": "32",
    "postal_code": "62127"
  },
  {
    "name": "Avesnes",
    "code": "62062",
    "epci_code": "200069235",
    "departement_code": "62",
    "region_code": "32",
    "postal_code": "62650"
  },
  {
    "name": "Avesnes-le-Comte",
    "code": "62063",
    "epci_code": "200069482",
    "departement_code": "62",
    "region_code": "32",
    "postal_code": "62810"
  },
  {
    "name": "Avesnes-lès-Bapaume",
    "code": "62064",
    "epci_code": "200035442",
    "departement_code": "62",
    "region_code": "32",
    "postal_code": "62450"
  },
  {
    "name": "Avion",
    "code": "62065",
    "epci_code": "246200364",
    "departement_code": "62",
    "region_code": "32",
    "postal_code": "62210"
  },
  {
    "name": "Avondance",
    "code": "62066",
    "epci_code": "200069235",
    "departement_code": "62",
    "region_code": "32",
    "postal_code": "62310"
  },
  {
    "name": "Avroult",
    "code": "62067",
    "epci_code": "200069037",
    "departement_code": "62",
    "region_code": "32",
    "postal_code": "62560"
  },
  {
    "name": "Ayette",
    "code": "62068",
    "epci_code": "200035442",
    "departement_code": "62",
    "region_code": "32",
    "postal_code": "62116"
  },
  {
    "name": "Azincourt",
    "code": "62069",
    "epci_code": "200044030",
    "departement_code": "62",
    "region_code": "32",
    "postal_code": "62310"
  },
  {
    "name": "Bailleul-aux-Cornailles",
    "code": "62070",
    "epci_code": "200069482",
    "departement_code": "62",
    "region_code": "32",
    "postal_code": "62127"
  },
  {
    "name": "Bailleul-lès-Pernes",
    "code": "62071",
    "epci_code": "200069672",
    "departement_code": "62",
    "region_code": "32",
    "postal_code": "62550"
  },
  {
    "name": "Bailleulmont",
    "code": "62072",
    "epci_code": "200069482",
    "departement_code": "62",
    "region_code": "32",
    "postal_code": "62123"
  },
  {
    "name": "Bailleul-Sir-Berthoult",
    "code": "62073",
    "epci_code": "200033579",
    "departement_code": "62",
    "region_code": "32",
    "postal_code": "62580"
  },
  {
    "name": "Bailleulval",
    "code": "62074",
    "epci_code": "200069482",
    "departement_code": "62",
    "region_code": "32",
    "postal_code": "62123"
  },
  {
    "name": "Baincthun",
    "code": "62075",
    "epci_code": "246200729",
    "departement_code": "62",
    "region_code": "32",
    "postal_code": "62360"
  },
  {
    "name": "Bainghen",
    "code": "62076",
    "epci_code": "200072478",
    "departement_code": "62",
    "region_code": "32",
    "postal_code": "62850"
  },
  {
    "name": "Bajus",
    "code": "62077",
    "epci_code": "200072460",
    "departement_code": "62",
    "region_code": "32",
    "postal_code": "62150"
  },
  {
    "name": "Balinghem",
    "code": "62078",
    "epci_code": "200072478",
    "departement_code": "62",
    "region_code": "32",
    "postal_code": "62610"
  },
  {
    "name": "Bancourt",
    "code": "62079",
    "epci_code": "200035442",
    "departement_code": "62",
    "region_code": "32",
    "postal_code": "62450"
  },
  {
    "name": "Bapaume",
    "code": "62080",
    "epci_code": "200035442",
    "departement_code": "62",
    "region_code": "32",
    "postal_code": "62450"
  },
  {
    "name": "Baralle",
    "code": "62081",
    "epci_code": "200044048",
    "departement_code": "62",
    "region_code": "32",
    "postal_code": "62860"
  },
  {
    "name": "Barastre",
    "code": "62082",
    "epci_code": "200035442",
    "departement_code": "62",
    "region_code": "32",
    "postal_code": "62124"
  },
  {
    "name": "Barlin",
    "code": "62083",
    "epci_code": "200072460",
    "departement_code": "62",
    "region_code": "32",
    "postal_code": "62620"
  },
  {
    "name": "Barly",
    "code": "62084",
    "epci_code": "200069482",
    "departement_code": "62",
    "region_code": "32",
    "postal_code": "62810"
  },
  {
    "name": "Basseux",
    "code": "62085",
    "epci_code": "200033579",
    "departement_code": "62",
    "region_code": "32",
    "postal_code": "62123"
  },
  {
    "name": "Bavincourt",
    "code": "62086",
    "epci_code": "200069482",
    "departement_code": "62",
    "region_code": "32",
    "postal_code": "62158"
  },
  {
    "name": "Bayenghem-lès-Éperlecques",
    "code": "62087",
    "epci_code": "200069037",
    "departement_code": "62",
    "region_code": "32",
    "postal_code": "62910"
  },
  {
    "name": "Bayenghem-lès-Seninghem",
    "code": "62088",
    "epci_code": "246201016",
    "departement_code": "62",
    "region_code": "32",
    "postal_code": "62380"
  },
  {
    "name": "Bazinghen",
    "code": "62089",
    "epci_code": "246200380",
    "departement_code": "62",
    "region_code": "32",
    "postal_code": "62250"
  },
  {
    "name": "Béalencourt",
    "code": "62090",
    "epci_code": "200044030",
    "departement_code": "62",
    "region_code": "32",
    "postal_code": "62770"
  },
  {
    "name": "Beaudricourt",
    "code": "62091",
    "epci_code": "200069482",
    "departement_code": "62",
    "region_code": "32",
    "postal_code": "62810"
  },
  {
    "name": "Beaufort-Blavincourt",
    "code": "62092",
    "epci_code": "200069482",
    "departement_code": "62",
    "region_code": "32",
    "postal_code": "62810"
  },
  {
    "name": "Beaulencourt",
    "code": "62093",
    "epci_code": "200035442",
    "departement_code": "62",
    "region_code": "32",
    "postal_code": "62450"
  },
  {
    "name": "Beaumerie-Saint-Martin",
    "code": "62094",
    "epci_code": "200069029",
    "departement_code": "62",
    "region_code": "32",
    "postal_code": "62170"
  },
  {
    "name": "Beaumetz-lès-Aire",
    "code": "62095",
    "epci_code": "200069037",
    "departement_code": "62",
    "region_code": "32",
    "postal_code": "62960"
  },
  {
    "name": "Beaumetz-lès-Cambrai",
    "code": "62096",
    "epci_code": "200035442",
    "departement_code": "62",
    "region_code": "32",
    "postal_code": "62124"
  },
  {
    "name": "Beaumetz-lès-Loges",
    "code": "62097",
    "epci_code": "200033579",
    "departement_code": "62",
    "region_code": "32",
    "postal_code": "62123"
  },
  {
    "name": "Beaurains",
    "code": "62099",
    "epci_code": "200033579",
    "departement_code": "62",
    "region_code": "32",
    "postal_code": "62217"
  },
  {
    "name": "Beaurainville",
    "code": "62100",
    "epci_code": "200044030",
    "departement_code": "62",
    "region_code": "32",
    "postal_code": "62990"
  },
  {
    "name": "Beauvois",
    "code": "62101",
    "epci_code": "200069672",
    "departement_code": "62",
    "region_code": "32",
    "postal_code": "62130"
  },
  {
    "name": "Bécourt",
    "code": "62102",
    "epci_code": "200069235",
    "departement_code": "62",
    "region_code": "32",
    "postal_code": "62240"
  },
  {
    "name": "Béhagnies",
    "code": "62103",
    "epci_code": "200035442",
    "departement_code": "62",
    "region_code": "32",
    "postal_code": "62121"
  },
  {
    "name": "Bellebrune",
    "code": "62104",
    "epci_code": "200018083",
    "departement_code": "62",
    "region_code": "32",
    "postal_code": "62142"
  },
  {
    "name": "Belle-et-Houllefort",
    "code": "62105",
    "epci_code": "200018083",
    "departement_code": "62",
    "region_code": "32",
    "postal_code": "62142"
  },
  {
    "name": "Bellonne",
    "code": "62106",
    "epci_code": "200044048",
    "departement_code": "62",
    "region_code": "32",
    "postal_code": "62490"
  },
  {
    "name": "Bénifontaine",
    "code": "62107",
    "epci_code": "246200364",
    "departement_code": "62",
    "region_code": "32",
    "postal_code": "62410"
  },
  {
    "name": "Berck",
    "code": "62108",
    "epci_code": "200069029",
    "departement_code": "62",
    "region_code": "32",
    "postal_code": "62600"
  },
  {
    "name": "Bergueneuse",
    "code": "62109",
    "epci_code": "200069672",
    "departement_code": "62",
    "region_code": "32",
    "postal_code": "62134"
  },
  {
    "name": "Berlencourt-le-Cauroy",
    "code": "62111",
    "epci_code": "200069482",
    "departement_code": "62",
    "region_code": "32",
    "postal_code": "62810"
  },
  {
    "name": "Berles-au-Bois",
    "code": "62112",
    "epci_code": "200069482",
    "departement_code": "62",
    "region_code": "32",
    "postal_code": "62123"
  },
  {
    "name": "Berles-Monchel",
    "code": "62113",
    "epci_code": "200069482",
    "departement_code": "62",
    "region_code": "32",
    "postal_code": "62690"
  },
  {
    "name": "Bermicourt",
    "code": "62114",
    "epci_code": "200069672",
    "departement_code": "62",
    "region_code": "32",
    "postal_code": "62130"
  },
  {
    "name": "Berneville",
    "code": "62115",
    "epci_code": "200069482",
    "departement_code": "62",
    "region_code": "32",
    "postal_code": "62123"
  },
  {
    "name": "Bernieulles",
    "code": "62116",
    "epci_code": "200069029",
    "departement_code": "62",
    "region_code": "32",
    "postal_code": "62170"
  },
  {
    "name": "Bertincourt",
    "code": "62117",
    "epci_code": "200035442",
    "departement_code": "62",
    "region_code": "32",
    "postal_code": "62124"
  },
  {
    "name": "Béthonsart",
    "code": "62118",
    "epci_code": "200069482",
    "departement_code": "62",
    "region_code": "32",
    "postal_code": "62690"
  },
  {
    "name": "Béthune",
    "code": "62119",
    "epci_code": "200072460",
    "departement_code": "62",
    "region_code": "32",
    "postal_code": "62400"
  },
  {
    "name": "Beugin",
    "code": "62120",
    "epci_code": "200072460",
    "departement_code": "62",
    "region_code": "32",
    "postal_code": "62150"
  },
  {
    "name": "Beugnâtre",
    "code": "62121",
    "epci_code": "200035442",
    "departement_code": "62",
    "region_code": "32",
    "postal_code": "62450"
  },
  {
    "name": "Beugny",
    "code": "62122",
    "epci_code": "200035442",
    "departement_code": "62",
    "region_code": "32",
    "postal_code": "62124"
  },
  {
    "name": "Beussent",
    "code": "62123",
    "epci_code": "200069235",
    "departement_code": "62",
    "region_code": "32",
    "postal_code": "62170"
  },
  {
    "name": "Beutin",
    "code": "62124",
    "epci_code": "200069029",
    "departement_code": "62",
    "region_code": "32",
    "postal_code": "62170"
  },
  {
    "name": "Beuvrequen",
    "code": "62125",
    "epci_code": "246200380",
    "departement_code": "62",
    "region_code": "32",
    "postal_code": "62250"
  },
  {
    "name": "Beuvry",
    "code": "62126",
    "epci_code": "200072460",
    "departement_code": "62",
    "region_code": "32",
    "postal_code": "62660"
  },
  {
    "name": "Bezinghem",
    "code": "62127",
    "epci_code": "200069235",
    "departement_code": "62",
    "region_code": "32",
    "postal_code": "62650"
  },
  {
    "name": "Biache-Saint-Vaast",
    "code": "62128",
    "epci_code": "200044048",
    "departement_code": "62",
    "region_code": "32",
    "postal_code": "62118"
  },
  {
    "name": "Biefvillers-lès-Bapaume",
    "code": "62129",
    "epci_code": "200035442",
    "departement_code": "62",
    "region_code": "32",
    "postal_code": "62450"
  },
  {
    "name": "Bienvillers-au-Bois",
    "code": "62130",
    "epci_code": "200069482",
    "departement_code": "62",
    "region_code": "32",
    "postal_code": "62111"
  },
  {
    "name": "Bihucourt",
    "code": "62131",
    "epci_code": "200035442",
    "departement_code": "62",
    "region_code": "32",
    "postal_code": "62121"
  },
  {
    "name": "Billy-Berclau",
    "code": "62132",
    "epci_code": "200072460",
    "departement_code": "62",
    "region_code": "32",
    "postal_code": "62138"
  },
  {
    "name": "Billy-Montigny",
    "code": "62133",
    "epci_code": "246200364",
    "departement_code": "62",
    "region_code": "32",
    "postal_code": "62420"
  },
  {
    "name": "Bimont",
    "code": "62134",
    "epci_code": "200069235",
    "departement_code": "62",
    "region_code": "32",
    "postal_code": "62650"
  },
  {
    "name": "Blairville",
    "code": "62135",
    "epci_code": "200069482",
    "departement_code": "62",
    "region_code": "32",
    "postal_code": "62173"
  },
  {
    "name": "Blangerval-Blangermont",
    "code": "62137",
    "epci_code": "200069672",
    "departement_code": "62",
    "region_code": "32",
    "postal_code": "62270"
  },
  {
    "name": "Blangy-sur-Ternoise",
    "code": "62138",
    "epci_code": "200044030",
    "departement_code": "62",
    "region_code": "32",
    "postal_code": "62770"
  },
  {
    "name": "Blendecques",
    "code": "62139",
    "epci_code": "200069037",
    "departement_code": "62",
    "region_code": "32",
    "postal_code": "62575"
  },
  {
    "name": "Bléquin",
    "code": "62140",
    "epci_code": "246201016",
    "departement_code": "62",
    "region_code": "32",
    "postal_code": "62380"
  },
  {
    "name": "Blessy",
    "code": "62141",
    "epci_code": "200072460",
    "departement_code": "62",
    "region_code": "32",
    "postal_code": "62120"
  },
  {
    "name": "Blingel",
    "code": "62142",
    "epci_code": "200044030",
    "departement_code": "62",
    "region_code": "32",
    "postal_code": "62770"
  },
  {
    "name": "Boffles",
    "code": "62143",
    "epci_code": "200069672",
    "departement_code": "62",
    "region_code": "32",
    "postal_code": "62390"
  },
  {
    "name": "Boiry-Becquerelle",
    "code": "62144",
    "epci_code": "200033579",
    "departement_code": "62",
    "region_code": "32",
    "postal_code": "62128"
  },
  {
    "name": "Boiry-Notre-Dame",
    "code": "62145",
    "epci_code": "200044048",
    "departement_code": "62",
    "region_code": "32",
    "postal_code": "62156"
  },
  {
    "name": "Boiry-Saint-Martin",
    "code": "62146",
    "epci_code": "200033579",
    "departement_code": "62",
    "region_code": "32",
    "postal_code": "62175"
  },
  {
    "name": "Boiry-Sainte-Rictrude",
    "code": "62147",
    "epci_code": "200033579",
    "departement_code": "62",
    "region_code": "32",
    "postal_code": "62175"
  },
  {
    "name": "Bois-Bernard",
    "code": "62148",
    "epci_code": "246200299",
    "departement_code": "62",
    "region_code": "32",
    "postal_code": "62320"
  },
  {
    "name": "Boisdinghem",
    "code": "62149",
    "epci_code": "246201016",
    "departement_code": "62",
    "region_code": "32",
    "postal_code": "62500"
  },
  {
    "name": "Boisjean",
    "code": "62150",
    "epci_code": "200044030",
    "departement_code": "62",
    "region_code": "32",
    "postal_code": "62170"
  },
  {
    "name": "Boisleux-au-Mont",
    "code": "62151",
    "epci_code": "200033579",
    "departement_code": "62",
    "region_code": "32",
    "postal_code": "62175"
  },
  {
    "name": "Boisleux-Saint-Marc",
    "code": "62152",
    "epci_code": "200033579",
    "departement_code": "62",
    "region_code": "32",
    "postal_code": "62175"
  },
  {
    "name": "Bomy",
    "code": "62153",
    "epci_code": "200069037",
    "departement_code": "62",
    "region_code": "32",
    "postal_code": "62960"
  },
  {
    "name": "Bonnières",
    "code": "62154",
    "epci_code": "200069672",
    "departement_code": "62",
    "region_code": "32",
    "postal_code": "62270"
  },
  {
    "name": "Bonningues-lès-Ardres",
    "code": "62155",
    "epci_code": "246201016",
    "departement_code": "62",
    "region_code": "32",
    "postal_code": "62890"
  },
  {
    "name": "Bonningues-lès-Calais",
    "code": "62156",
    "epci_code": "200090751",
    "departement_code": "62",
    "region_code": "32",
    "postal_code": "62340"
  },
  {
    "name": "Boubers-lès-Hesmond",
    "code": "62157",
    "epci_code": "200044030",
    "departement_code": "62",
    "region_code": "32",
    "postal_code": "62990"
  },
  {
    "name": "Boubers-sur-Canche",
    "code": "62158",
    "epci_code": "200069672",
    "departement_code": "62",
    "region_code": "32",
    "postal_code": "62270"
  },
  {
    "name": "Boulogne-sur-Mer",
    "code": "62160",
    "epci_code": "246200729",
    "departement_code": "62",
    "region_code": "32",
    "postal_code": "62200"
  },
  {
    "name": "Bouquehault",
    "code": "62161",
    "epci_code": "200072478",
    "departement_code": "62",
    "region_code": "32",
    "postal_code": "62340"
  },
  {
    "name": "Bourecq",
    "code": "62162",
    "epci_code": "200072460",
    "departement_code": "62",
    "region_code": "32",
    "postal_code": "62190"
  },
  {
    "name": "Bouret-sur-Canche",
    "code": "62163",
    "epci_code": "200069672",
    "departement_code": "62",
    "region_code": "32",
    "postal_code": "62270"
  },
  {
    "name": "Bourlon",
    "code": "62164",
    "epci_code": "200044048",
    "departement_code": "62",
    "region_code": "32",
    "postal_code": "62860"
  },
  {
    "name": "Bournonville",
    "code": "62165",
    "epci_code": "200018083",
    "departement_code": "62",
    "region_code": "32",
    "postal_code": "62240"
  },
  {
    "name": "Bours",
    "code": "62166",
    "epci_code": "200069672",
    "departement_code": "62",
    "region_code": "32",
    "postal_code": "62550"
  },
  {
    "name": "Boursin",
    "code": "62167",
    "epci_code": "200072478",
    "departement_code": "62",
    "region_code": "32",
    "postal_code": "62132"
  },
  {
    "name": "Bourthes",
    "code": "62168",
    "epci_code": "200069235",
    "departement_code": "62",
    "region_code": "32",
    "postal_code": "62650"
  },
  {
    "name": "Bouvelinghem",
    "code": "62169",
    "epci_code": "246201016",
    "departement_code": "62",
    "region_code": "32",
    "postal_code": "62380"
  },
  {
    "name": "Bouvigny-Boyeffles",
    "code": "62170",
    "epci_code": "246200364",
    "departement_code": "62",
    "region_code": "32",
    "postal_code": "62172"
  },
  {
    "name": "Boyaval",
    "code": "62171",
    "epci_code": "200069672",
    "departement_code": "62",
    "region_code": "32",
    "postal_code": "62134"
  },
  {
    "name": "Boyelles",
    "code": "62172",
    "epci_code": "200033579",
    "departement_code": "62",
    "region_code": "32",
    "postal_code": "62128"
  },
  {
    "name": "Brebières",
    "code": "62173",
    "epci_code": "200044048",
    "departement_code": "62",
    "region_code": "32",
    "postal_code": "62117"
  },
  {
    "name": "Brêmes",
    "code": "62174",
    "epci_code": "200072478",
    "departement_code": "62",
    "region_code": "32",
    "postal_code": "62610"
  },
  {
    "name": "Brévillers",
    "code": "62175",
    "epci_code": "200044030",
    "departement_code": "62",
    "region_code": "32",
    "postal_code": "62140"
  },
  {
    "name": "Bréxent-Énocq",
    "code": "62176",
    "epci_code": "200069029",
    "departement_code": "62",
    "region_code": "32",
    "postal_code": "62170"
  },
  {
    "name": "Brimeux",
    "code": "62177",
    "epci_code": "200044030",
    "departement_code": "62",
    "region_code": "32",
    "postal_code": "62170"
  },
  {
    "name": "Bruay-la-Buissière",
    "code": "62178",
    "epci_code": "200072460",
    "departement_code": "62",
    "region_code": "32",
    "postal_code": "62700"
  },
  {
    "name": "Brunembert",
    "code": "62179",
    "epci_code": "200018083",
    "departement_code": "62",
    "region_code": "32",
    "postal_code": "62240"
  },
  {
    "name": "Brias",
    "code": "62180",
    "epci_code": "200069672",
    "departement_code": "62",
    "region_code": "32",
    "postal_code": "62130"
  },
  {
    "name": "Bucquoy",
    "code": "62181",
    "epci_code": "200035442",
    "departement_code": "62",
    "region_code": "32",
    "postal_code": "62116"
  },
  {
    "name": "Buire-au-Bois",
    "code": "62182",
    "epci_code": "200069672",
    "departement_code": "62",
    "region_code": "32",
    "postal_code": "62390"
  },
  {
    "name": "Buire-le-Sec",
    "code": "62183",
    "epci_code": "200044030",
    "departement_code": "62",
    "region_code": "32",
    "postal_code": "62870"
  },
  {
    "name": "Buissy",
    "code": "62184",
    "epci_code": "200044048",
    "departement_code": "62",
    "region_code": "32",
    "postal_code": "62860"
  },
  {
    "name": "Bullecourt",
    "code": "62185",
    "epci_code": "200035442",
    "departement_code": "62",
    "region_code": "32",
    "postal_code": "62128"
  },
  {
    "name": "Bully-les-Mines",
    "code": "62186",
    "epci_code": "246200364",
    "departement_code": "62",
    "region_code": "32",
    "postal_code": "62160"
  },
  {
    "name": "Buneville",
    "code": "62187",
    "epci_code": "200069672",
    "departement_code": "62",
    "region_code": "32",
    "postal_code": "62130"
  },
  {
    "name": "Burbure",
    "code": "62188",
    "epci_code": "200072460",
    "departement_code": "62",
    "region_code": "32",
    "postal_code": "62151"
  },
  {
    "name": "Bus",
    "code": "62189",
    "epci_code": "200035442",
    "departement_code": "62",
    "region_code": "32",
    "postal_code": "62124"
  },
  {
    "name": "Busnes",
    "code": "62190",
    "epci_code": "200072460",
    "departement_code": "62",
    "region_code": "32",
    "postal_code": "62350"
  },
  {
    "name": "Caffiers",
    "code": "62191",
    "epci_code": "200072478",
    "departement_code": "62",
    "region_code": "32",
    "postal_code": "62132"
  },
  {
    "name": "Cagnicourt",
    "code": "62192",
    "epci_code": "200044048",
    "departement_code": "62",
    "region_code": "32",
    "postal_code": "62182"
  },
  {
    "name": "Calais",
    "code": "62193",
    "epci_code": "200090751",
    "departement_code": "62",
    "region_code": "32",
    "postal_code": "62100"
  },
  {
    "name": "Calonne-Ricouart",
    "code": "62194",
    "epci_code": "200072460",
    "departement_code": "62",
    "region_code": "32",
    "postal_code": "62470"
  },
  {
    "name": "Calonne-sur-la-Lys",
    "code": "62195",
    "epci_code": "200072460",
    "departement_code": "62",
    "region_code": "32",
    "postal_code": "62350"
  },
  {
    "name": "La Calotterie",
    "code": "62196",
    "epci_code": "200069029",
    "departement_code": "62",
    "region_code": "32",
    "postal_code": "62170"
  },
  {
    "name": "Camblain-Châtelain",
    "code": "62197",
    "epci_code": "200072460",
    "departement_code": "62",
    "region_code": "32",
    "postal_code": "62470"
  },
  {
    "name": "Cambligneul",
    "code": "62198",
    "epci_code": "200069482",
    "departement_code": "62",
    "region_code": "32",
    "postal_code": "62690"
  },
  {
    "name": "Camblain-l’Abbé",
    "code": "62199",
    "epci_code": "200069482",
    "departement_code": "62",
    "region_code": "32",
    "postal_code": "62690"
  },
  {
    "name": "Cambrin",
    "code": "62200",
    "epci_code": "200072460",
    "departement_code": "62",
    "region_code": "32",
    "postal_code": "62149"
  },
  {
    "name": "Camiers",
    "code": "62201",
    "epci_code": "200069029",
    "departement_code": "62",
    "region_code": "32",
    "postal_code": "62176"
  },
  {
    "name": "Campagne-lès-Boulonnais",
    "code": "62202",
    "epci_code": "200069235",
    "departement_code": "62",
    "region_code": "32",
    "postal_code": "62650"
  },
  {
    "name": "Campagne-lès-Guines",
    "code": "62203",
    "epci_code": "200072478",
    "departement_code": "62",
    "region_code": "32",
    "postal_code": "62340"
  },
  {
    "name": "Campagne-lès-Hesdin",
    "code": "62204",
    "epci_code": "200044030",
    "departement_code": "62",
    "region_code": "32",
    "postal_code": "62870"
  },
  {
    "name": "Campagne-lès-Wardrecques",
    "code": "62205",
    "epci_code": "200069037",
    "departement_code": "62",
    "region_code": "32",
    "postal_code": "62120"
  },
  {
    "name": "Campigneulles-les-Grandes",
    "code": "62206",
    "epci_code": "200069029",
    "departement_code": "62",
    "region_code": "32",
    "postal_code": "62170"
  },
  {
    "name": "Campigneulles-les-Petites",
    "code": "62207",
    "epci_code": "200069029",
    "departement_code": "62",
    "region_code": "32",
    "postal_code": "62170"
  },
  {
    "name": "Canettemont",
    "code": "62208",
    "epci_code": "200069482",
    "departement_code": "62",
    "region_code": "32",
    "postal_code": "62270"
  },
  {
    "name": "Canlers",
    "code": "62209",
    "epci_code": "200069235",
    "departement_code": "62",
    "region_code": "32",
    "postal_code": "62310"
  },
  {
    "name": "Capelle-Fermont",
    "code": "62211",
    "epci_code": "200069482",
    "departement_code": "62",
    "region_code": "32",
    "postal_code": "62690"
  },
  {
    "name": "Capelle-lès-Hesdin",
    "code": "62212",
    "epci_code": "200044030",
    "departement_code": "62",
    "region_code": "32",
    "postal_code": "62140"
  },
  {
    "name": "Carency",
    "code": "62213",
    "epci_code": "246200364",
    "departement_code": "62",
    "region_code": "32",
    "postal_code": "62144"
  },
  {
    "name": "Carly",
    "code": "62214",
    "epci_code": "200018083",
    "departement_code": "62",
    "region_code": "32",
    "postal_code": "62830"
  },
  {
    "name": "Carvin",
    "code": "62215",
    "epci_code": "246200299",
    "departement_code": "62",
    "region_code": "32",
    "postal_code": "62220"
  },
  {
    "name": "La Cauchie",
    "code": "62216",
    "epci_code": "200069482",
    "departement_code": "62",
    "region_code": "32",
    "postal_code": "62158"
  },
  {
    "name": "Cauchy-à-la-Tour",
    "code": "62217",
    "epci_code": "200072460",
    "departement_code": "62",
    "region_code": "32",
    "postal_code": "62260"
  },
  {
    "name": "Caucourt",
    "code": "62218",
    "epci_code": "200072460",
    "departement_code": "62",
    "region_code": "32",
    "postal_code": "62150"
  },
  {
    "name": "Caumont",
    "code": "62219",
    "epci_code": "200044030",
    "departement_code": "62",
    "region_code": "32",
    "postal_code": "62140"
  },
  {
    "name": "Cavron-Saint-Martin",
    "code": "62220",
    "epci_code": "200044030",
    "departement_code": "62",
    "region_code": "32",
    "postal_code": "62140"
  },
  {
    "name": "Chelers",
    "code": "62221",
    "epci_code": "200069482",
    "departement_code": "62",
    "region_code": "32",
    "postal_code": "62127"
  },
  {
    "name": "Chériennes",
    "code": "62222",
    "epci_code": "200044030",
    "departement_code": "62",
    "region_code": "32",
    "postal_code": "62140"
  },
  {
    "name": "Chérisy",
    "code": "62223",
    "epci_code": "200035442",
    "departement_code": "62",
    "region_code": "32",
    "postal_code": "62128"
  },
  {
    "name": "Chocques",
    "code": "62224",
    "epci_code": "200072460",
    "departement_code": "62",
    "region_code": "32",
    "postal_code": "62920"
  },
  {
    "name": "Clairmarais",
    "code": "62225",
    "epci_code": "200069037",
    "departement_code": "62",
    "region_code": "32",
    "postal_code": "62500"
  },
  {
    "name": "Clenleu",
    "code": "62227",
    "epci_code": "200069235",
    "departement_code": "62",
    "region_code": "32",
    "postal_code": "62650"
  },
  {
    "name": "Clerques",
    "code": "62228",
    "epci_code": "246201016",
    "departement_code": "62",
    "region_code": "32",
    "postal_code": "62890"
  },
  {
    "name": "Cléty",
    "code": "62229",
    "epci_code": "246201016",
    "departement_code": "62",
    "region_code": "32",
    "postal_code": "62380"
  },
  {
    "name": "Colembert",
    "code": "62230",
    "epci_code": "200018083",
    "departement_code": "62",
    "region_code": "32",
    "postal_code": "62142"
  },
  {
    "name": "Colline-Beaumont",
    "code": "62231",
    "epci_code": "200069029",
    "departement_code": "62",
    "region_code": "32",
    "postal_code": "62180"
  },
  {
    "name": "La Comté",
    "code": "62232",
    "epci_code": "200072460",
    "departement_code": "62",
    "region_code": "32",
    "postal_code": "62150"
  },
  {
    "name": "Conchil-le-Temple",
    "code": "62233",
    "epci_code": "200069029",
    "departement_code": "62",
    "region_code": "32",
    "postal_code": "62180"
  },
  {
    "name": "Conchy-sur-Canche",
    "code": "62234",
    "epci_code": "200069672",
    "departement_code": "62",
    "region_code": "32",
    "postal_code": "62270"
  },
  {
    "name": "Condette",
    "code": "62235",
    "epci_code": "246200729",
    "departement_code": "62",
    "region_code": "32",
    "postal_code": "62360"
  },
  {
    "name": "Contes",
    "code": "62236",
    "epci_code": "200044030",
    "departement_code": "62",
    "region_code": "32",
    "postal_code": "62990"
  },
  {
    "name": "Conteville-lès-Boulogne",
    "code": "62237",
    "epci_code": "246200729",
    "departement_code": "62",
    "region_code": "32",
    "postal_code": "62126"
  },
  {
    "name": "Conteville-en-Ternois",
    "code": "62238",
    "epci_code": "200069672",
    "departement_code": "62",
    "region_code": "32",
    "postal_code": "62130"
  },
  {
    "name": "Coquelles",
    "code": "62239",
    "epci_code": "200090751",
    "departement_code": "62",
    "region_code": "32",
    "postal_code": "62231"
  },
  {
    "name": "Corbehem",
    "code": "62240",
    "epci_code": "200044048",
    "departement_code": "62",
    "region_code": "32",
    "postal_code": "62112"
  },
  {
    "name": "Cormont",
    "code": "62241",
    "epci_code": "200069029",
    "departement_code": "62",
    "region_code": "32",
    "postal_code": "62630"
  },
  {
    "name": "Couin",
    "code": "62242",
    "epci_code": "200069482",
    "departement_code": "62",
    "region_code": "32",
    "postal_code": "62760"
  },
  {
    "name": "Coullemont",
    "code": "62243",
    "epci_code": "200069482",
    "departement_code": "62",
    "region_code": "32",
    "postal_code": "62158"
  },
  {
    "name": "Coulogne",
    "code": "62244",
    "epci_code": "200090751",
    "departement_code": "62",
    "region_code": "32",
    "postal_code": "62137"
  },
  {
    "name": "Coulomby",
    "code": "62245",
    "epci_code": "246201016",
    "departement_code": "62",
    "region_code": "32",
    "postal_code": "62380"
  },
  {
    "name": "Coupelle-Neuve",
    "code": "62246",
    "epci_code": "200069235",
    "departement_code": "62",
    "region_code": "32",
    "postal_code": "62310"
  },
  {
    "name": "Coupelle-Vieille",
    "code": "62247",
    "epci_code": "200069235",
    "departement_code": "62",
    "region_code": "32",
    "postal_code": "62310"
  },
  {
    "name": "Courcelles-le-Comte",
    "code": "62248",
    "epci_code": "200035442",
    "departement_code": "62",
    "region_code": "32",
    "postal_code": "62121"
  },
  {
    "name": "Courcelles-lès-Lens",
    "code": "62249",
    "epci_code": "246200299",
    "departement_code": "62",
    "region_code": "32",
    "postal_code": "62970"
  },
  {
    "name": "Courrières",
    "code": "62250",
    "epci_code": "246200299",
    "departement_code": "62",
    "region_code": "32",
    "postal_code": "62710"
  },
  {
    "name": "Courset",
    "code": "62251",
    "epci_code": "200018083",
    "departement_code": "62",
    "region_code": "32",
    "postal_code": "62240"
  },
  {
    "name": "La Couture",
    "code": "62252",
    "epci_code": "200072460",
    "departement_code": "62",
    "region_code": "32",
    "postal_code": "62136"
  },
  {
    "name": "Couturelle",
    "code": "62253",
    "epci_code": "200069482",
    "departement_code": "62",
    "region_code": "32",
    "postal_code": "62158"
  },
  {
    "name": "Coyecques",
    "code": "62254",
    "epci_code": "200069037",
    "departement_code": "62",
    "region_code": "32",
    "postal_code": "62560"
  },
  {
    "name": "Crémarest",
    "code": "62255",
    "epci_code": "200018083",
    "departement_code": "62",
    "region_code": "32",
    "postal_code": "62240"
  },
  {
    "name": "Crépy",
    "code": "62256",
    "epci_code": "200069235",
    "departement_code": "62",
    "region_code": "32",
    "postal_code": "62310"
  },
  {
    "name": "Créquy",
    "code": "62257",
    "epci_code": "200069235",
    "departement_code": "62",
    "region_code": "32",
    "postal_code": "62310"
  },
  {
    "name": "Croisette",
    "code": "62258",
    "epci_code": "200069672",
    "departement_code": "62",
    "region_code": "32",
    "postal_code": "62130"
  },
  {
    "name": "Croisilles",
    "code": "62259",
    "epci_code": "200035442",
    "departement_code": "62",
    "region_code": "32",
    "postal_code": "62128"
  },
  {
    "name": "Croix-en-Ternois",
    "code": "62260",
    "epci_code": "200069672",
    "departement_code": "62",
    "region_code": "32",
    "postal_code": "62130"
  },
  {
    "name": "Cucq",
    "code": "62261",
    "epci_code": "200069029",
    "departement_code": "62",
    "region_code": "32",
    "postal_code": "62780"
  },
  {
    "name": "Cuinchy",
    "code": "62262",
    "epci_code": "200072460",
    "departement_code": "62",
    "region_code": "32",
    "postal_code": "62149"
  },
  {
    "name": "Dainville",
    "code": "62263",
    "epci_code": "200033579",
    "departement_code": "62",
    "region_code": "32",
    "postal_code": "62000"
  },
  {
    "name": "Dannes",
    "code": "62264",
    "epci_code": "246200729",
    "departement_code": "62",
    "region_code": "32",
    "postal_code": "62187"
  },
  {
    "name": "Delettes",
    "code": "62265",
    "epci_code": "200069037",
    "departement_code": "62",
    "region_code": "32",
    "postal_code": "62129"
  },
  {
    "name": "Denier",
    "code": "62266",
    "epci_code": "200069482",
    "departement_code": "62",
    "region_code": "32",
    "postal_code": "62810"
  },
  {
    "name": "Dennebrœucq",
    "code": "62267",
    "epci_code": "200069037",
    "departement_code": "62",
    "region_code": "32",
    "postal_code": "62560"
  },
  {
    "name": "Desvres",
    "code": "62268",
    "epci_code": "200018083",
    "departement_code": "62",
    "region_code": "32",
    "postal_code": "62240"
  },
  {
    "name": "Diéval",
    "code": "62269",
    "epci_code": "200072460",
    "departement_code": "62",
    "region_code": "32",
    "postal_code": "62460"
  },
  {
    "name": "Divion",
    "code": "62270",
    "epci_code": "200072460",
    "departement_code": "62",
    "region_code": "32",
    "postal_code": "62460"
  },
  {
    "name": "Dohem",
    "code": "62271",
    "epci_code": "246201016",
    "departement_code": "62",
    "region_code": "32",
    "postal_code": "62380"
  },
  {
    "name": "Douchy-lès-Ayette",
    "code": "62272",
    "epci_code": "200035442",
    "departement_code": "62",
    "region_code": "32",
    "postal_code": "62116"
  },
  {
    "name": "Doudeauville",
    "code": "62273",
    "epci_code": "200018083",
    "departement_code": "62",
    "region_code": "32",
    "postal_code": "62830"
  },
  {
    "name": "Dourges",
    "code": "62274",
    "epci_code": "246200299",
    "departement_code": "62",
    "region_code": "32",
    "postal_code": "62119"
  },
  {
    "name": "Douriez",
    "code": "62275",
    "epci_code": "200044030",
    "departement_code": "62",
    "region_code": "32",
    "postal_code": "62870"
  },
  {
    "name": "Douvrin",
    "code": "62276",
    "epci_code": "200072460",
    "departement_code": "62",
    "region_code": "32",
    "postal_code": "62138"
  },
  {
    "name": "Drocourt",
    "code": "62277",
    "epci_code": "246200299",
    "departement_code": "62",
    "region_code": "32",
    "postal_code": "62320"
  },
  {
    "name": "Drouvin-le-Marais",
    "code": "62278",
    "epci_code": "200072460",
    "departement_code": "62",
    "region_code": "32",
    "postal_code": "62131"
  },
  {
    "name": "Duisans",
    "code": "62279",
    "epci_code": "200069482",
    "departement_code": "62",
    "region_code": "32",
    "postal_code": "62161"
  },
  {
    "name": "Dury",
    "code": "62280",
    "epci_code": "200044048",
    "departement_code": "62",
    "region_code": "32",
    "postal_code": "62156"
  },
  {
    "name": "Echinghen",
    "code": "62281",
    "epci_code": "246200729",
    "departement_code": "62",
    "region_code": "32",
    "postal_code": "62360"
  },
  {
    "name": "Éclimeux",
    "code": "62282",
    "epci_code": "200044030",
    "departement_code": "62",
    "region_code": "32",
    "postal_code": "62770"
  },
  {
    "name": "Écoivres",
    "code": "62283",
    "epci_code": "200069672",
    "departement_code": "62",
    "region_code": "32",
    "postal_code": "62270"
  },
  {
    "name": "Écourt-Saint-Quentin",
    "code": "62284",
    "epci_code": "200044048",
    "departement_code": "62",
    "region_code": "32",
    "postal_code": "62860"
  },
  {
    "name": "Écoust-Saint-Mein",
    "code": "62285",
    "epci_code": "200035442",
    "departement_code": "62",
    "region_code": "32",
    "postal_code": "62128"
  },
  {
    "name": "Ecquedecques",
    "code": "62286",
    "epci_code": "200072460",
    "departement_code": "62",
    "region_code": "32",
    "postal_code": "62190"
  },
  {
    "name": "Ecques",
    "code": "62288",
    "epci_code": "200069037",
    "departement_code": "62",
    "region_code": "32",
    "postal_code": "62129"
  },
  {
    "name": "Écuires",
    "code": "62289",
    "epci_code": "200069029",
    "departement_code": "62",
    "region_code": "32",
    "postal_code": "62170"
  },
  {
    "name": "Écurie",
    "code": "62290",
    "epci_code": "200033579",
    "departement_code": "62",
    "region_code": "32",
    "postal_code": "62223"
  },
  {
    "name": "Éleu-dit-Leauwette",
    "code": "62291",
    "epci_code": "246200364",
    "departement_code": "62",
    "region_code": "32",
    "postal_code": "62300"
  },
  {
    "name": "Elnes",
    "code": "62292",
    "epci_code": "246201016",
    "departement_code": "62",
    "region_code": "32",
    "postal_code": "62380"
  },
  {
    "name": "Embry",
    "code": "62293",
    "epci_code": "200069235",
    "departement_code": "62",
    "region_code": "32",
    "postal_code": "62990"
  },
  {
    "name": "Enquin-lez-Guinegatte",
    "code": "62295",
    "epci_code": "200069037",
    "departement_code": "62",
    "region_code": "32",
    "postal_code": "62145"
  },
  {
    "name": "Enquin-sur-Baillons",
    "code": "62296",
    "epci_code": "200069235",
    "departement_code": "62",
    "region_code": "32",
    "postal_code": "62650"
  },
  {
    "name": "Éperlecques",
    "code": "62297",
    "epci_code": "200069037",
    "departement_code": "62",
    "region_code": "32",
    "postal_code": "62910"
  },
  {
    "name": "Épinoy",
    "code": "62298",
    "epci_code": "200044048",
    "departement_code": "62",
    "region_code": "32",
    "postal_code": "62860"
  },
  {
    "name": "Eps",
    "code": "62299",
    "epci_code": "200069672",
    "departement_code": "62",
    "region_code": "32",
    "postal_code": "62134"
  },
  {
    "name": "Équihen-Plage",
    "code": "62300",
    "epci_code": "246200729",
    "departement_code": "62",
    "region_code": "32",
    "postal_code": "62224"
  },
  {
    "name": "Équirre",
    "code": "62301",
    "epci_code": "200069672",
    "departement_code": "62",
    "region_code": "32",
    "postal_code": "62134"
  },
  {
    "name": "Ergny",
    "code": "62302",
    "epci_code": "200069235",
    "departement_code": "62",
    "region_code": "32",
    "postal_code": "62650"
  },
  {
    "name": "Érin",
    "code": "62303",
    "epci_code": "200069672",
    "departement_code": "62",
    "region_code": "32",
    "postal_code": "62134"
  },
  {
    "name": "Erny-Saint-Julien",
    "code": "62304",
    "epci_code": "200069037",
    "departement_code": "62",
    "region_code": "32",
    "postal_code": "62960"
  },
  {
    "name": "Ervillers",
    "code": "62306",
    "epci_code": "200035442",
    "departement_code": "62",
    "region_code": "32",
    "postal_code": "62121"
  },
  {
    "name": "Escalles",
    "code": "62307",
    "epci_code": "200090751",
    "departement_code": "62",
    "region_code": "32",
    "postal_code": "62179"
  },
  {
    "name": "Escœuilles",
    "code": "62308",
    "epci_code": "246201016",
    "departement_code": "62",
    "region_code": "32",
    "postal_code": "62850"
  },
  {
    "name": "Esquerdes",
    "code": "62309",
    "epci_code": "246201016",
    "departement_code": "62",
    "region_code": "32",
    "postal_code": "62380"
  },
  {
    "name": "Essars",
    "code": "62310",
    "epci_code": "200072460",
    "departement_code": "62",
    "region_code": "32",
    "postal_code": "62400"
  },
  {
    "name": "Estevelles",
    "code": "62311",
    "epci_code": "246200364",
    "departement_code": "62",
    "region_code": "32",
    "postal_code": "62880"
  },
  {
    "name": "Estrée",
    "code": "62312",
    "epci_code": "200069029",
    "departement_code": "62",
    "region_code": "32",
    "postal_code": "62170"
  },
  {
    "name": "Estrée-Blanche",
    "code": "62313",
    "epci_code": "200072460",
    "departement_code": "62",
    "region_code": "32",
    "postal_code": "62145"
  },
  {
    "name": "Estrée-Cauchy",
    "code": "62314",
    "epci_code": "200072460",
    "departement_code": "62",
    "region_code": "32",
    "postal_code": "62690"
  },
  {
    "name": "Estréelles",
    "code": "62315",
    "epci_code": "200069029",
    "departement_code": "62",
    "region_code": "32",
    "postal_code": "62170"
  },
  {
    "name": "Estrée-Wamin",
    "code": "62316",
    "epci_code": "200069482",
    "departement_code": "62",
    "region_code": "32",
    "postal_code": "62810"
  },
  {
    "name": "Étaing",
    "code": "62317",
    "epci_code": "200044048",
    "departement_code": "62",
    "region_code": "32",
    "postal_code": "62156"
  },
  {
    "name": "Étaples",
    "code": "62318",
    "epci_code": "200069029",
    "departement_code": "62",
    "region_code": "32",
    "postal_code": "62630"
  },
  {
    "name": "Éterpigny",
    "code": "62319",
    "epci_code": "200044048",
    "departement_code": "62",
    "region_code": "32",
    "postal_code": "62156"
  },
  {
    "name": "Étrun",
    "code": "62320",
    "epci_code": "200033579",
    "departement_code": "62",
    "region_code": "32",
    "postal_code": "62161"
  },
  {
    "name": "Évin-Malmaison",
    "code": "62321",
    "epci_code": "246200299",
    "departement_code": "62",
    "region_code": "32",
    "postal_code": "62141"
  },
  {
    "name": "Famechon",
    "code": "62322",
    "epci_code": "200069482",
    "departement_code": "62",
    "region_code": "32",
    "postal_code": "62760"
  },
  {
    "name": "Fampoux",
    "code": "62323",
    "epci_code": "200033579",
    "departement_code": "62",
    "region_code": "32",
    "postal_code": "62118"
  },
  {
    "name": "Farbus",
    "code": "62324",
    "epci_code": "200033579",
    "departement_code": "62",
    "region_code": "32",
    "postal_code": "62580"
  },
  {
    "name": "Fauquembergues",
    "code": "62325",
    "epci_code": "200069037",
    "departement_code": "62",
    "region_code": "32",
    "postal_code": "62560"
  },
  {
    "name": "Favreuil",
    "code": "62326",
    "epci_code": "200035442",
    "departement_code": "62",
    "region_code": "32",
    "postal_code": "62450"
  },
  {
    "name": "Febvin-Palfart",
    "code": "62327",
    "epci_code": "200069037",
    "departement_code": "62",
    "region_code": "32",
    "postal_code": "62960"
  },
  {
    "name": "Ferfay",
    "code": "62328",
    "epci_code": "200072460",
    "departement_code": "62",
    "region_code": "32",
    "postal_code": "62260"
  },
  {
    "name": "Ferques",
    "code": "62329",
    "epci_code": "246200380",
    "departement_code": "62",
    "region_code": "32",
    "postal_code": "62250"
  },
  {
    "name": "Festubert",
    "code": "62330",
    "epci_code": "200072460",
    "departement_code": "62",
    "region_code": "32",
    "postal_code": "62149"
  },
  {
    "name": "Feuchy",
    "code": "62331",
    "epci_code": "200033579",
    "departement_code": "62",
    "region_code": "32",
    "postal_code": "62223"
  },
  {
    "name": "Ficheux",
    "code": "62332",
    "epci_code": "200033579",
    "departement_code": "62",
    "region_code": "32",
    "postal_code": "62173"
  },
  {
    "name": "Fiefs",
    "code": "62333",
    "epci_code": "200069672",
    "departement_code": "62",
    "region_code": "32",
    "postal_code": "62134"
  },
  {
    "name": "Fiennes",
    "code": "62334",
    "epci_code": "200072478",
    "departement_code": "62",
    "region_code": "32",
    "postal_code": "62132"
  },
  {
    "name": "Fillièvres",
    "code": "62335",
    "epci_code": "200044030",
    "departement_code": "62",
    "region_code": "32",
    "postal_code": "62770"
  },
  {
    "name": "Fléchin",
    "code": "62336",
    "epci_code": "200069037",
    "departement_code": "62",
    "region_code": "32",
    "postal_code": "62960"
  },
  {
    "name": "Flers",
    "code": "62337",
    "epci_code": "200069672",
    "departement_code": "62",
    "region_code": "32",
    "postal_code": "62270"
  },
  {
    "name": "Fleurbaix",
    "code": "62338",
    "epci_code": "245900758",
    "departement_code": "62",
    "region_code": "32",
    "postal_code": "62840"
  },
  {
    "name": "Fleury",
    "code": "62339",
    "epci_code": "200069672",
    "departement_code": "62",
    "region_code": "32",
    "postal_code": "62134"
  },
  {
    "name": "Floringhem",
    "code": "62340",
    "epci_code": "200069672",
    "departement_code": "62",
    "region_code": "32",
    "postal_code": "62550"
  },
  {
    "name": "Foncquevillers",
    "code": "62341",
    "epci_code": "200035442",
    "departement_code": "62",
    "region_code": "32",
    "postal_code": "62111"
  },
  {
    "name": "Fontaine-lès-Boulans",
    "code": "62342",
    "epci_code": "200069672",
    "departement_code": "62",
    "region_code": "32",
    "postal_code": "62134"
  },
  {
    "name": "Fontaine-lès-Croisilles",
    "code": "62343",
    "epci_code": "200035442",
    "departement_code": "62",
    "region_code": "32",
    "postal_code": "62128"
  },
  {
    "name": "Fontaine-lès-Hermans",
    "code": "62344",
    "epci_code": "200069672",
    "departement_code": "62",
    "region_code": "32",
    "postal_code": "62550"
  },
  {
    "name": "Fontaine-l’Étalon",
    "code": "62345",
    "epci_code": "200069672",
    "departement_code": "62",
    "region_code": "32",
    "postal_code": "62390"
  },
  {
    "name": "Fortel-en-Artois",
    "code": "62346",
    "epci_code": "200069672",
    "departement_code": "62",
    "region_code": "32",
    "postal_code": "62270"
  },
  {
    "name": "Fosseux",
    "code": "62347",
    "epci_code": "200069482",
    "departement_code": "62",
    "region_code": "32",
    "postal_code": "62810"
  },
  {
    "name": "Foufflin-Ricametz",
    "code": "62348",
    "epci_code": "200069672",
    "departement_code": "62",
    "region_code": "32",
    "postal_code": "62130"
  },
  {
    "name": "Fouquereuil",
    "code": "62349",
    "epci_code": "200072460",
    "departement_code": "62",
    "region_code": "32",
    "postal_code": "62232"
  },
  {
    "name": "Fouquières-lès-Béthune",
    "code": "62350",
    "epci_code": "200072460",
    "departement_code": "62",
    "region_code": "32",
    "postal_code": "62232"
  },
  {
    "name": "Fouquières-lès-Lens",
    "code": "62351",
    "epci_code": "246200364",
    "departement_code": "62",
    "region_code": "32",
    "postal_code": "62740"
  },
  {
    "name": "Framecourt",
    "code": "62352",
    "epci_code": "200069672",
    "departement_code": "62",
    "region_code": "32",
    "postal_code": "62130"
  },
  {
    "name": "Frémicourt",
    "code": "62353",
    "epci_code": "200035442",
    "departement_code": "62",
    "region_code": "32",
    "postal_code": "62450"
  },
  {
    "name": "Frencq",
    "code": "62354",
    "epci_code": "200069029",
    "departement_code": "62",
    "region_code": "32",
    "postal_code": "62630"
  },
  {
    "name": "Fresnes-lès-Montauban",
    "code": "62355",
    "epci_code": "200044048",
    "departement_code": "62",
    "region_code": "32",
    "postal_code": "62490"
  },
  {
    "name": "Fresnicourt-le-Dolmen",
    "code": "62356",
    "epci_code": "200072460",
    "departement_code": "62",
    "region_code": "32",
    "postal_code": "62150"
  },
  {
    "name": "Fresnoy",
    "code": "62357",
    "epci_code": "200044030",
    "departement_code": "62",
    "region_code": "32",
    "postal_code": "62770"
  },
  {
    "name": "Fresnoy-en-Gohelle",
    "code": "62358",
    "epci_code": "200044048",
    "departement_code": "62",
    "region_code": "32",
    "postal_code": "62580"
  },
  {
    "name": "Fressin",
    "code": "62359",
    "epci_code": "200069235",
    "departement_code": "62",
    "region_code": "32",
    "postal_code": "62140"
  },
  {
    "name": "Fréthun",
    "code": "62360",
    "epci_code": "200090751",
    "departement_code": "62",
    "region_code": "32",
    "postal_code": "62185"
  },
  {
    "name": "Frévent",
    "code": "62361",
    "epci_code": "200069672",
    "departement_code": "62",
    "region_code": "32",
    "postal_code": "62270"
  },
  {
    "name": "Frévillers",
    "code": "62362",
    "epci_code": "200069482",
    "departement_code": "62",
    "region_code": "32",
    "postal_code": "62127"
  },
  {
    "name": "Frévin-Capelle",
    "code": "62363",
    "epci_code": "200069482",
    "departement_code": "62",
    "region_code": "32",
    "postal_code": "62690"
  },
  {
    "name": "Fruges",
    "code": "62364",
    "epci_code": "200069235",
    "departement_code": "62",
    "region_code": "32",
    "postal_code": "62310"
  },
  {
    "name": "Galametz",
    "code": "62365",
    "epci_code": "200044030",
    "departement_code": "62",
    "region_code": "32",
    "postal_code": "62770"
  },
  {
    "name": "Gauchin-Légal",
    "code": "62366",
    "epci_code": "200072460",
    "departement_code": "62",
    "region_code": "32",
    "postal_code": "62150"
  },
  {
    "name": "Gauchin-Verloingt",
    "code": "62367",
    "epci_code": "200069672",
    "departement_code": "62",
    "region_code": "32",
    "postal_code": "62130"
  },
  {
    "name": "Gaudiempré",
    "code": "62368",
    "epci_code": "200069482",
    "departement_code": "62",
    "region_code": "32",
    "postal_code": "62760"
  },
  {
    "name": "Gavrelle",
    "code": "62369",
    "epci_code": "200033579",
    "departement_code": "62",
    "region_code": "32",
    "postal_code": "62580"
  },
  {
    "name": "Gennes-Ivergny",
    "code": "62370",
    "epci_code": "200069672",
    "departement_code": "62",
    "region_code": "32",
    "postal_code": "62390"
  },
  {
    "name": "Givenchy-en-Gohelle",
    "code": "62371",
    "epci_code": "246200364",
    "departement_code": "62",
    "region_code": "32",
    "postal_code": "62580"
  },
  {
    "name": "Givenchy-le-Noble",
    "code": "62372",
    "epci_code": "200069482",
    "departement_code": "62",
    "region_code": "32",
    "postal_code": "62810"
  },
  {
    "name": "Givenchy-lès-la-Bassée",
    "code": "62373",
    "epci_code": "200072460",
    "departement_code": "62",
    "region_code": "32",
    "postal_code": "62149"
  },
  {
    "name": "Gomiécourt",
    "code": "62374",
    "epci_code": "200035442",
    "departement_code": "62",
    "region_code": "32",
    "postal_code": "62121"
  },
  {
    "name": "Gommecourt",
    "code": "62375",
    "epci_code": "200035442",
    "departement_code": "62",
    "region_code": "32",
    "postal_code": "62111"
  },
  {
    "name": "Gonnehem",
    "code": "62376",
    "epci_code": "200072460",
    "departement_code": "62",
    "region_code": "32",
    "postal_code": "62920"
  },
  {
    "name": "Gosnay",
    "code": "62377",
    "epci_code": "200072460",
    "departement_code": "62",
    "region_code": "32",
    "postal_code": "62199"
  },
  {
    "name": "Gouves",
    "code": "62378",
    "epci_code": "200069482",
    "departement_code": "62",
    "region_code": "32",
    "postal_code": "62123"
  },
  {
    "name": "Gouy-en-Artois",
    "code": "62379",
    "epci_code": "200069482",
    "departement_code": "62",
    "region_code": "32",
    "postal_code": "62123"
  },
  {
    "name": "Gouy-Servins",
    "code": "62380",
    "epci_code": "246200364",
    "departement_code": "62",
    "region_code": "32",
    "postal_code": "62530"
  },
  {
    "name": "Gouy-en-Ternois",
    "code": "62381",
    "epci_code": "200069672",
    "departement_code": "62",
    "region_code": "32",
    "postal_code": "62127"
  },
  {
    "name": "Gouy-Saint-André",
    "code": "62382",
    "epci_code": "200044030",
    "departement_code": "62",
    "region_code": "32",
    "postal_code": "62870"
  },
  {
    "name": "Gouy-sous-Bellonne",
    "code": "62383",
    "epci_code": "200044048",
    "departement_code": "62",
    "region_code": "32",
    "postal_code": "62112"
  },
  {
    "name": "Graincourt-lès-Havrincourt",
    "code": "62384",
    "epci_code": "200044048",
    "departement_code": "62",
    "region_code": "32",
    "postal_code": "62147"
  },
  {
    "name": "Grand-Rullecourt",
    "code": "62385",
    "epci_code": "200069482",
    "departement_code": "62",
    "region_code": "32",
    "postal_code": "62810"
  },
  {
    "name": "Grenay",
    "code": "62386",
    "epci_code": "246200364",
    "departement_code": "62",
    "region_code": "32",
    "postal_code": "62160"
  },
  {
    "name": "Grévillers",
    "code": "62387",
    "epci_code": "200035442",
    "departement_code": "62",
    "region_code": "32",
    "postal_code": "62450"
  },
  {
    "name": "Grigny",
    "code": "62388",
    "epci_code": "200044030",
    "departement_code": "62",
    "region_code": "32",
    "postal_code": "62140"
  },
  {
    "name": "Grincourt-lès-Pas",
    "code": "62389",
    "epci_code": "200069482",
    "departement_code": "62",
    "region_code": "32",
    "postal_code": "62760"
  },
  {
    "name": "Groffliers",
    "code": "62390",
    "epci_code": "200069029",
    "departement_code": "62",
    "region_code": "32",
    "postal_code": "62600"
  },
  {
    "name": "Guarbecque",
    "code": "62391",
    "epci_code": "200072460",
    "departement_code": "62",
    "region_code": "32",
    "postal_code": "62330"
  },
  {
    "name": "Guémappe",
    "code": "62392",
    "epci_code": "200033579",
    "departement_code": "62",
    "region_code": "32",
    "postal_code": "62128"
  },
  {
    "name": "Guemps",
    "code": "62393",
    "epci_code": "246200844",
    "departement_code": "62",
    "region_code": "32",
    "postal_code": "62370"
  },
  {
    "name": "Guigny",
    "code": "62395",
    "epci_code": "200044030",
    "departement_code": "62",
    "region_code": "32",
    "postal_code": "62140"
  },
  {
    "name": "Guinecourt",
    "code": "62396",
    "epci_code": "200069672",
    "departement_code": "62",
    "region_code": "32",
    "postal_code": "62130"
  },
  {
    "name": "Guînes",
    "code": "62397",
    "epci_code": "200072478",
    "departement_code": "62",
    "region_code": "32",
    "postal_code": "62340"
  },
  {
    "name": "Guisy",
    "code": "62398",
    "epci_code": "200044030",
    "departement_code": "62",
    "region_code": "32",
    "postal_code": "62140"
  },
  {
    "name": "Habarcq",
    "code": "62399",
    "epci_code": "200069482",
    "departement_code": "62",
    "region_code": "32",
    "postal_code": "62123"
  },
  {
    "name": "Haillicourt",
    "code": "62400",
    "epci_code": "200072460",
    "departement_code": "62",
    "region_code": "32",
    "postal_code": "62940"
  },
  {
    "name": "Haisnes",
    "code": "62401",
    "epci_code": "200072460",
    "departement_code": "62",
    "region_code": "32",
    "postal_code": "62138"
  },
  {
    "name": "Halinghen",
    "code": "62402",
    "epci_code": "200018083",
    "departement_code": "62",
    "region_code": "32",
    "postal_code": "62830"
  },
  {
    "name": "Hallines",
    "code": "62403",
    "epci_code": "200069037",
    "departement_code": "62",
    "region_code": "32",
    "postal_code": "62570"
  },
  {
    "name": "Halloy",
    "code": "62404",
    "epci_code": "200069482",
    "departement_code": "62",
    "region_code": "32",
    "postal_code": "62760"
  },
  {
    "name": "Hamblain-les-Prés",
    "code": "62405",
    "epci_code": "200044048",
    "departement_code": "62",
    "region_code": "32",
    "postal_code": "62118"
  },
  {
    "name": "Hamelincourt",
    "code": "62406",
    "epci_code": "200035442",
    "departement_code": "62",
    "region_code": "32",
    "postal_code": "62121"
  },
  {
    "name": "Ham-en-Artois",
    "code": "62407",
    "epci_code": "200072460",
    "departement_code": "62",
    "region_code": "32",
    "postal_code": "62190"
  },
  {
    "name": "Hames-Boucres",
    "code": "62408",
    "epci_code": "200090751",
    "departement_code": "62",
    "region_code": "32",
    "postal_code": "62340"
  },
  {
    "name": "Hannescamps",
    "code": "62409",
    "epci_code": "200069482",
    "departement_code": "62",
    "region_code": "32",
    "postal_code": "62111"
  },
  {
    "name": "Haplincourt",
    "code": "62410",
    "epci_code": "200035442",
    "departement_code": "62",
    "region_code": "32",
    "postal_code": "62124"
  },
  {
    "name": "Haravesnes",
    "code": "62411",
    "epci_code": "200069672",
    "departement_code": "62",
    "region_code": "32",
    "postal_code": "62390"
  },
  {
    "name": "Hardinghen",
    "code": "62412",
    "epci_code": "200072478",
    "departement_code": "62",
    "region_code": "32",
    "postal_code": "62132"
  },
  {
    "name": "Harnes",
    "code": "62413",
    "epci_code": "246200364",
    "departement_code": "62",
    "region_code": "32",
    "postal_code": "62440"
  },
  {
    "name": "Haucourt",
    "code": "62414",
    "epci_code": "200044048",
    "departement_code": "62",
    "region_code": "32",
    "postal_code": "62156"
  },
  {
    "name": "Haute-Avesnes",
    "code": "62415",
    "epci_code": "200069482",
    "departement_code": "62",
    "region_code": "32",
    "postal_code": "62144"
  },
  {
    "name": "Hautecloque",
    "code": "62416",
    "epci_code": "200069672",
    "departement_code": "62",
    "region_code": "32",
    "postal_code": "62130"
  },
  {
    "name": "Hauteville",
    "code": "62418",
    "epci_code": "200069482",
    "departement_code": "62",
    "region_code": "32",
    "postal_code": "62810"
  },
  {
    "name": "Haut-Loquin",
    "code": "62419",
    "epci_code": "246201016",
    "departement_code": "62",
    "region_code": "32",
    "postal_code": "62850"
  },
  {
    "name": "Havrincourt",
    "code": "62421",
    "epci_code": "200035442",
    "departement_code": "62",
    "region_code": "32",
    "postal_code": "62147"
  },
  {
    "name": "Hébuterne",
    "code": "62422",
    "epci_code": "200035442",
    "departement_code": "62",
    "region_code": "32",
    "postal_code": "62111"
  },
  {
    "name": "Helfaut",
    "code": "62423",
    "epci_code": "200069037",
    "departement_code": "62",
    "region_code": "32",
    "postal_code": "62570"
  },
  {
    "name": "Hendecourt-lès-Cagnicourt",
    "code": "62424",
    "epci_code": "200044048",
    "departement_code": "62",
    "region_code": "32",
    "postal_code": "62182"
  },
  {
    "name": "Hendecourt-lès-Ransart",
    "code": "62425",
    "epci_code": "200069482",
    "departement_code": "62",
    "region_code": "32",
    "postal_code": "62175"
  },
  {
    "name": "Héninel",
    "code": "62426",
    "epci_code": "200033579",
    "departement_code": "62",
    "region_code": "32",
    "postal_code": "62128"
  },
  {
    "name": "Hénin-Beaumont",
    "code": "62427",
    "epci_code": "246200299",
    "departement_code": "62",
    "region_code": "32",
    "postal_code": "62110"
  },
  {
    "name": "Hénin-sur-Cojeul",
    "code": "62428",
    "epci_code": "200033579",
    "departement_code": "62",
    "region_code": "32",
    "postal_code": "62128"
  },
  {
    "name": "Henneveux",
    "code": "62429",
    "epci_code": "200018083",
    "departement_code": "62",
    "region_code": "32",
    "postal_code": "62142"
  },
  {
    "name": "Hénu",
    "code": "62430",
    "epci_code": "200069482",
    "departement_code": "62",
    "region_code": "32",
    "postal_code": "62760"
  },
  {
    "name": "Herbinghen",
    "code": "62432",
    "epci_code": "200072478",
    "departement_code": "62",
    "region_code": "32",
    "postal_code": "62850"
  },
  {
    "name": "Héricourt",
    "code": "62433",
    "epci_code": "200069672",
    "departement_code": "62",
    "region_code": "32",
    "postal_code": "62130"
  },
  {
    "name": "La Herlière",
    "code": "62434",
    "epci_code": "200069482",
    "departement_code": "62",
    "region_code": "32",
    "postal_code": "62158"
  },
  {
    "name": "Herlincourt",
    "code": "62435",
    "epci_code": "200069672",
    "departement_code": "62",
    "region_code": "32",
    "postal_code": "62130"
  },
  {
    "name": "Herlin-le-Sec",
    "code": "62436",
    "epci_code": "200069672",
    "departement_code": "62",
    "region_code": "32",
    "postal_code": "62130"
  },
  {
    "name": "Herly",
    "code": "62437",
    "epci_code": "200069235",
    "departement_code": "62",
    "region_code": "32",
    "postal_code": "62650"
  },
  {
    "name": "Hermaville",
    "code": "62438",
    "epci_code": "200069482",
    "departement_code": "62",
    "region_code": "32",
    "postal_code": "62690"
  },
  {
    "name": "Hermelinghen",
    "code": "62439",
    "epci_code": "200072478",
    "departement_code": "62",
    "region_code": "32",
    "postal_code": "62132"
  },
  {
    "name": "Hermies",
    "code": "62440",
    "epci_code": "200035442",
    "departement_code": "62",
    "region_code": "32",
    "postal_code": "62147"
  },
  {
    "name": "Hermin",
    "code": "62441",
    "epci_code": "200072460",
    "departement_code": "62",
    "region_code": "32",
    "postal_code": "62150"
  },
  {
    "name": "Hernicourt",
    "code": "62442",
    "epci_code": "200069672",
    "departement_code": "62",
    "region_code": "32",
    "postal_code": "62130"
  },
  {
    "name": "Hersin-Coupigny",
    "code": "62443",
    "epci_code": "200072460",
    "departement_code": "62",
    "region_code": "32",
    "postal_code": "62530"
  },
  {
    "name": "Hervelinghen",
    "code": "62444",
    "epci_code": "246200380",
    "departement_code": "62",
    "region_code": "32",
    "postal_code": "62179"
  },
  {
    "name": "Hesdigneul-lès-Béthune",
    "code": "62445",
    "epci_code": "200072460",
    "departement_code": "62",
    "region_code": "32",
    "postal_code": "62196"
  },
  {
    "name": "Hesdigneul-lès-Boulogne",
    "code": "62446",
    "epci_code": "246200729",
    "departement_code": "62",
    "region_code": "32",
    "postal_code": "62360"
  },
  {
    "name": "Hesdin-la-Forêt",
    "code": "62447",
    "epci_code": "200044030",
    "departement_code": "62",
    "region_code": "32",
    "postal_code": "62140"
  },
  {
    "name": "Hesdin-l’Abbé",
    "code": "62448",
    "epci_code": "246200729",
    "departement_code": "62",
    "region_code": "32",
    "postal_code": "62360"
  },
  {
    "name": "Hesmond",
    "code": "62449",
    "epci_code": "200044030",
    "departement_code": "62",
    "region_code": "32",
    "postal_code": "62990"
  },
  {
    "name": "Hestrus",
    "code": "62450",
    "epci_code": "200069672",
    "departement_code": "62",
    "region_code": "32",
    "postal_code": "62550"
  },
  {
    "name": "Heuchin",
    "code": "62451",
    "epci_code": "200069672",
    "departement_code": "62",
    "region_code": "32",
    "postal_code": "62134"
  },
  {
    "name": "Heuringhem",
    "code": "62452",
    "epci_code": "200069037",
    "departement_code": "62",
    "region_code": "32",
    "postal_code": "62575"
  },
  {
    "name": "Hézecques",
    "code": "62453",
    "epci_code": "200069235",
    "departement_code": "62",
    "region_code": "32",
    "postal_code": "62310"
  },
  {
    "name": "Hinges",
    "code": "62454",
    "epci_code": "200072460",
    "departement_code": "62",
    "region_code": "32",
    "postal_code": "62232"
  },
  {
    "name": "Hocquinghen",
    "code": "62455",
    "epci_code": "200072478",
    "departement_code": "62",
    "region_code": "32",
    "postal_code": "62850"
  },
  {
    "name": "Houchin",
    "code": "62456",
    "epci_code": "200072460",
    "departement_code": "62",
    "region_code": "32",
    "postal_code": "62620"
  },
  {
    "name": "Houdain",
    "code": "62457",
    "epci_code": "200072460",
    "departement_code": "62",
    "region_code": "32",
    "postal_code": "62150"
  },
  {
    "name": "Houlle",
    "code": "62458",
    "epci_code": "200069037",
    "departement_code": "62",
    "region_code": "32",
    "postal_code": "62910"
  },
  {
    "name": "Houvin-Houvigneul",
    "code": "62459",
    "epci_code": "200069482",
    "departement_code": "62",
    "region_code": "32",
    "postal_code": "62270"
  },
  {
    "name": "Hubersent",
    "code": "62460",
    "epci_code": "200069029",
    "departement_code": "62",
    "region_code": "32",
    "postal_code": "62630"
  },
  {
    "name": "Huclier",
    "code": "62462",
    "epci_code": "200069672",
    "departement_code": "62",
    "region_code": "32",
    "postal_code": "62130"
  },
  {
    "name": "Hucqueliers",
    "code": "62463",
    "epci_code": "200069235",
    "departement_code": "62",
    "region_code": "32",
    "postal_code": "62650"
  },
  {
    "name": "Hulluch",
    "code": "62464",
    "epci_code": "246200364",
    "departement_code": "62",
    "region_code": "32",
    "postal_code": "62410"
  },
  {
    "name": "Humbercamps",
    "code": "62465",
    "epci_code": "200069482",
    "departement_code": "62",
    "region_code": "32",
    "postal_code": "62158"
  },
  {
    "name": "Humbert",
    "code": "62466",
    "epci_code": "200069235",
    "departement_code": "62",
    "region_code": "32",
    "postal_code": "62650"
  },
  {
    "name": "Humerœuille",
    "code": "62467",
    "epci_code": "200069672",
    "departement_code": "62",
    "region_code": "32",
    "postal_code": "62130"
  },
  {
    "name": "Humières",
    "code": "62468",
    "epci_code": "200069672",
    "departement_code": "62",
    "region_code": "32",
    "postal_code": "62130"
  },
  {
    "name": "Inchy-en-Artois",
    "code": "62469",
    "epci_code": "200044048",
    "departement_code": "62",
    "region_code": "32",
    "postal_code": "62860"
  },
  {
    "name": "Incourt",
    "code": "62470",
    "epci_code": "200044030",
    "departement_code": "62",
    "region_code": "32",
    "postal_code": "62770"
  },
  {
    "name": "Bellinghem",
    "code": "62471",
    "epci_code": "200069037",
    "departement_code": "62",
    "region_code": "32",
    "postal_code": "62129"
  },
  {
    "name": "Inxent",
    "code": "62472",
    "epci_code": "200069029",
    "departement_code": "62",
    "region_code": "32",
    "postal_code": "62170"
  },
  {
    "name": "Isbergues",
    "code": "62473",
    "epci_code": "200072460",
    "departement_code": "62",
    "region_code": "32",
    "postal_code": "62330"
  },
  {
    "name": "Isques",
    "code": "62474",
    "epci_code": "246200729",
    "departement_code": "62",
    "region_code": "32",
    "postal_code": "62360"
  },
  {
    "name": "Ivergny",
    "code": "62475",
    "epci_code": "200069482",
    "departement_code": "62",
    "region_code": "32",
    "postal_code": "62810"
  },
  {
    "name": "Izel-lès-Équerchin",
    "code": "62476",
    "epci_code": "200044048",
    "departement_code": "62",
    "region_code": "32",
    "postal_code": "62490"
  },
  {
    "name": "Izel-lès-Hameau",
    "code": "62477",
    "epci_code": "200069482",
    "departement_code": "62",
    "region_code": "32",
    "postal_code": "62690"
  },
  {
    "name": "Journy",
    "code": "62478",
    "epci_code": "246201016",
    "departement_code": "62",
    "region_code": "32",
    "postal_code": "62850"
  },
  {
    "name": "Labeuvrière",
    "code": "62479",
    "epci_code": "200072460",
    "departement_code": "62",
    "region_code": "32",
    "postal_code": "62122"
  },
  {
    "name": "Labourse",
    "code": "62480",
    "epci_code": "200072460",
    "departement_code": "62",
    "region_code": "32",
    "postal_code": "62113"
  },
  {
    "name": "Labroye",
    "code": "62481",
    "epci_code": "200044030",
    "departement_code": "62",
    "region_code": "32",
    "postal_code": "62140"
  },
  {
    "name": "Lacres",
    "code": "62483",
    "epci_code": "200018083",
    "departement_code": "62",
    "region_code": "32",
    "postal_code": "62830"
  },
  {
    "name": "Lagnicourt-Marcel",
    "code": "62484",
    "epci_code": "200044048",
    "departement_code": "62",
    "region_code": "32",
    "postal_code": "62159"
  },
  {
    "name": "Laires",
    "code": "62485",
    "epci_code": "200069037",
    "departement_code": "62",
    "region_code": "32",
    "postal_code": "62960"
  },
  {
    "name": "Lambres",
    "code": "62486",
    "epci_code": "200072460",
    "departement_code": "62",
    "region_code": "32",
    "postal_code": "62120"
  },
  {
    "name": "Landrethun-le-Nord",
    "code": "62487",
    "epci_code": "246200380",
    "departement_code": "62",
    "region_code": "32",
    "postal_code": "62250"
  },
  {
    "name": "Landrethun-lès-Ardres",
    "code": "62488",
    "epci_code": "200072478",
    "departement_code": "62",
    "region_code": "32",
    "postal_code": "62610"
  },
  {
    "name": "Lapugnoy",
    "code": "62489",
    "epci_code": "200072460",
    "departement_code": "62",
    "region_code": "32",
    "postal_code": "62122"
  },
  {
    "name": "Lattre-Saint-Quentin",
    "code": "62490",
    "epci_code": "200069482",
    "departement_code": "62",
    "region_code": "32",
    "postal_code": "62810"
  },
  {
    "name": "Laventie",
    "code": "62491",
    "epci_code": "245900758",
    "departement_code": "62",
    "region_code": "32",
    "postal_code": "62840"
  },
  {
    "name": "Lebiez",
    "code": "62492",
    "epci_code": "200069235",
    "departement_code": "62",
    "region_code": "32",
    "postal_code": "62990"
  },
  {
    "name": "Lebucquière",
    "code": "62493",
    "epci_code": "200035442",
    "departement_code": "62",
    "region_code": "32",
    "postal_code": "62124"
  },
  {
    "name": "Léchelle",
    "code": "62494",
    "epci_code": "200035442",
    "departement_code": "62",
    "region_code": "32",
    "postal_code": "62124"
  },
  {
    "name": "Ledinghem",
    "code": "62495",
    "epci_code": "246201016",
    "departement_code": "62",
    "region_code": "32",
    "postal_code": "62380"
  },
  {
    "name": "Lefaux",
    "code": "62496",
    "epci_code": "200069029",
    "departement_code": "62",
    "region_code": "32",
    "postal_code": "62630"
  },
  {
    "name": "Leforest",
    "code": "62497",
    "epci_code": "246200299",
    "departement_code": "62",
    "region_code": "32",
    "postal_code": "62790"
  },
  {
    "name": "Lens",
    "code": "62498",
    "epci_code": "246200364",
    "departement_code": "62",
    "region_code": "32",
    "postal_code": "62300"
  },
  {
    "name": "Lépine",
    "code": "62499",
    "epci_code": "200069029",
    "departement_code": "62",
    "region_code": "32",
    "postal_code": "62170"
  },
  {
    "name": "Lespesses",
    "code": "62500",
    "epci_code": "200072460",
    "departement_code": "62",
    "region_code": "32",
    "postal_code": "62190"
  },
  {
    "name": "Lespinoy",
    "code": "62501",
    "epci_code": "200044030",
    "departement_code": "62",
    "region_code": "32",
    "postal_code": "62990"
  },
  {
    "name": "Lestrem",
    "code": "62502",
    "epci_code": "245900758",
    "departement_code": "62",
    "region_code": "32",
    "postal_code": "62136"
  },
  {
    "name": "Leubringhen",
    "code": "62503",
    "epci_code": "246200380",
    "departement_code": "62",
    "region_code": "32",
    "postal_code": "62250"
  },
  {
    "name": "Leulinghem",
    "code": "62504",
    "epci_code": "246201016",
    "departement_code": "62",
    "region_code": "32",
    "postal_code": "62500"
  },
  {
    "name": "Leulinghen-Bernes",
    "code": "62505",
    "epci_code": "246200380",
    "departement_code": "62",
    "region_code": "32",
    "postal_code": "62250"
  },
  {
    "name": "Licques",
    "code": "62506",
    "epci_code": "200072478",
    "departement_code": "62",
    "region_code": "32",
    "postal_code": "62850"
  },
  {
    "name": "Liencourt",
    "code": "62507",
    "epci_code": "200069482",
    "departement_code": "62",
    "region_code": "32",
    "postal_code": "62810"
  },
  {
    "name": "Lières",
    "code": "62508",
    "epci_code": "200072460",
    "departement_code": "62",
    "region_code": "32",
    "postal_code": "62190"
  },
  {
    "name": "Liettres",
    "code": "62509",
    "epci_code": "200072460",
    "departement_code": "62",
    "region_code": "32",
    "postal_code": "62145"
  },
  {
    "name": "Liévin",
    "code": "62510",
    "epci_code": "246200364",
    "departement_code": "62",
    "region_code": "32",
    "postal_code": "62800"
  },
  {
    "name": "Lignereuil",
    "code": "62511",
    "epci_code": "200069482",
    "departement_code": "62",
    "region_code": "32",
    "postal_code": "62810"
  },
  {
    "name": "Ligny-lès-Aire",
    "code": "62512",
    "epci_code": "200072460",
    "departement_code": "62",
    "region_code": "32",
    "postal_code": "62960"
  },
  {
    "name": "Ligny-sur-Canche",
    "code": "62513",
    "epci_code": "200069672",
    "departement_code": "62",
    "region_code": "32",
    "postal_code": "62270"
  },
  {
    "name": "Ligny-Saint-Flochel",
    "code": "62514",
    "epci_code": "200069672",
    "departement_code": "62",
    "region_code": "32",
    "postal_code": "62127"
  },
  {
    "name": "Ligny-Thilloy",
    "code": "62515",
    "epci_code": "200035442",
    "departement_code": "62",
    "region_code": "32",
    "postal_code": "62450"
  },
  {
    "name": "Lillers",
    "code": "62516",
    "epci_code": "200072460",
    "departement_code": "62",
    "region_code": "32",
    "postal_code": "62190"
  },
  {
    "name": "Linghem",
    "code": "62517",
    "epci_code": "200072460",
    "departement_code": "62",
    "region_code": "32",
    "postal_code": "62120"
  },
  {
    "name": "Linzeux",
    "code": "62518",
    "epci_code": "200069672",
    "departement_code": "62",
    "region_code": "32",
    "postal_code": "62270"
  },
  {
    "name": "Lisbourg",
    "code": "62519",
    "epci_code": "200069672",
    "departement_code": "62",
    "region_code": "32",
    "postal_code": "62134"
  },
  {
    "name": "Locon",
    "code": "62520",
    "epci_code": "200072460",
    "departement_code": "62",
    "region_code": "32",
    "postal_code": "62400"
  },
  {
    "name": "La Loge",
    "code": "62521",
    "epci_code": "200044030",
    "departement_code": "62",
    "region_code": "32",
    "postal_code": "62140"
  },
  {
    "name": "Loison-sur-Créquoise",
    "code": "62522",
    "epci_code": "200044030",
    "departement_code": "62",
    "region_code": "32",
    "postal_code": "62990"
  },
  {
    "name": "Loison-sous-Lens",
    "code": "62523",
    "epci_code": "246200364",
    "departement_code": "62",
    "region_code": "32",
    "postal_code": "62218"
  },
  {
    "name": "Longfossé",
    "code": "62524",
    "epci_code": "200018083",
    "departement_code": "62",
    "region_code": "32",
    "postal_code": "62240"
  },
  {
    "name": "Longuenesse",
    "code": "62525",
    "epci_code": "200069037",
    "departement_code": "62",
    "region_code": "32",
    "postal_code": "62219"
  },
  {
    "name": "Longueville",
    "code": "62526",
    "epci_code": "200018083",
    "departement_code": "62",
    "region_code": "32",
    "postal_code": "62142"
  },
  {
    "name": "Longvilliers",
    "code": "62527",
    "epci_code": "200069029",
    "departement_code": "62",
    "region_code": "32",
    "postal_code": "62630"
  },
  {
    "name": "Loos-en-Gohelle",
    "code": "62528",
    "epci_code": "246200364",
    "departement_code": "62",
    "region_code": "32",
    "postal_code": "62750"
  },
  {
    "name": "Lorgies",
    "code": "62529",
    "epci_code": "200072460",
    "departement_code": "62",
    "region_code": "32",
    "postal_code": "62840"
  },
  {
    "name": "Lottinghen",
    "code": "62530",
    "epci_code": "200018083",
    "departement_code": "62",
    "region_code": "32",
    "postal_code": "62240"
  },
  {
    "name": "Louches",
    "code": "62531",
    "epci_code": "200072478",
    "departement_code": "62",
    "region_code": "32",
    "postal_code": "62610"
  },
  {
    "name": "Lozinghem",
    "code": "62532",
    "epci_code": "200072460",
    "departement_code": "62",
    "region_code": "32",
    "postal_code": "62540"
  },
  {
    "name": "Lugy",
    "code": "62533",
    "epci_code": "200069235",
    "departement_code": "62",
    "region_code": "32",
    "postal_code": "62310"
  },
  {
    "name": "Lumbres",
    "code": "62534",
    "epci_code": "246201016",
    "departement_code": "62",
    "region_code": "32",
    "postal_code": "62380"
  },
  {
    "name": "La Madelaine-sous-Montreuil",
    "code": "62535",
    "epci_code": "200069029",
    "departement_code": "62",
    "region_code": "32",
    "postal_code": "62170"
  },
  {
    "name": "Magnicourt-en-Comte",
    "code": "62536",
    "epci_code": "200069482",
    "departement_code": "62",
    "region_code": "32",
    "postal_code": "62127"
  },
  {
    "name": "Magnicourt-sur-Canche",
    "code": "62537",
    "epci_code": "200069482",
    "departement_code": "62",
    "region_code": "32",
    "postal_code": "62270"
  },
  {
    "name": "Maintenay",
    "code": "62538",
    "epci_code": "200044030",
    "departement_code": "62",
    "region_code": "32",
    "postal_code": "62870"
  },
  {
    "name": "Maisnil",
    "code": "62539",
    "epci_code": "200069672",
    "departement_code": "62",
    "region_code": "32",
    "postal_code": "62130"
  },
  {
    "name": "Maisnil-lès-Ruitz",
    "code": "62540",
    "epci_code": "200072460",
    "departement_code": "62",
    "region_code": "32",
    "postal_code": "62620"
  },
  {
    "name": "Maisoncelle",
    "code": "62541",
    "epci_code": "200044030",
    "departement_code": "62",
    "region_code": "32",
    "postal_code": "62310"
  },
  {
    "name": "Maizières",
    "code": "62542",
    "epci_code": "200069482",
    "departement_code": "62",
    "region_code": "32",
    "postal_code": "62127"
  },
  {
    "name": "Mametz",
    "code": "62543",
    "epci_code": "200069037",
    "departement_code": "62",
    "region_code": "32",
    "postal_code": "62120"
  },
  {
    "name": "Manin",
    "code": "62544",
    "epci_code": "200069482",
    "departement_code": "62",
    "region_code": "32",
    "postal_code": "62810"
  },
  {
    "name": "Maninghem",
    "code": "62545",
    "epci_code": "200069235",
    "departement_code": "62",
    "region_code": "32",
    "postal_code": "62650"
  },
  {
    "name": "Maninghen-Henne",
    "code": "62546",
    "epci_code": "246200380",
    "departement_code": "62",
    "region_code": "32",
    "postal_code": "62250"
  },
  {
    "name": "Marant",
    "code": "62547",
    "epci_code": "200044030",
    "departement_code": "62",
    "region_code": "32",
    "postal_code": "62170"
  },
  {
    "name": "Marck",
    "code": "62548",
    "epci_code": "200090751",
    "departement_code": "62",
    "region_code": "32",
    "postal_code": "62730"
  },
  {
    "name": "Marconnelle",
    "code": "62550",
    "epci_code": "200044030",
    "departement_code": "62",
    "region_code": "32",
    "postal_code": "62140"
  },
  {
    "name": "Marenla",
    "code": "62551",
    "epci_code": "200044030",
    "departement_code": "62",
    "region_code": "32",
    "postal_code": "62990"
  },
  {
    "name": "Maresquel-Ecquemicourt",
    "code": "62552",
    "epci_code": "200044030",
    "departement_code": "62",
    "region_code": "32",
    "postal_code": "62990"
  },
  {
    "name": "Marest",
    "code": "62553",
    "epci_code": "200069672",
    "departement_code": "62",
    "region_code": "32",
    "postal_code": "62550"
  },
  {
    "name": "Maresville",
    "code": "62554",
    "epci_code": "200069029",
    "departement_code": "62",
    "region_code": "32",
    "postal_code": "62630"
  },
  {
    "name": "Marles-les-Mines",
    "code": "62555",
    "epci_code": "200072460",
    "departement_code": "62",
    "region_code": "32",
    "postal_code": "62540"
  },
  {
    "name": "Marles-sur-Canche",
    "code": "62556",
    "epci_code": "200044030",
    "departement_code": "62",
    "region_code": "32",
    "postal_code": "62170"
  },
  {
    "name": "Marœuil",
    "code": "62557",
    "epci_code": "200033579",
    "departement_code": "62",
    "region_code": "32",
    "postal_code": "62161"
  },
  {
    "name": "Marquay",
    "code": "62558",
    "epci_code": "200069672",
    "departement_code": "62",
    "region_code": "32",
    "postal_code": "62127"
  },
  {
    "name": "Marquion",
    "code": "62559",
    "epci_code": "200044048",
    "departement_code": "62",
    "region_code": "32",
    "postal_code": "62860"
  },
  {
    "name": "Marquise",
    "code": "62560",
    "epci_code": "246200380",
    "departement_code": "62",
    "region_code": "32",
    "postal_code": "62250"
  },
  {
    "name": "Martinpuich",
    "code": "62561",
    "epci_code": "200035442",
    "departement_code": "62",
    "region_code": "32",
    "postal_code": "62450"
  },
  {
    "name": "Matringhem",
    "code": "62562",
    "epci_code": "200069235",
    "departement_code": "62",
    "region_code": "32",
    "postal_code": "62310"
  },
  {
    "name": "Mazingarbe",
    "code": "62563",
    "epci_code": "246200364",
    "departement_code": "62",
    "region_code": "32",
    "postal_code": "62670"
  },
  {
    "name": "Mazinghem",
    "code": "62564",
    "epci_code": "200072460",
    "departement_code": "62",
    "region_code": "32",
    "postal_code": "62120"
  },
  {
    "name": "Mencas",
    "code": "62565",
    "epci_code": "200069235",
    "departement_code": "62",
    "region_code": "32",
    "postal_code": "62310"
  },
  {
    "name": "Menneville",
    "code": "62566",
    "epci_code": "200018083",
    "departement_code": "62",
    "region_code": "32",
    "postal_code": "62240"
  },
  {
    "name": "Mentque-Nortbécourt",
    "code": "62567",
    "epci_code": "200069037",
    "departement_code": "62",
    "region_code": "32",
    "postal_code": "62890"
  },
  {
    "name": "Mercatel",
    "code": "62568",
    "epci_code": "200033579",
    "departement_code": "62",
    "region_code": "32",
    "postal_code": "62217"
  },
  {
    "name": "Merck-Saint-Liévin",
    "code": "62569",
    "epci_code": "200069037",
    "departement_code": "62",
    "region_code": "32",
    "postal_code": "62560"
  },
  {
    "name": "Méricourt",
    "code": "62570",
    "epci_code": "246200364",
    "departement_code": "62",
    "region_code": "32",
    "postal_code": "62680"
  },
  {
    "name": "Merlimont",
    "code": "62571",
    "epci_code": "200069029",
    "departement_code": "62",
    "region_code": "32",
    "postal_code": "62155"
  },
  {
    "name": "Metz-en-Couture",
    "code": "62572",
    "epci_code": "200035442",
    "departement_code": "62",
    "region_code": "32",
    "postal_code": "62124"
  },
  {
    "name": "Meurchin",
    "code": "62573",
    "epci_code": "246200364",
    "departement_code": "62",
    "region_code": "32",
    "postal_code": "62410"
  },
  {
    "name": "Mingoval",
    "code": "62574",
    "epci_code": "200069482",
    "departement_code": "62",
    "region_code": "32",
    "postal_code": "62690"
  },
  {
    "name": "Moncheaux-lès-Frévent",
    "code": "62576",
    "epci_code": "200069672",
    "departement_code": "62",
    "region_code": "32",
    "postal_code": "62270"
  },
  {
    "name": "Monchel-sur-Canche",
    "code": "62577",
    "epci_code": "200069672",
    "departement_code": "62",
    "region_code": "32",
    "postal_code": "62270"
  },
  {
    "name": "Monchiet",
    "code": "62578",
    "epci_code": "200069482",
    "departement_code": "62",
    "region_code": "32",
    "postal_code": "62123"
  },
  {
    "name": "Monchy-au-Bois",
    "code": "62579",
    "epci_code": "200069482",
    "departement_code": "62",
    "region_code": "32",
    "postal_code": "62111"
  },
  {
    "name": "Monchy-Breton",
    "code": "62580",
    "epci_code": "200069672",
    "departement_code": "62",
    "region_code": "32",
    "postal_code": "62127"
  },
  {
    "name": "Monchy-Cayeux",
    "code": "62581",
    "epci_code": "200069672",
    "departement_code": "62",
    "region_code": "32",
    "postal_code": "62134"
  },
  {
    "name": "Monchy-le-Preux",
    "code": "62582",
    "epci_code": "200033579",
    "departement_code": "62",
    "region_code": "32",
    "postal_code": "62118"
  },
  {
    "name": "Mondicourt",
    "code": "62583",
    "epci_code": "200069482",
    "departement_code": "62",
    "region_code": "32",
    "postal_code": "62760"
  },
  {
    "name": "Mont-Bernanchon",
    "code": "62584",
    "epci_code": "200072460",
    "departement_code": "62",
    "region_code": "32",
    "postal_code": "62350"
  },
  {
    "name": "Montcavrel",
    "code": "62585",
    "epci_code": "200069029",
    "departement_code": "62",
    "region_code": "32",
    "postal_code": "62170"
  },
  {
    "name": "Montenescourt",
    "code": "62586",
    "epci_code": "200069482",
    "departement_code": "62",
    "region_code": "32",
    "postal_code": "62123"
  },
  {
    "name": "Montigny-en-Gohelle",
    "code": "62587",
    "epci_code": "246200299",
    "departement_code": "62",
    "region_code": "32",
    "postal_code": "62640"
  },
  {
    "name": "Montreuil-sur-Mer",
    "code": "62588",
    "epci_code": "200069029",
    "departement_code": "62",
    "region_code": "32",
    "postal_code": "62170"
  },
  {
    "name": "Mont-Saint-Éloi",
    "code": "62589",
    "epci_code": "200033579",
    "departement_code": "62",
    "region_code": "32",
    "postal_code": "62144"
  },
  {
    "name": "Monts-en-Ternois",
    "code": "62590",
    "epci_code": "200069672",
    "departement_code": "62",
    "region_code": "32",
    "postal_code": "62130"
  },
  {
    "name": "Morchies",
    "code": "62591",
    "epci_code": "200035442",
    "departement_code": "62",
    "region_code": "32",
    "postal_code": "62124"
  },
  {
    "name": "Moringhem",
    "code": "62592",
    "epci_code": "200069037",
    "departement_code": "62",
    "region_code": "32",
    "postal_code": "62910"
  },
  {
    "name": "Morval",
    "code": "62593",
    "epci_code": "200035442",
    "departement_code": "62",
    "region_code": "32",
    "postal_code": "62450"
  },
  {
    "name": "Mory",
    "code": "62594",
    "epci_code": "200035442",
    "departement_code": "62",
    "region_code": "32",
    "postal_code": "62159"
  },
  {
    "name": "Moulle",
    "code": "62595",
    "epci_code": "200069037",
    "departement_code": "62",
    "region_code": "32",
    "postal_code": "62910"
  },
  {
    "name": "Mouriez",
    "code": "62596",
    "epci_code": "200044030",
    "departement_code": "62",
    "region_code": "32",
    "postal_code": "62140"
  },
  {
    "name": "Moyenneville",
    "code": "62597",
    "epci_code": "200035442",
    "departement_code": "62",
    "region_code": "32",
    "postal_code": "62121"
  },
  {
    "name": "Muncq-Nieurlet",
    "code": "62598",
    "epci_code": "246200844",
    "departement_code": "62",
    "region_code": "32",
    "postal_code": "62890"
  },
  {
    "name": "Nabringhen",
    "code": "62599",
    "epci_code": "200018083",
    "departement_code": "62",
    "region_code": "32",
    "postal_code": "62142"
  },
  {
    "name": "Nédon",
    "code": "62600",
    "epci_code": "200069672",
    "departement_code": "62",
    "region_code": "32",
    "postal_code": "62550"
  },
  {
    "name": "Nédonchel",
    "code": "62601",
    "epci_code": "200069672",
    "departement_code": "62",
    "region_code": "32",
    "postal_code": "62550"
  },
  {
    "name": "Nempont-Saint-Firmin",
    "code": "62602",
    "epci_code": "200069029",
    "departement_code": "62",
    "region_code": "32",
    "postal_code": "62180"
  },
  {
    "name": "Nesles",
    "code": "62603",
    "epci_code": "246200729",
    "departement_code": "62",
    "region_code": "32",
    "postal_code": "62152"
  },
  {
    "name": "Neufchâtel-Hardelot",
    "code": "62604",
    "epci_code": "246200729",
    "departement_code": "62",
    "region_code": "32",
    "postal_code": "62152"
  },
  {
    "name": "Neulette",
    "code": "62605",
    "epci_code": "200044030",
    "departement_code": "62",
    "region_code": "32",
    "postal_code": "62770"
  },
  {
    "name": "Neuve-Chapelle",
    "code": "62606",
    "epci_code": "200072460",
    "departement_code": "62",
    "region_code": "32",
    "postal_code": "62840"
  },
  {
    "name": "Neuville-au-Cornet",
    "code": "62607",
    "epci_code": "200069672",
    "departement_code": "62",
    "region_code": "32",
    "postal_code": "62130"
  },
  {
    "name": "Neuville-Bourjonval",
    "code": "62608",
    "epci_code": "200035442",
    "departement_code": "62",
    "region_code": "32",
    "postal_code": "62124"
  },
  {
    "name": "Neuville-Saint-Vaast",
    "code": "62609",
    "epci_code": "200033579",
    "departement_code": "62",
    "region_code": "32",
    "postal_code": "62580"
  },
  {
    "name": "Neuville-sous-Montreuil",
    "code": "62610",
    "epci_code": "200069029",
    "departement_code": "62",
    "region_code": "32",
    "postal_code": "62170"
  },
  {
    "name": "Neuville-Vitasse",
    "code": "62611",
    "epci_code": "200033579",
    "departement_code": "62",
    "region_code": "32",
    "postal_code": "62217"
  },
  {
    "name": "Neuvireuil",
    "code": "62612",
    "epci_code": "200044048",
    "departement_code": "62",
    "region_code": "32",
    "postal_code": "62580"
  },
  {
    "name": "Nielles-lès-Bléquin",
    "code": "62613",
    "epci_code": "246201016",
    "departement_code": "62",
    "region_code": "32",
    "postal_code": "62380"
  },
  {
    "name": "Nielles-lès-Ardres",
    "code": "62614",
    "epci_code": "200072478",
    "departement_code": "62",
    "region_code": "32",
    "postal_code": "62610"
  },
  {
    "name": "Nielles-lès-Calais",
    "code": "62615",
    "epci_code": "200090751",
    "departement_code": "62",
    "region_code": "32",
    "postal_code": "62185"
  },
  {
    "name": "Nœux-lès-Auxi",
    "code": "62616",
    "epci_code": "200069672",
    "departement_code": "62",
    "region_code": "32",
    "postal_code": "62390"
  },
  {
    "name": "Nœux-les-Mines",
    "code": "62617",
    "epci_code": "200072460",
    "departement_code": "62",
    "region_code": "32",
    "postal_code": "62290"
  },
  {
    "name": "Nordausques",
    "code": "62618",
    "epci_code": "200069037",
    "departement_code": "62",
    "region_code": "32",
    "postal_code": "62890"
  },
  {
    "name": "Noreuil",
    "code": "62619",
    "epci_code": "200035442",
    "departement_code": "62",
    "region_code": "32",
    "postal_code": "62128"
  },
  {
    "name": "Norrent-Fontes",
    "code": "62620",
    "epci_code": "200072460",
    "departement_code": "62",
    "region_code": "32",
    "postal_code": "62120"
  },
  {
    "name": "Nortkerque",
    "code": "62621",
    "epci_code": "246200844",
    "departement_code": "62",
    "region_code": "32",
    "postal_code": "62370"
  },
  {
    "name": "Nort-Leulinghem",
    "code": "62622",
    "epci_code": "200069037",
    "departement_code": "62",
    "region_code": "32",
    "postal_code": "62890"
  },
  {
    "name": "Nouvelle-Église",
    "code": "62623",
    "epci_code": "246200844",
    "departement_code": "62",
    "region_code": "32",
    "postal_code": "62370"
  },
  {
    "name": "Noyelles-Godault",
    "code": "62624",
    "epci_code": "246200299",
    "departement_code": "62",
    "region_code": "32",
    "postal_code": "62950"
  },
  {
    "name": "Noyelles-lès-Humières",
    "code": "62625",
    "epci_code": "200044030",
    "departement_code": "62",
    "region_code": "32",
    "postal_code": "62770"
  },
  {
    "name": "Noyelles-lès-Vermelles",
    "code": "62626",
    "epci_code": "200072460",
    "departement_code": "62",
    "region_code": "32",
    "postal_code": "62980"
  },
  {
    "name": "Noyelles-sous-Bellonne",
    "code": "62627",
    "epci_code": "200044048",
    "departement_code": "62",
    "region_code": "32",
    "postal_code": "62490"
  },
  {
    "name": "Noyelles-sous-Lens",
    "code": "62628",
    "epci_code": "246200364",
    "departement_code": "62",
    "region_code": "32",
    "postal_code": "62221"
  },
  {
    "name": "Noyellette",
    "code": "62629",
    "epci_code": "200069482",
    "departement_code": "62",
    "region_code": "32",
    "postal_code": "62123"
  },
  {
    "name": "Noyelle-Vion",
    "code": "62630",
    "epci_code": "200069482",
    "departement_code": "62",
    "region_code": "32",
    "postal_code": "62810"
  },
  {
    "name": "Nuncq-Hautecôte",
    "code": "62631",
    "epci_code": "200069672",
    "departement_code": "62",
    "region_code": "32",
    "postal_code": "62270"
  },
  {
    "name": "Oblinghem",
    "code": "62632",
    "epci_code": "200072460",
    "departement_code": "62",
    "region_code": "32",
    "postal_code": "62920"
  },
  {
    "name": "Œuf-en-Ternois",
    "code": "62633",
    "epci_code": "200069672",
    "departement_code": "62",
    "region_code": "32",
    "postal_code": "62130"
  },
  {
    "name": "Offekerque",
    "code": "62634",
    "epci_code": "246200844",
    "departement_code": "62",
    "region_code": "32",
    "postal_code": "62370"
  },
  {
    "name": "Offin",
    "code": "62635",
    "epci_code": "200044030",
    "departement_code": "62",
    "region_code": "32",
    "postal_code": "62990"
  },
  {
    "name": "Offrethun",
    "code": "62636",
    "epci_code": "246200380",
    "departement_code": "62",
    "region_code": "32",
    "postal_code": "62250"
  },
  {
    "name": "Oignies",
    "code": "62637",
    "epci_code": "246200299",
    "departement_code": "62",
    "region_code": "32",
    "postal_code": "62590"
  },
  {
    "name": "Oisy-le-Verger",
    "code": "62638",
    "epci_code": "200044048",
    "departement_code": "62",
    "region_code": "32",
    "postal_code": "62860"
  },
  {
    "name": "Oppy",
    "code": "62639",
    "epci_code": "200044048",
    "departement_code": "62",
    "region_code": "32",
    "postal_code": "62580"
  },
  {
    "name": "Orville",
    "code": "62640",
    "epci_code": "200069482",
    "departement_code": "62",
    "region_code": "32",
    "postal_code": "62760"
  },
  {
    "name": "Ostreville",
    "code": "62641",
    "epci_code": "200069672",
    "departement_code": "62",
    "region_code": "32",
    "postal_code": "62130"
  },
  {
    "name": "Ourton",
    "code": "62642",
    "epci_code": "200072460",
    "departement_code": "62",
    "region_code": "32",
    "postal_code": "62460"
  },
  {
    "name": "Outreau",
    "code": "62643",
    "epci_code": "246200729",
    "departement_code": "62",
    "region_code": "32",
    "postal_code": "62230"
  },
  {
    "name": "Ouve-Wirquin",
    "code": "62644",
    "epci_code": "246201016",
    "departement_code": "62",
    "region_code": "32",
    "postal_code": "62380"
  },
  {
    "name": "Oye-Plage",
    "code": "62645",
    "epci_code": "246200844",
    "departement_code": "62",
    "region_code": "32",
    "postal_code": "62215"
  },
  {
    "name": "Palluel",
    "code": "62646",
    "epci_code": "200044048",
    "departement_code": "62",
    "region_code": "32",
    "postal_code": "62860"
  },
  {
    "name": "Le Parcq",
    "code": "62647",
    "epci_code": "200044030",
    "departement_code": "62",
    "region_code": "32",
    "postal_code": "62770"
  },
  {
    "name": "Parenty",
    "code": "62648",
    "epci_code": "200069235",
    "departement_code": "62",
    "region_code": "32",
    "postal_code": "62650"
  },
  {
    "name": "Pas-en-Artois",
    "code": "62649",
    "epci_code": "200069482",
    "departement_code": "62",
    "region_code": "32",
    "postal_code": "62760"
  },
  {
    "name": "Pelves",
    "code": "62650",
    "epci_code": "200044048",
    "departement_code": "62",
    "region_code": "32",
    "postal_code": "62118"
  },
  {
    "name": "Penin",
    "code": "62651",
    "epci_code": "200069482",
    "departement_code": "62",
    "region_code": "32",
    "postal_code": "62127"
  },
  {
    "name": "Pernes",
    "code": "62652",
    "epci_code": "200069672",
    "departement_code": "62",
    "region_code": "32",
    "postal_code": "62550"
  },
  {
    "name": "Pernes-lès-Boulogne",
    "code": "62653",
    "epci_code": "246200729",
    "departement_code": "62",
    "region_code": "32",
    "postal_code": "62126"
  },
  {
    "name": "Peuplingues",
    "code": "62654",
    "epci_code": "200090751",
    "departement_code": "62",
    "region_code": "32",
    "postal_code": "62231"
  },
  {
    "name": "Pierremont",
    "code": "62655",
    "epci_code": "200069672",
    "departement_code": "62",
    "region_code": "32",
    "postal_code": "62130"
  },
  {
    "name": "Pihem",
    "code": "62656",
    "epci_code": "246201016",
    "departement_code": "62",
    "region_code": "32",
    "postal_code": "62570"
  },
  {
    "name": "Pihen-lès-Guînes",
    "code": "62657",
    "epci_code": "200090751",
    "departement_code": "62",
    "region_code": "32",
    "postal_code": "62340"
  },
  {
    "name": "Pittefaux",
    "code": "62658",
    "epci_code": "246200729",
    "departement_code": "62",
    "region_code": "32",
    "postal_code": "62126"
  },
  {
    "name": "Planques",
    "code": "62659",
    "epci_code": "200069235",
    "departement_code": "62",
    "region_code": "32",
    "postal_code": "62310"
  },
  {
    "name": "Plouvain",
    "code": "62660",
    "epci_code": "200044048",
    "departement_code": "62",
    "region_code": "32",
    "postal_code": "62118"
  },
  {
    "name": "Bouin-Plumoison",
    "code": "62661",
    "epci_code": "200044030",
    "departement_code": "62",
    "region_code": "32",
    "postal_code": "62140"
  },
  {
    "name": "Polincove",
    "code": "62662",
    "epci_code": "246200844",
    "departement_code": "62",
    "region_code": "32",
    "postal_code": "62370"
  },
  {
    "name": "Pommera",
    "code": "62663",
    "epci_code": "200069482",
    "departement_code": "62",
    "region_code": "32",
    "postal_code": "62760"
  },
  {
    "name": "Pommier",
    "code": "62664",
    "epci_code": "200069482",
    "departement_code": "62",
    "region_code": "32",
    "postal_code": "62111"
  },
  {
    "name": "Le Ponchel",
    "code": "62665",
    "epci_code": "200069672",
    "departement_code": "62",
    "region_code": "32",
    "postal_code": "62390"
  },
  {
    "name": "Pont-à-Vendin",
    "code": "62666",
    "epci_code": "246200364",
    "departement_code": "62",
    "region_code": "32",
    "postal_code": "62880"
  },
  {
    "name": "Le Portel",
    "code": "62667",
    "epci_code": "246200729",
    "departement_code": "62",
    "region_code": "32",
    "postal_code": "62480"
  },
  {
    "name": "Prédefin",
    "code": "62668",
    "epci_code": "200069672",
    "departement_code": "62",
    "region_code": "32",
    "postal_code": "62134"
  },
  {
    "name": "Pressy",
    "code": "62669",
    "epci_code": "200069672",
    "departement_code": "62",
    "region_code": "32",
    "postal_code": "62550"
  },
  {
    "name": "Preures",
    "code": "62670",
    "epci_code": "200069235",
    "departement_code": "62",
    "region_code": "32",
    "postal_code": "62650"
  },
  {
    "name": "Pronville-en-Artois",
    "code": "62671",
    "epci_code": "200044048",
    "departement_code": "62",
    "region_code": "32",
    "postal_code": "62860"
  },
  {
    "name": "Puisieux",
    "code": "62672",
    "epci_code": "200035442",
    "departement_code": "62",
    "region_code": "32",
    "postal_code": "62116"
  },
  {
    "name": "Quéant",
    "code": "62673",
    "epci_code": "200044048",
    "departement_code": "62",
    "region_code": "32",
    "postal_code": "62860"
  },
  {
    "name": "Quelmes",
    "code": "62674",
    "epci_code": "246201016",
    "departement_code": "62",
    "region_code": "32",
    "postal_code": "62500"
  },
  {
    "name": "Quercamps",
    "code": "62675",
    "epci_code": "246201016",
    "departement_code": "62",
    "region_code": "32",
    "postal_code": "62380"
  },
  {
    "name": "Quernes",
    "code": "62676",
    "epci_code": "200072460",
    "departement_code": "62",
    "region_code": "32",
    "postal_code": "62120"
  },
  {
    "name": "Le Quesnoy-en-Artois",
    "code": "62677",
    "epci_code": "200044030",
    "departement_code": "62",
    "region_code": "32",
    "postal_code": "62140"
  },
  {
    "name": "Quesques",
    "code": "62678",
    "epci_code": "200018083",
    "departement_code": "62",
    "region_code": "32",
    "postal_code": "62240"
  },
  {
    "name": "Questrecques",
    "code": "62679",
    "epci_code": "200018083",
    "departement_code": "62",
    "region_code": "32",
    "postal_code": "62830"
  },
  {
    "name": "Quiéry-la-Motte",
    "code": "62680",
    "epci_code": "200044048",
    "departement_code": "62",
    "region_code": "32",
    "postal_code": "62490"
  },
  {
    "name": "Quiestède",
    "code": "62681",
    "epci_code": "200069037",
    "departement_code": "62",
    "region_code": "32",
    "postal_code": "62120"
  },
  {
    "name": "Quilen",
    "code": "62682",
    "epci_code": "200069235",
    "departement_code": "62",
    "region_code": "32",
    "postal_code": "62650"
  },
  {
    "name": "Quœux-Haut-Maînil",
    "code": "62683",
    "epci_code": "200069672",
    "departement_code": "62",
    "region_code": "32",
    "postal_code": "62390"
  },
  {
    "name": "Racquinghem",
    "code": "62684",
    "epci_code": "200069037",
    "departement_code": "62",
    "region_code": "32",
    "postal_code": "62120"
  },
  {
    "name": "Radinghem",
    "code": "62685",
    "epci_code": "200069235",
    "departement_code": "62",
    "region_code": "32",
    "postal_code": "62310"
  },
  {
    "name": "Ramecourt",
    "code": "62686",
    "epci_code": "200069672",
    "departement_code": "62",
    "region_code": "32",
    "postal_code": "62130"
  },
  {
    "name": "Rang-du-Fliers",
    "code": "62688",
    "epci_code": "200069029",
    "departement_code": "62",
    "region_code": "32",
    "postal_code": "62180"
  },
  {
    "name": "Ransart",
    "code": "62689",
    "epci_code": "200033579",
    "departement_code": "62",
    "region_code": "32",
    "postal_code": "62173"
  },
  {
    "name": "Raye-sur-Authie",
    "code": "62690",
    "epci_code": "200044030",
    "departement_code": "62",
    "region_code": "32",
    "postal_code": "62140"
  },
  {
    "name": "Saint-Augustin",
    "code": "62691",
    "epci_code": "200069037",
    "departement_code": "62",
    "region_code": "32",
    "postal_code": "62120"
  },
  {
    "name": "Saint-Augustin",
    "code": "62691",
    "epci_code": "200069037",
    "departement_code": "62",
    "region_code": "32",
    "postal_code": "62129"
  },
  {
    "name": "Rebergues",
    "code": "62692",
    "epci_code": "246201016",
    "departement_code": "62",
    "region_code": "32",
    "postal_code": "62850"
  },
  {
    "name": "Rebreuve-Ranchicourt",
    "code": "62693",
    "epci_code": "200072460",
    "departement_code": "62",
    "region_code": "32",
    "postal_code": "62150"
  },
  {
    "name": "Rebreuve-sur-Canche",
    "code": "62694",
    "epci_code": "200069482",
    "departement_code": "62",
    "region_code": "32",
    "postal_code": "62270"
  },
  {
    "name": "Rebreuviette",
    "code": "62695",
    "epci_code": "200069482",
    "departement_code": "62",
    "region_code": "32",
    "postal_code": "62270"
  },
  {
    "name": "Reclinghem",
    "code": "62696",
    "epci_code": "200069037",
    "departement_code": "62",
    "region_code": "32",
    "postal_code": "62560"
  },
  {
    "name": "Récourt",
    "code": "62697",
    "epci_code": "200044048",
    "departement_code": "62",
    "region_code": "32",
    "postal_code": "62860"
  },
  {
    "name": "Recques-sur-Course",
    "code": "62698",
    "epci_code": "200069029",
    "departement_code": "62",
    "region_code": "32",
    "postal_code": "62170"
  },
  {
    "name": "Recques-sur-Hem",
    "code": "62699",
    "epci_code": "246200844",
    "departement_code": "62",
    "region_code": "32",
    "postal_code": "62890"
  },
  {
    "name": "Regnauville",
    "code": "62700",
    "epci_code": "200044030",
    "departement_code": "62",
    "region_code": "32",
    "postal_code": "62140"
  },
  {
    "name": "Rely",
    "code": "62701",
    "epci_code": "200072460",
    "departement_code": "62",
    "region_code": "32",
    "postal_code": "62120"
  },
  {
    "name": "Remilly-Wirquin",
    "code": "62702",
    "epci_code": "246201016",
    "departement_code": "62",
    "region_code": "32",
    "postal_code": "62380"
  },
  {
    "name": "Rémy",
    "code": "62703",
    "epci_code": "200044048",
    "departement_code": "62",
    "region_code": "32",
    "postal_code": "62156"
  },
  {
    "name": "Renty",
    "code": "62704",
    "epci_code": "200069037",
    "departement_code": "62",
    "region_code": "32",
    "postal_code": "62560"
  },
  {
    "name": "Rety",
    "code": "62705",
    "epci_code": "246200380",
    "departement_code": "62",
    "region_code": "32",
    "postal_code": "62720"
  },
  {
    "name": "Richebourg",
    "code": "62706",
    "epci_code": "200072460",
    "departement_code": "62",
    "region_code": "32",
    "postal_code": "62136"
  },
  {
    "name": "Riencourt-lès-Bapaume",
    "code": "62708",
    "epci_code": "200035442",
    "departement_code": "62",
    "region_code": "32",
    "postal_code": "62450"
  },
  {
    "name": "Riencourt-lès-Cagnicourt",
    "code": "62709",
    "epci_code": "200044048",
    "departement_code": "62",
    "region_code": "32",
    "postal_code": "62182"
  },
  {
    "name": "Rimboval",
    "code": "62710",
    "epci_code": "200069235",
    "departement_code": "62",
    "region_code": "32",
    "postal_code": "62990"
  },
  {
    "name": "Rinxent",
    "code": "62711",
    "epci_code": "246200380",
    "departement_code": "62",
    "region_code": "32",
    "postal_code": "62720"
  },
  {
    "name": "Rivière",
    "code": "62712",
    "epci_code": "200033579",
    "departement_code": "62",
    "region_code": "32",
    "postal_code": "62173"
  },
  {
    "name": "Robecq",
    "code": "62713",
    "epci_code": "200072460",
    "departement_code": "62",
    "region_code": "32",
    "postal_code": "62350"
  },
  {
    "name": "Roclincourt",
    "code": "62714",
    "epci_code": "200033579",
    "departement_code": "62",
    "region_code": "32",
    "postal_code": "62223"
  },
  {
    "name": "Rocquigny",
    "code": "62715",
    "epci_code": "200035442",
    "departement_code": "62",
    "region_code": "32",
    "postal_code": "62450"
  },
  {
    "name": "Rodelinghem",
    "code": "62716",
    "epci_code": "200072478",
    "departement_code": "62",
    "region_code": "32",
    "postal_code": "62610"
  },
  {
    "name": "Roëllecourt",
    "code": "62717",
    "epci_code": "200069672",
    "departement_code": "62",
    "region_code": "32",
    "postal_code": "62130"
  },
  {
    "name": "Rœux",
    "code": "62718",
    "epci_code": "200033579",
    "departement_code": "62",
    "region_code": "32",
    "postal_code": "62118"
  },
  {
    "name": "Rollancourt",
    "code": "62719",
    "epci_code": "200044030",
    "departement_code": "62",
    "region_code": "32",
    "postal_code": "62770"
  },
  {
    "name": "Rombly",
    "code": "62720",
    "epci_code": "200072460",
    "departement_code": "62",
    "region_code": "32",
    "postal_code": "62120"
  },
  {
    "name": "Roquetoire",
    "code": "62721",
    "epci_code": "200069037",
    "departement_code": "62",
    "region_code": "32",
    "postal_code": "62120"
  },
  {
    "name": "Rougefay",
    "code": "62722",
    "epci_code": "200069672",
    "departement_code": "62",
    "region_code": "32",
    "postal_code": "62390"
  },
  {
    "name": "Roussent",
    "code": "62723",
    "epci_code": "200044030",
    "departement_code": "62",
    "region_code": "32",
    "postal_code": "62870"
  },
  {
    "name": "Rouvroy",
    "code": "62724",
    "epci_code": "246200299",
    "departement_code": "62",
    "region_code": "32",
    "postal_code": "62320"
  },
  {
    "name": "Royon",
    "code": "62725",
    "epci_code": "200069235",
    "departement_code": "62",
    "region_code": "32",
    "postal_code": "62990"
  },
  {
    "name": "Ruisseauville",
    "code": "62726",
    "epci_code": "200069235",
    "departement_code": "62",
    "region_code": "32",
    "postal_code": "62310"
  },
  {
    "name": "Ruitz",
    "code": "62727",
    "epci_code": "200072460",
    "departement_code": "62",
    "region_code": "32",
    "postal_code": "62620"
  },
  {
    "name": "Rumaucourt",
    "code": "62728",
    "epci_code": "200044048",
    "departement_code": "62",
    "region_code": "32",
    "postal_code": "62860"
  },
  {
    "name": "Rumilly",
    "code": "62729",
    "epci_code": "200069235",
    "departement_code": "62",
    "region_code": "32",
    "postal_code": "62650"
  },
  {
    "name": "Ruminghem",
    "code": "62730",
    "epci_code": "246200844",
    "departement_code": "62",
    "region_code": "32",
    "postal_code": "62370"
  },
  {
    "name": "Ruyaulcourt",
    "code": "62731",
    "epci_code": "200035442",
    "departement_code": "62",
    "region_code": "32",
    "postal_code": "62124"
  },
  {
    "name": "Sachin",
    "code": "62732",
    "epci_code": "200069672",
    "departement_code": "62",
    "region_code": "32",
    "postal_code": "62550"
  },
  {
    "name": "Sailly-au-Bois",
    "code": "62733",
    "epci_code": "200035442",
    "departement_code": "62",
    "region_code": "32",
    "postal_code": "62111"
  },
  {
    "name": "Sailly-en-Ostrevent",
    "code": "62734",
    "epci_code": "200044048",
    "departement_code": "62",
    "region_code": "32",
    "postal_code": "62490"
  },
  {
    "name": "Sailly-Labourse",
    "code": "62735",
    "epci_code": "200072460",
    "departement_code": "62",
    "region_code": "32",
    "postal_code": "62113"
  },
  {
    "name": "Sailly-sur-la-Lys",
    "code": "62736",
    "epci_code": "245900758",
    "departement_code": "62",
    "region_code": "32",
    "postal_code": "62840"
  },
  {
    "name": "Sains-en-Gohelle",
    "code": "62737",
    "epci_code": "246200364",
    "departement_code": "62",
    "region_code": "32",
    "postal_code": "62114"
  },
  {
    "name": "Sains-lès-Fressin",
    "code": "62738",
    "epci_code": "200069235",
    "departement_code": "62",
    "region_code": "32",
    "postal_code": "62310"
  },
  {
    "name": "Sains-lès-Marquion",
    "code": "62739",
    "epci_code": "200044048",
    "departement_code": "62",
    "region_code": "32",
    "postal_code": "62860"
  },
  {
    "name": "Sains-lès-Pernes",
    "code": "62740",
    "epci_code": "200069672",
    "departement_code": "62",
    "region_code": "32",
    "postal_code": "62550"
  },
  {
    "name": "Saint-Amand",
    "code": "62741",
    "epci_code": "200069482",
    "departement_code": "62",
    "region_code": "32",
    "postal_code": "62760"
  },
  {
    "name": "Saint-Aubin",
    "code": "62742",
    "epci_code": "200069029",
    "departement_code": "62",
    "region_code": "32",
    "postal_code": "62170"
  },
  {
    "name": "Sainte-Catherine",
    "code": "62744",
    "epci_code": "200033579",
    "departement_code": "62",
    "region_code": "32",
    "postal_code": "62223"
  },
  {
    "name": "Saint-Denœux",
    "code": "62745",
    "epci_code": "200044030",
    "departement_code": "62",
    "region_code": "32",
    "postal_code": "62990"
  },
  {
    "name": "Saint-Étienne-au-Mont",
    "code": "62746",
    "epci_code": "246200729",
    "departement_code": "62",
    "region_code": "32",
    "postal_code": "62360"
  },
  {
    "name": "Saint-Floris",
    "code": "62747",
    "epci_code": "200072460",
    "departement_code": "62",
    "region_code": "32",
    "postal_code": "62350"
  },
  {
    "name": "Saint-Folquin",
    "code": "62748",
    "epci_code": "246200844",
    "departement_code": "62",
    "region_code": "32",
    "postal_code": "62370"
  },
  {
    "name": "Saint-Georges",
    "code": "62749",
    "epci_code": "200044030",
    "departement_code": "62",
    "region_code": "32",
    "postal_code": "62770"
  },
  {
    "name": "Saint-Hilaire-Cottes",
    "code": "62750",
    "epci_code": "200072460",
    "departement_code": "62",
    "region_code": "32",
    "postal_code": "62120"
  },
  {
    "name": "Saint-Inglevert",
    "code": "62751",
    "epci_code": "246200380",
    "departement_code": "62",
    "region_code": "32",
    "postal_code": "62250"
  },
  {
    "name": "Saint-Josse",
    "code": "62752",
    "epci_code": "200069029",
    "departement_code": "62",
    "region_code": "32",
    "postal_code": "62170"
  },
  {
    "name": "Saint-Laurent-Blangy",
    "code": "62753",
    "epci_code": "200033579",
    "departement_code": "62",
    "region_code": "32",
    "postal_code": "62223"
  },
  {
    "name": "Saint-Léger",
    "code": "62754",
    "epci_code": "200035442",
    "departement_code": "62",
    "region_code": "32",
    "postal_code": "62128"
  },
  {
    "name": "Saint-Léonard",
    "code": "62755",
    "epci_code": "246200729",
    "departement_code": "62",
    "region_code": "32",
    "postal_code": "62360"
  },
  {
    "name": "Sainte-Marie-Kerque",
    "code": "62756",
    "epci_code": "246200844",
    "departement_code": "62",
    "region_code": "32",
    "postal_code": "62370"
  },
  {
    "name": "Saint-Martin-lez-Tatinghem",
    "code": "62757",
    "epci_code": "200069037",
    "departement_code": "62",
    "region_code": "32",
    "postal_code": "62500"
  },
  {
    "name": "Saint-Martin-Boulogne",
    "code": "62758",
    "epci_code": "246200729",
    "departement_code": "62",
    "region_code": "32",
    "postal_code": "62280"
  },
  {
    "name": "Saint-Martin-Choquel",
    "code": "62759",
    "epci_code": "200018083",
    "departement_code": "62",
    "region_code": "32",
    "postal_code": "62240"
  },
  {
    "name": "Saint-Martin-d’Hardinghem",
    "code": "62760",
    "epci_code": "200069037",
    "departement_code": "62",
    "region_code": "32",
    "postal_code": "62560"
  },
  {
    "name": "Saint-Martin-sur-Cojeul",
    "code": "62761",
    "epci_code": "200033579",
    "departement_code": "62",
    "region_code": "32",
    "postal_code": "62128"
  },
  {
    "name": "Saint-Michel-sous-Bois",
    "code": "62762",
    "epci_code": "200069235",
    "departement_code": "62",
    "region_code": "32",
    "postal_code": "62650"
  },
  {
    "name": "Saint-Michel-sur-Ternoise",
    "code": "62763",
    "epci_code": "200069672",
    "departement_code": "62",
    "region_code": "32",
    "postal_code": "62130"
  },
  {
    "name": "Saint-Nicolas",
    "code": "62764",
    "epci_code": "200033579",
    "departement_code": "62",
    "region_code": "32",
    "postal_code": "62223"
  },
  {
    "name": "Saint-Omer",
    "code": "62765",
    "epci_code": "200069037",
    "departement_code": "62",
    "region_code": "32",
    "postal_code": "62500"
  },
  {
    "name": "Saint-Omer-Capelle",
    "code": "62766",
    "epci_code": "246200844",
    "departement_code": "62",
    "region_code": "32",
    "postal_code": "62162"
  },
  {
    "name": "Saint-Pol-sur-Ternoise",
    "code": "62767",
    "epci_code": "200069672",
    "departement_code": "62",
    "region_code": "32",
    "postal_code": "62130"
  },
  {
    "name": "Saint-Rémy-au-Bois",
    "code": "62768",
    "epci_code": "200044030",
    "departement_code": "62",
    "region_code": "32",
    "postal_code": "62870"
  },
  {
    "name": "Saint-Tricat",
    "code": "62769",
    "epci_code": "200090751",
    "departement_code": "62",
    "region_code": "32",
    "postal_code": "62185"
  },
  {
    "name": "Saint-Venant",
    "code": "62770",
    "epci_code": "200072460",
    "departement_code": "62",
    "region_code": "32",
    "postal_code": "62350"
  },
  {
    "name": "Sallaumines",
    "code": "62771",
    "epci_code": "246200364",
    "departement_code": "62",
    "region_code": "32",
    "postal_code": "62430"
  },
  {
    "name": "Salperwick",
    "code": "62772",
    "epci_code": "200069037",
    "departement_code": "62",
    "region_code": "32",
    "postal_code": "62500"
  },
  {
    "name": "Samer",
    "code": "62773",
    "epci_code": "200018083",
    "departement_code": "62",
    "region_code": "32",
    "postal_code": "62830"
  },
  {
    "name": "Sangatte",
    "code": "62774",
    "epci_code": "200090751",
    "departement_code": "62",
    "region_code": "32",
    "postal_code": "62231"
  },
  {
    "name": "Sanghen",
    "code": "62775",
    "epci_code": "200072478",
    "departement_code": "62",
    "region_code": "32",
    "postal_code": "62850"
  },
  {
    "name": "Sapignies",
    "code": "62776",
    "epci_code": "200035442",
    "departement_code": "62",
    "region_code": "32",
    "postal_code": "62121"
  },
  {
    "name": "Le Sars",
    "code": "62777",
    "epci_code": "200035442",
    "departement_code": "62",
    "region_code": "32",
    "postal_code": "62450"
  },
  {
    "name": "Sars-le-Bois",
    "code": "62778",
    "epci_code": "200069482",
    "departement_code": "62",
    "region_code": "32",
    "postal_code": "62810"
  },
  {
    "name": "Sarton",
    "code": "62779",
    "epci_code": "200069482",
    "departement_code": "62",
    "region_code": "32",
    "postal_code": "62760"
  },
  {
    "name": "Sauchy-Cauchy",
    "code": "62780",
    "epci_code": "200044048",
    "departement_code": "62",
    "region_code": "32",
    "postal_code": "62860"
  },
  {
    "name": "Sauchy-Lestrée",
    "code": "62781",
    "epci_code": "200044048",
    "departement_code": "62",
    "region_code": "32",
    "postal_code": "62860"
  },
  {
    "name": "Saudemont",
    "code": "62782",
    "epci_code": "200044048",
    "departement_code": "62",
    "region_code": "32",
    "postal_code": "62860"
  },
  {
    "name": "Saulchoy",
    "code": "62783",
    "epci_code": "200044030",
    "departement_code": "62",
    "region_code": "32",
    "postal_code": "62870"
  },
  {
    "name": "Saulty",
    "code": "62784",
    "epci_code": "200069482",
    "departement_code": "62",
    "region_code": "32",
    "postal_code": "62158"
  },
  {
    "name": "Savy-Berlette",
    "code": "62785",
    "epci_code": "200069482",
    "departement_code": "62",
    "region_code": "32",
    "postal_code": "62690"
  },
  {
    "name": "Selles",
    "code": "62786",
    "epci_code": "200018083",
    "departement_code": "62",
    "region_code": "32",
    "postal_code": "62240"
  },
  {
    "name": "Sempy",
    "code": "62787",
    "epci_code": "200044030",
    "departement_code": "62",
    "region_code": "32",
    "postal_code": "62170"
  },
  {
    "name": "Seninghem",
    "code": "62788",
    "epci_code": "246201016",
    "departement_code": "62",
    "region_code": "32",
    "postal_code": "62380"
  },
  {
    "name": "Senlecques",
    "code": "62789",
    "epci_code": "200018083",
    "departement_code": "62",
    "region_code": "32",
    "postal_code": "62240"
  },
  {
    "name": "Senlis",
    "code": "62790",
    "epci_code": "200069235",
    "departement_code": "62",
    "region_code": "32",
    "postal_code": "62310"
  },
  {
    "name": "Séricourt",
    "code": "62791",
    "epci_code": "200069672",
    "departement_code": "62",
    "region_code": "32",
    "postal_code": "62270"
  },
  {
    "name": "Serques",
    "code": "62792",
    "epci_code": "200069037",
    "departement_code": "62",
    "region_code": "32",
    "postal_code": "62910"
  },
  {
    "name": "Servins",
    "code": "62793",
    "epci_code": "246200364",
    "departement_code": "62",
    "region_code": "32",
    "postal_code": "62530"
  },
  {
    "name": "Setques",
    "code": "62794",
    "epci_code": "246201016",
    "departement_code": "62",
    "region_code": "32",
    "postal_code": "62380"
  },
  {
    "name": "Sibiville",
    "code": "62795",
    "epci_code": "200069672",
    "departement_code": "62",
    "region_code": "32",
    "postal_code": "62270"
  },
  {
    "name": "Simencourt",
    "code": "62796",
    "epci_code": "200069482",
    "departement_code": "62",
    "region_code": "32",
    "postal_code": "62123"
  },
  {
    "name": "Siracourt",
    "code": "62797",
    "epci_code": "200069672",
    "departement_code": "62",
    "region_code": "32",
    "postal_code": "62130"
  },
  {
    "name": "Sombrin",
    "code": "62798",
    "epci_code": "200069482",
    "departement_code": "62",
    "region_code": "32",
    "postal_code": "62810"
  },
  {
    "name": "Sorrus",
    "code": "62799",
    "epci_code": "200069029",
    "departement_code": "62",
    "region_code": "32",
    "postal_code": "62170"
  },
  {
    "name": "Souastre",
    "code": "62800",
    "epci_code": "200035442",
    "departement_code": "62",
    "region_code": "32",
    "postal_code": "62111"
  },
  {
    "name": "Souchez",
    "code": "62801",
    "epci_code": "246200364",
    "departement_code": "62",
    "region_code": "32",
    "postal_code": "62153"
  },
  {
    "name": "Le Souich",
    "code": "62802",
    "epci_code": "200069482",
    "departement_code": "62",
    "region_code": "32",
    "postal_code": "62810"
  },
  {
    "name": "Surques",
    "code": "62803",
    "epci_code": "246201016",
    "departement_code": "62",
    "region_code": "32",
    "postal_code": "62850"
  },
  {
    "name": "Sus-Saint-Léger",
    "code": "62804",
    "epci_code": "200069482",
    "departement_code": "62",
    "region_code": "32",
    "postal_code": "62810"
  },
  {
    "name": "Tangry",
    "code": "62805",
    "epci_code": "200069672",
    "departement_code": "62",
    "region_code": "32",
    "postal_code": "62550"
  },
  {
    "name": "Tardinghen",
    "code": "62806",
    "epci_code": "246200380",
    "departement_code": "62",
    "region_code": "32",
    "postal_code": "62179"
  },
  {
    "name": "Teneur",
    "code": "62808",
    "epci_code": "200069672",
    "departement_code": "62",
    "region_code": "32",
    "postal_code": "62134"
  },
  {
    "name": "Ternas",
    "code": "62809",
    "epci_code": "200069672",
    "departement_code": "62",
    "region_code": "32",
    "postal_code": "62127"
  },
  {
    "name": "Thélus",
    "code": "62810",
    "epci_code": "200033579",
    "departement_code": "62",
    "region_code": "32",
    "postal_code": "62580"
  },
  {
    "name": "Thérouanne",
    "code": "62811",
    "epci_code": "200069037",
    "departement_code": "62",
    "region_code": "32",
    "postal_code": "62129"
  },
  {
    "name": "Thiembronne",
    "code": "62812",
    "epci_code": "200069037",
    "departement_code": "62",
    "region_code": "32",
    "postal_code": "62560"
  },
  {
    "name": "La Thieuloye",
    "code": "62813",
    "epci_code": "200069672",
    "departement_code": "62",
    "region_code": "32",
    "postal_code": "62130"
  },
  {
    "name": "Thièvres",
    "code": "62814",
    "epci_code": "200069482",
    "departement_code": "62",
    "region_code": "32",
    "postal_code": "62760"
  },
  {
    "name": "Tigny-Noyelle",
    "code": "62815",
    "epci_code": "200069029",
    "departement_code": "62",
    "region_code": "32",
    "postal_code": "62180"
  },
  {
    "name": "Tilloy-lès-Hermaville",
    "code": "62816",
    "epci_code": "200069482",
    "departement_code": "62",
    "region_code": "32",
    "postal_code": "62690"
  },
  {
    "name": "Tilloy-lès-Mofflaines",
    "code": "62817",
    "epci_code": "200033579",
    "departement_code": "62",
    "region_code": "32",
    "postal_code": "62217"
  },
  {
    "name": "Tilly-Capelle",
    "code": "62818",
    "epci_code": "200069672",
    "departement_code": "62",
    "region_code": "32",
    "postal_code": "62134"
  },
  {
    "name": "Tilques",
    "code": "62819",
    "epci_code": "200069037",
    "departement_code": "62",
    "region_code": "32",
    "postal_code": "62500"
  },
  {
    "name": "Tincques",
    "code": "62820",
    "epci_code": "200069482",
    "departement_code": "62",
    "region_code": "32",
    "postal_code": "62127"
  },
  {
    "name": "Tingry",
    "code": "62821",
    "epci_code": "200018083",
    "departement_code": "62",
    "region_code": "32",
    "postal_code": "62830"
  },
  {
    "name": "Tollent",
    "code": "62822",
    "epci_code": "200069672",
    "departement_code": "62",
    "region_code": "32",
    "postal_code": "62390"
  },
  {
    "name": "Torcy",
    "code": "62823",
    "epci_code": "200069235",
    "departement_code": "62",
    "region_code": "32",
    "postal_code": "62310"
  },
  {
    "name": "Tortefontaine",
    "code": "62824",
    "epci_code": "200044030",
    "departement_code": "62",
    "region_code": "32",
    "postal_code": "62140"
  },
  {
    "name": "Tortequesne",
    "code": "62825",
    "epci_code": "200044048",
    "departement_code": "62",
    "region_code": "32",
    "postal_code": "62490"
  },
  {
    "name": "Le Touquet-Paris-Plage",
    "code": "62826",
    "epci_code": "200069029",
    "departement_code": "62",
    "region_code": "32",
    "postal_code": "62520"
  },
  {
    "name": "Tournehem-sur-la-Hem",
    "code": "62827",
    "epci_code": "200069037",
    "departement_code": "62",
    "region_code": "32",
    "postal_code": "62890"
  },
  {
    "name": "Tramecourt",
    "code": "62828",
    "epci_code": "200044030",
    "departement_code": "62",
    "region_code": "32",
    "postal_code": "62310"
  },
  {
    "name": "Le Transloy",
    "code": "62829",
    "epci_code": "200035442",
    "departement_code": "62",
    "region_code": "32",
    "postal_code": "62450"
  },
  {
    "name": "Trescault",
    "code": "62830",
    "epci_code": "200035442",
    "departement_code": "62",
    "region_code": "32",
    "postal_code": "62147"
  },
  {
    "name": "Troisvaux",
    "code": "62831",
    "epci_code": "200069672",
    "departement_code": "62",
    "region_code": "32",
    "postal_code": "62130"
  },
  {
    "name": "Tubersent",
    "code": "62832",
    "epci_code": "200069029",
    "departement_code": "62",
    "region_code": "32",
    "postal_code": "62630"
  },
  {
    "name": "Vacquerie-le-Boucq",
    "code": "62833",
    "epci_code": "200069672",
    "departement_code": "62",
    "region_code": "32",
    "postal_code": "62270"
  },
  {
    "name": "Vacqueriette-Erquières",
    "code": "62834",
    "epci_code": "200044030",
    "departement_code": "62",
    "region_code": "32",
    "postal_code": "62140"
  },
  {
    "name": "Valhuon",
    "code": "62835",
    "epci_code": "200069672",
    "departement_code": "62",
    "region_code": "32",
    "postal_code": "62550"
  },
  {
    "name": "Vaudricourt",
    "code": "62836",
    "epci_code": "200072460",
    "departement_code": "62",
    "region_code": "32",
    "postal_code": "62131"
  },
  {
    "name": "Vaudringhem",
    "code": "62837",
    "epci_code": "246201016",
    "departement_code": "62",
    "region_code": "32",
    "postal_code": "62380"
  },
  {
    "name": "Vaulx",
    "code": "62838",
    "epci_code": "200069672",
    "departement_code": "62",
    "region_code": "32",
    "postal_code": "62390"
  },
  {
    "name": "Vaulx-Vraucourt",
    "code": "62839",
    "epci_code": "200035442",
    "departement_code": "62",
    "region_code": "32",
    "postal_code": "62159"
  },
  {
    "name": "Vélu",
    "code": "62840",
    "epci_code": "200035442",
    "departement_code": "62",
    "region_code": "32",
    "postal_code": "62124"
  },
  {
    "name": "Vendin-lès-Béthune",
    "code": "62841",
    "epci_code": "200072460",
    "departement_code": "62",
    "region_code": "32",
    "postal_code": "62232"
  },
  {
    "name": "Vendin-le-Vieil",
    "code": "62842",
    "epci_code": "246200364",
    "departement_code": "62",
    "region_code": "32",
    "postal_code": "62880"
  },
  {
    "name": "Verchin",
    "code": "62843",
    "epci_code": "200069235",
    "departement_code": "62",
    "region_code": "32",
    "postal_code": "62310"
  },
  {
    "name": "Verchocq",
    "code": "62844",
    "epci_code": "200069235",
    "departement_code": "62",
    "region_code": "32",
    "postal_code": "62560"
  },
  {
    "name": "Verlincthun",
    "code": "62845",
    "epci_code": "200018083",
    "departement_code": "62",
    "region_code": "32",
    "postal_code": "62830"
  },
  {
    "name": "Vermelles",
    "code": "62846",
    "epci_code": "200072460",
    "departement_code": "62",
    "region_code": "32",
    "postal_code": "62980"
  },
  {
    "name": "Verquigneul",
    "code": "62847",
    "epci_code": "200072460",
    "departement_code": "62",
    "region_code": "32",
    "postal_code": "62113"
  },
  {
    "name": "Verquin",
    "code": "62848",
    "epci_code": "200072460",
    "departement_code": "62",
    "region_code": "32",
    "postal_code": "62131"
  },
  {
    "name": "Verton",
    "code": "62849",
    "epci_code": "200069029",
    "departement_code": "62",
    "region_code": "32",
    "postal_code": "62180"
  },
  {
    "name": "Vieil-Hesdin",
    "code": "62850",
    "epci_code": "200044030",
    "departement_code": "62",
    "region_code": "32",
    "postal_code": "62770"
  },
  {
    "name": "Vieille-Chapelle",
    "code": "62851",
    "epci_code": "200072460",
    "departement_code": "62",
    "region_code": "32",
    "postal_code": "62136"
  },
  {
    "name": "Vieille-Église",
    "code": "62852",
    "epci_code": "246200844",
    "departement_code": "62",
    "region_code": "32",
    "postal_code": "62162"
  },
  {
    "name": "Vieil-Moutier",
    "code": "62853",
    "epci_code": "200018083",
    "departement_code": "62",
    "region_code": "32",
    "postal_code": "62240"
  },
  {
    "name": "Villers-au-Bois",
    "code": "62854",
    "epci_code": "246200364",
    "departement_code": "62",
    "region_code": "32",
    "postal_code": "62144"
  },
  {
    "name": "Villers-au-Flos",
    "code": "62855",
    "epci_code": "200035442",
    "departement_code": "62",
    "region_code": "32",
    "postal_code": "62450"
  },
  {
    "name": "Villers-Brûlin",
    "code": "62856",
    "epci_code": "200069482",
    "departement_code": "62",
    "region_code": "32",
    "postal_code": "62690"
  },
  {
    "name": "Villers-Châtel",
    "code": "62857",
    "epci_code": "200069482",
    "departement_code": "62",
    "region_code": "32",
    "postal_code": "62690"
  },
  {
    "name": "Villers-lès-Cagnicourt",
    "code": "62858",
    "epci_code": "200044048",
    "departement_code": "62",
    "region_code": "32",
    "postal_code": "62182"
  },
  {
    "name": "Villers-l’Hôpital",
    "code": "62859",
    "epci_code": "200069672",
    "departement_code": "62",
    "region_code": "32",
    "postal_code": "62390"
  },
  {
    "name": "Villers-Sir-Simon",
    "code": "62860",
    "epci_code": "200069482",
    "departement_code": "62",
    "region_code": "32",
    "postal_code": "62127"
  },
  {
    "name": "Vimy",
    "code": "62861",
    "epci_code": "246200364",
    "departement_code": "62",
    "region_code": "32",
    "postal_code": "62580"
  },
  {
    "name": "Vincly",
    "code": "62862",
    "epci_code": "200069235",
    "departement_code": "62",
    "region_code": "32",
    "postal_code": "62310"
  },
  {
    "name": "Violaines",
    "code": "62863",
    "epci_code": "200072460",
    "departement_code": "62",
    "region_code": "32",
    "postal_code": "62138"
  },
  {
    "name": "Vis-en-Artois",
    "code": "62864",
    "epci_code": "200044048",
    "departement_code": "62",
    "region_code": "32",
    "postal_code": "62156"
  },
  {
    "name": "Vitry-en-Artois",
    "code": "62865",
    "epci_code": "200044048",
    "departement_code": "62",
    "region_code": "32",
    "postal_code": "62490"
  },
  {
    "name": "Waben",
    "code": "62866",
    "epci_code": "200069029",
    "departement_code": "62",
    "region_code": "32",
    "postal_code": "62180"
  },
  {
    "name": "Wacquinghen",
    "code": "62867",
    "epci_code": "246200380",
    "departement_code": "62",
    "region_code": "32",
    "postal_code": "62250"
  },
  {
    "name": "Wail",
    "code": "62868",
    "epci_code": "200044030",
    "departement_code": "62",
    "region_code": "32",
    "postal_code": "62770"
  },
  {
    "name": "Wailly",
    "code": "62869",
    "epci_code": "200033579",
    "departement_code": "62",
    "region_code": "32",
    "postal_code": "62217"
  },
  {
    "name": "Wailly-Beaucamp",
    "code": "62870",
    "epci_code": "200069029",
    "departement_code": "62",
    "region_code": "32",
    "postal_code": "62170"
  },
  {
    "name": "Wambercourt",
    "code": "62871",
    "epci_code": "200044030",
    "departement_code": "62",
    "region_code": "32",
    "postal_code": "62140"
  },
  {
    "name": "Wamin",
    "code": "62872",
    "epci_code": "200044030",
    "departement_code": "62",
    "region_code": "32",
    "postal_code": "62770"
  },
  {
    "name": "Wancourt",
    "code": "62873",
    "epci_code": "200033579",
    "departement_code": "62",
    "region_code": "32",
    "postal_code": "62128"
  },
  {
    "name": "Wanquetin",
    "code": "62874",
    "epci_code": "200069482",
    "departement_code": "62",
    "region_code": "32",
    "postal_code": "62123"
  },
  {
    "name": "Wardrecques",
    "code": "62875",
    "epci_code": "200069037",
    "departement_code": "62",
    "region_code": "32",
    "postal_code": "62120"
  },
  {
    "name": "Warlencourt-Eaucourt",
    "code": "62876",
    "epci_code": "200035442",
    "departement_code": "62",
    "region_code": "32",
    "postal_code": "62450"
  },
  {
    "name": "Warlincourt-lès-Pas",
    "code": "62877",
    "epci_code": "200069482",
    "departement_code": "62",
    "region_code": "32",
    "postal_code": "62760"
  },
  {
    "name": "Warlus",
    "code": "62878",
    "epci_code": "200069482",
    "departement_code": "62",
    "region_code": "32",
    "postal_code": "62123"
  },
  {
    "name": "Warluzel",
    "code": "62879",
    "epci_code": "200069482",
    "departement_code": "62",
    "region_code": "32",
    "postal_code": "62810"
  },
  {
    "name": "Le Wast",
    "code": "62880",
    "epci_code": "200018083",
    "departement_code": "62",
    "region_code": "32",
    "postal_code": "62142"
  },
  {
    "name": "Beauvoir-Wavans",
    "code": "62881",
    "epci_code": "200069672",
    "departement_code": "62",
    "region_code": "32",
    "postal_code": "62390"
  },
  {
    "name": "Wavrans-sur-l’Aa",
    "code": "62882",
    "epci_code": "246201016",
    "departement_code": "62",
    "region_code": "32",
    "postal_code": "62380"
  },
  {
    "name": "Wavrans-sur-Ternoise",
    "code": "62883",
    "epci_code": "200069672",
    "departement_code": "62",
    "region_code": "32",
    "postal_code": "62130"
  },
  {
    "name": "Westrehem",
    "code": "62885",
    "epci_code": "200072460",
    "departement_code": "62",
    "region_code": "32",
    "postal_code": "62960"
  },
  {
    "name": "Wicquinghem",
    "code": "62886",
    "epci_code": "200069235",
    "departement_code": "62",
    "region_code": "32",
    "postal_code": "62650"
  },
  {
    "name": "Widehem",
    "code": "62887",
    "epci_code": "200069029",
    "departement_code": "62",
    "region_code": "32",
    "postal_code": "62630"
  },
  {
    "name": "Wierre-au-Bois",
    "code": "62888",
    "epci_code": "200018083",
    "departement_code": "62",
    "region_code": "32",
    "postal_code": "62830"
  },
  {
    "name": "Wierre-Effroy",
    "code": "62889",
    "epci_code": "246200380",
    "departement_code": "62",
    "region_code": "32",
    "postal_code": "62720"
  },
  {
    "name": "Willeman",
    "code": "62890",
    "epci_code": "200044030",
    "departement_code": "62",
    "region_code": "32",
    "postal_code": "62770"
  },
  {
    "name": "Willencourt",
    "code": "62891",
    "epci_code": "200069672",
    "departement_code": "62",
    "region_code": "32",
    "postal_code": "62390"
  },
  {
    "name": "Willerval",
    "code": "62892",
    "epci_code": "200033579",
    "departement_code": "62",
    "region_code": "32",
    "postal_code": "62580"
  },
  {
    "name": "Wimereux",
    "code": "62893",
    "epci_code": "246200729",
    "departement_code": "62",
    "region_code": "32",
    "postal_code": "62930"
  },
  {
    "name": "Wimille",
    "code": "62894",
    "epci_code": "246200729",
    "departement_code": "62",
    "region_code": "32",
    "postal_code": "62126"
  },
  {
    "name": "Wingles",
    "code": "62895",
    "epci_code": "246200364",
    "departement_code": "62",
    "region_code": "32",
    "postal_code": "62410"
  },
  {
    "name": "Wirwignes",
    "code": "62896",
    "epci_code": "200018083",
    "departement_code": "62",
    "region_code": "32",
    "postal_code": "62240"
  },
  {
    "name": "Wismes",
    "code": "62897",
    "epci_code": "246201016",
    "departement_code": "62",
    "region_code": "32",
    "postal_code": "62380"
  },
  {
    "name": "Wisques",
    "code": "62898",
    "epci_code": "246201016",
    "departement_code": "62",
    "region_code": "32",
    "postal_code": "62219"
  },
  {
    "name": "Wissant",
    "code": "62899",
    "epci_code": "246200380",
    "departement_code": "62",
    "region_code": "32",
    "postal_code": "62179"
  },
  {
    "name": "Witternesse",
    "code": "62900",
    "epci_code": "200072460",
    "departement_code": "62",
    "region_code": "32",
    "postal_code": "62120"
  },
  {
    "name": "Wittes",
    "code": "62901",
    "epci_code": "200069037",
    "departement_code": "62",
    "region_code": "32",
    "postal_code": "62120"
  },
  {
    "name": "Wizernes",
    "code": "62902",
    "epci_code": "200069037",
    "departement_code": "62",
    "region_code": "32",
    "postal_code": "62570"
  },
  {
    "name": "Zoteux",
    "code": "62903",
    "epci_code": "200069235",
    "departement_code": "62",
    "region_code": "32",
    "postal_code": "62650"
  },
  {
    "name": "Zouafques",
    "code": "62904",
    "epci_code": "200069037",
    "departement_code": "62",
    "region_code": "32",
    "postal_code": "62890"
  },
  {
    "name": "Zudausques",
    "code": "62905",
    "epci_code": "246201016",
    "departement_code": "62",
    "region_code": "32",
    "postal_code": "62500"
  },
  {
    "name": "Zutkerque",
    "code": "62906",
    "epci_code": "246200844",
    "departement_code": "62",
    "region_code": "32",
    "postal_code": "62370"
  },
  {
    "name": "Libercourt",
    "code": "62907",
    "epci_code": "246200299",
    "departement_code": "62",
    "region_code": "32",
    "postal_code": "62820"
  },
  {
    "name": "La Capelle-lès-Boulogne",
    "code": "62908",
    "epci_code": "246200729",
    "departement_code": "62",
    "region_code": "32",
    "postal_code": "62360"
  },
  {
    "name": "Ytres",
    "code": "62909",
    "epci_code": "200035442",
    "departement_code": "62",
    "region_code": "32",
    "postal_code": "62124"
  }
]