[
  {
    "name": "Antony",
    "code": "92002",
    "epci_code": "200054781",
    "departement_code": "92",
    "region_code": "11",
    "postal_code": "92160"
  },
  {
    "name": "Asnières-sur-Seine",
    "code": "92004",
    "epci_code": "200054781",
    "departement_code": "92",
    "region_code": "11",
    "postal_code": "92600"
  },
  {
    "name": "Bagneux",
    "code": "92007",
    "epci_code": "200054781",
    "departement_code": "92",
    "region_code": "11",
    "postal_code": "92220"
  },
  {
    "name": "Bois-Colombes",
    "code": "92009",
    "epci_code": "200054781",
    "departement_code": "92",
    "region_code": "11",
    "postal_code": "92270"
  },
  {
    "name": "Boulogne-Billancourt",
    "code": "92012",
    "epci_code": "200054781",
    "departement_code": "92",
    "region_code": "11",
    "postal_code": "92100"
  },
  {
    "name": "Bourg-la-Reine",
    "code": "92014",
    "epci_code": "200054781",
    "departement_code": "92",
    "region_code": "11",
    "postal_code": "92340"
  },
  {
    "name": "Châtenay-Malabry",
    "code": "92019",
    "epci_code": "200054781",
    "departement_code": "92",
    "region_code": "11",
    "postal_code": "92290"
  },
  {
    "name": "Châtillon",
    "code": "92020",
    "epci_code": "200054781",
    "departement_code": "92",
    "region_code": "11",
    "postal_code": "92320"
  },
  {
    "name": "Chaville",
    "code": "92022",
    "epci_code": "200054781",
    "departement_code": "92",
    "region_code": "11",
    "postal_code": "92370"
  },
  {
    "name": "Clamart",
    "code": "92023",
    "epci_code": "200054781",
    "departement_code": "92",
    "region_code": "11",
    "postal_code": "92140"
  },
  {
    "name": "Clichy",
    "code": "92024",
    "epci_code": "200054781",
    "departement_code": "92",
    "region_code": "11",
    "postal_code": "92110"
  },
  {
    "name": "Colombes",
    "code": "92025",
    "epci_code": "200054781",
    "departement_code": "92",
    "region_code": "11",
    "postal_code": "92700"
  },
  {
    "name": "Courbevoie",
    "code": "92026",
    "epci_code": "200054781",
    "departement_code": "92",
    "region_code": "11",
    "postal_code": "92400"
  },
  {
    "name": "Fontenay-aux-Roses",
    "code": "92032",
    "epci_code": "200054781",
    "departement_code": "92",
    "region_code": "11",
    "postal_code": "92260"
  },
  {
    "name": "Garches",
    "code": "92033",
    "epci_code": "200054781",
    "departement_code": "92",
    "region_code": "11",
    "postal_code": "92380"
  },
  {
    "name": "La Garenne-Colombes",
    "code": "92035",
    "epci_code": "200054781",
    "departement_code": "92",
    "region_code": "11",
    "postal_code": "92250"
  },
  {
    "name": "Gennevilliers",
    "code": "92036",
    "epci_code": "200054781",
    "departement_code": "92",
    "region_code": "11",
    "postal_code": "92230"
  },
  {
    "name": "Issy-les-Moulineaux",
    "code": "92040",
    "epci_code": "200054781",
    "departement_code": "92",
    "region_code": "11",
    "postal_code": "92130"
  },
  {
    "name": "Levallois-Perret",
    "code": "92044",
    "epci_code": "200054781",
    "departement_code": "92",
    "region_code": "11",
    "postal_code": "92300"
  },
  {
    "name": "Malakoff",
    "code": "92046",
    "epci_code": "200054781",
    "departement_code": "92",
    "region_code": "11",
    "postal_code": "92240"
  },
  {
    "name": "Marnes-la-Coquette",
    "code": "92047",
    "epci_code": "200054781",
    "departement_code": "92",
    "region_code": "11",
    "postal_code": "92430"
  },
  {
    "name": "Meudon",
    "code": "92048",
    "epci_code": "200054781",
    "departement_code": "92",
    "region_code": "11",
    "postal_code": "92190"
  },
  {
    "name": "Meudon",
    "code": "92048",
    "epci_code": "200054781",
    "departement_code": "92",
    "region_code": "11",
    "postal_code": "92360"
  },
  {
    "name": "Montrouge",
    "code": "92049",
    "epci_code": "200054781",
    "departement_code": "92",
    "region_code": "11",
    "postal_code": "92120"
  },
  {
    "name": "Nanterre",
    "code": "92050",
    "epci_code": "200054781",
    "departement_code": "92",
    "region_code": "11",
    "postal_code": "92000"
  },
  {
    "name": "Neuilly-sur-Seine",
    "code": "92051",
    "epci_code": "200054781",
    "departement_code": "92",
    "region_code": "11",
    "postal_code": "92200"
  },
  {
    "name": "Le Plessis-Robinson",
    "code": "92060",
    "epci_code": "200054781",
    "departement_code": "92",
    "region_code": "11",
    "postal_code": "92350"
  },
  {
    "name": "Puteaux",
    "code": "92062",
    "epci_code": "200054781",
    "departement_code": "92",
    "region_code": "11",
    "postal_code": "92800"
  },
  {
    "name": "Rueil-Malmaison",
    "code": "92063",
    "epci_code": "200054781",
    "departement_code": "92",
    "region_code": "11",
    "postal_code": "92500"
  },
  {
    "name": "Saint-Cloud",
    "code": "92064",
    "epci_code": "200054781",
    "departement_code": "92",
    "region_code": "11",
    "postal_code": "92210"
  },
  {
    "name": "Sceaux",
    "code": "92071",
    "epci_code": "200054781",
    "departement_code": "92",
    "region_code": "11",
    "postal_code": "92330"
  },
  {
    "name": "Sèvres",
    "code": "92072",
    "epci_code": "200054781",
    "departement_code": "92",
    "region_code": "11",
    "postal_code": "92310"
  },
  {
    "name": "Suresnes",
    "code": "92073",
    "epci_code": "200054781",
    "departement_code": "92",
    "region_code": "11",
    "postal_code": "92150"
  },
  {
    "name": "Vanves",
    "code": "92075",
    "epci_code": "200054781",
    "departement_code": "92",
    "region_code": "11",
    "postal_code": "92170"
  },
  {
    "name": "Vaucresson",
    "code": "92076",
    "epci_code": "200054781",
    "departement_code": "92",
    "region_code": "11",
    "postal_code": "92420"
  },
  {
    "name": "Ville-d’Avray",
    "code": "92077",
    "epci_code": "200054781",
    "departement_code": "92",
    "region_code": "11",
    "postal_code": "92410"
  },
  {
    "name": "Villeneuve-la-Garenne",
    "code": "92078",
    "epci_code": "200054781",
    "departement_code": "92",
    "region_code": "11",
    "postal_code": "92390"
  }
]