[
  {
    "name": "Acoua",
    "code": "97601",
    "epci_code": "200060465",
    "departement_code": "976",
    "region_code": "06",
    "postal_code": "97630"
  },
  {
    "name": "Bandraboua",
    "code": "97602",
    "epci_code": "200060465",
    "departement_code": "976",
    "region_code": "06",
    "postal_code": "97650"
  },
  {
    "name": "Bandrele",
    "code": "97603",
    "epci_code": "200060473",
    "departement_code": "976",
    "region_code": "06",
    "postal_code": "97660"
  },
  {
    "name": "Bouéni",
    "code": "97604",
    "epci_code": "200060473",
    "departement_code": "976",
    "region_code": "06",
    "postal_code": "97620"
  },
  {
    "name": "Chiconi",
    "code": "97605",
    "epci_code": "200059871",
    "departement_code": "976",
    "region_code": "06",
    "postal_code": "97670"
  },
  {
    "name": "Chirongui",
    "code": "97606",
    "epci_code": "200060473",
    "departement_code": "976",
    "region_code": "06",
    "postal_code": "97620"
  },
  {
    "name": "Dembeni",
    "code": "97607",
    "epci_code": "200060457",
    "departement_code": "976",
    "region_code": "06",
    "postal_code": "97660"
  },
  {
    "name": "Dzaoudzi",
    "code": "97608",
    "epci_code": "200050532",
    "departement_code": "976",
    "region_code": "06",
    "postal_code": "97615"
  },
  {
    "name": "Kani-Kéli",
    "code": "97609",
    "epci_code": "200060473",
    "departement_code": "976",
    "region_code": "06",
    "postal_code": "97625"
  },
  {
    "name": "Koungou",
    "code": "97610",
    "epci_code": "200060465",
    "departement_code": "976",
    "region_code": "06",
    "postal_code": "97600"
  },
  {
    "name": "Mamoudzou",
    "code": "97611",
    "epci_code": "200060457",
    "departement_code": "976",
    "region_code": "06",
    "postal_code": "97600"
  },
  {
    "name": "Mamoudzou",
    "code": "97611",
    "epci_code": "200060457",
    "departement_code": "976",
    "region_code": "06",
    "postal_code": "97605"
  },
  {
    "name": "Mtsamboro",
    "code": "97612",
    "epci_code": "200060465",
    "departement_code": "976",
    "region_code": "06",
    "postal_code": "97630"
  },
  {
    "name": "M’Tsangamouji",
    "code": "97613",
    "epci_code": "200059871",
    "departement_code": "976",
    "region_code": "06",
    "postal_code": "97650"
  },
  {
    "name": "Ouangani",
    "code": "97614",
    "epci_code": "200059871",
    "departement_code": "976",
    "region_code": "06",
    "postal_code": "97670"
  },
  {
    "name": "Pamandzi",
    "code": "97615",
    "epci_code": "200050532",
    "departement_code": "976",
    "region_code": "06",
    "postal_code": "97615"
  },
  {
    "name": "Sada",
    "code": "97616",
    "epci_code": "200059871",
    "departement_code": "976",
    "region_code": "06",
    "postal_code": "97640"
  },
  {
    "name": "Tsingoni",
    "code": "97617",
    "epci_code": "200059871",
    "departement_code": "976",
    "region_code": "06",
    "postal_code": "97680"
  }
]