[
  {
    "name": "Les Adrets-de-l’Estérel",
    "code": "83001",
    "epci_code": "200035319",
    "departement_code": "83",
    "region_code": "93",
    "postal_code": "83600"
  },
  {
    "name": "Aiguines",
    "code": "83002",
    "epci_code": "200040210",
    "departement_code": "83",
    "region_code": "93",
    "postal_code": "83630"
  },
  {
    "name": "Ampus",
    "code": "83003",
    "epci_code": "248300493",
    "departement_code": "83",
    "region_code": "93",
    "postal_code": "83111"
  },
  {
    "name": "Les Arcs",
    "code": "83004",
    "epci_code": "248300493",
    "departement_code": "83",
    "region_code": "93",
    "postal_code": "83460"
  },
  {
    "name": "Artignosc-sur-Verdon",
    "code": "83005",
    "epci_code": "200040210",
    "departement_code": "83",
    "region_code": "93",
    "postal_code": "83630"
  },
  {
    "name": "Artigues",
    "code": "83006",
    "epci_code": "200040202",
    "departement_code": "83",
    "region_code": "93",
    "postal_code": "83560"
  },
  {
    "name": "Aups",
    "code": "83007",
    "epci_code": "200040210",
    "departement_code": "83",
    "region_code": "93",
    "postal_code": "83630"
  },
  {
    "name": "Bagnols-en-Forêt",
    "code": "83008",
    "epci_code": "200004802",
    "departement_code": "83",
    "region_code": "93",
    "postal_code": "83600"
  },
  {
    "name": "Bandol",
    "code": "83009",
    "epci_code": "248300394",
    "departement_code": "83",
    "region_code": "93",
    "postal_code": "83150"
  },
  {
    "name": "Bargème",
    "code": "83010",
    "epci_code": "248300493",
    "departement_code": "83",
    "region_code": "93",
    "postal_code": "83840"
  },
  {
    "name": "Bargemon",
    "code": "83011",
    "epci_code": "248300493",
    "departement_code": "83",
    "region_code": "93",
    "postal_code": "83830"
  },
  {
    "name": "Barjols",
    "code": "83012",
    "epci_code": "200040202",
    "departement_code": "83",
    "region_code": "93",
    "postal_code": "83670"
  },
  {
    "name": "La Bastide",
    "code": "83013",
    "epci_code": "248300493",
    "departement_code": "83",
    "region_code": "93",
    "postal_code": "83840"
  },
  {
    "name": "Baudinard-sur-Verdon",
    "code": "83014",
    "epci_code": "200040210",
    "departement_code": "83",
    "region_code": "93",
    "postal_code": "83630"
  },
  {
    "name": "Bauduen",
    "code": "83015",
    "epci_code": "200040210",
    "departement_code": "83",
    "region_code": "93",
    "postal_code": "83630"
  },
  {
    "name": "Le Beausset",
    "code": "83016",
    "epci_code": "248300394",
    "departement_code": "83",
    "region_code": "93",
    "postal_code": "83330"
  },
  {
    "name": "Belgentier",
    "code": "83017",
    "epci_code": "248300410",
    "departement_code": "83",
    "region_code": "93",
    "postal_code": "83210"
  },
  {
    "name": "Besse-sur-Issole",
    "code": "83018",
    "epci_code": "248300550",
    "departement_code": "83",
    "region_code": "93",
    "postal_code": "83890"
  },
  {
    "name": "Bormes-les-Mimosas",
    "code": "83019",
    "epci_code": "200027100",
    "departement_code": "83",
    "region_code": "93",
    "postal_code": "83230"
  },
  {
    "name": "Le Bourguet",
    "code": "83020",
    "epci_code": "200040210",
    "departement_code": "83",
    "region_code": "93",
    "postal_code": "83840"
  },
  {
    "name": "Bras",
    "code": "83021",
    "epci_code": "200068104",
    "departement_code": "83",
    "region_code": "93",
    "postal_code": "83149"
  },
  {
    "name": "Brenon",
    "code": "83022",
    "epci_code": "200040210",
    "departement_code": "83",
    "region_code": "93",
    "postal_code": "83840"
  },
  {
    "name": "Brignoles",
    "code": "83023",
    "epci_code": "200068104",
    "departement_code": "83",
    "region_code": "93",
    "postal_code": "83170"
  },
  {
    "name": "Brue-Auriac",
    "code": "83025",
    "epci_code": "200040202",
    "departement_code": "83",
    "region_code": "93",
    "postal_code": "83119"
  },
  {
    "name": "Cabasse",
    "code": "83026",
    "epci_code": "248300550",
    "departement_code": "83",
    "region_code": "93",
    "postal_code": "83340"
  },
  {
    "name": "La Cadière-d’Azur",
    "code": "83027",
    "epci_code": "248300394",
    "departement_code": "83",
    "region_code": "93",
    "postal_code": "83740"
  },
  {
    "name": "Callas",
    "code": "83028",
    "epci_code": "248300493",
    "departement_code": "83",
    "region_code": "93",
    "postal_code": "83830"
  },
  {
    "name": "Callian",
    "code": "83029",
    "epci_code": "200004802",
    "departement_code": "83",
    "region_code": "93",
    "postal_code": "83440"
  },
  {
    "name": "Camps-la-Source",
    "code": "83030",
    "epci_code": "200068104",
    "departement_code": "83",
    "region_code": "93",
    "postal_code": "83170"
  },
  {
    "name": "Le Cannet-des-Maures",
    "code": "83031",
    "epci_code": "248300550",
    "departement_code": "83",
    "region_code": "93",
    "postal_code": "83340"
  },
  {
    "name": "Carcès",
    "code": "83032",
    "epci_code": "200068104",
    "departement_code": "83",
    "region_code": "93",
    "postal_code": "83570"
  },
  {
    "name": "Carnoules",
    "code": "83033",
    "epci_code": "248300550",
    "departement_code": "83",
    "region_code": "93",
    "postal_code": "83660"
  },
  {
    "name": "Carqueiranne",
    "code": "83034",
    "epci_code": "248300543",
    "departement_code": "83",
    "region_code": "93",
    "postal_code": "83320"
  },
  {
    "name": "Le Castellet",
    "code": "83035",
    "epci_code": "248300394",
    "departement_code": "83",
    "region_code": "93",
    "postal_code": "83330"
  },
  {
    "name": "Cavalaire-sur-Mer",
    "code": "83036",
    "epci_code": "200036077",
    "departement_code": "83",
    "region_code": "93",
    "postal_code": "83240"
  },
  {
    "name": "La Celle",
    "code": "83037",
    "epci_code": "200068104",
    "departement_code": "83",
    "region_code": "93",
    "postal_code": "83170"
  },
  {
    "name": "Châteaudouble",
    "code": "83038",
    "epci_code": "248300493",
    "departement_code": "83",
    "region_code": "93",
    "postal_code": "83300"
  },
  {
    "name": "Châteauvert",
    "code": "83039",
    "epci_code": "200068104",
    "departement_code": "83",
    "region_code": "93",
    "postal_code": "83670"
  },
  {
    "name": "Châteauvieux",
    "code": "83040",
    "epci_code": "200040210",
    "departement_code": "83",
    "region_code": "93",
    "postal_code": "83840"
  },
  {
    "name": "Claviers",
    "code": "83041",
    "epci_code": "248300493",
    "departement_code": "83",
    "region_code": "93",
    "postal_code": "83830"
  },
  {
    "name": "Cogolin",
    "code": "83042",
    "epci_code": "200036077",
    "departement_code": "83",
    "region_code": "93",
    "postal_code": "83310"
  },
  {
    "name": "Collobrières",
    "code": "83043",
    "epci_code": "200027100",
    "departement_code": "83",
    "region_code": "93",
    "postal_code": "83610"
  },
  {
    "name": "Comps-sur-Artuby",
    "code": "83044",
    "epci_code": "248300493",
    "departement_code": "83",
    "region_code": "93",
    "postal_code": "83840"
  },
  {
    "name": "Correns",
    "code": "83045",
    "epci_code": "200068104",
    "departement_code": "83",
    "region_code": "93",
    "postal_code": "83570"
  },
  {
    "name": "Cotignac",
    "code": "83046",
    "epci_code": "200068104",
    "departement_code": "83",
    "region_code": "93",
    "postal_code": "83570"
  },
  {
    "name": "La Crau",
    "code": "83047",
    "epci_code": "248300543",
    "departement_code": "83",
    "region_code": "93",
    "postal_code": "83260"
  },
  {
    "name": "La Croix-Valmer",
    "code": "83048",
    "epci_code": "200036077",
    "departement_code": "83",
    "region_code": "93",
    "postal_code": "83420"
  },
  {
    "name": "Cuers",
    "code": "83049",
    "epci_code": "200027100",
    "departement_code": "83",
    "region_code": "93",
    "postal_code": "83390"
  },
  {
    "name": "Draguignan",
    "code": "83050",
    "epci_code": "248300493",
    "departement_code": "83",
    "region_code": "93",
    "postal_code": "83300"
  },
  {
    "name": "Entrecasteaux",
    "code": "83051",
    "epci_code": "200068104",
    "departement_code": "83",
    "region_code": "93",
    "postal_code": "83570"
  },
  {
    "name": "Esparron",
    "code": "83052",
    "epci_code": "200040202",
    "departement_code": "83",
    "region_code": "93",
    "postal_code": "83560"
  },
  {
    "name": "Évenos",
    "code": "83053",
    "epci_code": "248300394",
    "departement_code": "83",
    "region_code": "93",
    "postal_code": "83330"
  },
  {
    "name": "La Farlède",
    "code": "83054",
    "epci_code": "248300410",
    "departement_code": "83",
    "region_code": "93",
    "postal_code": "83210"
  },
  {
    "name": "Fayence",
    "code": "83055",
    "epci_code": "200004802",
    "departement_code": "83",
    "region_code": "93",
    "postal_code": "83440"
  },
  {
    "name": "Figanières",
    "code": "83056",
    "epci_code": "248300493",
    "departement_code": "83",
    "region_code": "93",
    "postal_code": "83830"
  },
  {
    "name": "Flassans-sur-Issole",
    "code": "83057",
    "epci_code": "248300550",
    "departement_code": "83",
    "region_code": "93",
    "postal_code": "83340"
  },
  {
    "name": "Flayosc",
    "code": "83058",
    "epci_code": "248300493",
    "departement_code": "83",
    "region_code": "93",
    "postal_code": "83780"
  },
  {
    "name": "Forcalqueiret",
    "code": "83059",
    "epci_code": "200068104",
    "departement_code": "83",
    "region_code": "93",
    "postal_code": "83136"
  },
  {
    "name": "Fox-Amphoux",
    "code": "83060",
    "epci_code": "200040202",
    "departement_code": "83",
    "region_code": "93",
    "postal_code": "83670"
  },
  {
    "name": "Fréjus",
    "code": "83061",
    "epci_code": "200035319",
    "departement_code": "83",
    "region_code": "93",
    "postal_code": "83370"
  },
  {
    "name": "Fréjus",
    "code": "83061",
    "epci_code": "200035319",
    "departement_code": "83",
    "region_code": "93",
    "postal_code": "83600"
  },
  {
    "name": "La Garde",
    "code": "83062",
    "epci_code": "248300543",
    "departement_code": "83",
    "region_code": "93",
    "postal_code": "83130"
  },
  {
    "name": "La Garde-Freinet",
    "code": "83063",
    "epci_code": "200036077",
    "departement_code": "83",
    "region_code": "93",
    "postal_code": "83680"
  },
  {
    "name": "Garéoult",
    "code": "83064",
    "epci_code": "200068104",
    "departement_code": "83",
    "region_code": "93",
    "postal_code": "83136"
  },
  {
    "name": "Gassin",
    "code": "83065",
    "epci_code": "200036077",
    "departement_code": "83",
    "region_code": "93",
    "postal_code": "83580"
  },
  {
    "name": "Ginasservis",
    "code": "83066",
    "epci_code": "200040202",
    "departement_code": "83",
    "region_code": "93",
    "postal_code": "83560"
  },
  {
    "name": "Gonfaron",
    "code": "83067",
    "epci_code": "248300550",
    "departement_code": "83",
    "region_code": "93",
    "postal_code": "83590"
  },
  {
    "name": "Grimaud",
    "code": "83068",
    "epci_code": "200036077",
    "departement_code": "83",
    "region_code": "93",
    "postal_code": "83310"
  },
  {
    "name": "Hyères",
    "code": "83069",
    "epci_code": "248300543",
    "departement_code": "83",
    "region_code": "93",
    "postal_code": "83400"
  },
  {
    "name": "Le Lavandou",
    "code": "83070",
    "epci_code": "200027100",
    "departement_code": "83",
    "region_code": "93",
    "postal_code": "83980"
  },
  {
    "name": "La Londe-les-Maures",
    "code": "83071",
    "epci_code": "200027100",
    "departement_code": "83",
    "region_code": "93",
    "postal_code": "83250"
  },
  {
    "name": "Lorgues",
    "code": "83072",
    "epci_code": "248300493",
    "departement_code": "83",
    "region_code": "93",
    "postal_code": "83510"
  },
  {
    "name": "Le Luc",
    "code": "83073",
    "epci_code": "248300550",
    "departement_code": "83",
    "region_code": "93",
    "postal_code": "83340"
  },
  {
    "name": "La Martre",
    "code": "83074",
    "epci_code": "200040210",
    "departement_code": "83",
    "region_code": "93",
    "postal_code": "83840"
  },
  {
    "name": "Les Mayons",
    "code": "83075",
    "epci_code": "248300550",
    "departement_code": "83",
    "region_code": "93",
    "postal_code": "83340"
  },
  {
    "name": "Mazaugues",
    "code": "83076",
    "epci_code": "200068104",
    "departement_code": "83",
    "region_code": "93",
    "postal_code": "83136"
  },
  {
    "name": "Méounes-lès-Montrieux",
    "code": "83077",
    "epci_code": "200068104",
    "departement_code": "83",
    "region_code": "93",
    "postal_code": "83136"
  },
  {
    "name": "Moissac-Bellevue",
    "code": "83078",
    "epci_code": "200040210",
    "departement_code": "83",
    "region_code": "93",
    "postal_code": "83630"
  },
  {
    "name": "La Môle",
    "code": "83079",
    "epci_code": "200036077",
    "departement_code": "83",
    "region_code": "93",
    "postal_code": "83310"
  },
  {
    "name": "Mons",
    "code": "83080",
    "epci_code": "200004802",
    "departement_code": "83",
    "region_code": "93",
    "postal_code": "83440"
  },
  {
    "name": "Montauroux",
    "code": "83081",
    "epci_code": "200004802",
    "departement_code": "83",
    "region_code": "93",
    "postal_code": "83440"
  },
  {
    "name": "Montferrat",
    "code": "83082",
    "epci_code": "248300493",
    "departement_code": "83",
    "region_code": "93",
    "postal_code": "83131"
  },
  {
    "name": "Montfort-sur-Argens",
    "code": "83083",
    "epci_code": "200068104",
    "departement_code": "83",
    "region_code": "93",
    "postal_code": "83570"
  },
  {
    "name": "Montmeyan",
    "code": "83084",
    "epci_code": "200040202",
    "departement_code": "83",
    "region_code": "93",
    "postal_code": "83670"
  },
  {
    "name": "La Motte",
    "code": "83085",
    "epci_code": "248300493",
    "departement_code": "83",
    "region_code": "93",
    "postal_code": "83920"
  },
  {
    "name": "Le Muy",
    "code": "83086",
    "epci_code": "248300493",
    "departement_code": "83",
    "region_code": "93",
    "postal_code": "83490"
  },
  {
    "name": "Nans-les-Pins",
    "code": "83087",
    "epci_code": "200068104",
    "departement_code": "83",
    "region_code": "93",
    "postal_code": "83860"
  },
  {
    "name": "Néoules",
    "code": "83088",
    "epci_code": "200068104",
    "departement_code": "83",
    "region_code": "93",
    "postal_code": "83136"
  },
  {
    "name": "Ollières",
    "code": "83089",
    "epci_code": "200068104",
    "departement_code": "83",
    "region_code": "93",
    "postal_code": "83470"
  },
  {
    "name": "Ollioules",
    "code": "83090",
    "epci_code": "248300543",
    "departement_code": "83",
    "region_code": "93",
    "postal_code": "83190"
  },
  {
    "name": "Pierrefeu-du-Var",
    "code": "83091",
    "epci_code": "200027100",
    "departement_code": "83",
    "region_code": "93",
    "postal_code": "83390"
  },
  {
    "name": "Pignans",
    "code": "83092",
    "epci_code": "248300550",
    "departement_code": "83",
    "region_code": "93",
    "postal_code": "83790"
  },
  {
    "name": "Plan-d’Aups-Sainte-Baume",
    "code": "83093",
    "epci_code": "200068104",
    "departement_code": "83",
    "region_code": "93",
    "postal_code": "83640"
  },
  {
    "name": "Le Plan-de-la-Tour",
    "code": "83094",
    "epci_code": "200036077",
    "departement_code": "83",
    "region_code": "93",
    "postal_code": "83120"
  },
  {
    "name": "Pontevès",
    "code": "83095",
    "epci_code": "200040202",
    "departement_code": "83",
    "region_code": "93",
    "postal_code": "83670"
  },
  {
    "name": "Pourcieux",
    "code": "83096",
    "epci_code": "200068104",
    "departement_code": "83",
    "region_code": "93",
    "postal_code": "83470"
  },
  {
    "name": "Pourrières",
    "code": "83097",
    "epci_code": "200068104",
    "departement_code": "83",
    "region_code": "93",
    "postal_code": "83910"
  },
  {
    "name": "Le Pradet",
    "code": "83098",
    "epci_code": "248300543",
    "departement_code": "83",
    "region_code": "93",
    "postal_code": "83220"
  },
  {
    "name": "Puget-sur-Argens",
    "code": "83099",
    "epci_code": "200035319",
    "departement_code": "83",
    "region_code": "93",
    "postal_code": "83480"
  },
  {
    "name": "Puget-Ville",
    "code": "83100",
    "epci_code": "248300550",
    "departement_code": "83",
    "region_code": "93",
    "postal_code": "83390"
  },
  {
    "name": "Ramatuelle",
    "code": "83101",
    "epci_code": "200036077",
    "departement_code": "83",
    "region_code": "93",
    "postal_code": "83350"
  },
  {
    "name": "Régusse",
    "code": "83102",
    "epci_code": "200040210",
    "departement_code": "83",
    "region_code": "93",
    "postal_code": "83630"
  },
  {
    "name": "Le Revest-les-Eaux",
    "code": "83103",
    "epci_code": "248300543",
    "departement_code": "83",
    "region_code": "93",
    "postal_code": "83200"
  },
  {
    "name": "Rians",
    "code": "83104",
    "epci_code": "200040202",
    "departement_code": "83",
    "region_code": "93",
    "postal_code": "83560"
  },
  {
    "name": "Riboux",
    "code": "83105",
    "epci_code": "248300394",
    "departement_code": "83",
    "region_code": "93",
    "postal_code": "13780"
  },
  {
    "name": "Rocbaron",
    "code": "83106",
    "epci_code": "200068104",
    "departement_code": "83",
    "region_code": "93",
    "postal_code": "83136"
  },
  {
    "name": "Roquebrune-sur-Argens",
    "code": "83107",
    "epci_code": "200035319",
    "departement_code": "83",
    "region_code": "93",
    "postal_code": "83380"
  },
  {
    "name": "Roquebrune-sur-Argens",
    "code": "83107",
    "epci_code": "200035319",
    "departement_code": "83",
    "region_code": "93",
    "postal_code": "83520"
  },
  {
    "name": "La Roquebrussanne",
    "code": "83108",
    "epci_code": "200068104",
    "departement_code": "83",
    "region_code": "93",
    "postal_code": "83136"
  },
  {
    "name": "La Roque-Esclapon",
    "code": "83109",
    "epci_code": "248300493",
    "departement_code": "83",
    "region_code": "93",
    "postal_code": "83840"
  },
  {
    "name": "Rougiers",
    "code": "83110",
    "epci_code": "200068104",
    "departement_code": "83",
    "region_code": "93",
    "postal_code": "83170"
  },
  {
    "name": "Sainte-Anastasie-sur-Issole",
    "code": "83111",
    "epci_code": "200068104",
    "departement_code": "83",
    "region_code": "93",
    "postal_code": "83136"
  },
  {
    "name": "Saint-Cyr-sur-Mer",
    "code": "83112",
    "epci_code": "248300394",
    "departement_code": "83",
    "region_code": "93",
    "postal_code": "83270"
  },
  {
    "name": "Saint-Julien",
    "code": "83113",
    "epci_code": "200040202",
    "departement_code": "83",
    "region_code": "93",
    "postal_code": "83560"
  },
  {
    "name": "Saint-Martin-de-Pallières",
    "code": "83114",
    "epci_code": "200040202",
    "departement_code": "83",
    "region_code": "93",
    "postal_code": "83560"
  },
  {
    "name": "Sainte-Maxime",
    "code": "83115",
    "epci_code": "200036077",
    "departement_code": "83",
    "region_code": "93",
    "postal_code": "83120"
  },
  {
    "name": "Saint-Maximin-la-Sainte-Baume",
    "code": "83116",
    "epci_code": "200068104",
    "departement_code": "83",
    "region_code": "93",
    "postal_code": "83470"
  },
  {
    "name": "Saint-Paul-en-Forêt",
    "code": "83117",
    "epci_code": "200004802",
    "departement_code": "83",
    "region_code": "93",
    "postal_code": "83440"
  },
  {
    "name": "Saint-Raphaël",
    "code": "83118",
    "epci_code": "200035319",
    "departement_code": "83",
    "region_code": "93",
    "postal_code": "83530"
  },
  {
    "name": "Saint-Raphaël",
    "code": "83118",
    "epci_code": "200035319",
    "departement_code": "83",
    "region_code": "93",
    "postal_code": "83700"
  },
  {
    "name": "Saint-Tropez",
    "code": "83119",
    "epci_code": "200036077",
    "departement_code": "83",
    "region_code": "93",
    "postal_code": "83990"
  },
  {
    "name": "Saint-Zacharie",
    "code": "83120",
    "epci_code": "200054807",
    "departement_code": "83",
    "region_code": "93",
    "postal_code": "83640"
  },
  {
    "name": "Salernes",
    "code": "83121",
    "epci_code": "248300493",
    "departement_code": "83",
    "region_code": "93",
    "postal_code": "83690"
  },
  {
    "name": "Les Salles-sur-Verdon",
    "code": "83122",
    "epci_code": "200040210",
    "departement_code": "83",
    "region_code": "93",
    "postal_code": "83630"
  },
  {
    "name": "Sanary-sur-Mer",
    "code": "83123",
    "epci_code": "248300394",
    "departement_code": "83",
    "region_code": "93",
    "postal_code": "83110"
  },
  {
    "name": "Seillans",
    "code": "83124",
    "epci_code": "200004802",
    "departement_code": "83",
    "region_code": "93",
    "postal_code": "83440"
  },
  {
    "name": "Seillons-Source-d’Argens",
    "code": "83125",
    "epci_code": "200040202",
    "departement_code": "83",
    "region_code": "93",
    "postal_code": "83470"
  },
  {
    "name": "La Seyne-sur-Mer",
    "code": "83126",
    "epci_code": "248300543",
    "departement_code": "83",
    "region_code": "93",
    "postal_code": "83500"
  },
  {
    "name": "Signes",
    "code": "83127",
    "epci_code": "248300394",
    "departement_code": "83",
    "region_code": "93",
    "postal_code": "83870"
  },
  {
    "name": "Sillans-la-Cascade",
    "code": "83128",
    "epci_code": "248300493",
    "departement_code": "83",
    "region_code": "93",
    "postal_code": "83690"
  },
  {
    "name": "Six-Fours-les-Plages",
    "code": "83129",
    "epci_code": "248300543",
    "departement_code": "83",
    "region_code": "93",
    "postal_code": "83140"
  },
  {
    "name": "Solliès-Pont",
    "code": "83130",
    "epci_code": "248300410",
    "departement_code": "83",
    "region_code": "93",
    "postal_code": "83210"
  },
  {
    "name": "Solliès-Toucas",
    "code": "83131",
    "epci_code": "248300410",
    "departement_code": "83",
    "region_code": "93",
    "postal_code": "83210"
  },
  {
    "name": "Solliès-Ville",
    "code": "83132",
    "epci_code": "248300410",
    "departement_code": "83",
    "region_code": "93",
    "postal_code": "83210"
  },
  {
    "name": "Tanneron",
    "code": "83133",
    "epci_code": "200004802",
    "departement_code": "83",
    "region_code": "93",
    "postal_code": "83440"
  },
  {
    "name": "Taradeau",
    "code": "83134",
    "epci_code": "248300493",
    "departement_code": "83",
    "region_code": "93",
    "postal_code": "83460"
  },
  {
    "name": "Tavernes",
    "code": "83135",
    "epci_code": "200040202",
    "departement_code": "83",
    "region_code": "93",
    "postal_code": "83670"
  },
  {
    "name": "Le Thoronet",
    "code": "83136",
    "epci_code": "248300550",
    "departement_code": "83",
    "region_code": "93",
    "postal_code": "83340"
  },
  {
    "name": "Toulon",
    "code": "83137",
    "epci_code": "248300543",
    "departement_code": "83",
    "region_code": "93",
    "postal_code": "83000"
  },
  {
    "name": "Toulon",
    "code": "83137",
    "epci_code": "248300543",
    "departement_code": "83",
    "region_code": "93",
    "postal_code": "83100"
  },
  {
    "name": "Toulon",
    "code": "83137",
    "epci_code": "248300543",
    "departement_code": "83",
    "region_code": "93",
    "postal_code": "83200"
  },
  {
    "name": "Tourrettes",
    "code": "83138",
    "epci_code": "200004802",
    "departement_code": "83",
    "region_code": "93",
    "postal_code": "83440"
  },
  {
    "name": "Tourtour",
    "code": "83139",
    "epci_code": "200040210",
    "departement_code": "83",
    "region_code": "93",
    "postal_code": "83690"
  },
  {
    "name": "Tourves",
    "code": "83140",
    "epci_code": "200068104",
    "departement_code": "83",
    "region_code": "93",
    "postal_code": "83170"
  },
  {
    "name": "Trans-en-Provence",
    "code": "83141",
    "epci_code": "248300493",
    "departement_code": "83",
    "region_code": "93",
    "postal_code": "83720"
  },
  {
    "name": "Trigance",
    "code": "83142",
    "epci_code": "200040210",
    "departement_code": "83",
    "region_code": "93",
    "postal_code": "83840"
  },
  {
    "name": "Le Val",
    "code": "83143",
    "epci_code": "200068104",
    "departement_code": "83",
    "region_code": "93",
    "postal_code": "83143"
  },
  {
    "name": "La Valette-du-Var",
    "code": "83144",
    "epci_code": "248300543",
    "departement_code": "83",
    "region_code": "93",
    "postal_code": "83160"
  },
  {
    "name": "Varages",
    "code": "83145",
    "epci_code": "200040202",
    "departement_code": "83",
    "region_code": "93",
    "postal_code": "83670"
  },
  {
    "name": "La Verdière",
    "code": "83146",
    "epci_code": "200040202",
    "departement_code": "83",
    "region_code": "93",
    "postal_code": "83560"
  },
  {
    "name": "Vérignon",
    "code": "83147",
    "epci_code": "200040210",
    "departement_code": "83",
    "region_code": "93",
    "postal_code": "83630"
  },
  {
    "name": "Vidauban",
    "code": "83148",
    "epci_code": "248300493",
    "departement_code": "83",
    "region_code": "93",
    "postal_code": "83550"
  },
  {
    "name": "Villecroze",
    "code": "83149",
    "epci_code": "200040210",
    "departement_code": "83",
    "region_code": "93",
    "postal_code": "83690"
  },
  {
    "name": "Vinon-sur-Verdon",
    "code": "83150",
    "epci_code": "200034700",
    "departement_code": "83",
    "region_code": "93",
    "postal_code": "83560"
  },
  {
    "name": "Vins-sur-Caramy",
    "code": "83151",
    "epci_code": "200068104",
    "departement_code": "83",
    "region_code": "93",
    "postal_code": "83170"
  },
  {
    "name": "Rayol-Canadel-sur-Mer",
    "code": "83152",
    "epci_code": "200036077",
    "departement_code": "83",
    "region_code": "93",
    "postal_code": "83820"
  },
  {
    "name": "Saint-Mandrier-sur-Mer",
    "code": "83153",
    "epci_code": "248300543",
    "departement_code": "83",
    "region_code": "93",
    "postal_code": "83430"
  },
  {
    "name": "Saint-Antonin-du-Var",
    "code": "83154",
    "epci_code": "248300493",
    "departement_code": "83",
    "region_code": "93",
    "postal_code": "83510"
  }
]