[
  {
    "name": "Aclou",
    "code": "27001",
    "epci_code": "200066413",
    "departement_code": "27",
    "region_code": "28",
    "postal_code": "27800"
  },
  {
    "name": "Acon",
    "code": "27002",
    "epci_code": "200071454",
    "departement_code": "27",
    "region_code": "28",
    "postal_code": "27570"
  },
  {
    "name": "Acquigny",
    "code": "27003",
    "epci_code": "200089456",
    "departement_code": "27",
    "region_code": "28",
    "postal_code": "27400"
  },
  {
    "name": "Aigleville",
    "code": "27004",
    "epci_code": "200072312",
    "departement_code": "27",
    "region_code": "28",
    "postal_code": "27120"
  },
  {
    "name": "Ailly",
    "code": "27005",
    "epci_code": "200089456",
    "departement_code": "27",
    "region_code": "28",
    "postal_code": "27600"
  },
  {
    "name": "Aizier",
    "code": "27006",
    "epci_code": "200066405",
    "departement_code": "27",
    "region_code": "28",
    "postal_code": "27500"
  },
  {
    "name": "Alizay",
    "code": "27008",
    "epci_code": "200089456",
    "departement_code": "27",
    "region_code": "28",
    "postal_code": "27460"
  },
  {
    "name": "Ambenay",
    "code": "27009",
    "epci_code": "200066462",
    "departement_code": "27",
    "region_code": "28",
    "postal_code": "27250"
  },
  {
    "name": "Amécourt",
    "code": "27010",
    "epci_code": "200071843",
    "departement_code": "27",
    "region_code": "28",
    "postal_code": "27140"
  },
  {
    "name": "Amfreville-Saint-Amand",
    "code": "27011",
    "epci_code": "200066405",
    "departement_code": "27",
    "region_code": "28",
    "postal_code": "27370"
  },
  {
    "name": "Amfreville-les-Champs",
    "code": "27012",
    "epci_code": "200070142",
    "departement_code": "27",
    "region_code": "28",
    "postal_code": "27380"
  },
  {
    "name": "Amfreville-sous-les-Monts",
    "code": "27013",
    "epci_code": "200089456",
    "departement_code": "27",
    "region_code": "28",
    "postal_code": "27380"
  },
  {
    "name": "Amfreville-sur-Iton",
    "code": "27014",
    "epci_code": "200089456",
    "departement_code": "27",
    "region_code": "28",
    "postal_code": "27400"
  },
  {
    "name": "Andé",
    "code": "27015",
    "epci_code": "200089456",
    "departement_code": "27",
    "region_code": "28",
    "postal_code": "27430"
  },
  {
    "name": "Les Andelys",
    "code": "27016",
    "epci_code": "200072312",
    "departement_code": "27",
    "region_code": "28",
    "postal_code": "27700"
  },
  {
    "name": "Angerville-la-Campagne",
    "code": "27017",
    "epci_code": "200071454",
    "departement_code": "27",
    "region_code": "28",
    "postal_code": "27930"
  },
  {
    "name": "Appeville-Annebault",
    "code": "27018",
    "epci_code": "200065787",
    "departement_code": "27",
    "region_code": "28",
    "postal_code": "27290"
  },
  {
    "name": "Armentières-sur-Avre",
    "code": "27019",
    "epci_code": "200066462",
    "departement_code": "27",
    "region_code": "28",
    "postal_code": "27820"
  },
  {
    "name": "Arnières-sur-Iton",
    "code": "27020",
    "epci_code": "200071454",
    "departement_code": "27",
    "region_code": "28",
    "postal_code": "27180"
  },
  {
    "name": "Asnières",
    "code": "27021",
    "epci_code": "200066017",
    "departement_code": "27",
    "region_code": "28",
    "postal_code": "27260"
  },
  {
    "name": "Le Val d’Hazey",
    "code": "27022",
    "epci_code": "200089456",
    "departement_code": "27",
    "region_code": "28",
    "postal_code": "27600"
  },
  {
    "name": "Le Val d’Hazey",
    "code": "27022",
    "epci_code": "200089456",
    "departement_code": "27",
    "region_code": "28",
    "postal_code": "27940"
  },
  {
    "name": "Aulnay-sur-Iton",
    "code": "27023",
    "epci_code": "242700276",
    "departement_code": "27",
    "region_code": "28",
    "postal_code": "27180"
  },
  {
    "name": "Autheuil-Authouillet",
    "code": "27025",
    "epci_code": "200089456",
    "departement_code": "27",
    "region_code": "28",
    "postal_code": "27490"
  },
  {
    "name": "Authevernes",
    "code": "27026",
    "epci_code": "200071843",
    "departement_code": "27",
    "region_code": "28",
    "postal_code": "27420"
  },
  {
    "name": "Les Authieux",
    "code": "27027",
    "epci_code": "200071454",
    "departement_code": "27",
    "region_code": "28",
    "postal_code": "27220"
  },
  {
    "name": "Authou",
    "code": "27028",
    "epci_code": "200065787",
    "departement_code": "27",
    "region_code": "28",
    "postal_code": "27290"
  },
  {
    "name": "Aviron",
    "code": "27031",
    "epci_code": "200071454",
    "departement_code": "27",
    "region_code": "28",
    "postal_code": "27930"
  },
  {
    "name": "Chambois",
    "code": "27032",
    "epci_code": "200066462",
    "departement_code": "27",
    "region_code": "28",
    "postal_code": "27240"
  },
  {
    "name": "Bacquepuis",
    "code": "27033",
    "epci_code": "242700607",
    "departement_code": "27",
    "region_code": "28",
    "postal_code": "27930"
  },
  {
    "name": "Bacqueville",
    "code": "27034",
    "epci_code": "200070142",
    "departement_code": "27",
    "region_code": "28",
    "postal_code": "27440"
  },
  {
    "name": "Bailleul-la-Vallée",
    "code": "27035",
    "epci_code": "200066017",
    "departement_code": "27",
    "region_code": "28",
    "postal_code": "27260"
  },
  {
    "name": "Bâlines",
    "code": "27036",
    "epci_code": "200066462",
    "departement_code": "27",
    "region_code": "28",
    "postal_code": "27130"
  },
  {
    "name": "Barc",
    "code": "27037",
    "epci_code": "200066413",
    "departement_code": "27",
    "region_code": "28",
    "postal_code": "27170"
  },
  {
    "name": "Les Barils",
    "code": "27038",
    "epci_code": "200066462",
    "departement_code": "27",
    "region_code": "28",
    "postal_code": "27130"
  },
  {
    "name": "Barneville-sur-Seine",
    "code": "27039",
    "epci_code": "200066405",
    "departement_code": "27",
    "region_code": "28",
    "postal_code": "27310"
  },
  {
    "name": "Barquet",
    "code": "27040",
    "epci_code": "200066413",
    "departement_code": "27",
    "region_code": "28",
    "postal_code": "27170"
  },
  {
    "name": "Barville",
    "code": "27042",
    "epci_code": "200066017",
    "departement_code": "27",
    "region_code": "28",
    "postal_code": "27230"
  },
  {
    "name": "Les Baux-de-Breteuil",
    "code": "27043",
    "epci_code": "200066462",
    "departement_code": "27",
    "region_code": "28",
    "postal_code": "27160"
  },
  {
    "name": "Les Baux-Sainte-Croix",
    "code": "27044",
    "epci_code": "200071454",
    "departement_code": "27",
    "region_code": "28",
    "postal_code": "27180"
  },
  {
    "name": "Bazincourt-sur-Epte",
    "code": "27045",
    "epci_code": "200071843",
    "departement_code": "27",
    "region_code": "28",
    "postal_code": "27140"
  },
  {
    "name": "Bazoques",
    "code": "27046",
    "epci_code": "200066017",
    "departement_code": "27",
    "region_code": "28",
    "postal_code": "27230"
  },
  {
    "name": "Beaubray",
    "code": "27047",
    "epci_code": "242700276",
    "departement_code": "27",
    "region_code": "28",
    "postal_code": "27190"
  },
  {
    "name": "Beauficel-en-Lyons",
    "code": "27048",
    "epci_code": "200070142",
    "departement_code": "27",
    "region_code": "28",
    "postal_code": "27480"
  },
  {
    "name": "Mesnil-en-Ouche",
    "code": "27049",
    "epci_code": "200066413",
    "departement_code": "27",
    "region_code": "28",
    "postal_code": "27270"
  },
  {
    "name": "Mesnil-en-Ouche",
    "code": "27049",
    "epci_code": "200066413",
    "departement_code": "27",
    "region_code": "28",
    "postal_code": "27330"
  },
  {
    "name": "Mesnil-en-Ouche",
    "code": "27049",
    "epci_code": "200066413",
    "departement_code": "27",
    "region_code": "28",
    "postal_code": "27410"
  },
  {
    "name": "Beaumontel",
    "code": "27050",
    "epci_code": "200066413",
    "departement_code": "27",
    "region_code": "28",
    "postal_code": "27170"
  },
  {
    "name": "Beaumont-le-Roger",
    "code": "27051",
    "epci_code": "200066413",
    "departement_code": "27",
    "region_code": "28",
    "postal_code": "27170"
  },
  {
    "name": "Le Bec-Hellouin",
    "code": "27052",
    "epci_code": "200066413",
    "departement_code": "27",
    "region_code": "28",
    "postal_code": "27800"
  },
  {
    "name": "Le Bec-Thomas",
    "code": "27053",
    "epci_code": "200089456",
    "departement_code": "27",
    "region_code": "28",
    "postal_code": "27370"
  },
  {
    "name": "Bémécourt",
    "code": "27054",
    "epci_code": "200066462",
    "departement_code": "27",
    "region_code": "28",
    "postal_code": "27160"
  },
  {
    "name": "Bérengeville-la-Campagne",
    "code": "27055",
    "epci_code": "242700607",
    "departement_code": "27",
    "region_code": "28",
    "postal_code": "27110"
  },
  {
    "name": "Bernay",
    "code": "27056",
    "epci_code": "200066413",
    "departement_code": "27",
    "region_code": "28",
    "postal_code": "27300"
  },
  {
    "name": "Bernienville",
    "code": "27057",
    "epci_code": "242700607",
    "departement_code": "27",
    "region_code": "28",
    "postal_code": "27180"
  },
  {
    "name": "Bernouville",
    "code": "27059",
    "epci_code": "200071843",
    "departement_code": "27",
    "region_code": "28",
    "postal_code": "27660"
  },
  {
    "name": "Berthouville",
    "code": "27061",
    "epci_code": "200066413",
    "departement_code": "27",
    "region_code": "28",
    "postal_code": "27800"
  },
  {
    "name": "Les Monts du Roumois",
    "code": "27062",
    "epci_code": "200066405",
    "departement_code": "27",
    "region_code": "28",
    "postal_code": "27370"
  },
  {
    "name": "Les Monts du Roumois",
    "code": "27062",
    "epci_code": "200066405",
    "departement_code": "27",
    "region_code": "28",
    "postal_code": "27520"
  },
  {
    "name": "Berville-la-Campagne",
    "code": "27063",
    "epci_code": "200066413",
    "departement_code": "27",
    "region_code": "28",
    "postal_code": "27170"
  },
  {
    "name": "Berville-sur-Mer",
    "code": "27064",
    "epci_code": "200066827",
    "departement_code": "27",
    "region_code": "28",
    "postal_code": "27210"
  },
  {
    "name": "Beuzeville",
    "code": "27065",
    "epci_code": "200066827",
    "departement_code": "27",
    "region_code": "28",
    "postal_code": "27210"
  },
  {
    "name": "Bézu-la-Forêt",
    "code": "27066",
    "epci_code": "200071843",
    "departement_code": "27",
    "region_code": "28",
    "postal_code": "27480"
  },
  {
    "name": "Bézu-Saint-Éloi",
    "code": "27067",
    "epci_code": "200071843",
    "departement_code": "27",
    "region_code": "28",
    "postal_code": "27660"
  },
  {
    "name": "Bois-Anzeray",
    "code": "27068",
    "epci_code": "200066462",
    "departement_code": "27",
    "region_code": "28",
    "postal_code": "27330"
  },
  {
    "name": "Bois-Arnault",
    "code": "27069",
    "epci_code": "200066462",
    "departement_code": "27",
    "region_code": "28",
    "postal_code": "27250"
  },
  {
    "name": "Frenelles-en-Vexin",
    "code": "27070",
    "epci_code": "200072312",
    "departement_code": "27",
    "region_code": "28",
    "postal_code": "27150"
  },
  {
    "name": "Frenelles-en-Vexin",
    "code": "27070",
    "epci_code": "200072312",
    "departement_code": "27",
    "region_code": "28",
    "postal_code": "27700"
  },
  {
    "name": "Le Bois-Hellain",
    "code": "27071",
    "epci_code": "200066017",
    "departement_code": "27",
    "region_code": "28",
    "postal_code": "27260"
  },
  {
    "name": "Bois-Jérôme-Saint-Ouen",
    "code": "27072",
    "epci_code": "200072312",
    "departement_code": "27",
    "region_code": "28",
    "postal_code": "27620"
  },
  {
    "name": "Bois-le-Roi",
    "code": "27073",
    "epci_code": "200071454",
    "departement_code": "27",
    "region_code": "28",
    "postal_code": "27220"
  },
  {
    "name": "Boisney",
    "code": "27074",
    "epci_code": "200066413",
    "departement_code": "27",
    "region_code": "28",
    "postal_code": "27800"
  },
  {
    "name": "Bois-Normand-près-Lyre",
    "code": "27075",
    "epci_code": "200066462",
    "departement_code": "27",
    "region_code": "28",
    "postal_code": "27330"
  },
  {
    "name": "Boisset-les-Prévanches",
    "code": "27076",
    "epci_code": "200072312",
    "departement_code": "27",
    "region_code": "28",
    "postal_code": "27120"
  },
  {
    "name": "Boissey-le-Châtel",
    "code": "27077",
    "epci_code": "200066405",
    "departement_code": "27",
    "region_code": "28",
    "postal_code": "27520"
  },
  {
    "name": "La Boissière",
    "code": "27078",
    "epci_code": "200072312",
    "departement_code": "27",
    "region_code": "28",
    "postal_code": "27220"
  },
  {
    "name": "Boissy-Lamberville",
    "code": "27079",
    "epci_code": "200066017",
    "departement_code": "27",
    "region_code": "28",
    "postal_code": "27300"
  },
  {
    "name": "Boncourt",
    "code": "27081",
    "epci_code": "200071454",
    "departement_code": "27",
    "region_code": "28",
    "postal_code": "27120"
  },
  {
    "name": "La Bonneville-sur-Iton",
    "code": "27082",
    "epci_code": "242700276",
    "departement_code": "27",
    "region_code": "28",
    "postal_code": "27190"
  },
  {
    "name": "Bonneville-Aptot",
    "code": "27083",
    "epci_code": "200065787",
    "departement_code": "27",
    "region_code": "28",
    "postal_code": "27290"
  },
  {
    "name": "Flancourt-Crescy-en-Roumois",
    "code": "27085",
    "epci_code": "200066405",
    "departement_code": "27",
    "region_code": "28",
    "postal_code": "27310"
  },
  {
    "name": "Thénouville",
    "code": "27089",
    "epci_code": "200066405",
    "departement_code": "27",
    "region_code": "28",
    "postal_code": "27290"
  },
  {
    "name": "Thénouville",
    "code": "27089",
    "epci_code": "200066405",
    "departement_code": "27",
    "region_code": "28",
    "postal_code": "27520"
  },
  {
    "name": "Bosroumois",
    "code": "27090",
    "epci_code": "200066405",
    "departement_code": "27",
    "region_code": "28",
    "postal_code": "27670"
  },
  {
    "name": "Bosgouet",
    "code": "27091",
    "epci_code": "200066405",
    "departement_code": "27",
    "region_code": "28",
    "postal_code": "27310"
  },
  {
    "name": "Bosquentin",
    "code": "27094",
    "epci_code": "200070142",
    "departement_code": "27",
    "region_code": "28",
    "postal_code": "27480"
  },
  {
    "name": "Bosrobert",
    "code": "27095",
    "epci_code": "200066413",
    "departement_code": "27",
    "region_code": "28",
    "postal_code": "27800"
  },
  {
    "name": "Les Bottereaux",
    "code": "27096",
    "epci_code": "200066462",
    "departement_code": "27",
    "region_code": "28",
    "postal_code": "27250"
  },
  {
    "name": "Bouafles",
    "code": "27097",
    "epci_code": "200072312",
    "departement_code": "27",
    "region_code": "28",
    "postal_code": "27700"
  },
  {
    "name": "Bouchevilliers",
    "code": "27098",
    "epci_code": "200069730",
    "departement_code": "27",
    "region_code": "28",
    "postal_code": "27150"
  },
  {
    "name": "Le Boulay-Morin",
    "code": "27099",
    "epci_code": "200071454",
    "departement_code": "27",
    "region_code": "28",
    "postal_code": "27930"
  },
  {
    "name": "Boulleville",
    "code": "27100",
    "epci_code": "200066827",
    "departement_code": "27",
    "region_code": "28",
    "postal_code": "27210"
  },
  {
    "name": "Bouquelon",
    "code": "27101",
    "epci_code": "200065787",
    "departement_code": "27",
    "region_code": "28",
    "postal_code": "27500"
  },
  {
    "name": "Bouquetot",
    "code": "27102",
    "epci_code": "200066405",
    "departement_code": "27",
    "region_code": "28",
    "postal_code": "27310"
  },
  {
    "name": "Bourg-Achard",
    "code": "27103",
    "epci_code": "200066405",
    "departement_code": "27",
    "region_code": "28",
    "postal_code": "27310"
  },
  {
    "name": "Bourg-Beaudouin",
    "code": "27104",
    "epci_code": "200070142",
    "departement_code": "27",
    "region_code": "28",
    "postal_code": "27380"
  },
  {
    "name": "Grand Bourgtheroulde",
    "code": "27105",
    "epci_code": "200066405",
    "departement_code": "27",
    "region_code": "28",
    "postal_code": "27520"
  },
  {
    "name": "Bournainville-Faverolles",
    "code": "27106",
    "epci_code": "200066017",
    "departement_code": "27",
    "region_code": "28",
    "postal_code": "27230"
  },
  {
    "name": "Bourneville-Sainte-Croix",
    "code": "27107",
    "epci_code": "200066405",
    "departement_code": "27",
    "region_code": "28",
    "postal_code": "27500"
  },
  {
    "name": "Bourth",
    "code": "27108",
    "epci_code": "200066462",
    "departement_code": "27",
    "region_code": "28",
    "postal_code": "27580"
  },
  {
    "name": "Bray",
    "code": "27109",
    "epci_code": "200066413",
    "departement_code": "27",
    "region_code": "28",
    "postal_code": "27170"
  },
  {
    "name": "Brestot",
    "code": "27110",
    "epci_code": "200065787",
    "departement_code": "27",
    "region_code": "28",
    "postal_code": "27350"
  },
  {
    "name": "Bretagnolles",
    "code": "27111",
    "epci_code": "200071454",
    "departement_code": "27",
    "region_code": "28",
    "postal_code": "27220"
  },
  {
    "name": "Breteuil",
    "code": "27112",
    "epci_code": "200066462",
    "departement_code": "27",
    "region_code": "28",
    "postal_code": "27160"
  },
  {
    "name": "Brétigny",
    "code": "27113",
    "epci_code": "200066413",
    "departement_code": "27",
    "region_code": "28",
    "postal_code": "27800"
  },
  {
    "name": "Breuilpont",
    "code": "27114",
    "epci_code": "200072312",
    "departement_code": "27",
    "region_code": "28",
    "postal_code": "27640"
  },
  {
    "name": "Breux-sur-Avre",
    "code": "27115",
    "epci_code": "200066462",
    "departement_code": "27",
    "region_code": "28",
    "postal_code": "27570"
  },
  {
    "name": "Brionne",
    "code": "27116",
    "epci_code": "200066413",
    "departement_code": "27",
    "region_code": "28",
    "postal_code": "27800"
  },
  {
    "name": "Broglie",
    "code": "27117",
    "epci_code": "200066413",
    "departement_code": "27",
    "region_code": "28",
    "postal_code": "27270"
  },
  {
    "name": "Brosville",
    "code": "27118",
    "epci_code": "242700607",
    "departement_code": "27",
    "region_code": "28",
    "postal_code": "27930"
  },
  {
    "name": "Bueil",
    "code": "27119",
    "epci_code": "200072312",
    "departement_code": "27",
    "region_code": "28",
    "postal_code": "27730"
  },
  {
    "name": "Burey",
    "code": "27120",
    "epci_code": "242700276",
    "departement_code": "27",
    "region_code": "28",
    "postal_code": "27190"
  },
  {
    "name": "Caillouet-Orgeville",
    "code": "27123",
    "epci_code": "200072312",
    "departement_code": "27",
    "region_code": "28",
    "postal_code": "27120"
  },
  {
    "name": "Cailly-sur-Eure",
    "code": "27124",
    "epci_code": "200089456",
    "departement_code": "27",
    "region_code": "28",
    "postal_code": "27490"
  },
  {
    "name": "Calleville",
    "code": "27125",
    "epci_code": "200066413",
    "departement_code": "27",
    "region_code": "28",
    "postal_code": "27800"
  },
  {
    "name": "Campigny",
    "code": "27126",
    "epci_code": "200065787",
    "departement_code": "27",
    "region_code": "28",
    "postal_code": "27500"
  },
  {
    "name": "Canappeville",
    "code": "27127",
    "epci_code": "242700607",
    "departement_code": "27",
    "region_code": "28",
    "postal_code": "27400"
  },
  {
    "name": "Caorches-Saint-Nicolas",
    "code": "27129",
    "epci_code": "200066413",
    "departement_code": "27",
    "region_code": "28",
    "postal_code": "27300"
  },
  {
    "name": "Capelle-les-Grands",
    "code": "27130",
    "epci_code": "200066413",
    "departement_code": "27",
    "region_code": "28",
    "postal_code": "27270"
  },
  {
    "name": "Caugé",
    "code": "27132",
    "epci_code": "200071454",
    "departement_code": "27",
    "region_code": "28",
    "postal_code": "27180"
  },
  {
    "name": "Caumont",
    "code": "27133",
    "epci_code": "200066405",
    "departement_code": "27",
    "region_code": "28",
    "postal_code": "27310"
  },
  {
    "name": "Cauverville-en-Roumois",
    "code": "27134",
    "epci_code": "200066405",
    "departement_code": "27",
    "region_code": "28",
    "postal_code": "27350"
  },
  {
    "name": "Cesseville",
    "code": "27135",
    "epci_code": "242700607",
    "departement_code": "27",
    "region_code": "28",
    "postal_code": "27110"
  },
  {
    "name": "Chaignes",
    "code": "27136",
    "epci_code": "200072312",
    "departement_code": "27",
    "region_code": "28",
    "postal_code": "27120"
  },
  {
    "name": "Chaise-Dieu-du-Theil",
    "code": "27137",
    "epci_code": "200066462",
    "departement_code": "27",
    "region_code": "28",
    "postal_code": "27580"
  },
  {
    "name": "Chamblac",
    "code": "27138",
    "epci_code": "200066413",
    "departement_code": "27",
    "region_code": "28",
    "postal_code": "27270"
  },
  {
    "name": "Chambord",
    "code": "27139",
    "epci_code": "200066462",
    "departement_code": "27",
    "region_code": "28",
    "postal_code": "27250"
  },
  {
    "name": "Chambray",
    "code": "27140",
    "epci_code": "200072312",
    "departement_code": "27",
    "region_code": "28",
    "postal_code": "27120"
  },
  {
    "name": "Champ-Dolent",
    "code": "27141",
    "epci_code": "242700276",
    "departement_code": "27",
    "region_code": "28",
    "postal_code": "27190"
  },
  {
    "name": "Champenard",
    "code": "27142",
    "epci_code": "200089456",
    "departement_code": "27",
    "region_code": "28",
    "postal_code": "27600"
  },
  {
    "name": "Champigny-la-Futelaye",
    "code": "27144",
    "epci_code": "200071454",
    "departement_code": "27",
    "region_code": "28",
    "postal_code": "27220"
  },
  {
    "name": "La Chapelle-Bayvel",
    "code": "27146",
    "epci_code": "200066017",
    "departement_code": "27",
    "region_code": "28",
    "postal_code": "27260"
  },
  {
    "name": "La Chapelle-du-Bois-des-Faulx",
    "code": "27147",
    "epci_code": "200071454",
    "departement_code": "27",
    "region_code": "28",
    "postal_code": "27930"
  },
  {
    "name": "La Chapelle-Gauthier",
    "code": "27148",
    "epci_code": "200066413",
    "departement_code": "27",
    "region_code": "28",
    "postal_code": "27270"
  },
  {
    "name": "La Chapelle-Hareng",
    "code": "27149",
    "epci_code": "200066017",
    "departement_code": "27",
    "region_code": "28",
    "postal_code": "27230"
  },
  {
    "name": "Charleval",
    "code": "27151",
    "epci_code": "200070142",
    "departement_code": "27",
    "region_code": "28",
    "postal_code": "27380"
  },
  {
    "name": "Château-sur-Epte",
    "code": "27152",
    "epci_code": "200071843",
    "departement_code": "27",
    "region_code": "28",
    "postal_code": "27420"
  },
  {
    "name": "Chauvincourt-Provemont",
    "code": "27153",
    "epci_code": "200071843",
    "departement_code": "27",
    "region_code": "28",
    "postal_code": "27150"
  },
  {
    "name": "Chavigny-Bailleul",
    "code": "27154",
    "epci_code": "200071454",
    "departement_code": "27",
    "region_code": "28",
    "postal_code": "27220"
  },
  {
    "name": "Chennebrun",
    "code": "27155",
    "epci_code": "200066462",
    "departement_code": "27",
    "region_code": "28",
    "postal_code": "27820"
  },
  {
    "name": "Chéronvilliers",
    "code": "27156",
    "epci_code": "200066462",
    "departement_code": "27",
    "region_code": "28",
    "postal_code": "27250"
  },
  {
    "name": "Marbois",
    "code": "27157",
    "epci_code": "200066462",
    "departement_code": "27",
    "region_code": "28",
    "postal_code": "27160"
  },
  {
    "name": "Marbois",
    "code": "27157",
    "epci_code": "200066462",
    "departement_code": "27",
    "region_code": "28",
    "postal_code": "27240"
  },
  {
    "name": "Cierrey",
    "code": "27158",
    "epci_code": "200071454",
    "departement_code": "27",
    "region_code": "28",
    "postal_code": "27930"
  },
  {
    "name": "Claville",
    "code": "27161",
    "epci_code": "242700276",
    "departement_code": "27",
    "region_code": "28",
    "postal_code": "27180"
  },
  {
    "name": "Collandres-Quincarnon",
    "code": "27162",
    "epci_code": "242700276",
    "departement_code": "27",
    "region_code": "28",
    "postal_code": "27190"
  },
  {
    "name": "Colletot",
    "code": "27163",
    "epci_code": "200065787",
    "departement_code": "27",
    "region_code": "28",
    "postal_code": "27500"
  },
  {
    "name": "Combon",
    "code": "27164",
    "epci_code": "200066413",
    "departement_code": "27",
    "region_code": "28",
    "postal_code": "27170"
  },
  {
    "name": "Conches-en-Ouche",
    "code": "27165",
    "epci_code": "242700276",
    "departement_code": "27",
    "region_code": "28",
    "postal_code": "27190"
  },
  {
    "name": "Condé-sur-Risle",
    "code": "27167",
    "epci_code": "200065787",
    "departement_code": "27",
    "region_code": "28",
    "postal_code": "27290"
  },
  {
    "name": "Connelles",
    "code": "27168",
    "epci_code": "200089456",
    "departement_code": "27",
    "region_code": "28",
    "postal_code": "27430"
  },
  {
    "name": "Conteville",
    "code": "27169",
    "epci_code": "200066827",
    "departement_code": "27",
    "region_code": "28",
    "postal_code": "27210"
  },
  {
    "name": "Cormeilles",
    "code": "27170",
    "epci_code": "200066017",
    "departement_code": "27",
    "region_code": "28",
    "postal_code": "27260"
  },
  {
    "name": "Le Cormier",
    "code": "27171",
    "epci_code": "200072312",
    "departement_code": "27",
    "region_code": "28",
    "postal_code": "27120"
  },
  {
    "name": "Corneville-la-Fouquetière",
    "code": "27173",
    "epci_code": "200066413",
    "departement_code": "27",
    "region_code": "28",
    "postal_code": "27300"
  },
  {
    "name": "Corneville-sur-Risle",
    "code": "27174",
    "epci_code": "200065787",
    "departement_code": "27",
    "region_code": "28",
    "postal_code": "27500"
  },
  {
    "name": "Coudray",
    "code": "27176",
    "epci_code": "200071843",
    "departement_code": "27",
    "region_code": "28",
    "postal_code": "27150"
  },
  {
    "name": "Coudres",
    "code": "27177",
    "epci_code": "200071454",
    "departement_code": "27",
    "region_code": "28",
    "postal_code": "27220"
  },
  {
    "name": "Courbépine",
    "code": "27179",
    "epci_code": "200066413",
    "departement_code": "27",
    "region_code": "28",
    "postal_code": "27300"
  },
  {
    "name": "Courcelles-sur-Seine",
    "code": "27180",
    "epci_code": "200089456",
    "departement_code": "27",
    "region_code": "28",
    "postal_code": "27940"
  },
  {
    "name": "Courdemanche",
    "code": "27181",
    "epci_code": "200071454",
    "departement_code": "27",
    "region_code": "28",
    "postal_code": "27320"
  },
  {
    "name": "Courteilles",
    "code": "27182",
    "epci_code": "200066462",
    "departement_code": "27",
    "region_code": "28",
    "postal_code": "27130"
  },
  {
    "name": "La Couture-Boussey",
    "code": "27183",
    "epci_code": "200071454",
    "departement_code": "27",
    "region_code": "28",
    "postal_code": "27750"
  },
  {
    "name": "Crasville",
    "code": "27184",
    "epci_code": "200089456",
    "departement_code": "27",
    "region_code": "28",
    "postal_code": "27400"
  },
  {
    "name": "Crestot",
    "code": "27185",
    "epci_code": "242700607",
    "departement_code": "27",
    "region_code": "28",
    "postal_code": "27110"
  },
  {
    "name": "Criquebeuf-la-Campagne",
    "code": "27187",
    "epci_code": "242700607",
    "departement_code": "27",
    "region_code": "28",
    "postal_code": "27110"
  },
  {
    "name": "Criquebeuf-sur-Seine",
    "code": "27188",
    "epci_code": "200089456",
    "departement_code": "27",
    "region_code": "28",
    "postal_code": "27340"
  },
  {
    "name": "La Croisille",
    "code": "27189",
    "epci_code": "242700276",
    "departement_code": "27",
    "region_code": "28",
    "postal_code": "27190"
  },
  {
    "name": "Croisy-sur-Eure",
    "code": "27190",
    "epci_code": "200072312",
    "departement_code": "27",
    "region_code": "28",
    "postal_code": "27120"
  },
  {
    "name": "Clef Vallée d’Eure",
    "code": "27191",
    "epci_code": "200089456",
    "departement_code": "27",
    "region_code": "28",
    "postal_code": "27490"
  },
  {
    "name": "Crosville-la-Vieille",
    "code": "27192",
    "epci_code": "242700607",
    "departement_code": "27",
    "region_code": "28",
    "postal_code": "27110"
  },
  {
    "name": "Croth",
    "code": "27193",
    "epci_code": "200071454",
    "departement_code": "27",
    "region_code": "28",
    "postal_code": "27530"
  },
  {
    "name": "Cuverville",
    "code": "27194",
    "epci_code": "200072312",
    "departement_code": "27",
    "region_code": "28",
    "postal_code": "27700"
  },
  {
    "name": "Les Damps",
    "code": "27196",
    "epci_code": "200089456",
    "departement_code": "27",
    "region_code": "28",
    "postal_code": "27340"
  },
  {
    "name": "Mesnils-sur-Iton",
    "code": "27198",
    "epci_code": "200066462",
    "departement_code": "27",
    "region_code": "28",
    "postal_code": "27160"
  },
  {
    "name": "Mesnils-sur-Iton",
    "code": "27198",
    "epci_code": "200066462",
    "departement_code": "27",
    "region_code": "28",
    "postal_code": "27240"
  },
  {
    "name": "Dangu",
    "code": "27199",
    "epci_code": "200071843",
    "departement_code": "27",
    "region_code": "28",
    "postal_code": "27720"
  },
  {
    "name": "Dardez",
    "code": "27200",
    "epci_code": "200071454",
    "departement_code": "27",
    "region_code": "28",
    "postal_code": "27930"
  },
  {
    "name": "Daubeuf-la-Campagne",
    "code": "27201",
    "epci_code": "242700607",
    "departement_code": "27",
    "region_code": "28",
    "postal_code": "27110"
  },
  {
    "name": "Daubeuf-près-Vatteville",
    "code": "27202",
    "epci_code": "200072312",
    "departement_code": "27",
    "region_code": "28",
    "postal_code": "27430"
  },
  {
    "name": "Douains",
    "code": "27203",
    "epci_code": "200072312",
    "departement_code": "27",
    "region_code": "28",
    "postal_code": "27120"
  },
  {
    "name": "Doudeauville-en-Vexin",
    "code": "27204",
    "epci_code": "200071843",
    "departement_code": "27",
    "region_code": "28",
    "postal_code": "27150"
  },
  {
    "name": "Douville-sur-Andelle",
    "code": "27205",
    "epci_code": "200070142",
    "departement_code": "27",
    "region_code": "28",
    "postal_code": "27380"
  },
  {
    "name": "Droisy",
    "code": "27206",
    "epci_code": "200071454",
    "departement_code": "27",
    "region_code": "28",
    "postal_code": "27320"
  },
  {
    "name": "Drucourt",
    "code": "27207",
    "epci_code": "200066017",
    "departement_code": "27",
    "region_code": "28",
    "postal_code": "27230"
  },
  {
    "name": "Duranville",
    "code": "27208",
    "epci_code": "200066017",
    "departement_code": "27",
    "region_code": "28",
    "postal_code": "27230"
  },
  {
    "name": "Écaquelon",
    "code": "27209",
    "epci_code": "200065787",
    "departement_code": "27",
    "region_code": "28",
    "postal_code": "27290"
  },
  {
    "name": "Écardenville-la-Campagne",
    "code": "27210",
    "epci_code": "200066413",
    "departement_code": "27",
    "region_code": "28",
    "postal_code": "27170"
  },
  {
    "name": "Écauville",
    "code": "27212",
    "epci_code": "242700607",
    "departement_code": "27",
    "region_code": "28",
    "postal_code": "27110"
  },
  {
    "name": "Vexin-sur-Epte",
    "code": "27213",
    "epci_code": "200072312",
    "departement_code": "27",
    "region_code": "28",
    "postal_code": "27420"
  },
  {
    "name": "Vexin-sur-Epte",
    "code": "27213",
    "epci_code": "200072312",
    "departement_code": "27",
    "region_code": "28",
    "postal_code": "27510"
  },
  {
    "name": "Vexin-sur-Epte",
    "code": "27213",
    "epci_code": "200072312",
    "departement_code": "27",
    "region_code": "28",
    "postal_code": "27630"
  },
  {
    "name": "Écouis",
    "code": "27214",
    "epci_code": "200072312",
    "departement_code": "27",
    "region_code": "28",
    "postal_code": "27440"
  },
  {
    "name": "Ecquetot",
    "code": "27215",
    "epci_code": "242700607",
    "departement_code": "27",
    "region_code": "28",
    "postal_code": "27110"
  },
  {
    "name": "Émalleville",
    "code": "27216",
    "epci_code": "200071454",
    "departement_code": "27",
    "region_code": "28",
    "postal_code": "27930"
  },
  {
    "name": "Émanville",
    "code": "27217",
    "epci_code": "242700607",
    "departement_code": "27",
    "region_code": "28",
    "postal_code": "27190"
  },
  {
    "name": "Épaignes",
    "code": "27218",
    "epci_code": "200066017",
    "departement_code": "27",
    "region_code": "28",
    "postal_code": "27260"
  },
  {
    "name": "Épégard",
    "code": "27219",
    "epci_code": "242700607",
    "departement_code": "27",
    "region_code": "28",
    "postal_code": "27110"
  },
  {
    "name": "Épieds",
    "code": "27220",
    "epci_code": "200071454",
    "departement_code": "27",
    "region_code": "28",
    "postal_code": "27730"
  },
  {
    "name": "Épreville-en-Lieuvin",
    "code": "27222",
    "epci_code": "200066017",
    "departement_code": "27",
    "region_code": "28",
    "postal_code": "27560"
  },
  {
    "name": "Épreville-près-le-Neubourg",
    "code": "27224",
    "epci_code": "242700607",
    "departement_code": "27",
    "region_code": "28",
    "postal_code": "27110"
  },
  {
    "name": "Étrépagny",
    "code": "27226",
    "epci_code": "200071843",
    "departement_code": "27",
    "region_code": "28",
    "postal_code": "27150"
  },
  {
    "name": "Étréville",
    "code": "27227",
    "epci_code": "200066405",
    "departement_code": "27",
    "region_code": "28",
    "postal_code": "27350"
  },
  {
    "name": "Éturqueraye",
    "code": "27228",
    "epci_code": "200066405",
    "departement_code": "27",
    "region_code": "28",
    "postal_code": "27350"
  },
  {
    "name": "Évreux",
    "code": "27229",
    "epci_code": "200071454",
    "departement_code": "27",
    "region_code": "28",
    "postal_code": "27000"
  },
  {
    "name": "Ézy-sur-Eure",
    "code": "27230",
    "epci_code": "200040277",
    "departement_code": "27",
    "region_code": "28",
    "postal_code": "27530"
  },
  {
    "name": "Fains",
    "code": "27231",
    "epci_code": "200072312",
    "departement_code": "27",
    "region_code": "28",
    "postal_code": "27120"
  },
  {
    "name": "Farceaux",
    "code": "27232",
    "epci_code": "200071843",
    "departement_code": "27",
    "region_code": "28",
    "postal_code": "27150"
  },
  {
    "name": "Fatouville-Grestain",
    "code": "27233",
    "epci_code": "200066827",
    "departement_code": "27",
    "region_code": "28",
    "postal_code": "27210"
  },
  {
    "name": "Fauville",
    "code": "27234",
    "epci_code": "200071454",
    "departement_code": "27",
    "region_code": "28",
    "postal_code": "27930"
  },
  {
    "name": "Faverolles-la-Campagne",
    "code": "27235",
    "epci_code": "242700276",
    "departement_code": "27",
    "region_code": "28",
    "postal_code": "27190"
  },
  {
    "name": "Le Favril",
    "code": "27237",
    "epci_code": "200066017",
    "departement_code": "27",
    "region_code": "28",
    "postal_code": "27230"
  },
  {
    "name": "Ferrières-Haut-Clocher",
    "code": "27238",
    "epci_code": "242700276",
    "departement_code": "27",
    "region_code": "28",
    "postal_code": "27190"
  },
  {
    "name": "Ferrières-Saint-Hilaire",
    "code": "27239",
    "epci_code": "200066413",
    "departement_code": "27",
    "region_code": "28",
    "postal_code": "27270"
  },
  {
    "name": "La Ferrière-sur-Risle",
    "code": "27240",
    "epci_code": "242700276",
    "departement_code": "27",
    "region_code": "28",
    "postal_code": "27760"
  },
  {
    "name": "Feuguerolles",
    "code": "27241",
    "epci_code": "242700607",
    "departement_code": "27",
    "region_code": "28",
    "postal_code": "27110"
  },
  {
    "name": "Le Fidelaire",
    "code": "27242",
    "epci_code": "242700276",
    "departement_code": "27",
    "region_code": "28",
    "postal_code": "27190"
  },
  {
    "name": "Fiquefleur-Équainville",
    "code": "27243",
    "epci_code": "200066827",
    "departement_code": "27",
    "region_code": "28",
    "postal_code": "27210"
  },
  {
    "name": "Fleury-la-Forêt",
    "code": "27245",
    "epci_code": "200070142",
    "departement_code": "27",
    "region_code": "28",
    "postal_code": "27480"
  },
  {
    "name": "Fleury-sur-Andelle",
    "code": "27246",
    "epci_code": "200070142",
    "departement_code": "27",
    "region_code": "28",
    "postal_code": "27380"
  },
  {
    "name": "Flipou",
    "code": "27247",
    "epci_code": "200070142",
    "departement_code": "27",
    "region_code": "28",
    "postal_code": "27380"
  },
  {
    "name": "Folleville",
    "code": "27248",
    "epci_code": "200066017",
    "departement_code": "27",
    "region_code": "28",
    "postal_code": "27230"
  },
  {
    "name": "Fontaine-Bellenger",
    "code": "27249",
    "epci_code": "200089456",
    "departement_code": "27",
    "region_code": "28",
    "postal_code": "27600"
  },
  {
    "name": "Fontaine-l’Abbé",
    "code": "27251",
    "epci_code": "200066413",
    "departement_code": "27",
    "region_code": "28",
    "postal_code": "27470"
  },
  {
    "name": "Fontaine-la-Louvet",
    "code": "27252",
    "epci_code": "200066017",
    "departement_code": "27",
    "region_code": "28",
    "postal_code": "27230"
  },
  {
    "name": "Fontaine-sous-Jouy",
    "code": "27254",
    "epci_code": "200071454",
    "departement_code": "27",
    "region_code": "28",
    "postal_code": "27120"
  },
  {
    "name": "La Forêt-du-Parc",
    "code": "27256",
    "epci_code": "200071454",
    "departement_code": "27",
    "region_code": "28",
    "postal_code": "27220"
  },
  {
    "name": "Fort-Moville",
    "code": "27258",
    "epci_code": "200066017",
    "departement_code": "27",
    "region_code": "28",
    "postal_code": "27210"
  },
  {
    "name": "Foucrainville",
    "code": "27259",
    "epci_code": "200071454",
    "departement_code": "27",
    "region_code": "28",
    "postal_code": "27220"
  },
  {
    "name": "Foulbec",
    "code": "27260",
    "epci_code": "200066827",
    "departement_code": "27",
    "region_code": "28",
    "postal_code": "27210"
  },
  {
    "name": "Fouqueville",
    "code": "27261",
    "epci_code": "242700607",
    "departement_code": "27",
    "region_code": "28",
    "postal_code": "27370"
  },
  {
    "name": "Le Perrey",
    "code": "27263",
    "epci_code": "200065787",
    "departement_code": "27",
    "region_code": "28",
    "postal_code": "27500"
  },
  {
    "name": "Le Perrey",
    "code": "27263",
    "epci_code": "200065787",
    "departement_code": "27",
    "region_code": "28",
    "postal_code": "27680"
  },
  {
    "name": "Franqueville",
    "code": "27266",
    "epci_code": "200066413",
    "departement_code": "27",
    "region_code": "28",
    "postal_code": "27800"
  },
  {
    "name": "Freneuse-sur-Risle",
    "code": "27267",
    "epci_code": "200065787",
    "departement_code": "27",
    "region_code": "28",
    "postal_code": "27290"
  },
  {
    "name": "Fresne-Cauverville",
    "code": "27269",
    "epci_code": "200066017",
    "departement_code": "27",
    "region_code": "28",
    "postal_code": "27260"
  },
  {
    "name": "Fresney",
    "code": "27271",
    "epci_code": "200071454",
    "departement_code": "27",
    "region_code": "28",
    "postal_code": "27220"
  },
  {
    "name": "Gadencourt",
    "code": "27273",
    "epci_code": "200072312",
    "departement_code": "27",
    "region_code": "28",
    "postal_code": "27120"
  },
  {
    "name": "Gaillon",
    "code": "27275",
    "epci_code": "200089456",
    "departement_code": "27",
    "region_code": "28",
    "postal_code": "27600"
  },
  {
    "name": "Gamaches-en-Vexin",
    "code": "27276",
    "epci_code": "200071843",
    "departement_code": "27",
    "region_code": "28",
    "postal_code": "27150"
  },
  {
    "name": "La Baronnie",
    "code": "27277",
    "epci_code": "200071454",
    "departement_code": "27",
    "region_code": "28",
    "postal_code": "27220"
  },
  {
    "name": "Garennes-sur-Eure",
    "code": "27278",
    "epci_code": "200071454",
    "departement_code": "27",
    "region_code": "28",
    "postal_code": "27780"
  },
  {
    "name": "Gasny",
    "code": "27279",
    "epci_code": "200072312",
    "departement_code": "27",
    "region_code": "28",
    "postal_code": "27620"
  },
  {
    "name": "Gauciel",
    "code": "27280",
    "epci_code": "200071454",
    "departement_code": "27",
    "region_code": "28",
    "postal_code": "27930"
  },
  {
    "name": "Gaudreville-la-Rivière",
    "code": "27281",
    "epci_code": "242700276",
    "departement_code": "27",
    "region_code": "28",
    "postal_code": "27190"
  },
  {
    "name": "Gauville-la-Campagne",
    "code": "27282",
    "epci_code": "200071454",
    "departement_code": "27",
    "region_code": "28",
    "postal_code": "27930"
  },
  {
    "name": "Gisors",
    "code": "27284",
    "epci_code": "200071843",
    "departement_code": "27",
    "region_code": "28",
    "postal_code": "27140"
  },
  {
    "name": "Giverny",
    "code": "27285",
    "epci_code": "200072312",
    "departement_code": "27",
    "region_code": "28",
    "postal_code": "27620"
  },
  {
    "name": "Giverville",
    "code": "27286",
    "epci_code": "200066017",
    "departement_code": "27",
    "region_code": "28",
    "postal_code": "27560"
  },
  {
    "name": "Glisolles",
    "code": "27287",
    "epci_code": "242700276",
    "departement_code": "27",
    "region_code": "28",
    "postal_code": "27190"
  },
  {
    "name": "Glos-sur-Risle",
    "code": "27288",
    "epci_code": "200065787",
    "departement_code": "27",
    "region_code": "28",
    "postal_code": "27290"
  },
  {
    "name": "La Goulafrière",
    "code": "27289",
    "epci_code": "200066413",
    "departement_code": "27",
    "region_code": "28",
    "postal_code": "27390"
  },
  {
    "name": "Goupil-Othon",
    "code": "27290",
    "epci_code": "200066413",
    "departement_code": "27",
    "region_code": "28",
    "postal_code": "27170"
  },
  {
    "name": "Gournay-le-Guérin",
    "code": "27291",
    "epci_code": "200066462",
    "departement_code": "27",
    "region_code": "28",
    "postal_code": "27580"
  },
  {
    "name": "Val d’Orger",
    "code": "27294",
    "epci_code": "200070142",
    "departement_code": "27",
    "region_code": "28",
    "postal_code": "27380"
  },
  {
    "name": "Val d’Orger",
    "code": "27294",
    "epci_code": "200070142",
    "departement_code": "27",
    "region_code": "28",
    "postal_code": "27440"
  },
  {
    "name": "Grand-Camp",
    "code": "27295",
    "epci_code": "200066413",
    "departement_code": "27",
    "region_code": "28",
    "postal_code": "27270"
  },
  {
    "name": "Graveron-Sémerville",
    "code": "27298",
    "epci_code": "242700607",
    "departement_code": "27",
    "region_code": "28",
    "postal_code": "27110"
  },
  {
    "name": "Gravigny",
    "code": "27299",
    "epci_code": "200071454",
    "departement_code": "27",
    "region_code": "28",
    "postal_code": "27930"
  },
  {
    "name": "Grosley-sur-Risle",
    "code": "27300",
    "epci_code": "200066413",
    "departement_code": "27",
    "region_code": "28",
    "postal_code": "27170"
  },
  {
    "name": "Grossœuvre",
    "code": "27301",
    "epci_code": "200071454",
    "departement_code": "27",
    "region_code": "28",
    "postal_code": "27220"
  },
  {
    "name": "Le Bosc du Theil",
    "code": "27302",
    "epci_code": "242700607",
    "departement_code": "27",
    "region_code": "28",
    "postal_code": "27370"
  },
  {
    "name": "Guerny",
    "code": "27304",
    "epci_code": "200071843",
    "departement_code": "27",
    "region_code": "28",
    "postal_code": "27720"
  },
  {
    "name": "Guichainville",
    "code": "27306",
    "epci_code": "200071454",
    "departement_code": "27",
    "region_code": "28",
    "postal_code": "27930"
  },
  {
    "name": "Guiseniers",
    "code": "27307",
    "epci_code": "200072312",
    "departement_code": "27",
    "region_code": "28",
    "postal_code": "27700"
  },
  {
    "name": "L’Habit",
    "code": "27309",
    "epci_code": "200071454",
    "departement_code": "27",
    "region_code": "28",
    "postal_code": "27220"
  },
  {
    "name": "Hacqueville",
    "code": "27310",
    "epci_code": "200071843",
    "departement_code": "27",
    "region_code": "28",
    "postal_code": "27150"
  },
  {
    "name": "Harcourt",
    "code": "27311",
    "epci_code": "200066413",
    "departement_code": "27",
    "region_code": "28",
    "postal_code": "27800"
  },
  {
    "name": "Hardencourt-Cocherel",
    "code": "27312",
    "epci_code": "200072312",
    "departement_code": "27",
    "region_code": "28",
    "postal_code": "27120"
  },
  {
    "name": "La Harengère",
    "code": "27313",
    "epci_code": "200089456",
    "departement_code": "27",
    "region_code": "28",
    "postal_code": "27370"
  },
  {
    "name": "Harquency",
    "code": "27315",
    "epci_code": "200072312",
    "departement_code": "27",
    "region_code": "28",
    "postal_code": "27700"
  },
  {
    "name": "Hauville",
    "code": "27316",
    "epci_code": "200066405",
    "departement_code": "27",
    "region_code": "28",
    "postal_code": "27350"
  },
  {
    "name": "La Haye-Aubrée",
    "code": "27317",
    "epci_code": "200066405",
    "departement_code": "27",
    "region_code": "28",
    "postal_code": "27350"
  },
  {
    "name": "La Haye-de-Calleville",
    "code": "27318",
    "epci_code": "200066413",
    "departement_code": "27",
    "region_code": "28",
    "postal_code": "27800"
  },
  {
    "name": "La Haye-de-Routot",
    "code": "27319",
    "epci_code": "200066405",
    "departement_code": "27",
    "region_code": "28",
    "postal_code": "27350"
  },
  {
    "name": "La Haye-du-Theil",
    "code": "27320",
    "epci_code": "242700607",
    "departement_code": "27",
    "region_code": "28",
    "postal_code": "27370"
  },
  {
    "name": "La Haye-le-Comte",
    "code": "27321",
    "epci_code": "200089456",
    "departement_code": "27",
    "region_code": "28",
    "postal_code": "27400"
  },
  {
    "name": "La Haye-Malherbe",
    "code": "27322",
    "epci_code": "200089456",
    "departement_code": "27",
    "region_code": "28",
    "postal_code": "27400"
  },
  {
    "name": "La Haye-Saint-Sylvestre",
    "code": "27323",
    "epci_code": "200066462",
    "departement_code": "27",
    "region_code": "28",
    "postal_code": "27330"
  },
  {
    "name": "Hébécourt",
    "code": "27324",
    "epci_code": "200071843",
    "departement_code": "27",
    "region_code": "28",
    "postal_code": "27150"
  },
  {
    "name": "Hecmanville",
    "code": "27325",
    "epci_code": "200066413",
    "departement_code": "27",
    "region_code": "28",
    "postal_code": "27800"
  },
  {
    "name": "Hécourt",
    "code": "27326",
    "epci_code": "200072312",
    "departement_code": "27",
    "region_code": "28",
    "postal_code": "27120"
  },
  {
    "name": "Hectomare",
    "code": "27327",
    "epci_code": "242700607",
    "departement_code": "27",
    "region_code": "28",
    "postal_code": "27110"
  },
  {
    "name": "Hennezis",
    "code": "27329",
    "epci_code": "200072312",
    "departement_code": "27",
    "region_code": "28",
    "postal_code": "27700"
  },
  {
    "name": "Herqueville",
    "code": "27330",
    "epci_code": "200089456",
    "departement_code": "27",
    "region_code": "28",
    "postal_code": "27430"
  },
  {
    "name": "Heubécourt-Haricourt",
    "code": "27331",
    "epci_code": "200072312",
    "departement_code": "27",
    "region_code": "28",
    "postal_code": "27630"
  },
  {
    "name": "Heudebouville",
    "code": "27332",
    "epci_code": "200089456",
    "departement_code": "27",
    "region_code": "28",
    "postal_code": "27400"
  },
  {
    "name": "Heudebouville",
    "code": "27332",
    "epci_code": "200089456",
    "departement_code": "27",
    "region_code": "28",
    "postal_code": "27600"
  },
  {
    "name": "Heudicourt",
    "code": "27333",
    "epci_code": "200071843",
    "departement_code": "27",
    "region_code": "28",
    "postal_code": "27860"
  },
  {
    "name": "Heudreville-en-Lieuvin",
    "code": "27334",
    "epci_code": "200066017",
    "departement_code": "27",
    "region_code": "28",
    "postal_code": "27230"
  },
  {
    "name": "Heudreville-sur-Eure",
    "code": "27335",
    "epci_code": "200089456",
    "departement_code": "27",
    "region_code": "28",
    "postal_code": "27400"
  },
  {
    "name": "La Heunière",
    "code": "27336",
    "epci_code": "200072312",
    "departement_code": "27",
    "region_code": "28",
    "postal_code": "27950"
  },
  {
    "name": "Heuqueville",
    "code": "27337",
    "epci_code": "200072312",
    "departement_code": "27",
    "region_code": "28",
    "postal_code": "27700"
  },
  {
    "name": "Les Hogues",
    "code": "27338",
    "epci_code": "200070142",
    "departement_code": "27",
    "region_code": "28",
    "postal_code": "27910"
  },
  {
    "name": "Hondouville",
    "code": "27339",
    "epci_code": "242700607",
    "departement_code": "27",
    "region_code": "28",
    "postal_code": "27400"
  },
  {
    "name": "Honguemare-Guenouville",
    "code": "27340",
    "epci_code": "200066405",
    "departement_code": "27",
    "region_code": "28",
    "postal_code": "27310"
  },
  {
    "name": "L’Hosmes",
    "code": "27341",
    "epci_code": "200066462",
    "departement_code": "27",
    "region_code": "28",
    "postal_code": "27570"
  },
  {
    "name": "Houetteville",
    "code": "27342",
    "epci_code": "242700607",
    "departement_code": "27",
    "region_code": "28",
    "postal_code": "27400"
  },
  {
    "name": "Houlbec-Cocherel",
    "code": "27343",
    "epci_code": "200072312",
    "departement_code": "27",
    "region_code": "28",
    "postal_code": "27120"
  },
  {
    "name": "La Houssaye",
    "code": "27345",
    "epci_code": "200066413",
    "departement_code": "27",
    "region_code": "28",
    "postal_code": "27410"
  },
  {
    "name": "Houville-en-Vexin",
    "code": "27346",
    "epci_code": "200070142",
    "departement_code": "27",
    "region_code": "28",
    "postal_code": "27440"
  },
  {
    "name": "Huest",
    "code": "27347",
    "epci_code": "200071454",
    "departement_code": "27",
    "region_code": "28",
    "postal_code": "27930"
  },
  {
    "name": "Igoville",
    "code": "27348",
    "epci_code": "200089456",
    "departement_code": "27",
    "region_code": "28",
    "postal_code": "27460"
  },
  {
    "name": "Illeville-sur-Montfort",
    "code": "27349",
    "epci_code": "200065787",
    "departement_code": "27",
    "region_code": "28",
    "postal_code": "27290"
  },
  {
    "name": "Illiers-l’Évêque",
    "code": "27350",
    "epci_code": "200071454",
    "departement_code": "27",
    "region_code": "28",
    "postal_code": "27770"
  },
  {
    "name": "Incarville",
    "code": "27351",
    "epci_code": "200089456",
    "departement_code": "27",
    "region_code": "28",
    "postal_code": "27400"
  },
  {
    "name": "Irreville",
    "code": "27353",
    "epci_code": "200071454",
    "departement_code": "27",
    "region_code": "28",
    "postal_code": "27930"
  },
  {
    "name": "Iville",
    "code": "27354",
    "epci_code": "242700607",
    "departement_code": "27",
    "region_code": "28",
    "postal_code": "27110"
  },
  {
    "name": "Ivry-la-Bataille",
    "code": "27355",
    "epci_code": "200040277",
    "departement_code": "27",
    "region_code": "28",
    "postal_code": "27540"
  },
  {
    "name": "Jouy-sur-Eure",
    "code": "27358",
    "epci_code": "200071454",
    "departement_code": "27",
    "region_code": "28",
    "postal_code": "27120"
  },
  {
    "name": "Juignettes",
    "code": "27359",
    "epci_code": "200066462",
    "departement_code": "27",
    "region_code": "28",
    "postal_code": "27250"
  },
  {
    "name": "Jumelles",
    "code": "27360",
    "epci_code": "200071454",
    "departement_code": "27",
    "region_code": "28",
    "postal_code": "27220"
  },
  {
    "name": "La Lande-Saint-Léger",
    "code": "27361",
    "epci_code": "200066017",
    "departement_code": "27",
    "region_code": "28",
    "postal_code": "27210"
  },
  {
    "name": "Le Landin",
    "code": "27363",
    "epci_code": "200066405",
    "departement_code": "27",
    "region_code": "28",
    "postal_code": "27350"
  },
  {
    "name": "Launay",
    "code": "27364",
    "epci_code": "200066413",
    "departement_code": "27",
    "region_code": "28",
    "postal_code": "27470"
  },
  {
    "name": "Léry",
    "code": "27365",
    "epci_code": "200089456",
    "departement_code": "27",
    "region_code": "28",
    "postal_code": "27690"
  },
  {
    "name": "Letteguives",
    "code": "27366",
    "epci_code": "200070142",
    "departement_code": "27",
    "region_code": "28",
    "postal_code": "27910"
  },
  {
    "name": "Lieurey",
    "code": "27367",
    "epci_code": "200066017",
    "departement_code": "27",
    "region_code": "28",
    "postal_code": "27560"
  },
  {
    "name": "Lignerolles",
    "code": "27368",
    "epci_code": "200071454",
    "departement_code": "27",
    "region_code": "28",
    "postal_code": "27220"
  },
  {
    "name": "Lilly",
    "code": "27369",
    "epci_code": "200070142",
    "departement_code": "27",
    "region_code": "28",
    "postal_code": "27480"
  },
  {
    "name": "Lisors",
    "code": "27370",
    "epci_code": "200070142",
    "departement_code": "27",
    "region_code": "28",
    "postal_code": "27440"
  },
  {
    "name": "Livet-sur-Authou",
    "code": "27371",
    "epci_code": "200066413",
    "departement_code": "27",
    "region_code": "28",
    "postal_code": "27800"
  },
  {
    "name": "Longchamps",
    "code": "27372",
    "epci_code": "200071843",
    "departement_code": "27",
    "region_code": "28",
    "postal_code": "27150"
  },
  {
    "name": "Lorleau",
    "code": "27373",
    "epci_code": "200070142",
    "departement_code": "27",
    "region_code": "28",
    "postal_code": "27480"
  },
  {
    "name": "Louversey",
    "code": "27374",
    "epci_code": "242700276",
    "departement_code": "27",
    "region_code": "28",
    "postal_code": "27190"
  },
  {
    "name": "Louviers",
    "code": "27375",
    "epci_code": "200089456",
    "departement_code": "27",
    "region_code": "28",
    "postal_code": "27400"
  },
  {
    "name": "Louye",
    "code": "27376",
    "epci_code": "200040277",
    "departement_code": "27",
    "region_code": "28",
    "postal_code": "27650"
  },
  {
    "name": "Lyons-la-Forêt",
    "code": "27377",
    "epci_code": "200070142",
    "departement_code": "27",
    "region_code": "28",
    "postal_code": "27480"
  },
  {
    "name": "La Madeleine-de-Nonancourt",
    "code": "27378",
    "epci_code": "200040277",
    "departement_code": "27",
    "region_code": "28",
    "postal_code": "27320"
  },
  {
    "name": "Mainneville",
    "code": "27379",
    "epci_code": "200071843",
    "departement_code": "27",
    "region_code": "28",
    "postal_code": "27150"
  },
  {
    "name": "Malleville-sur-le-Bec",
    "code": "27380",
    "epci_code": "200066413",
    "departement_code": "27",
    "region_code": "28",
    "postal_code": "27800"
  },
  {
    "name": "Malouy",
    "code": "27381",
    "epci_code": "200066017",
    "departement_code": "27",
    "region_code": "28",
    "postal_code": "27300"
  },
  {
    "name": "Mandeville",
    "code": "27382",
    "epci_code": "200089456",
    "departement_code": "27",
    "region_code": "28",
    "postal_code": "27370"
  },
  {
    "name": "Mandres",
    "code": "27383",
    "epci_code": "200066462",
    "departement_code": "27",
    "region_code": "28",
    "postal_code": "27130"
  },
  {
    "name": "Manneville-la-Raoult",
    "code": "27384",
    "epci_code": "200066827",
    "departement_code": "27",
    "region_code": "28",
    "postal_code": "27210"
  },
  {
    "name": "Manneville-sur-Risle",
    "code": "27385",
    "epci_code": "200065787",
    "departement_code": "27",
    "region_code": "28",
    "postal_code": "27500"
  },
  {
    "name": "Le Manoir",
    "code": "27386",
    "epci_code": "200089456",
    "departement_code": "27",
    "region_code": "28",
    "postal_code": "27460"
  },
  {
    "name": "Marais-Vernier",
    "code": "27388",
    "epci_code": "200065787",
    "departement_code": "27",
    "region_code": "28",
    "postal_code": "27680"
  },
  {
    "name": "Marbeuf",
    "code": "27389",
    "epci_code": "242700607",
    "departement_code": "27",
    "region_code": "28",
    "postal_code": "27110"
  },
  {
    "name": "Marcilly-la-Campagne",
    "code": "27390",
    "epci_code": "200071454",
    "departement_code": "27",
    "region_code": "28",
    "postal_code": "27320"
  },
  {
    "name": "Marcilly-sur-Eure",
    "code": "27391",
    "epci_code": "200071454",
    "departement_code": "27",
    "region_code": "28",
    "postal_code": "27810"
  },
  {
    "name": "Martagny",
    "code": "27392",
    "epci_code": "200071843",
    "departement_code": "27",
    "region_code": "28",
    "postal_code": "27150"
  },
  {
    "name": "Martainville",
    "code": "27393",
    "epci_code": "200066017",
    "departement_code": "27",
    "region_code": "28",
    "postal_code": "27210"
  },
  {
    "name": "Martot",
    "code": "27394",
    "epci_code": "200089456",
    "departement_code": "27",
    "region_code": "28",
    "postal_code": "27340"
  },
  {
    "name": "Mélicourt",
    "code": "27395",
    "epci_code": "200066413",
    "departement_code": "27",
    "region_code": "28",
    "postal_code": "27390"
  },
  {
    "name": "Ménesqueville",
    "code": "27396",
    "epci_code": "200070142",
    "departement_code": "27",
    "region_code": "28",
    "postal_code": "27850"
  },
  {
    "name": "Ménilles",
    "code": "27397",
    "epci_code": "200072312",
    "departement_code": "27",
    "region_code": "28",
    "postal_code": "27120"
  },
  {
    "name": "Menneval",
    "code": "27398",
    "epci_code": "200066413",
    "departement_code": "27",
    "region_code": "28",
    "postal_code": "27300"
  },
  {
    "name": "Mercey",
    "code": "27399",
    "epci_code": "200072312",
    "departement_code": "27",
    "region_code": "28",
    "postal_code": "27950"
  },
  {
    "name": "Merey",
    "code": "27400",
    "epci_code": "200072312",
    "departement_code": "27",
    "region_code": "28",
    "postal_code": "27640"
  },
  {
    "name": "Le Mesnil-Fuguet",
    "code": "27401",
    "epci_code": "200071454",
    "departement_code": "27",
    "region_code": "28",
    "postal_code": "27930"
  },
  {
    "name": "Le Mesnil-Jourdain",
    "code": "27403",
    "epci_code": "200089456",
    "departement_code": "27",
    "region_code": "28",
    "postal_code": "27400"
  },
  {
    "name": "Mesnil-Rousset",
    "code": "27404",
    "epci_code": "200066413",
    "departement_code": "27",
    "region_code": "28",
    "postal_code": "27390"
  },
  {
    "name": "Mesnil-sous-Vienne",
    "code": "27405",
    "epci_code": "200071843",
    "departement_code": "27",
    "region_code": "28",
    "postal_code": "27150"
  },
  {
    "name": "Mesnil-sur-l’Estrée",
    "code": "27406",
    "epci_code": "200071454",
    "departement_code": "27",
    "region_code": "28",
    "postal_code": "27650"
  },
  {
    "name": "Mesnil-Verclives",
    "code": "27407",
    "epci_code": "200072312",
    "departement_code": "27",
    "region_code": "28",
    "postal_code": "27440"
  },
  {
    "name": "Mézières-en-Vexin",
    "code": "27408",
    "epci_code": "200072312",
    "departement_code": "27",
    "region_code": "28",
    "postal_code": "27510"
  },
  {
    "name": "Miserey",
    "code": "27410",
    "epci_code": "200071454",
    "departement_code": "27",
    "region_code": "28",
    "postal_code": "27930"
  },
  {
    "name": "Moisville",
    "code": "27411",
    "epci_code": "200071454",
    "departement_code": "27",
    "region_code": "28",
    "postal_code": "27320"
  },
  {
    "name": "Terres de Bord",
    "code": "27412",
    "epci_code": "200089456",
    "departement_code": "27",
    "region_code": "28",
    "postal_code": "27340"
  },
  {
    "name": "Terres de Bord",
    "code": "27412",
    "epci_code": "200089456",
    "departement_code": "27",
    "region_code": "28",
    "postal_code": "27400"
  },
  {
    "name": "Montfort-sur-Risle",
    "code": "27413",
    "epci_code": "200065787",
    "departement_code": "27",
    "region_code": "28",
    "postal_code": "27290"
  },
  {
    "name": "Montreuil-l’Argillé",
    "code": "27414",
    "epci_code": "200066413",
    "departement_code": "27",
    "region_code": "28",
    "postal_code": "27390"
  },
  {
    "name": "Morainville-Jouveaux",
    "code": "27415",
    "epci_code": "200066017",
    "departement_code": "27",
    "region_code": "28",
    "postal_code": "27260"
  },
  {
    "name": "Morgny",
    "code": "27417",
    "epci_code": "200071843",
    "departement_code": "27",
    "region_code": "28",
    "postal_code": "27150"
  },
  {
    "name": "Morsan",
    "code": "27418",
    "epci_code": "200066413",
    "departement_code": "27",
    "region_code": "28",
    "postal_code": "27800"
  },
  {
    "name": "Mouettes",
    "code": "27419",
    "epci_code": "200071454",
    "departement_code": "27",
    "region_code": "28",
    "postal_code": "27220"
  },
  {
    "name": "Mouflaines",
    "code": "27420",
    "epci_code": "200071843",
    "departement_code": "27",
    "region_code": "28",
    "postal_code": "27420"
  },
  {
    "name": "Mousseaux-Neuville",
    "code": "27421",
    "epci_code": "200071454",
    "departement_code": "27",
    "region_code": "28",
    "postal_code": "27220"
  },
  {
    "name": "Muids",
    "code": "27422",
    "epci_code": "200072312",
    "departement_code": "27",
    "region_code": "28",
    "postal_code": "27430"
  },
  {
    "name": "Muzy",
    "code": "27423",
    "epci_code": "200071454",
    "departement_code": "27",
    "region_code": "28",
    "postal_code": "27650"
  },
  {
    "name": "Nagel-Séez-Mesnil",
    "code": "27424",
    "epci_code": "242700276",
    "departement_code": "27",
    "region_code": "28",
    "postal_code": "27190"
  },
  {
    "name": "Nassandres sur Risle",
    "code": "27425",
    "epci_code": "200066413",
    "departement_code": "27",
    "region_code": "28",
    "postal_code": "27170"
  },
  {
    "name": "Nassandres sur Risle",
    "code": "27425",
    "epci_code": "200066413",
    "departement_code": "27",
    "region_code": "28",
    "postal_code": "27300"
  },
  {
    "name": "Nassandres sur Risle",
    "code": "27425",
    "epci_code": "200066413",
    "departement_code": "27",
    "region_code": "28",
    "postal_code": "27550"
  },
  {
    "name": "Neaufles-Saint-Martin",
    "code": "27426",
    "epci_code": "200071843",
    "departement_code": "27",
    "region_code": "28",
    "postal_code": "27830"
  },
  {
    "name": "Neaufles-Auvergny",
    "code": "27427",
    "epci_code": "200066462",
    "departement_code": "27",
    "region_code": "28",
    "postal_code": "27250"
  },
  {
    "name": "Le Neubourg",
    "code": "27428",
    "epci_code": "242700607",
    "departement_code": "27",
    "region_code": "28",
    "postal_code": "27110"
  },
  {
    "name": "Neuilly",
    "code": "27429",
    "epci_code": "200072312",
    "departement_code": "27",
    "region_code": "28",
    "postal_code": "27730"
  },
  {
    "name": "La Neuve-Grange",
    "code": "27430",
    "epci_code": "200071843",
    "departement_code": "27",
    "region_code": "28",
    "postal_code": "27150"
  },
  {
    "name": "La Neuve-Lyre",
    "code": "27431",
    "epci_code": "200066462",
    "departement_code": "27",
    "region_code": "28",
    "postal_code": "27330"
  },
  {
    "name": "La Neuville-du-Bosc",
    "code": "27432",
    "epci_code": "200066413",
    "departement_code": "27",
    "region_code": "28",
    "postal_code": "27890"
  },
  {
    "name": "Neuville-sur-Authou",
    "code": "27433",
    "epci_code": "200066413",
    "departement_code": "27",
    "region_code": "28",
    "postal_code": "27800"
  },
  {
    "name": "Noards",
    "code": "27434",
    "epci_code": "200066017",
    "departement_code": "27",
    "region_code": "28",
    "postal_code": "27560"
  },
  {
    "name": "La Noë-Poulain",
    "code": "27435",
    "epci_code": "200066017",
    "departement_code": "27",
    "region_code": "28",
    "postal_code": "27560"
  },
  {
    "name": "Nogent-le-Sec",
    "code": "27436",
    "epci_code": "242700276",
    "departement_code": "27",
    "region_code": "28",
    "postal_code": "27190"
  },
  {
    "name": "Nojeon-en-Vexin",
    "code": "27437",
    "epci_code": "200071843",
    "departement_code": "27",
    "region_code": "28",
    "postal_code": "27150"
  },
  {
    "name": "Nonancourt",
    "code": "27438",
    "epci_code": "200040277",
    "departement_code": "27",
    "region_code": "28",
    "postal_code": "27320"
  },
  {
    "name": "Normanville",
    "code": "27439",
    "epci_code": "200071454",
    "departement_code": "27",
    "region_code": "28",
    "postal_code": "27930"
  },
  {
    "name": "Notre-Dame-de-l’Isle",
    "code": "27440",
    "epci_code": "200072312",
    "departement_code": "27",
    "region_code": "28",
    "postal_code": "27940"
  },
  {
    "name": "Notre-Dame-d’Épine",
    "code": "27441",
    "epci_code": "200066413",
    "departement_code": "27",
    "region_code": "28",
    "postal_code": "27800"
  },
  {
    "name": "Notre-Dame-du-Hamel",
    "code": "27442",
    "epci_code": "200066413",
    "departement_code": "27",
    "region_code": "28",
    "postal_code": "27390"
  },
  {
    "name": "Le Noyer-en-Ouche",
    "code": "27444",
    "epci_code": "200066413",
    "departement_code": "27",
    "region_code": "28",
    "postal_code": "27410"
  },
  {
    "name": "Noyers",
    "code": "27445",
    "epci_code": "200071843",
    "departement_code": "27",
    "region_code": "28",
    "postal_code": "27720"
  },
  {
    "name": "Ormes",
    "code": "27446",
    "epci_code": "242700276",
    "departement_code": "27",
    "region_code": "28",
    "postal_code": "27190"
  },
  {
    "name": "Le Val-Doré",
    "code": "27447",
    "epci_code": "242700276",
    "departement_code": "27",
    "region_code": "28",
    "postal_code": "27190"
  },
  {
    "name": "Pacy-sur-Eure",
    "code": "27448",
    "epci_code": "200072312",
    "departement_code": "27",
    "region_code": "28",
    "postal_code": "27120"
  },
  {
    "name": "Parville",
    "code": "27451",
    "epci_code": "200071454",
    "departement_code": "27",
    "region_code": "28",
    "postal_code": "27180"
  },
  {
    "name": "Perriers-sur-Andelle",
    "code": "27453",
    "epci_code": "200070142",
    "departement_code": "27",
    "region_code": "28",
    "postal_code": "27910"
  },
  {
    "name": "Perruel",
    "code": "27454",
    "epci_code": "200070142",
    "departement_code": "27",
    "region_code": "28",
    "postal_code": "27910"
  },
  {
    "name": "Piencourt",
    "code": "27455",
    "epci_code": "200066017",
    "departement_code": "27",
    "region_code": "28",
    "postal_code": "27230"
  },
  {
    "name": "Pinterville",
    "code": "27456",
    "epci_code": "200089456",
    "departement_code": "27",
    "region_code": "28",
    "postal_code": "27400"
  },
  {
    "name": "Piseux",
    "code": "27457",
    "epci_code": "200066462",
    "departement_code": "27",
    "region_code": "28",
    "postal_code": "27130"
  },
  {
    "name": "Pîtres",
    "code": "27458",
    "epci_code": "200089456",
    "departement_code": "27",
    "region_code": "28",
    "postal_code": "27590"
  },
  {
    "name": "Les Places",
    "code": "27459",
    "epci_code": "200066017",
    "departement_code": "27",
    "region_code": "28",
    "postal_code": "27230"
  },
  {
    "name": "Plainville",
    "code": "27460",
    "epci_code": "200066413",
    "departement_code": "27",
    "region_code": "28",
    "postal_code": "27300"
  },
  {
    "name": "Le Planquay",
    "code": "27462",
    "epci_code": "200066017",
    "departement_code": "27",
    "region_code": "28",
    "postal_code": "27230"
  },
  {
    "name": "Plasnes",
    "code": "27463",
    "epci_code": "200066413",
    "departement_code": "27",
    "region_code": "28",
    "postal_code": "27300"
  },
  {
    "name": "Le Plessis-Grohan",
    "code": "27464",
    "epci_code": "200071454",
    "departement_code": "27",
    "region_code": "28",
    "postal_code": "27180"
  },
  {
    "name": "Le Plessis-Hébert",
    "code": "27465",
    "epci_code": "200072312",
    "departement_code": "27",
    "region_code": "28",
    "postal_code": "27120"
  },
  {
    "name": "Le Plessis-Sainte-Opportune",
    "code": "27466",
    "epci_code": "200066413",
    "departement_code": "27",
    "region_code": "28",
    "postal_code": "27170"
  },
  {
    "name": "Pont-Audemer",
    "code": "27467",
    "epci_code": "200065787",
    "departement_code": "27",
    "region_code": "28",
    "postal_code": "27500"
  },
  {
    "name": "Pont-Authou",
    "code": "27468",
    "epci_code": "200065787",
    "departement_code": "27",
    "region_code": "28",
    "postal_code": "27290"
  },
  {
    "name": "Pont-de-l’Arche",
    "code": "27469",
    "epci_code": "200089456",
    "departement_code": "27",
    "region_code": "28",
    "postal_code": "27340"
  },
  {
    "name": "Pont-Saint-Pierre",
    "code": "27470",
    "epci_code": "200070142",
    "departement_code": "27",
    "region_code": "28",
    "postal_code": "27360"
  },
  {
    "name": "Porte-de-Seine",
    "code": "27471",
    "epci_code": "200089456",
    "departement_code": "27",
    "region_code": "28",
    "postal_code": "27100"
  },
  {
    "name": "Porte-de-Seine",
    "code": "27471",
    "epci_code": "200089456",
    "departement_code": "27",
    "region_code": "28",
    "postal_code": "27430"
  },
  {
    "name": "Portes",
    "code": "27472",
    "epci_code": "242700276",
    "departement_code": "27",
    "region_code": "28",
    "postal_code": "27190"
  },
  {
    "name": "Port-Mort",
    "code": "27473",
    "epci_code": "200072312",
    "departement_code": "27",
    "region_code": "28",
    "postal_code": "27940"
  },
  {
    "name": "Poses",
    "code": "27474",
    "epci_code": "200089456",
    "departement_code": "27",
    "region_code": "28",
    "postal_code": "27740"
  },
  {
    "name": "La Poterie-Mathieu",
    "code": "27475",
    "epci_code": "200066017",
    "departement_code": "27",
    "region_code": "28",
    "postal_code": "27560"
  },
  {
    "name": "Les Préaux",
    "code": "27476",
    "epci_code": "200065787",
    "departement_code": "27",
    "region_code": "28",
    "postal_code": "27500"
  },
  {
    "name": "Pressagny-l’Orgueilleux",
    "code": "27477",
    "epci_code": "200072312",
    "departement_code": "27",
    "region_code": "28",
    "postal_code": "27510"
  },
  {
    "name": "Prey",
    "code": "27478",
    "epci_code": "200071454",
    "departement_code": "27",
    "region_code": "28",
    "postal_code": "27220"
  },
  {
    "name": "Puchay",
    "code": "27480",
    "epci_code": "200071843",
    "departement_code": "27",
    "region_code": "28",
    "postal_code": "27150"
  },
  {
    "name": "Pullay",
    "code": "27481",
    "epci_code": "200066462",
    "departement_code": "27",
    "region_code": "28",
    "postal_code": "27130"
  },
  {
    "name": "La Pyle",
    "code": "27482",
    "epci_code": "242700607",
    "departement_code": "27",
    "region_code": "28",
    "postal_code": "27370"
  },
  {
    "name": "Quatremare",
    "code": "27483",
    "epci_code": "200089456",
    "departement_code": "27",
    "region_code": "28",
    "postal_code": "27400"
  },
  {
    "name": "Quillebeuf-sur-Seine",
    "code": "27485",
    "epci_code": "200065787",
    "departement_code": "27",
    "region_code": "28",
    "postal_code": "27680"
  },
  {
    "name": "Quittebeuf",
    "code": "27486",
    "epci_code": "242700607",
    "departement_code": "27",
    "region_code": "28",
    "postal_code": "27110"
  },
  {
    "name": "Radepont",
    "code": "27487",
    "epci_code": "200070142",
    "departement_code": "27",
    "region_code": "28",
    "postal_code": "27380"
  },
  {
    "name": "Renneville",
    "code": "27488",
    "epci_code": "200070142",
    "departement_code": "27",
    "region_code": "28",
    "postal_code": "27910"
  },
  {
    "name": "Reuilly",
    "code": "27489",
    "epci_code": "200071454",
    "departement_code": "27",
    "region_code": "28",
    "postal_code": "27930"
  },
  {
    "name": "Richeville",
    "code": "27490",
    "epci_code": "200071843",
    "departement_code": "27",
    "region_code": "28",
    "postal_code": "27420"
  },
  {
    "name": "Romilly-la-Puthenaye",
    "code": "27492",
    "epci_code": "200066413",
    "departement_code": "27",
    "region_code": "28",
    "postal_code": "27170"
  },
  {
    "name": "Romilly-sur-Andelle",
    "code": "27493",
    "epci_code": "200070142",
    "departement_code": "27",
    "region_code": "28",
    "postal_code": "27610"
  },
  {
    "name": "La Roquette",
    "code": "27495",
    "epci_code": "200072312",
    "departement_code": "27",
    "region_code": "28",
    "postal_code": "27700"
  },
  {
    "name": "Rosay-sur-Lieure",
    "code": "27496",
    "epci_code": "200070142",
    "departement_code": "27",
    "region_code": "28",
    "postal_code": "27790"
  },
  {
    "name": "Rougemontiers",
    "code": "27497",
    "epci_code": "200065787",
    "departement_code": "27",
    "region_code": "28",
    "postal_code": "27350"
  },
  {
    "name": "Rouge-Perriers",
    "code": "27498",
    "epci_code": "200066413",
    "departement_code": "27",
    "region_code": "28",
    "postal_code": "27110"
  },
  {
    "name": "Routot",
    "code": "27500",
    "epci_code": "200065787",
    "departement_code": "27",
    "region_code": "28",
    "postal_code": "27350"
  },
  {
    "name": "Rouvray",
    "code": "27501",
    "epci_code": "200072312",
    "departement_code": "27",
    "region_code": "28",
    "postal_code": "27120"
  },
  {
    "name": "Rugles",
    "code": "27502",
    "epci_code": "200066462",
    "departement_code": "27",
    "region_code": "28",
    "postal_code": "27250"
  },
  {
    "name": "Sacquenville",
    "code": "27504",
    "epci_code": "200071454",
    "departement_code": "27",
    "region_code": "28",
    "postal_code": "27930"
  },
  {
    "name": "Saint-Agnan-de-Cernières",
    "code": "27505",
    "epci_code": "200066413",
    "departement_code": "27",
    "region_code": "28",
    "postal_code": "27390"
  },
  {
    "name": "Saint-André-de-l’Eure",
    "code": "27507",
    "epci_code": "200071454",
    "departement_code": "27",
    "region_code": "28",
    "postal_code": "27220"
  },
  {
    "name": "Saint-Antonin-de-Sommaire",
    "code": "27508",
    "epci_code": "200066462",
    "departement_code": "27",
    "region_code": "28",
    "postal_code": "27250"
  },
  {
    "name": "Saint-Aubin-d’Écrosville",
    "code": "27511",
    "epci_code": "242700607",
    "departement_code": "27",
    "region_code": "28",
    "postal_code": "27110"
  },
  {
    "name": "Saint-Aubin-de-Scellon",
    "code": "27512",
    "epci_code": "200066017",
    "departement_code": "27",
    "region_code": "28",
    "postal_code": "27230"
  },
  {
    "name": "Saint-Aubin-du-Thenney",
    "code": "27514",
    "epci_code": "200066413",
    "departement_code": "27",
    "region_code": "28",
    "postal_code": "27270"
  },
  {
    "name": "Treis-Sants-en-Ouche",
    "code": "27516",
    "epci_code": "200066413",
    "departement_code": "27",
    "region_code": "28",
    "postal_code": "27270"
  },
  {
    "name": "Treis-Sants-en-Ouche",
    "code": "27516",
    "epci_code": "200066413",
    "departement_code": "27",
    "region_code": "28",
    "postal_code": "27300"
  },
  {
    "name": "Saint-Aubin-sur-Gaillon",
    "code": "27517",
    "epci_code": "200089456",
    "departement_code": "27",
    "region_code": "28",
    "postal_code": "27600"
  },
  {
    "name": "Saint-Aubin-sur-Quillebeuf",
    "code": "27518",
    "epci_code": "200066405",
    "departement_code": "27",
    "region_code": "28",
    "postal_code": "27680"
  },
  {
    "name": "Saint-Benoît-des-Ombres",
    "code": "27520",
    "epci_code": "200066017",
    "departement_code": "27",
    "region_code": "28",
    "postal_code": "27450"
  },
  {
    "name": "Saint-Christophe-sur-Avre",
    "code": "27521",
    "epci_code": "200066462",
    "departement_code": "27",
    "region_code": "28",
    "postal_code": "27820"
  },
  {
    "name": "Saint-Christophe-sur-Condé",
    "code": "27522",
    "epci_code": "200066017",
    "departement_code": "27",
    "region_code": "28",
    "postal_code": "27450"
  },
  {
    "name": "Sainte-Colombe-la-Commanderie",
    "code": "27524",
    "epci_code": "242700607",
    "departement_code": "27",
    "region_code": "28",
    "postal_code": "27110"
  },
  {
    "name": "Sainte-Colombe-près-Vernon",
    "code": "27525",
    "epci_code": "200072312",
    "departement_code": "27",
    "region_code": "28",
    "postal_code": "27950"
  },
  {
    "name": "Saint-Cyr-de-Salerne",
    "code": "27527",
    "epci_code": "200066413",
    "departement_code": "27",
    "region_code": "28",
    "postal_code": "27800"
  },
  {
    "name": "Le Vaudreuil",
    "code": "27528",
    "epci_code": "200089456",
    "departement_code": "27",
    "region_code": "28",
    "postal_code": "27100"
  },
  {
    "name": "Saint-Cyr-la-Campagne",
    "code": "27529",
    "epci_code": "200089456",
    "departement_code": "27",
    "region_code": "28",
    "postal_code": "27370"
  },
  {
    "name": "Saint-Denis-d’Augerons",
    "code": "27530",
    "epci_code": "200066413",
    "departement_code": "27",
    "region_code": "28",
    "postal_code": "27390"
  },
  {
    "name": "Saint-Denis-des-Monts",
    "code": "27531",
    "epci_code": "200066405",
    "departement_code": "27",
    "region_code": "28",
    "postal_code": "27520"
  },
  {
    "name": "Saint-Denis-le-Ferment",
    "code": "27533",
    "epci_code": "200071843",
    "departement_code": "27",
    "region_code": "28",
    "postal_code": "27140"
  },
  {
    "name": "Saint-Didier-des-Bois",
    "code": "27534",
    "epci_code": "200089456",
    "departement_code": "27",
    "region_code": "28",
    "postal_code": "27370"
  },
  {
    "name": "Saint-Élier",
    "code": "27535",
    "epci_code": "242700276",
    "departement_code": "27",
    "region_code": "28",
    "postal_code": "27190"
  },
  {
    "name": "Saint-Éloi-de-Fourques",
    "code": "27536",
    "epci_code": "200066413",
    "departement_code": "27",
    "region_code": "28",
    "postal_code": "27800"
  },
  {
    "name": "Saint-Étienne-du-Vauvray",
    "code": "27537",
    "epci_code": "200089456",
    "departement_code": "27",
    "region_code": "28",
    "postal_code": "27430"
  },
  {
    "name": "Saint-Étienne-l’Allier",
    "code": "27538",
    "epci_code": "200066017",
    "departement_code": "27",
    "region_code": "28",
    "postal_code": "27450"
  },
  {
    "name": "Saint-Étienne-sous-Bailleul",
    "code": "27539",
    "epci_code": "200089456",
    "departement_code": "27",
    "region_code": "28",
    "postal_code": "27920"
  },
  {
    "name": "Sainte-Geneviève-lès-Gasny",
    "code": "27540",
    "epci_code": "200072312",
    "departement_code": "27",
    "region_code": "28",
    "postal_code": "27620"
  },
  {
    "name": "Le Mesnil-Saint-Jean",
    "code": "27541",
    "epci_code": "200066017",
    "departement_code": "27",
    "region_code": "28",
    "postal_code": "27560"
  },
  {
    "name": "Saint-Georges-du-Vièvre",
    "code": "27542",
    "epci_code": "200066017",
    "departement_code": "27",
    "region_code": "28",
    "postal_code": "27450"
  },
  {
    "name": "Saint-Georges-Motel",
    "code": "27543",
    "epci_code": "200040277",
    "departement_code": "27",
    "region_code": "28",
    "postal_code": "27710"
  },
  {
    "name": "Saint-Germain-de-Fresney",
    "code": "27544",
    "epci_code": "200071454",
    "departement_code": "27",
    "region_code": "28",
    "postal_code": "27220"
  },
  {
    "name": "Saint-Germain-de-Pasquier",
    "code": "27545",
    "epci_code": "200089456",
    "departement_code": "27",
    "region_code": "28",
    "postal_code": "27370"
  },
  {
    "name": "Saint-Germain-des-Angles",
    "code": "27546",
    "epci_code": "200071454",
    "departement_code": "27",
    "region_code": "28",
    "postal_code": "27930"
  },
  {
    "name": "Saint-Germain-la-Campagne",
    "code": "27547",
    "epci_code": "200066017",
    "departement_code": "27",
    "region_code": "28",
    "postal_code": "27230"
  },
  {
    "name": "Saint-Germain-sur-Avre",
    "code": "27548",
    "epci_code": "200071454",
    "departement_code": "27",
    "region_code": "28",
    "postal_code": "27320"
  },
  {
    "name": "Saint-Grégoire-du-Vièvre",
    "code": "27550",
    "epci_code": "200066017",
    "departement_code": "27",
    "region_code": "28",
    "postal_code": "27450"
  },
  {
    "name": "Saint-Jean-du-Thenney",
    "code": "27552",
    "epci_code": "200066413",
    "departement_code": "27",
    "region_code": "28",
    "postal_code": "27270"
  },
  {
    "name": "Saint-Julien-de-la-Liègue",
    "code": "27553",
    "epci_code": "200089456",
    "departement_code": "27",
    "region_code": "28",
    "postal_code": "27600"
  },
  {
    "name": "La Chapelle-Longueville",
    "code": "27554",
    "epci_code": "200072312",
    "departement_code": "27",
    "region_code": "28",
    "postal_code": "27950"
  },
  {
    "name": "Saint-Laurent-des-Bois",
    "code": "27555",
    "epci_code": "200071454",
    "departement_code": "27",
    "region_code": "28",
    "postal_code": "27220"
  },
  {
    "name": "Saint-Laurent-du-Tencement",
    "code": "27556",
    "epci_code": "200066413",
    "departement_code": "27",
    "region_code": "28",
    "postal_code": "27390"
  },
  {
    "name": "Saint-Léger-de-Rôtes",
    "code": "27557",
    "epci_code": "200066413",
    "departement_code": "27",
    "region_code": "28",
    "postal_code": "27300"
  },
  {
    "name": "Saint-Léger-du-Gennetey",
    "code": "27558",
    "epci_code": "200066405",
    "departement_code": "27",
    "region_code": "28",
    "postal_code": "27520"
  },
  {
    "name": "Saint-Luc",
    "code": "27560",
    "epci_code": "200071454",
    "departement_code": "27",
    "region_code": "28",
    "postal_code": "27930"
  },
  {
    "name": "Saint-Maclou",
    "code": "27561",
    "epci_code": "200066827",
    "departement_code": "27",
    "region_code": "28",
    "postal_code": "27210"
  },
  {
    "name": "Saint-Marcel",
    "code": "27562",
    "epci_code": "200072312",
    "departement_code": "27",
    "region_code": "28",
    "postal_code": "27950"
  },
  {
    "name": "Saint-Mards-de-Blacarville",
    "code": "27563",
    "epci_code": "200065787",
    "departement_code": "27",
    "region_code": "28",
    "postal_code": "27500"
  },
  {
    "name": "Saint-Mards-de-Fresne",
    "code": "27564",
    "epci_code": "200066017",
    "departement_code": "27",
    "region_code": "28",
    "postal_code": "27230"
  },
  {
    "name": "Le Lesme",
    "code": "27565",
    "epci_code": "200066462",
    "departement_code": "27",
    "region_code": "28",
    "postal_code": "27160"
  },
  {
    "name": "Sainte-Marie-de-Vatimesnil",
    "code": "27567",
    "epci_code": "200071843",
    "departement_code": "27",
    "region_code": "28",
    "postal_code": "27150"
  },
  {
    "name": "Sainte-Marthe",
    "code": "27568",
    "epci_code": "242700276",
    "departement_code": "27",
    "region_code": "28",
    "postal_code": "27190"
  },
  {
    "name": "Saint-Martin-du-Tilleul",
    "code": "27569",
    "epci_code": "200066413",
    "departement_code": "27",
    "region_code": "28",
    "postal_code": "27300"
  },
  {
    "name": "Saint-Martin-la-Campagne",
    "code": "27570",
    "epci_code": "200071454",
    "departement_code": "27",
    "region_code": "28",
    "postal_code": "27930"
  },
  {
    "name": "Saint-Martin-Saint-Firmin",
    "code": "27571",
    "epci_code": "200066017",
    "departement_code": "27",
    "region_code": "28",
    "postal_code": "27450"
  },
  {
    "name": "Saint-Meslin-du-Bosc",
    "code": "27572",
    "epci_code": "242700607",
    "departement_code": "27",
    "region_code": "28",
    "postal_code": "27370"
  },
  {
    "name": "Sainte-Opportune-du-Bosc",
    "code": "27576",
    "epci_code": "242700607",
    "departement_code": "27",
    "region_code": "28",
    "postal_code": "27110"
  },
  {
    "name": "Sainte-Opportune-la-Mare",
    "code": "27577",
    "epci_code": "200066405",
    "departement_code": "27",
    "region_code": "28",
    "postal_code": "27680"
  },
  {
    "name": "Sainte-Marie-d’Attez",
    "code": "27578",
    "epci_code": "200066462",
    "departement_code": "27",
    "region_code": "28",
    "postal_code": "27160"
  },
  {
    "name": "Saint-Ouen-de-Pontcheuil",
    "code": "27579",
    "epci_code": "200066405",
    "departement_code": "27",
    "region_code": "28",
    "postal_code": "27370"
  },
  {
    "name": "Saint-Ouen-de-Thouberville",
    "code": "27580",
    "epci_code": "200066405",
    "departement_code": "27",
    "region_code": "28",
    "postal_code": "27310"
  },
  {
    "name": "Saint-Ouen-du-Tilleul",
    "code": "27582",
    "epci_code": "200066405",
    "departement_code": "27",
    "region_code": "28",
    "postal_code": "27670"
  },
  {
    "name": "Saint-Paul-de-Fourques",
    "code": "27584",
    "epci_code": "200066413",
    "departement_code": "27",
    "region_code": "28",
    "postal_code": "27800"
  },
  {
    "name": "Saint-Philbert-sur-Boissey",
    "code": "27586",
    "epci_code": "200066405",
    "departement_code": "27",
    "region_code": "28",
    "postal_code": "27520"
  },
  {
    "name": "Saint-Philbert-sur-Risle",
    "code": "27587",
    "epci_code": "200065787",
    "departement_code": "27",
    "region_code": "28",
    "postal_code": "27290"
  },
  {
    "name": "Saint-Pierre-de-Bailleul",
    "code": "27589",
    "epci_code": "200089456",
    "departement_code": "27",
    "region_code": "28",
    "postal_code": "27920"
  },
  {
    "name": "Saint-Pierre-de-Cernières",
    "code": "27590",
    "epci_code": "200066413",
    "departement_code": "27",
    "region_code": "28",
    "postal_code": "27390"
  },
  {
    "name": "Saint-Pierre-de-Cormeilles",
    "code": "27591",
    "epci_code": "200066017",
    "departement_code": "27",
    "region_code": "28",
    "postal_code": "27260"
  },
  {
    "name": "Saint-Pierre-de-Salerne",
    "code": "27592",
    "epci_code": "200066413",
    "departement_code": "27",
    "region_code": "28",
    "postal_code": "27800"
  },
  {
    "name": "Saint-Pierre-des-Fleurs",
    "code": "27593",
    "epci_code": "200066405",
    "departement_code": "27",
    "region_code": "28",
    "postal_code": "27370"
  },
  {
    "name": "Saint-Pierre-des-Ifs",
    "code": "27594",
    "epci_code": "200066017",
    "departement_code": "27",
    "region_code": "28",
    "postal_code": "27450"
  },
  {
    "name": "Saint-Pierre-du-Bosguérard",
    "code": "27595",
    "epci_code": "200066405",
    "departement_code": "27",
    "region_code": "28",
    "postal_code": "27370"
  },
  {
    "name": "Saint-Pierre-du-Val",
    "code": "27597",
    "epci_code": "200066827",
    "departement_code": "27",
    "region_code": "28",
    "postal_code": "27210"
  },
  {
    "name": "Saint-Pierre-du-Vauvray",
    "code": "27598",
    "epci_code": "200089456",
    "departement_code": "27",
    "region_code": "28",
    "postal_code": "27430"
  },
  {
    "name": "Saint-Pierre-la-Garenne",
    "code": "27599",
    "epci_code": "200089456",
    "departement_code": "27",
    "region_code": "28",
    "postal_code": "27600"
  },
  {
    "name": "Saint-Samson-de-la-Roque",
    "code": "27601",
    "epci_code": "200065787",
    "departement_code": "27",
    "region_code": "28",
    "postal_code": "27680"
  },
  {
    "name": "Saint-Sébastien-de-Morsent",
    "code": "27602",
    "epci_code": "200071454",
    "departement_code": "27",
    "region_code": "28",
    "postal_code": "27180"
  },
  {
    "name": "Saint-Siméon",
    "code": "27603",
    "epci_code": "200066017",
    "departement_code": "27",
    "region_code": "28",
    "postal_code": "27560"
  },
  {
    "name": "Saint-Sulpice-de-Grimbouville",
    "code": "27604",
    "epci_code": "200066827",
    "departement_code": "27",
    "region_code": "28",
    "postal_code": "27210"
  },
  {
    "name": "Saint-Sylvestre-de-Cormeilles",
    "code": "27605",
    "epci_code": "200066017",
    "departement_code": "27",
    "region_code": "28",
    "postal_code": "27260"
  },
  {
    "name": "Saint-Symphorien",
    "code": "27606",
    "epci_code": "200065787",
    "departement_code": "27",
    "region_code": "28",
    "postal_code": "27500"
  },
  {
    "name": "Saint-Victor-de-Chrétienville",
    "code": "27608",
    "epci_code": "200066413",
    "departement_code": "27",
    "region_code": "28",
    "postal_code": "27300"
  },
  {
    "name": "Saint-Victor-d’Épine",
    "code": "27609",
    "epci_code": "200066413",
    "departement_code": "27",
    "region_code": "28",
    "postal_code": "27800"
  },
  {
    "name": "Saint-Victor-sur-Avre",
    "code": "27610",
    "epci_code": "200066462",
    "departement_code": "27",
    "region_code": "28",
    "postal_code": "27130"
  },
  {
    "name": "Saint-Vigor",
    "code": "27611",
    "epci_code": "200071454",
    "departement_code": "27",
    "region_code": "28",
    "postal_code": "27930"
  },
  {
    "name": "Saint-Vincent-des-Bois",
    "code": "27612",
    "epci_code": "200072312",
    "departement_code": "27",
    "region_code": "28",
    "postal_code": "27950"
  },
  {
    "name": "Saint-Vincent-du-Boulay",
    "code": "27613",
    "epci_code": "200066017",
    "departement_code": "27",
    "region_code": "28",
    "postal_code": "27230"
  },
  {
    "name": "Sancourt",
    "code": "27614",
    "epci_code": "200071843",
    "departement_code": "27",
    "region_code": "28",
    "postal_code": "27150"
  },
  {
    "name": "Sassey",
    "code": "27615",
    "epci_code": "200071454",
    "departement_code": "27",
    "region_code": "28",
    "postal_code": "27930"
  },
  {
    "name": "La Saussaye",
    "code": "27616",
    "epci_code": "200089456",
    "departement_code": "27",
    "region_code": "28",
    "postal_code": "27370"
  },
  {
    "name": "Saussay-la-Campagne",
    "code": "27617",
    "epci_code": "200071843",
    "departement_code": "27",
    "region_code": "28",
    "postal_code": "27150"
  },
  {
    "name": "Sébécourt",
    "code": "27618",
    "epci_code": "242700276",
    "departement_code": "27",
    "region_code": "28",
    "postal_code": "27190"
  },
  {
    "name": "Selles",
    "code": "27620",
    "epci_code": "200065787",
    "departement_code": "27",
    "region_code": "28",
    "postal_code": "27500"
  },
  {
    "name": "Serez",
    "code": "27621",
    "epci_code": "200071454",
    "departement_code": "27",
    "region_code": "28",
    "postal_code": "27220"
  },
  {
    "name": "Serquigny",
    "code": "27622",
    "epci_code": "200066413",
    "departement_code": "27",
    "region_code": "28",
    "postal_code": "27470"
  },
  {
    "name": "Surtauville",
    "code": "27623",
    "epci_code": "200089456",
    "departement_code": "27",
    "region_code": "28",
    "postal_code": "27400"
  },
  {
    "name": "Surville",
    "code": "27624",
    "epci_code": "200089456",
    "departement_code": "27",
    "region_code": "28",
    "postal_code": "27400"
  },
  {
    "name": "Suzay",
    "code": "27625",
    "epci_code": "200072312",
    "departement_code": "27",
    "region_code": "28",
    "postal_code": "27420"
  },
  {
    "name": "Le Theil-Nolent",
    "code": "27627",
    "epci_code": "200066017",
    "departement_code": "27",
    "region_code": "28",
    "postal_code": "27230"
  },
  {
    "name": "Thiberville",
    "code": "27629",
    "epci_code": "200066017",
    "departement_code": "27",
    "region_code": "28",
    "postal_code": "27230"
  },
  {
    "name": "Thibouville",
    "code": "27630",
    "epci_code": "200066413",
    "departement_code": "27",
    "region_code": "28",
    "postal_code": "27800"
  },
  {
    "name": "Thierville",
    "code": "27631",
    "epci_code": "200065787",
    "departement_code": "27",
    "region_code": "28",
    "postal_code": "27290"
  },
  {
    "name": "Le Thil",
    "code": "27632",
    "epci_code": "200071843",
    "departement_code": "27",
    "region_code": "28",
    "postal_code": "27150"
  },
  {
    "name": "Les Thilliers-en-Vexin",
    "code": "27633",
    "epci_code": "200071843",
    "departement_code": "27",
    "region_code": "28",
    "postal_code": "27420"
  },
  {
    "name": "Le Thuit",
    "code": "27635",
    "epci_code": "200072312",
    "departement_code": "27",
    "region_code": "28",
    "postal_code": "27700"
  },
  {
    "name": "Le Thuit de l’Oison",
    "code": "27638",
    "epci_code": "200066405",
    "departement_code": "27",
    "region_code": "28",
    "postal_code": "27370"
  },
  {
    "name": "Tilleul-Dame-Agnès",
    "code": "27640",
    "epci_code": "242700276",
    "departement_code": "27",
    "region_code": "28",
    "postal_code": "27170"
  },
  {
    "name": "Le Tilleul-Lambert",
    "code": "27641",
    "epci_code": "242700607",
    "departement_code": "27",
    "region_code": "28",
    "postal_code": "27110"
  },
  {
    "name": "Tillières-sur-Avre",
    "code": "27643",
    "epci_code": "200066462",
    "departement_code": "27",
    "region_code": "28",
    "postal_code": "27570"
  },
  {
    "name": "Tilly",
    "code": "27644",
    "epci_code": "200072312",
    "departement_code": "27",
    "region_code": "28",
    "postal_code": "27510"
  },
  {
    "name": "Tocqueville",
    "code": "27645",
    "epci_code": "200066405",
    "departement_code": "27",
    "region_code": "28",
    "postal_code": "27500"
  },
  {
    "name": "Le Torpt",
    "code": "27646",
    "epci_code": "200066017",
    "departement_code": "27",
    "region_code": "28",
    "postal_code": "27210"
  },
  {
    "name": "Touffreville",
    "code": "27649",
    "epci_code": "200070142",
    "departement_code": "27",
    "region_code": "28",
    "postal_code": "27440"
  },
  {
    "name": "Tournedos-Bois-Hubert",
    "code": "27650",
    "epci_code": "242700607",
    "departement_code": "27",
    "region_code": "28",
    "postal_code": "27180"
  },
  {
    "name": "Tourneville",
    "code": "27652",
    "epci_code": "200071454",
    "departement_code": "27",
    "region_code": "28",
    "postal_code": "27930"
  },
  {
    "name": "Tourville-la-Campagne",
    "code": "27654",
    "epci_code": "242700607",
    "departement_code": "27",
    "region_code": "28",
    "postal_code": "27370"
  },
  {
    "name": "Tourville-sur-Pont-Audemer",
    "code": "27655",
    "epci_code": "200065787",
    "departement_code": "27",
    "region_code": "28",
    "postal_code": "27500"
  },
  {
    "name": "Toutainville",
    "code": "27656",
    "epci_code": "200065787",
    "departement_code": "27",
    "region_code": "28",
    "postal_code": "27500"
  },
  {
    "name": "Le Tremblay-Omonville",
    "code": "27658",
    "epci_code": "242700607",
    "departement_code": "27",
    "region_code": "28",
    "postal_code": "27110"
  },
  {
    "name": "La Trinité",
    "code": "27659",
    "epci_code": "200071454",
    "departement_code": "27",
    "region_code": "28",
    "postal_code": "27930"
  },
  {
    "name": "La Trinité-de-Réville",
    "code": "27660",
    "epci_code": "200066413",
    "departement_code": "27",
    "region_code": "28",
    "postal_code": "27270"
  },
  {
    "name": "La Trinité-de-Thouberville",
    "code": "27661",
    "epci_code": "200066405",
    "departement_code": "27",
    "region_code": "28",
    "postal_code": "27310"
  },
  {
    "name": "Triqueville",
    "code": "27662",
    "epci_code": "200065787",
    "departement_code": "27",
    "region_code": "28",
    "postal_code": "27500"
  },
  {
    "name": "Le Troncq",
    "code": "27663",
    "epci_code": "242700607",
    "departement_code": "27",
    "region_code": "28",
    "postal_code": "27110"
  },
  {
    "name": "Le Tronquay",
    "code": "27664",
    "epci_code": "200070142",
    "departement_code": "27",
    "region_code": "28",
    "postal_code": "27480"
  },
  {
    "name": "Trouville-la-Haule",
    "code": "27665",
    "epci_code": "200066405",
    "departement_code": "27",
    "region_code": "28",
    "postal_code": "27680"
  },
  {
    "name": "La Vacherie",
    "code": "27666",
    "epci_code": "200089456",
    "departement_code": "27",
    "region_code": "28",
    "postal_code": "27400"
  },
  {
    "name": "Valailles",
    "code": "27667",
    "epci_code": "200066413",
    "departement_code": "27",
    "region_code": "28",
    "postal_code": "27300"
  },
  {
    "name": "Le Val-David",
    "code": "27668",
    "epci_code": "200071454",
    "departement_code": "27",
    "region_code": "28",
    "postal_code": "27120"
  },
  {
    "name": "Valletot",
    "code": "27669",
    "epci_code": "200066405",
    "departement_code": "27",
    "region_code": "28",
    "postal_code": "27350"
  },
  {
    "name": "Vandrimare",
    "code": "27670",
    "epci_code": "200070142",
    "departement_code": "27",
    "region_code": "28",
    "postal_code": "27380"
  },
  {
    "name": "Vannecrocq",
    "code": "27671",
    "epci_code": "200066017",
    "departement_code": "27",
    "region_code": "28",
    "postal_code": "27210"
  },
  {
    "name": "Vascœuil",
    "code": "27672",
    "epci_code": "200070142",
    "departement_code": "27",
    "region_code": "28",
    "postal_code": "27910"
  },
  {
    "name": "Vatteville",
    "code": "27673",
    "epci_code": "200072312",
    "departement_code": "27",
    "region_code": "28",
    "postal_code": "27430"
  },
  {
    "name": "Vaux-sur-Eure",
    "code": "27674",
    "epci_code": "200072312",
    "departement_code": "27",
    "region_code": "28",
    "postal_code": "27120"
  },
  {
    "name": "Les Trois Lacs",
    "code": "27676",
    "epci_code": "200089456",
    "departement_code": "27",
    "region_code": "28",
    "postal_code": "27700"
  },
  {
    "name": "Les Trois Lacs",
    "code": "27676",
    "epci_code": "200089456",
    "departement_code": "27",
    "region_code": "28",
    "postal_code": "27940"
  },
  {
    "name": "Venon",
    "code": "27677",
    "epci_code": "242700607",
    "departement_code": "27",
    "region_code": "28",
    "postal_code": "27110"
  },
  {
    "name": "Les Ventes",
    "code": "27678",
    "epci_code": "200071454",
    "departement_code": "27",
    "region_code": "28",
    "postal_code": "27180"
  },
  {
    "name": "Verneuil d’Avre et d’Iton",
    "code": "27679",
    "epci_code": "200066462",
    "departement_code": "27",
    "region_code": "28",
    "postal_code": "27130"
  },
  {
    "name": "Verneuil d’Avre et d’Iton",
    "code": "27679",
    "epci_code": "200066462",
    "departement_code": "27",
    "region_code": "28",
    "postal_code": "27160"
  },
  {
    "name": "Verneusses",
    "code": "27680",
    "epci_code": "200066413",
    "departement_code": "27",
    "region_code": "28",
    "postal_code": "27390"
  },
  {
    "name": "Vernon",
    "code": "27681",
    "epci_code": "200072312",
    "departement_code": "27",
    "region_code": "28",
    "postal_code": "27200"
  },
  {
    "name": "Vesly",
    "code": "27682",
    "epci_code": "200071843",
    "departement_code": "27",
    "region_code": "28",
    "postal_code": "27870"
  },
  {
    "name": "Vézillon",
    "code": "27683",
    "epci_code": "200072312",
    "departement_code": "27",
    "region_code": "28",
    "postal_code": "27700"
  },
  {
    "name": "Le Vieil-Évreux",
    "code": "27684",
    "epci_code": "200071454",
    "departement_code": "27",
    "region_code": "28",
    "postal_code": "27930"
  },
  {
    "name": "La Vieille-Lyre",
    "code": "27685",
    "epci_code": "200066462",
    "departement_code": "27",
    "region_code": "28",
    "postal_code": "27330"
  },
  {
    "name": "Vieux-Port",
    "code": "27686",
    "epci_code": "200066405",
    "departement_code": "27",
    "region_code": "28",
    "postal_code": "27680"
  },
  {
    "name": "Villegats",
    "code": "27689",
    "epci_code": "200072312",
    "departement_code": "27",
    "region_code": "28",
    "postal_code": "27120"
  },
  {
    "name": "Villers-en-Vexin",
    "code": "27690",
    "epci_code": "200071843",
    "departement_code": "27",
    "region_code": "28",
    "postal_code": "27420"
  },
  {
    "name": "Villers-sur-le-Roule",
    "code": "27691",
    "epci_code": "200089456",
    "departement_code": "27",
    "region_code": "28",
    "postal_code": "27940"
  },
  {
    "name": "Villettes",
    "code": "27692",
    "epci_code": "242700607",
    "departement_code": "27",
    "region_code": "28",
    "postal_code": "27110"
  },
  {
    "name": "Sylvains-Lès-Moulins",
    "code": "27693",
    "epci_code": "200066462",
    "departement_code": "27",
    "region_code": "28",
    "postal_code": "27240"
  },
  {
    "name": "Villez-sous-Bailleul",
    "code": "27694",
    "epci_code": "200072312",
    "departement_code": "27",
    "region_code": "28",
    "postal_code": "27950"
  },
  {
    "name": "Villez-sur-le-Neubourg",
    "code": "27695",
    "epci_code": "242700607",
    "departement_code": "27",
    "region_code": "28",
    "postal_code": "27110"
  },
  {
    "name": "Villiers-en-Désœuvre",
    "code": "27696",
    "epci_code": "200072312",
    "departement_code": "27",
    "region_code": "28",
    "postal_code": "27640"
  },
  {
    "name": "Vironvay",
    "code": "27697",
    "epci_code": "200089456",
    "departement_code": "27",
    "region_code": "28",
    "postal_code": "27400"
  },
  {
    "name": "Vitot",
    "code": "27698",
    "epci_code": "242700607",
    "departement_code": "27",
    "region_code": "28",
    "postal_code": "27110"
  },
  {
    "name": "Voiscreville",
    "code": "27699",
    "epci_code": "200066405",
    "departement_code": "27",
    "region_code": "28",
    "postal_code": "27520"
  },
  {
    "name": "Vraiville",
    "code": "27700",
    "epci_code": "200089456",
    "departement_code": "27",
    "region_code": "28",
    "postal_code": "27370"
  },
  {
    "name": "Val-de-Reuil",
    "code": "27701",
    "epci_code": "200089456",
    "departement_code": "27",
    "region_code": "28",
    "postal_code": "27100"
  }
]