[
  {
    "name": "Agen",
    "code": "47001",
    "epci_code": "200096956",
    "departement_code": "47",
    "region_code": "75",
    "postal_code": "47000"
  },
  {
    "name": "Agmé",
    "code": "47002",
    "epci_code": "200030674",
    "departement_code": "47",
    "region_code": "75",
    "postal_code": "47350"
  },
  {
    "name": "Agnac",
    "code": "47003",
    "epci_code": "244700464",
    "departement_code": "47",
    "region_code": "75",
    "postal_code": "47800"
  },
  {
    "name": "Aiguillon",
    "code": "47004",
    "epci_code": "200068922",
    "departement_code": "47",
    "region_code": "75",
    "postal_code": "47190"
  },
  {
    "name": "Allemans-du-Dropt",
    "code": "47005",
    "epci_code": "244700464",
    "departement_code": "47",
    "region_code": "75",
    "postal_code": "47800"
  },
  {
    "name": "Allez-et-Cazeneuve",
    "code": "47006",
    "epci_code": "200023307",
    "departement_code": "47",
    "region_code": "75",
    "postal_code": "47110"
  },
  {
    "name": "Allons",
    "code": "47007",
    "epci_code": "244701355",
    "departement_code": "47",
    "region_code": "75",
    "postal_code": "47420"
  },
  {
    "name": "Ambrus",
    "code": "47008",
    "epci_code": "200068922",
    "departement_code": "47",
    "region_code": "75",
    "postal_code": "47160"
  },
  {
    "name": "Andiran",
    "code": "47009",
    "epci_code": "200068948",
    "departement_code": "47",
    "region_code": "75",
    "postal_code": "47170"
  },
  {
    "name": "Antagnac",
    "code": "47010",
    "epci_code": "244701355",
    "departement_code": "47",
    "region_code": "75",
    "postal_code": "47700"
  },
  {
    "name": "Anthé",
    "code": "47011",
    "epci_code": "200068930",
    "departement_code": "47",
    "region_code": "75",
    "postal_code": "47370"
  },
  {
    "name": "Anzex",
    "code": "47012",
    "epci_code": "244701355",
    "departement_code": "47",
    "region_code": "75",
    "postal_code": "47700"
  },
  {
    "name": "Argenton",
    "code": "47013",
    "epci_code": "244701355",
    "departement_code": "47",
    "region_code": "75",
    "postal_code": "47250"
  },
  {
    "name": "Armillac",
    "code": "47014",
    "epci_code": "244700464",
    "departement_code": "47",
    "region_code": "75",
    "postal_code": "47800"
  },
  {
    "name": "Astaffort",
    "code": "47015",
    "epci_code": "200096956",
    "departement_code": "47",
    "region_code": "75",
    "postal_code": "47220"
  },
  {
    "name": "Aubiac",
    "code": "47016",
    "epci_code": "200096956",
    "departement_code": "47",
    "region_code": "75",
    "postal_code": "47310"
  },
  {
    "name": "Auradou",
    "code": "47017",
    "epci_code": "200068930",
    "departement_code": "47",
    "region_code": "75",
    "postal_code": "47140"
  },
  {
    "name": "Auriac-sur-Dropt",
    "code": "47018",
    "epci_code": "244700449",
    "departement_code": "47",
    "region_code": "75",
    "postal_code": "47120"
  },
  {
    "name": "Bajamont",
    "code": "47019",
    "epci_code": "200096956",
    "departement_code": "47",
    "region_code": "75",
    "postal_code": "47480"
  },
  {
    "name": "Baleyssagues",
    "code": "47020",
    "epci_code": "244700449",
    "departement_code": "47",
    "region_code": "75",
    "postal_code": "47120"
  },
  {
    "name": "Barbaste",
    "code": "47021",
    "epci_code": "200068948",
    "departement_code": "47",
    "region_code": "75",
    "postal_code": "47230"
  },
  {
    "name": "Bazens",
    "code": "47022",
    "epci_code": "200068922",
    "departement_code": "47",
    "region_code": "75",
    "postal_code": "47130"
  },
  {
    "name": "Beaugas",
    "code": "47023",
    "epci_code": "200036523",
    "departement_code": "47",
    "region_code": "75",
    "postal_code": "47290"
  },
  {
    "name": "Beaupuy",
    "code": "47024",
    "epci_code": "200030674",
    "departement_code": "47",
    "region_code": "75",
    "postal_code": "47200"
  },
  {
    "name": "Beauville",
    "code": "47025",
    "epci_code": "200096956",
    "departement_code": "47",
    "region_code": "75",
    "postal_code": "47470"
  },
  {
    "name": "Beauziac",
    "code": "47026",
    "epci_code": "244701355",
    "departement_code": "47",
    "region_code": "75",
    "postal_code": "47700"
  },
  {
    "name": "Bias",
    "code": "47027",
    "epci_code": "200023307",
    "departement_code": "47",
    "region_code": "75",
    "postal_code": "47300"
  },
  {
    "name": "Birac-sur-Trec",
    "code": "47028",
    "epci_code": "200030674",
    "departement_code": "47",
    "region_code": "75",
    "postal_code": "47200"
  },
  {
    "name": "Blanquefort-sur-Briolance",
    "code": "47029",
    "epci_code": "200068930",
    "departement_code": "47",
    "region_code": "75",
    "postal_code": "47500"
  },
  {
    "name": "Blaymont",
    "code": "47030",
    "epci_code": "200096956",
    "departement_code": "47",
    "region_code": "75",
    "postal_code": "47470"
  },
  {
    "name": "Boé",
    "code": "47031",
    "epci_code": "200096956",
    "departement_code": "47",
    "region_code": "75",
    "postal_code": "47550"
  },
  {
    "name": "Bon-Encontre",
    "code": "47032",
    "epci_code": "200096956",
    "departement_code": "47",
    "region_code": "75",
    "postal_code": "47240"
  },
  {
    "name": "Boudy-de-Beauregard",
    "code": "47033",
    "epci_code": "200036523",
    "departement_code": "47",
    "region_code": "75",
    "postal_code": "47290"
  },
  {
    "name": "Bouglon",
    "code": "47034",
    "epci_code": "244701355",
    "departement_code": "47",
    "region_code": "75",
    "postal_code": "47250"
  },
  {
    "name": "Bourgougnague",
    "code": "47035",
    "epci_code": "244700464",
    "departement_code": "47",
    "region_code": "75",
    "postal_code": "47410"
  },
  {
    "name": "Bourlens",
    "code": "47036",
    "epci_code": "200068930",
    "departement_code": "47",
    "region_code": "75",
    "postal_code": "47370"
  },
  {
    "name": "Bournel",
    "code": "47037",
    "epci_code": "200036523",
    "departement_code": "47",
    "region_code": "75",
    "postal_code": "47210"
  },
  {
    "name": "Bourran",
    "code": "47038",
    "epci_code": "200068922",
    "departement_code": "47",
    "region_code": "75",
    "postal_code": "47320"
  },
  {
    "name": "Boussès",
    "code": "47039",
    "epci_code": "244701355",
    "departement_code": "47",
    "region_code": "75",
    "postal_code": "47420"
  },
  {
    "name": "Brax",
    "code": "47040",
    "epci_code": "200096956",
    "departement_code": "47",
    "region_code": "75",
    "postal_code": "47310"
  },
  {
    "name": "Bruch",
    "code": "47041",
    "epci_code": "200068948",
    "departement_code": "47",
    "region_code": "75",
    "postal_code": "47130"
  },
  {
    "name": "Brugnac",
    "code": "47042",
    "epci_code": "244701405",
    "departement_code": "47",
    "region_code": "75",
    "postal_code": "47260"
  },
  {
    "name": "Buzet-sur-Baïse",
    "code": "47043",
    "epci_code": "200068948",
    "departement_code": "47",
    "region_code": "75",
    "postal_code": "47160"
  },
  {
    "name": "Cahuzac",
    "code": "47044",
    "epci_code": "200036523",
    "departement_code": "47",
    "region_code": "75",
    "postal_code": "47330"
  },
  {
    "name": "Calignac",
    "code": "47045",
    "epci_code": "200068948",
    "departement_code": "47",
    "region_code": "75",
    "postal_code": "47600"
  },
  {
    "name": "Calonges",
    "code": "47046",
    "epci_code": "200030674",
    "departement_code": "47",
    "region_code": "75",
    "postal_code": "47430"
  },
  {
    "name": "Cambes",
    "code": "47047",
    "epci_code": "244700464",
    "departement_code": "47",
    "region_code": "75",
    "postal_code": "47350"
  },
  {
    "name": "Cancon",
    "code": "47048",
    "epci_code": "200036523",
    "departement_code": "47",
    "region_code": "75",
    "postal_code": "47290"
  },
  {
    "name": "Casseneuil",
    "code": "47049",
    "epci_code": "200023307",
    "departement_code": "47",
    "region_code": "75",
    "postal_code": "47440"
  },
  {
    "name": "Cassignas",
    "code": "47050",
    "epci_code": "200023307",
    "departement_code": "47",
    "region_code": "75",
    "postal_code": "47340"
  },
  {
    "name": "Castelculier",
    "code": "47051",
    "epci_code": "200096956",
    "departement_code": "47",
    "region_code": "75",
    "postal_code": "47240"
  },
  {
    "name": "Casteljaloux",
    "code": "47052",
    "epci_code": "244701355",
    "departement_code": "47",
    "region_code": "75",
    "postal_code": "47700"
  },
  {
    "name": "Castella",
    "code": "47053",
    "epci_code": "200023307",
    "departement_code": "47",
    "region_code": "75",
    "postal_code": "47340"
  },
  {
    "name": "Castelmoron-sur-Lot",
    "code": "47054",
    "epci_code": "244701405",
    "departement_code": "47",
    "region_code": "75",
    "postal_code": "47260"
  },
  {
    "name": "Castelnaud-de-Gratecambe",
    "code": "47055",
    "epci_code": "200036523",
    "departement_code": "47",
    "region_code": "75",
    "postal_code": "47290"
  },
  {
    "name": "Castelnau-sur-Gupie",
    "code": "47056",
    "epci_code": "200030674",
    "departement_code": "47",
    "region_code": "75",
    "postal_code": "47180"
  },
  {
    "name": "Castillonnès",
    "code": "47057",
    "epci_code": "200036523",
    "departement_code": "47",
    "region_code": "75",
    "postal_code": "47330"
  },
  {
    "name": "Caubeyres",
    "code": "47058",
    "epci_code": "244701355",
    "departement_code": "47",
    "region_code": "75",
    "postal_code": "47160"
  },
  {
    "name": "Caubon-Saint-Sauveur",
    "code": "47059",
    "epci_code": "200030674",
    "departement_code": "47",
    "region_code": "75",
    "postal_code": "47120"
  },
  {
    "name": "Caudecoste",
    "code": "47060",
    "epci_code": "200096956",
    "departement_code": "47",
    "region_code": "75",
    "postal_code": "47220"
  },
  {
    "name": "Caumont-sur-Garonne",
    "code": "47061",
    "epci_code": "200030674",
    "departement_code": "47",
    "region_code": "75",
    "postal_code": "47430"
  },
  {
    "name": "Cauzac",
    "code": "47062",
    "epci_code": "200096956",
    "departement_code": "47",
    "region_code": "75",
    "postal_code": "47470"
  },
  {
    "name": "Cavarc",
    "code": "47063",
    "epci_code": "200036523",
    "departement_code": "47",
    "region_code": "75",
    "postal_code": "47330"
  },
  {
    "name": "Cazideroque",
    "code": "47064",
    "epci_code": "200068930",
    "departement_code": "47",
    "region_code": "75",
    "postal_code": "47370"
  },
  {
    "name": "Clairac",
    "code": "47065",
    "epci_code": "200030674",
    "departement_code": "47",
    "region_code": "75",
    "postal_code": "47320"
  },
  {
    "name": "Clermont-Dessous",
    "code": "47066",
    "epci_code": "200068922",
    "departement_code": "47",
    "region_code": "75",
    "postal_code": "47130"
  },
  {
    "name": "Clermont-Soubiran",
    "code": "47067",
    "epci_code": "248200016",
    "departement_code": "47",
    "region_code": "75",
    "postal_code": "47270"
  },
  {
    "name": "Cocumont",
    "code": "47068",
    "epci_code": "200030674",
    "departement_code": "47",
    "region_code": "75",
    "postal_code": "47250"
  },
  {
    "name": "Colayrac-Saint-Cirq",
    "code": "47069",
    "epci_code": "200096956",
    "departement_code": "47",
    "region_code": "75",
    "postal_code": "47450"
  },
  {
    "name": "Condezaygues",
    "code": "47070",
    "epci_code": "200068930",
    "departement_code": "47",
    "region_code": "75",
    "postal_code": "47500"
  },
  {
    "name": "Coulx",
    "code": "47071",
    "epci_code": "244701405",
    "departement_code": "47",
    "region_code": "75",
    "postal_code": "47260"
  },
  {
    "name": "Courbiac",
    "code": "47072",
    "epci_code": "200068930",
    "departement_code": "47",
    "region_code": "75",
    "postal_code": "47370"
  },
  {
    "name": "Cours",
    "code": "47073",
    "epci_code": "200068922",
    "departement_code": "47",
    "region_code": "75",
    "postal_code": "47360"
  },
  {
    "name": "Couthures-sur-Garonne",
    "code": "47074",
    "epci_code": "200030674",
    "departement_code": "47",
    "region_code": "75",
    "postal_code": "47180"
  },
  {
    "name": "La Croix-Blanche",
    "code": "47075",
    "epci_code": "200023307",
    "departement_code": "47",
    "region_code": "75",
    "postal_code": "47340"
  },
  {
    "name": "Cuq",
    "code": "47076",
    "epci_code": "200096956",
    "departement_code": "47",
    "region_code": "75",
    "postal_code": "47220"
  },
  {
    "name": "Cuzorn",
    "code": "47077",
    "epci_code": "200068930",
    "departement_code": "47",
    "region_code": "75",
    "postal_code": "47500"
  },
  {
    "name": "Damazan",
    "code": "47078",
    "epci_code": "200068922",
    "departement_code": "47",
    "region_code": "75",
    "postal_code": "47160"
  },
  {
    "name": "Dausse",
    "code": "47079",
    "epci_code": "200068930",
    "departement_code": "47",
    "region_code": "75",
    "postal_code": "47140"
  },
  {
    "name": "Dévillac",
    "code": "47080",
    "epci_code": "200036523",
    "departement_code": "47",
    "region_code": "75",
    "postal_code": "47210"
  },
  {
    "name": "Dolmayrac",
    "code": "47081",
    "epci_code": "200023307",
    "departement_code": "47",
    "region_code": "75",
    "postal_code": "47110"
  },
  {
    "name": "Dondas",
    "code": "47082",
    "epci_code": "200096956",
    "departement_code": "47",
    "region_code": "75",
    "postal_code": "47470"
  },
  {
    "name": "Doudrac",
    "code": "47083",
    "epci_code": "200036523",
    "departement_code": "47",
    "region_code": "75",
    "postal_code": "47210"
  },
  {
    "name": "Douzains",
    "code": "47084",
    "epci_code": "200036523",
    "departement_code": "47",
    "region_code": "75",
    "postal_code": "47330"
  },
  {
    "name": "Durance",
    "code": "47085",
    "epci_code": "244701355",
    "departement_code": "47",
    "region_code": "75",
    "postal_code": "47420"
  },
  {
    "name": "Duras",
    "code": "47086",
    "epci_code": "244700449",
    "departement_code": "47",
    "region_code": "75",
    "postal_code": "47120"
  },
  {
    "name": "Engayrac",
    "code": "47087",
    "epci_code": "200096956",
    "departement_code": "47",
    "region_code": "75",
    "postal_code": "47470"
  },
  {
    "name": "Escassefort",
    "code": "47088",
    "epci_code": "200030674",
    "departement_code": "47",
    "region_code": "75",
    "postal_code": "47350"
  },
  {
    "name": "Esclottes",
    "code": "47089",
    "epci_code": "244700449",
    "departement_code": "47",
    "region_code": "75",
    "postal_code": "47120"
  },
  {
    "name": "Espiens",
    "code": "47090",
    "epci_code": "200068948",
    "departement_code": "47",
    "region_code": "75",
    "postal_code": "47600"
  },
  {
    "name": "Estillac",
    "code": "47091",
    "epci_code": "200096956",
    "departement_code": "47",
    "region_code": "75",
    "postal_code": "47310"
  },
  {
    "name": "Fals",
    "code": "47092",
    "epci_code": "200096956",
    "departement_code": "47",
    "region_code": "75",
    "postal_code": "47220"
  },
  {
    "name": "Fargues-sur-Ourbise",
    "code": "47093",
    "epci_code": "244701355",
    "departement_code": "47",
    "region_code": "75",
    "postal_code": "47700"
  },
  {
    "name": "Fauguerolles",
    "code": "47094",
    "epci_code": "200030674",
    "departement_code": "47",
    "region_code": "75",
    "postal_code": "47400"
  },
  {
    "name": "Fauillet",
    "code": "47095",
    "epci_code": "200030674",
    "departement_code": "47",
    "region_code": "75",
    "postal_code": "47400"
  },
  {
    "name": "Ferrensac",
    "code": "47096",
    "epci_code": "200036523",
    "departement_code": "47",
    "region_code": "75",
    "postal_code": "47330"
  },
  {
    "name": "Feugarolles",
    "code": "47097",
    "epci_code": "200068948",
    "departement_code": "47",
    "region_code": "75",
    "postal_code": "47230"
  },
  {
    "name": "Fieux",
    "code": "47098",
    "epci_code": "200068948",
    "departement_code": "47",
    "region_code": "75",
    "postal_code": "47600"
  },
  {
    "name": "Fongrave",
    "code": "47099",
    "epci_code": "200023307",
    "departement_code": "47",
    "region_code": "75",
    "postal_code": "47260"
  },
  {
    "name": "Foulayronnes",
    "code": "47100",
    "epci_code": "200096956",
    "departement_code": "47",
    "region_code": "75",
    "postal_code": "47510"
  },
  {
    "name": "Fourques-sur-Garonne",
    "code": "47101",
    "epci_code": "200030674",
    "departement_code": "47",
    "region_code": "75",
    "postal_code": "47200"
  },
  {
    "name": "Francescas",
    "code": "47102",
    "epci_code": "200068948",
    "departement_code": "47",
    "region_code": "75",
    "postal_code": "47600"
  },
  {
    "name": "Fréchou",
    "code": "47103",
    "epci_code": "200068948",
    "departement_code": "47",
    "region_code": "75",
    "postal_code": "47600"
  },
  {
    "name": "Frégimont",
    "code": "47104",
    "epci_code": "200068922",
    "departement_code": "47",
    "region_code": "75",
    "postal_code": "47360"
  },
  {
    "name": "Frespech",
    "code": "47105",
    "epci_code": "200068930",
    "departement_code": "47",
    "region_code": "75",
    "postal_code": "47140"
  },
  {
    "name": "Fumel",
    "code": "47106",
    "epci_code": "200068930",
    "departement_code": "47",
    "region_code": "75",
    "postal_code": "47500"
  },
  {
    "name": "Galapian",
    "code": "47107",
    "epci_code": "200068922",
    "departement_code": "47",
    "region_code": "75",
    "postal_code": "47190"
  },
  {
    "name": "Gaujac",
    "code": "47108",
    "epci_code": "200030674",
    "departement_code": "47",
    "region_code": "75",
    "postal_code": "47200"
  },
  {
    "name": "Gavaudun",
    "code": "47109",
    "epci_code": "200036523",
    "departement_code": "47",
    "region_code": "75",
    "postal_code": "47150"
  },
  {
    "name": "Gontaud-de-Nogaret",
    "code": "47110",
    "epci_code": "200030674",
    "departement_code": "47",
    "region_code": "75",
    "postal_code": "47400"
  },
  {
    "name": "Granges-sur-Lot",
    "code": "47111",
    "epci_code": "200068922",
    "departement_code": "47",
    "region_code": "75",
    "postal_code": "47260"
  },
  {
    "name": "Grateloup-Saint-Gayrand",
    "code": "47112",
    "epci_code": "200030674",
    "departement_code": "47",
    "region_code": "75",
    "postal_code": "47400"
  },
  {
    "name": "Grayssas",
    "code": "47113",
    "epci_code": "248200016",
    "departement_code": "47",
    "region_code": "75",
    "postal_code": "47270"
  },
  {
    "name": "Grézet-Cavagnan",
    "code": "47114",
    "epci_code": "244701355",
    "departement_code": "47",
    "region_code": "75",
    "postal_code": "47250"
  },
  {
    "name": "Guérin",
    "code": "47115",
    "epci_code": "244701355",
    "departement_code": "47",
    "region_code": "75",
    "postal_code": "47250"
  },
  {
    "name": "Hautefage-la-Tour",
    "code": "47117",
    "epci_code": "200023307",
    "departement_code": "47",
    "region_code": "75",
    "postal_code": "47340"
  },
  {
    "name": "Hautesvignes",
    "code": "47118",
    "epci_code": "244701405",
    "departement_code": "47",
    "region_code": "75",
    "postal_code": "47400"
  },
  {
    "name": "Houeillès",
    "code": "47119",
    "epci_code": "244701355",
    "departement_code": "47",
    "region_code": "75",
    "postal_code": "47420"
  },
  {
    "name": "Jusix",
    "code": "47120",
    "epci_code": "200030674",
    "departement_code": "47",
    "region_code": "75",
    "postal_code": "47180"
  },
  {
    "name": "Labastide-Castel-Amouroux",
    "code": "47121",
    "epci_code": "244701355",
    "departement_code": "47",
    "region_code": "75",
    "postal_code": "47250"
  },
  {
    "name": "Labretonie",
    "code": "47122",
    "epci_code": "244701405",
    "departement_code": "47",
    "region_code": "75",
    "postal_code": "47350"
  },
  {
    "name": "Lacapelle-Biron",
    "code": "47123",
    "epci_code": "200068930",
    "departement_code": "47",
    "region_code": "75",
    "postal_code": "47150"
  },
  {
    "name": "Lacaussade",
    "code": "47124",
    "epci_code": "200036523",
    "departement_code": "47",
    "region_code": "75",
    "postal_code": "47150"
  },
  {
    "name": "Lacépède",
    "code": "47125",
    "epci_code": "200068922",
    "departement_code": "47",
    "region_code": "75",
    "postal_code": "47360"
  },
  {
    "name": "Lachapelle",
    "code": "47126",
    "epci_code": "244700464",
    "departement_code": "47",
    "region_code": "75",
    "postal_code": "47350"
  },
  {
    "name": "Lafitte-sur-Lot",
    "code": "47127",
    "epci_code": "200030674",
    "departement_code": "47",
    "region_code": "75",
    "postal_code": "47320"
  },
  {
    "name": "Lafox",
    "code": "47128",
    "epci_code": "200096956",
    "departement_code": "47",
    "region_code": "75",
    "postal_code": "47240"
  },
  {
    "name": "Lagarrigue",
    "code": "47129",
    "epci_code": "200068922",
    "departement_code": "47",
    "region_code": "75",
    "postal_code": "47190"
  },
  {
    "name": "Lagruère",
    "code": "47130",
    "epci_code": "200030674",
    "departement_code": "47",
    "region_code": "75",
    "postal_code": "47400"
  },
  {
    "name": "Lagupie",
    "code": "47131",
    "epci_code": "200030674",
    "departement_code": "47",
    "region_code": "75",
    "postal_code": "47180"
  },
  {
    "name": "Lalandusse",
    "code": "47132",
    "epci_code": "200036523",
    "departement_code": "47",
    "region_code": "75",
    "postal_code": "47330"
  },
  {
    "name": "Lamontjoie",
    "code": "47133",
    "epci_code": "200068948",
    "departement_code": "47",
    "region_code": "75",
    "postal_code": "47310"
  },
  {
    "name": "Lannes",
    "code": "47134",
    "epci_code": "200068948",
    "departement_code": "47",
    "region_code": "75",
    "postal_code": "47170"
  },
  {
    "name": "Laparade",
    "code": "47135",
    "epci_code": "244701405",
    "departement_code": "47",
    "region_code": "75",
    "postal_code": "47260"
  },
  {
    "name": "Laperche",
    "code": "47136",
    "epci_code": "244700464",
    "departement_code": "47",
    "region_code": "75",
    "postal_code": "47800"
  },
  {
    "name": "Laplume",
    "code": "47137",
    "epci_code": "200096956",
    "departement_code": "47",
    "region_code": "75",
    "postal_code": "47310"
  },
  {
    "name": "Laroque-Timbaut",
    "code": "47138",
    "epci_code": "200023307",
    "departement_code": "47",
    "region_code": "75",
    "postal_code": "47340"
  },
  {
    "name": "Lasserre",
    "code": "47139",
    "epci_code": "200068948",
    "departement_code": "47",
    "region_code": "75",
    "postal_code": "47600"
  },
  {
    "name": "Laugnac",
    "code": "47140",
    "epci_code": "200068922",
    "departement_code": "47",
    "region_code": "75",
    "postal_code": "47360"
  },
  {
    "name": "Laussou",
    "code": "47141",
    "epci_code": "200036523",
    "departement_code": "47",
    "region_code": "75",
    "postal_code": "47150"
  },
  {
    "name": "Lauzun",
    "code": "47142",
    "epci_code": "244700464",
    "departement_code": "47",
    "region_code": "75",
    "postal_code": "47410"
  },
  {
    "name": "Lavardac",
    "code": "47143",
    "epci_code": "200068948",
    "departement_code": "47",
    "region_code": "75",
    "postal_code": "47230"
  },
  {
    "name": "Lavergne",
    "code": "47144",
    "epci_code": "244700464",
    "departement_code": "47",
    "region_code": "75",
    "postal_code": "47800"
  },
  {
    "name": "Layrac",
    "code": "47145",
    "epci_code": "200096956",
    "departement_code": "47",
    "region_code": "75",
    "postal_code": "47390"
  },
  {
    "name": "Lédat",
    "code": "47146",
    "epci_code": "200023307",
    "departement_code": "47",
    "region_code": "75",
    "postal_code": "47300"
  },
  {
    "name": "Lévignac-de-Guyenne",
    "code": "47147",
    "epci_code": "244700449",
    "departement_code": "47",
    "region_code": "75",
    "postal_code": "47120"
  },
  {
    "name": "Leyritz-Moncassin",
    "code": "47148",
    "epci_code": "244701355",
    "departement_code": "47",
    "region_code": "75",
    "postal_code": "47700"
  },
  {
    "name": "Longueville",
    "code": "47150",
    "epci_code": "200030674",
    "departement_code": "47",
    "region_code": "75",
    "postal_code": "47200"
  },
  {
    "name": "Loubès-Bernac",
    "code": "47151",
    "epci_code": "244700449",
    "departement_code": "47",
    "region_code": "75",
    "postal_code": "47120"
  },
  {
    "name": "Lougratte",
    "code": "47152",
    "epci_code": "200036523",
    "departement_code": "47",
    "region_code": "75",
    "postal_code": "47290"
  },
  {
    "name": "Lusignan-Petit",
    "code": "47154",
    "epci_code": "200068922",
    "departement_code": "47",
    "region_code": "75",
    "postal_code": "47360"
  },
  {
    "name": "Madaillan",
    "code": "47155",
    "epci_code": "200068922",
    "departement_code": "47",
    "region_code": "75",
    "postal_code": "47360"
  },
  {
    "name": "Marcellus",
    "code": "47156",
    "epci_code": "200030674",
    "departement_code": "47",
    "region_code": "75",
    "postal_code": "47200"
  },
  {
    "name": "Marmande",
    "code": "47157",
    "epci_code": "200030674",
    "departement_code": "47",
    "region_code": "75",
    "postal_code": "47200"
  },
  {
    "name": "Marmont-Pachas",
    "code": "47158",
    "epci_code": "200096956",
    "departement_code": "47",
    "region_code": "75",
    "postal_code": "47220"
  },
  {
    "name": "Le Mas-d’Agenais",
    "code": "47159",
    "epci_code": "200030674",
    "departement_code": "47",
    "region_code": "75",
    "postal_code": "47430"
  },
  {
    "name": "Masquières",
    "code": "47160",
    "epci_code": "200068930",
    "departement_code": "47",
    "region_code": "75",
    "postal_code": "47370"
  },
  {
    "name": "Massels",
    "code": "47161",
    "epci_code": "200068930",
    "departement_code": "47",
    "region_code": "75",
    "postal_code": "47140"
  },
  {
    "name": "Massoulès",
    "code": "47162",
    "epci_code": "200068930",
    "departement_code": "47",
    "region_code": "75",
    "postal_code": "47140"
  },
  {
    "name": "Mauvezin-sur-Gupie",
    "code": "47163",
    "epci_code": "200030674",
    "departement_code": "47",
    "region_code": "75",
    "postal_code": "47200"
  },
  {
    "name": "Mazières-Naresse",
    "code": "47164",
    "epci_code": "200036523",
    "departement_code": "47",
    "region_code": "75",
    "postal_code": "47210"
  },
  {
    "name": "Meilhan-sur-Garonne",
    "code": "47165",
    "epci_code": "200030674",
    "departement_code": "47",
    "region_code": "75",
    "postal_code": "47180"
  },
  {
    "name": "Mézin",
    "code": "47167",
    "epci_code": "200068948",
    "departement_code": "47",
    "region_code": "75",
    "postal_code": "47170"
  },
  {
    "name": "Miramont-de-Guyenne",
    "code": "47168",
    "epci_code": "244700464",
    "departement_code": "47",
    "region_code": "75",
    "postal_code": "47800"
  },
  {
    "name": "Moirax",
    "code": "47169",
    "epci_code": "200096956",
    "departement_code": "47",
    "region_code": "75",
    "postal_code": "47310"
  },
  {
    "name": "Monbahus",
    "code": "47170",
    "epci_code": "200036523",
    "departement_code": "47",
    "region_code": "75",
    "postal_code": "47290"
  },
  {
    "name": "Monbalen",
    "code": "47171",
    "epci_code": "200023307",
    "departement_code": "47",
    "region_code": "75",
    "postal_code": "47340"
  },
  {
    "name": "Moncaut",
    "code": "47172",
    "epci_code": "200068948",
    "departement_code": "47",
    "region_code": "75",
    "postal_code": "47310"
  },
  {
    "name": "Monclar",
    "code": "47173",
    "epci_code": "244701405",
    "departement_code": "47",
    "region_code": "75",
    "postal_code": "47380"
  },
  {
    "name": "Moncrabeau",
    "code": "47174",
    "epci_code": "200068948",
    "departement_code": "47",
    "region_code": "75",
    "postal_code": "47600"
  },
  {
    "name": "Monflanquin",
    "code": "47175",
    "epci_code": "200036523",
    "departement_code": "47",
    "region_code": "75",
    "postal_code": "47150"
  },
  {
    "name": "Montgaillard-en-Albret",
    "code": "47176",
    "epci_code": "200068948",
    "departement_code": "47",
    "region_code": "75",
    "postal_code": "47230"
  },
  {
    "name": "Monheurt",
    "code": "47177",
    "epci_code": "200068922",
    "departement_code": "47",
    "region_code": "75",
    "postal_code": "47160"
  },
  {
    "name": "Monségur",
    "code": "47178",
    "epci_code": "200036523",
    "departement_code": "47",
    "region_code": "75",
    "postal_code": "47150"
  },
  {
    "name": "Monsempron-Libos",
    "code": "47179",
    "epci_code": "200068930",
    "departement_code": "47",
    "region_code": "75",
    "postal_code": "47500"
  },
  {
    "name": "Montagnac-sur-Auvignon",
    "code": "47180",
    "epci_code": "200068948",
    "departement_code": "47",
    "region_code": "75",
    "postal_code": "47600"
  },
  {
    "name": "Montagnac-sur-Lède",
    "code": "47181",
    "epci_code": "200036523",
    "departement_code": "47",
    "region_code": "75",
    "postal_code": "47150"
  },
  {
    "name": "Montastruc",
    "code": "47182",
    "epci_code": "244701405",
    "departement_code": "47",
    "region_code": "75",
    "postal_code": "47380"
  },
  {
    "name": "Montauriol",
    "code": "47183",
    "epci_code": "200036523",
    "departement_code": "47",
    "region_code": "75",
    "postal_code": "47330"
  },
  {
    "name": "Montaut",
    "code": "47184",
    "epci_code": "200036523",
    "departement_code": "47",
    "region_code": "75",
    "postal_code": "47210"
  },
  {
    "name": "Montayral",
    "code": "47185",
    "epci_code": "200068930",
    "departement_code": "47",
    "region_code": "75",
    "postal_code": "47500"
  },
  {
    "name": "Montesquieu",
    "code": "47186",
    "epci_code": "200068948",
    "departement_code": "47",
    "region_code": "75",
    "postal_code": "47130"
  },
  {
    "name": "Monteton",
    "code": "47187",
    "epci_code": "244700449",
    "departement_code": "47",
    "region_code": "75",
    "postal_code": "47120"
  },
  {
    "name": "Montignac-de-Lauzun",
    "code": "47188",
    "epci_code": "244700464",
    "departement_code": "47",
    "region_code": "75",
    "postal_code": "47800"
  },
  {
    "name": "Montignac-Toupinerie",
    "code": "47189",
    "epci_code": "244700464",
    "departement_code": "47",
    "region_code": "75",
    "postal_code": "47350"
  },
  {
    "name": "Montpezat",
    "code": "47190",
    "epci_code": "200068922",
    "departement_code": "47",
    "region_code": "75",
    "postal_code": "47360"
  },
  {
    "name": "Montpouillan",
    "code": "47191",
    "epci_code": "200030674",
    "departement_code": "47",
    "region_code": "75",
    "postal_code": "47200"
  },
  {
    "name": "Monviel",
    "code": "47192",
    "epci_code": "200036523",
    "departement_code": "47",
    "region_code": "75",
    "postal_code": "47290"
  },
  {
    "name": "Moulinet",
    "code": "47193",
    "epci_code": "200036523",
    "departement_code": "47",
    "region_code": "75",
    "postal_code": "47290"
  },
  {
    "name": "Moustier",
    "code": "47194",
    "epci_code": "244700464",
    "departement_code": "47",
    "region_code": "75",
    "postal_code": "47800"
  },
  {
    "name": "Nérac",
    "code": "47195",
    "epci_code": "200068948",
    "departement_code": "47",
    "region_code": "75",
    "postal_code": "47600"
  },
  {
    "name": "Nicole",
    "code": "47196",
    "epci_code": "200068922",
    "departement_code": "47",
    "region_code": "75",
    "postal_code": "47190"
  },
  {
    "name": "Nomdieu",
    "code": "47197",
    "epci_code": "200068948",
    "departement_code": "47",
    "region_code": "75",
    "postal_code": "47600"
  },
  {
    "name": "Pailloles",
    "code": "47198",
    "epci_code": "200036523",
    "departement_code": "47",
    "region_code": "75",
    "postal_code": "47440"
  },
  {
    "name": "Pardaillan",
    "code": "47199",
    "epci_code": "244700449",
    "departement_code": "47",
    "region_code": "75",
    "postal_code": "47120"
  },
  {
    "name": "Parranquet",
    "code": "47200",
    "epci_code": "200036523",
    "departement_code": "47",
    "region_code": "75",
    "postal_code": "47210"
  },
  {
    "name": "Le Passage",
    "code": "47201",
    "epci_code": "200096956",
    "departement_code": "47",
    "region_code": "75",
    "postal_code": "47520"
  },
  {
    "name": "Paulhiac",
    "code": "47202",
    "epci_code": "200036523",
    "departement_code": "47",
    "region_code": "75",
    "postal_code": "47150"
  },
  {
    "name": "Penne-d’Agenais",
    "code": "47203",
    "epci_code": "200068930",
    "departement_code": "47",
    "region_code": "75",
    "postal_code": "47140"
  },
  {
    "name": "Peyrière",
    "code": "47204",
    "epci_code": "244700464",
    "departement_code": "47",
    "region_code": "75",
    "postal_code": "47350"
  },
  {
    "name": "Pindères",
    "code": "47205",
    "epci_code": "244701355",
    "departement_code": "47",
    "region_code": "75",
    "postal_code": "47700"
  },
  {
    "name": "Pinel-Hauterive",
    "code": "47206",
    "epci_code": "244701405",
    "departement_code": "47",
    "region_code": "75",
    "postal_code": "47380"
  },
  {
    "name": "Pompiey",
    "code": "47207",
    "epci_code": "200068948",
    "departement_code": "47",
    "region_code": "75",
    "postal_code": "47230"
  },
  {
    "name": "Pompogne",
    "code": "47208",
    "epci_code": "244701355",
    "departement_code": "47",
    "region_code": "75",
    "postal_code": "47420"
  },
  {
    "name": "Pont-du-Casse",
    "code": "47209",
    "epci_code": "200096956",
    "departement_code": "47",
    "region_code": "75",
    "postal_code": "47480"
  },
  {
    "name": "Port-Sainte-Marie",
    "code": "47210",
    "epci_code": "200068922",
    "departement_code": "47",
    "region_code": "75",
    "postal_code": "47130"
  },
  {
    "name": "Poudenas",
    "code": "47211",
    "epci_code": "200068948",
    "departement_code": "47",
    "region_code": "75",
    "postal_code": "47170"
  },
  {
    "name": "Poussignac",
    "code": "47212",
    "epci_code": "244701355",
    "departement_code": "47",
    "region_code": "75",
    "postal_code": "47700"
  },
  {
    "name": "Prayssas",
    "code": "47213",
    "epci_code": "200068922",
    "departement_code": "47",
    "region_code": "75",
    "postal_code": "47360"
  },
  {
    "name": "Puch-d’Agenais",
    "code": "47214",
    "epci_code": "200068922",
    "departement_code": "47",
    "region_code": "75",
    "postal_code": "47160"
  },
  {
    "name": "Pujols",
    "code": "47215",
    "epci_code": "200023307",
    "departement_code": "47",
    "region_code": "75",
    "postal_code": "47300"
  },
  {
    "name": "Puymiclan",
    "code": "47216",
    "epci_code": "200030674",
    "departement_code": "47",
    "region_code": "75",
    "postal_code": "47350"
  },
  {
    "name": "Puymirol",
    "code": "47217",
    "epci_code": "200096956",
    "departement_code": "47",
    "region_code": "75",
    "postal_code": "47270"
  },
  {
    "name": "Puysserampion",
    "code": "47218",
    "epci_code": "244700464",
    "departement_code": "47",
    "region_code": "75",
    "postal_code": "47800"
  },
  {
    "name": "Rayet",
    "code": "47219",
    "epci_code": "200036523",
    "departement_code": "47",
    "region_code": "75",
    "postal_code": "47210"
  },
  {
    "name": "Razimet",
    "code": "47220",
    "epci_code": "200068922",
    "departement_code": "47",
    "region_code": "75",
    "postal_code": "47160"
  },
  {
    "name": "Réaup-Lisse",
    "code": "47221",
    "epci_code": "200068948",
    "departement_code": "47",
    "region_code": "75",
    "postal_code": "47170"
  },
  {
    "name": "La Réunion",
    "code": "47222",
    "epci_code": "244701355",
    "departement_code": "47",
    "region_code": "75",
    "postal_code": "47700"
  },
  {
    "name": "Rives",
    "code": "47223",
    "epci_code": "200036523",
    "departement_code": "47",
    "region_code": "75",
    "postal_code": "47210"
  },
  {
    "name": "Romestaing",
    "code": "47224",
    "epci_code": "244701355",
    "departement_code": "47",
    "region_code": "75",
    "postal_code": "47250"
  },
  {
    "name": "Roquefort",
    "code": "47225",
    "epci_code": "200096956",
    "departement_code": "47",
    "region_code": "75",
    "postal_code": "47310"
  },
  {
    "name": "Roumagne",
    "code": "47226",
    "epci_code": "244700464",
    "departement_code": "47",
    "region_code": "75",
    "postal_code": "47800"
  },
  {
    "name": "Ruffiac",
    "code": "47227",
    "epci_code": "244701355",
    "departement_code": "47",
    "region_code": "75",
    "postal_code": "47700"
  },
  {
    "name": "Saint-Antoine-de-Ficalba",
    "code": "47228",
    "epci_code": "200023307",
    "departement_code": "47",
    "region_code": "75",
    "postal_code": "47340"
  },
  {
    "name": "Saint-Astier",
    "code": "47229",
    "epci_code": "244700449",
    "departement_code": "47",
    "region_code": "75",
    "postal_code": "47120"
  },
  {
    "name": "Saint-Aubin",
    "code": "47230",
    "epci_code": "200036523",
    "departement_code": "47",
    "region_code": "75",
    "postal_code": "47150"
  },
  {
    "name": "Saint-Avit",
    "code": "47231",
    "epci_code": "200030674",
    "departement_code": "47",
    "region_code": "75",
    "postal_code": "47350"
  },
  {
    "name": "Saint-Barthélemy-d’Agenais",
    "code": "47232",
    "epci_code": "200030674",
    "departement_code": "47",
    "region_code": "75",
    "postal_code": "47350"
  },
  {
    "name": "Sainte-Bazeille",
    "code": "47233",
    "epci_code": "200030674",
    "departement_code": "47",
    "region_code": "75",
    "postal_code": "47180"
  },
  {
    "name": "Saint-Caprais-de-Lerm",
    "code": "47234",
    "epci_code": "200096956",
    "departement_code": "47",
    "region_code": "75",
    "postal_code": "47270"
  },
  {
    "name": "Saint-Colomb-de-Lauzun",
    "code": "47235",
    "epci_code": "244700464",
    "departement_code": "47",
    "region_code": "75",
    "postal_code": "47410"
  },
  {
    "name": "Sainte-Colombe-de-Duras",
    "code": "47236",
    "epci_code": "244700449",
    "departement_code": "47",
    "region_code": "75",
    "postal_code": "47120"
  },
  {
    "name": "Sainte-Colombe-de-Villeneuve",
    "code": "47237",
    "epci_code": "200023307",
    "departement_code": "47",
    "region_code": "75",
    "postal_code": "47300"
  },
  {
    "name": "Sainte-Colombe-en-Bruilhois",
    "code": "47238",
    "epci_code": "200096956",
    "departement_code": "47",
    "region_code": "75",
    "postal_code": "47310"
  },
  {
    "name": "Saint-Étienne-de-Fougères",
    "code": "47239",
    "epci_code": "200023307",
    "departement_code": "47",
    "region_code": "75",
    "postal_code": "47380"
  },
  {
    "name": "Saint-Étienne-de-Villeréal",
    "code": "47240",
    "epci_code": "200036523",
    "departement_code": "47",
    "region_code": "75",
    "postal_code": "47210"
  },
  {
    "name": "Saint-Eutrope-de-Born",
    "code": "47241",
    "epci_code": "200036523",
    "departement_code": "47",
    "region_code": "75",
    "postal_code": "47210"
  },
  {
    "name": "Saint-Front-sur-Lémance",
    "code": "47242",
    "epci_code": "200068930",
    "departement_code": "47",
    "region_code": "75",
    "postal_code": "47500"
  },
  {
    "name": "Sainte-Gemme-Martaillac",
    "code": "47244",
    "epci_code": "244701355",
    "departement_code": "47",
    "region_code": "75",
    "postal_code": "47250"
  },
  {
    "name": "Saint-Géraud",
    "code": "47245",
    "epci_code": "244700449",
    "departement_code": "47",
    "region_code": "75",
    "postal_code": "47120"
  },
  {
    "name": "Saint-Hilaire-de-Lusignan",
    "code": "47246",
    "epci_code": "200096956",
    "departement_code": "47",
    "region_code": "75",
    "postal_code": "47450"
  },
  {
    "name": "Saint-Jean-de-Duras",
    "code": "47247",
    "epci_code": "244700449",
    "departement_code": "47",
    "region_code": "75",
    "postal_code": "47120"
  },
  {
    "name": "Saint-Jean-de-Thurac",
    "code": "47248",
    "epci_code": "200096956",
    "departement_code": "47",
    "region_code": "75",
    "postal_code": "47270"
  },
  {
    "name": "Saint-Laurent",
    "code": "47249",
    "epci_code": "200068922",
    "departement_code": "47",
    "region_code": "75",
    "postal_code": "47130"
  },
  {
    "name": "Saint-Léger",
    "code": "47250",
    "epci_code": "200068922",
    "departement_code": "47",
    "region_code": "75",
    "postal_code": "47160"
  },
  {
    "name": "Saint-Léon",
    "code": "47251",
    "epci_code": "200068922",
    "departement_code": "47",
    "region_code": "75",
    "postal_code": "47160"
  },
  {
    "name": "Sainte-Livrade-sur-Lot",
    "code": "47252",
    "epci_code": "200023307",
    "departement_code": "47",
    "region_code": "75",
    "postal_code": "47110"
  },
  {
    "name": "Sainte-Marthe",
    "code": "47253",
    "epci_code": "244701355",
    "departement_code": "47",
    "region_code": "75",
    "postal_code": "47430"
  },
  {
    "name": "Saint-Martin-Curton",
    "code": "47254",
    "epci_code": "244701355",
    "departement_code": "47",
    "region_code": "75",
    "postal_code": "47700"
  },
  {
    "name": "Saint-Martin-de-Beauville",
    "code": "47255",
    "epci_code": "200096956",
    "departement_code": "47",
    "region_code": "75",
    "postal_code": "47270"
  },
  {
    "name": "Saint-Martin-de-Villeréal",
    "code": "47256",
    "epci_code": "200036523",
    "departement_code": "47",
    "region_code": "75",
    "postal_code": "47210"
  },
  {
    "name": "Saint-Martin-Petit",
    "code": "47257",
    "epci_code": "200030674",
    "departement_code": "47",
    "region_code": "75",
    "postal_code": "47180"
  },
  {
    "name": "Sainte-Maure-de-Peyriac",
    "code": "47258",
    "epci_code": "200068948",
    "departement_code": "47",
    "region_code": "75",
    "postal_code": "47170"
  },
  {
    "name": "Saint-Maurice-de-Lestapel",
    "code": "47259",
    "epci_code": "200036523",
    "departement_code": "47",
    "region_code": "75",
    "postal_code": "47290"
  },
  {
    "name": "Saint-Maurin",
    "code": "47260",
    "epci_code": "200096956",
    "departement_code": "47",
    "region_code": "75",
    "postal_code": "47270"
  },
  {
    "name": "Saint-Nicolas-de-la-Balerme",
    "code": "47262",
    "epci_code": "200096956",
    "departement_code": "47",
    "region_code": "75",
    "postal_code": "47220"
  },
  {
    "name": "Saint-Pardoux-du-Breuil",
    "code": "47263",
    "epci_code": "200030674",
    "departement_code": "47",
    "region_code": "75",
    "postal_code": "47200"
  },
  {
    "name": "Saint-Pardoux-Isaac",
    "code": "47264",
    "epci_code": "244700464",
    "departement_code": "47",
    "region_code": "75",
    "postal_code": "47800"
  },
  {
    "name": "Saint-Pastour",
    "code": "47265",
    "epci_code": "244701405",
    "departement_code": "47",
    "region_code": "75",
    "postal_code": "47290"
  },
  {
    "name": "Saint-Pé-Saint-Simon",
    "code": "47266",
    "epci_code": "200068948",
    "departement_code": "47",
    "region_code": "75",
    "postal_code": "47170"
  },
  {
    "name": "Saint-Pierre-de-Buzet",
    "code": "47267",
    "epci_code": "200068922",
    "departement_code": "47",
    "region_code": "75",
    "postal_code": "47160"
  },
  {
    "name": "Saint-Pierre-de-Clairac",
    "code": "47269",
    "epci_code": "200096956",
    "departement_code": "47",
    "region_code": "75",
    "postal_code": "47270"
  },
  {
    "name": "Saint-Pierre-sur-Dropt",
    "code": "47271",
    "epci_code": "244700449",
    "departement_code": "47",
    "region_code": "75",
    "postal_code": "47120"
  },
  {
    "name": "Saint-Quentin-du-Dropt",
    "code": "47272",
    "epci_code": "200036523",
    "departement_code": "47",
    "region_code": "75",
    "postal_code": "47330"
  },
  {
    "name": "Saint-Robert",
    "code": "47273",
    "epci_code": "200023307",
    "departement_code": "47",
    "region_code": "75",
    "postal_code": "47340"
  },
  {
    "name": "Saint-Romain-le-Noble",
    "code": "47274",
    "epci_code": "200096956",
    "departement_code": "47",
    "region_code": "75",
    "postal_code": "47270"
  },
  {
    "name": "Saint-Salvy",
    "code": "47275",
    "epci_code": "200068922",
    "departement_code": "47",
    "region_code": "75",
    "postal_code": "47360"
  },
  {
    "name": "Saint-Sardos",
    "code": "47276",
    "epci_code": "200068922",
    "departement_code": "47",
    "region_code": "75",
    "postal_code": "47360"
  },
  {
    "name": "Saint-Sauveur-de-Meilhan",
    "code": "47277",
    "epci_code": "200030674",
    "departement_code": "47",
    "region_code": "75",
    "postal_code": "47180"
  },
  {
    "name": "Saint-Sernin",
    "code": "47278",
    "epci_code": "244700449",
    "departement_code": "47",
    "region_code": "75",
    "postal_code": "47120"
  },
  {
    "name": "Saint-Sixte",
    "code": "47279",
    "epci_code": "200096956",
    "departement_code": "47",
    "region_code": "75",
    "postal_code": "47220"
  },
  {
    "name": "Saint-Sylvestre-sur-Lot",
    "code": "47280",
    "epci_code": "200068930",
    "departement_code": "47",
    "region_code": "75",
    "postal_code": "47140"
  },
  {
    "name": "Saint-Urcisse",
    "code": "47281",
    "epci_code": "200096956",
    "departement_code": "47",
    "region_code": "75",
    "postal_code": "47270"
  },
  {
    "name": "Saint-Vincent-de-Lamontjoie",
    "code": "47282",
    "epci_code": "200068948",
    "departement_code": "47",
    "region_code": "75",
    "postal_code": "47310"
  },
  {
    "name": "Saint-Vite",
    "code": "47283",
    "epci_code": "200068930",
    "departement_code": "47",
    "region_code": "75",
    "postal_code": "47500"
  },
  {
    "name": "Salles",
    "code": "47284",
    "epci_code": "200036523",
    "departement_code": "47",
    "region_code": "75",
    "postal_code": "47150"
  },
  {
    "name": "Samazan",
    "code": "47285",
    "epci_code": "200030674",
    "departement_code": "47",
    "region_code": "75",
    "postal_code": "47250"
  },
  {
    "name": "Sauméjan",
    "code": "47286",
    "epci_code": "244701355",
    "departement_code": "47",
    "region_code": "75",
    "postal_code": "47420"
  },
  {
    "name": "Saumont",
    "code": "47287",
    "epci_code": "200068948",
    "departement_code": "47",
    "region_code": "75",
    "postal_code": "47600"
  },
  {
    "name": "Sauvagnas",
    "code": "47288",
    "epci_code": "200096956",
    "departement_code": "47",
    "region_code": "75",
    "postal_code": "47340"
  },
  {
    "name": "La Sauvetat-de-Savères",
    "code": "47289",
    "epci_code": "200096956",
    "departement_code": "47",
    "region_code": "75",
    "postal_code": "47270"
  },
  {
    "name": "La Sauvetat-du-Dropt",
    "code": "47290",
    "epci_code": "244700464",
    "departement_code": "47",
    "region_code": "75",
    "postal_code": "47800"
  },
  {
    "name": "La Sauvetat-sur-Lède",
    "code": "47291",
    "epci_code": "200036523",
    "departement_code": "47",
    "region_code": "75",
    "postal_code": "47150"
  },
  {
    "name": "Sauveterre-la-Lémance",
    "code": "47292",
    "epci_code": "200068930",
    "departement_code": "47",
    "region_code": "75",
    "postal_code": "47500"
  },
  {
    "name": "Sauveterre-Saint-Denis",
    "code": "47293",
    "epci_code": "200096956",
    "departement_code": "47",
    "region_code": "75",
    "postal_code": "47220"
  },
  {
    "name": "Savignac-de-Duras",
    "code": "47294",
    "epci_code": "244700449",
    "departement_code": "47",
    "region_code": "75",
    "postal_code": "47120"
  },
  {
    "name": "Savignac-sur-Leyze",
    "code": "47295",
    "epci_code": "200036523",
    "departement_code": "47",
    "region_code": "75",
    "postal_code": "47150"
  },
  {
    "name": "Ségalas",
    "code": "47296",
    "epci_code": "244700464",
    "departement_code": "47",
    "region_code": "75",
    "postal_code": "47410"
  },
  {
    "name": "Sembas",
    "code": "47297",
    "epci_code": "200068922",
    "departement_code": "47",
    "region_code": "75",
    "postal_code": "47360"
  },
  {
    "name": "Sénestis",
    "code": "47298",
    "epci_code": "200030674",
    "departement_code": "47",
    "region_code": "75",
    "postal_code": "47430"
  },
  {
    "name": "Sérignac-Péboudou",
    "code": "47299",
    "epci_code": "200036523",
    "departement_code": "47",
    "region_code": "75",
    "postal_code": "47410"
  },
  {
    "name": "Sérignac-sur-Garonne",
    "code": "47300",
    "epci_code": "200096956",
    "departement_code": "47",
    "region_code": "75",
    "postal_code": "47310"
  },
  {
    "name": "Seyches",
    "code": "47301",
    "epci_code": "200030674",
    "departement_code": "47",
    "region_code": "75",
    "postal_code": "47350"
  },
  {
    "name": "Sos",
    "code": "47302",
    "epci_code": "200068948",
    "departement_code": "47",
    "region_code": "75",
    "postal_code": "47170"
  },
  {
    "name": "Soumensac",
    "code": "47303",
    "epci_code": "244700449",
    "departement_code": "47",
    "region_code": "75",
    "postal_code": "47120"
  },
  {
    "name": "Taillebourg",
    "code": "47304",
    "epci_code": "200030674",
    "departement_code": "47",
    "region_code": "75",
    "postal_code": "47200"
  },
  {
    "name": "Tayrac",
    "code": "47305",
    "epci_code": "200096956",
    "departement_code": "47",
    "region_code": "75",
    "postal_code": "47270"
  },
  {
    "name": "Le Temple-sur-Lot",
    "code": "47306",
    "epci_code": "244701405",
    "departement_code": "47",
    "region_code": "75",
    "postal_code": "47110"
  },
  {
    "name": "Thézac",
    "code": "47307",
    "epci_code": "200068930",
    "departement_code": "47",
    "region_code": "75",
    "postal_code": "47370"
  },
  {
    "name": "Thouars-sur-Garonne",
    "code": "47308",
    "epci_code": "200068948",
    "departement_code": "47",
    "region_code": "75",
    "postal_code": "47230"
  },
  {
    "name": "Tombebœuf",
    "code": "47309",
    "epci_code": "244701405",
    "departement_code": "47",
    "region_code": "75",
    "postal_code": "47380"
  },
  {
    "name": "Tonneins",
    "code": "47310",
    "epci_code": "200030674",
    "departement_code": "47",
    "region_code": "75",
    "postal_code": "47400"
  },
  {
    "name": "Tourliac",
    "code": "47311",
    "epci_code": "200036523",
    "departement_code": "47",
    "region_code": "75",
    "postal_code": "47210"
  },
  {
    "name": "Tournon-d’Agenais",
    "code": "47312",
    "epci_code": "200068930",
    "departement_code": "47",
    "region_code": "75",
    "postal_code": "47370"
  },
  {
    "name": "Tourtrès",
    "code": "47313",
    "epci_code": "244701405",
    "departement_code": "47",
    "region_code": "75",
    "postal_code": "47380"
  },
  {
    "name": "Trémons",
    "code": "47314",
    "epci_code": "200068930",
    "departement_code": "47",
    "region_code": "75",
    "postal_code": "47140"
  },
  {
    "name": "Trentels",
    "code": "47315",
    "epci_code": "200068930",
    "departement_code": "47",
    "region_code": "75",
    "postal_code": "47140"
  },
  {
    "name": "Varès",
    "code": "47316",
    "epci_code": "200030674",
    "departement_code": "47",
    "region_code": "75",
    "postal_code": "47400"
  },
  {
    "name": "Verteuil-d’Agenais",
    "code": "47317",
    "epci_code": "244701405",
    "departement_code": "47",
    "region_code": "75",
    "postal_code": "47260"
  },
  {
    "name": "Vianne",
    "code": "47318",
    "epci_code": "200068948",
    "departement_code": "47",
    "region_code": "75",
    "postal_code": "47230"
  },
  {
    "name": "Villebramar",
    "code": "47319",
    "epci_code": "244701405",
    "departement_code": "47",
    "region_code": "75",
    "postal_code": "47380"
  },
  {
    "name": "Villefranche-du-Queyran",
    "code": "47320",
    "epci_code": "244701355",
    "departement_code": "47",
    "region_code": "75",
    "postal_code": "47160"
  },
  {
    "name": "Villeneuve-de-Duras",
    "code": "47321",
    "epci_code": "244700449",
    "departement_code": "47",
    "region_code": "75",
    "postal_code": "47120"
  },
  {
    "name": "Villeneuve-sur-Lot",
    "code": "47323",
    "epci_code": "200023307",
    "departement_code": "47",
    "region_code": "75",
    "postal_code": "47300"
  },
  {
    "name": "Villeréal",
    "code": "47324",
    "epci_code": "200036523",
    "departement_code": "47",
    "region_code": "75",
    "postal_code": "47210"
  },
  {
    "name": "Villeton",
    "code": "47325",
    "epci_code": "200030674",
    "departement_code": "47",
    "region_code": "75",
    "postal_code": "47400"
  },
  {
    "name": "Virazeil",
    "code": "47326",
    "epci_code": "200030674",
    "departement_code": "47",
    "region_code": "75",
    "postal_code": "47200"
  },
  {
    "name": "Xaintrailles",
    "code": "47327",
    "epci_code": "200068948",
    "departement_code": "47",
    "region_code": "75",
    "postal_code": "47230"
  },
  {
    "name": "Saint-Georges",
    "code": "47328",
    "epci_code": "200068930",
    "departement_code": "47",
    "region_code": "75",
    "postal_code": "47370"
  }
]