[
  {
    "name": "Algolsheim",
    "code": "68001",
    "epci_code": "200066025",
    "departement_code": "68",
    "region_code": "44",
    "postal_code": "68600"
  },
  {
    "name": "Altenach",
    "code": "68002",
    "epci_code": "200066033",
    "departement_code": "68",
    "region_code": "44",
    "postal_code": "68210"
  },
  {
    "name": "Altkirch",
    "code": "68004",
    "epci_code": "200066041",
    "departement_code": "68",
    "region_code": "44",
    "postal_code": "68130"
  },
  {
    "name": "Ammerschwihr",
    "code": "68005",
    "epci_code": "246800551",
    "departement_code": "68",
    "region_code": "44",
    "postal_code": "68410"
  },
  {
    "name": "Ammerschwihr",
    "code": "68005",
    "epci_code": "246800551",
    "departement_code": "68",
    "region_code": "44",
    "postal_code": "68770"
  },
  {
    "name": "Bernwiller",
    "code": "68006",
    "epci_code": "200066033",
    "departement_code": "68",
    "region_code": "44",
    "postal_code": "68210"
  },
  {
    "name": "Andolsheim",
    "code": "68007",
    "epci_code": "246800726",
    "departement_code": "68",
    "region_code": "44",
    "postal_code": "68280"
  },
  {
    "name": "Appenwihr",
    "code": "68008",
    "epci_code": "200066025",
    "departement_code": "68",
    "region_code": "44",
    "postal_code": "68280"
  },
  {
    "name": "Artzenheim",
    "code": "68009",
    "epci_code": "200066025",
    "departement_code": "68",
    "region_code": "44",
    "postal_code": "68320"
  },
  {
    "name": "Aspach",
    "code": "68010",
    "epci_code": "200066041",
    "departement_code": "68",
    "region_code": "44",
    "postal_code": "68130"
  },
  {
    "name": "Aspach-le-Bas",
    "code": "68011",
    "epci_code": "200036465",
    "departement_code": "68",
    "region_code": "44",
    "postal_code": "68700"
  },
  {
    "name": "Aspach-Michelbach",
    "code": "68012",
    "epci_code": "200036465",
    "departement_code": "68",
    "region_code": "44",
    "postal_code": "68700"
  },
  {
    "name": "Attenschwiller",
    "code": "68013",
    "epci_code": "200066058",
    "departement_code": "68",
    "region_code": "44",
    "postal_code": "68220"
  },
  {
    "name": "Aubure",
    "code": "68014",
    "epci_code": "246800577",
    "departement_code": "68",
    "region_code": "44",
    "postal_code": "68150"
  },
  {
    "name": "Baldersheim",
    "code": "68015",
    "epci_code": "200066009",
    "departement_code": "68",
    "region_code": "44",
    "postal_code": "68390"
  },
  {
    "name": "Balgau",
    "code": "68016",
    "epci_code": "200066025",
    "departement_code": "68",
    "region_code": "44",
    "postal_code": "68740"
  },
  {
    "name": "Ballersdorf",
    "code": "68017",
    "epci_code": "200066033",
    "departement_code": "68",
    "region_code": "44",
    "postal_code": "68210"
  },
  {
    "name": "Balschwiller",
    "code": "68018",
    "epci_code": "200066033",
    "departement_code": "68",
    "region_code": "44",
    "postal_code": "68210"
  },
  {
    "name": "Baltzenheim",
    "code": "68019",
    "epci_code": "200066025",
    "departement_code": "68",
    "region_code": "44",
    "postal_code": "68320"
  },
  {
    "name": "Bantzenheim",
    "code": "68020",
    "epci_code": "200066009",
    "departement_code": "68",
    "region_code": "44",
    "postal_code": "68490"
  },
  {
    "name": "Bartenheim",
    "code": "68021",
    "epci_code": "200066058",
    "departement_code": "68",
    "region_code": "44",
    "postal_code": "68870"
  },
  {
    "name": "Battenheim",
    "code": "68022",
    "epci_code": "200066009",
    "departement_code": "68",
    "region_code": "44",
    "postal_code": "68390"
  },
  {
    "name": "Beblenheim",
    "code": "68023",
    "epci_code": "246800577",
    "departement_code": "68",
    "region_code": "44",
    "postal_code": "68980"
  },
  {
    "name": "Bellemagny",
    "code": "68024",
    "epci_code": "200066033",
    "departement_code": "68",
    "region_code": "44",
    "postal_code": "68210"
  },
  {
    "name": "Bendorf",
    "code": "68025",
    "epci_code": "200066041",
    "departement_code": "68",
    "region_code": "44",
    "postal_code": "68480"
  },
  {
    "name": "Bennwihr",
    "code": "68026",
    "epci_code": "246800577",
    "departement_code": "68",
    "region_code": "44",
    "postal_code": "68126"
  },
  {
    "name": "Bennwihr",
    "code": "68026",
    "epci_code": "246800577",
    "departement_code": "68",
    "region_code": "44",
    "postal_code": "68630"
  },
  {
    "name": "Berentzwiller",
    "code": "68027",
    "epci_code": "200066041",
    "departement_code": "68",
    "region_code": "44",
    "postal_code": "68130"
  },
  {
    "name": "Bergheim",
    "code": "68028",
    "epci_code": "246800577",
    "departement_code": "68",
    "region_code": "44",
    "postal_code": "68750"
  },
  {
    "name": "Bergholtz",
    "code": "68029",
    "epci_code": "246800569",
    "departement_code": "68",
    "region_code": "44",
    "postal_code": "68500"
  },
  {
    "name": "Bergholtzzell",
    "code": "68030",
    "epci_code": "246800569",
    "departement_code": "68",
    "region_code": "44",
    "postal_code": "68500"
  },
  {
    "name": "Berrwiller",
    "code": "68032",
    "epci_code": "200066009",
    "departement_code": "68",
    "region_code": "44",
    "postal_code": "68500"
  },
  {
    "name": "Bettendorf",
    "code": "68033",
    "epci_code": "200066041",
    "departement_code": "68",
    "region_code": "44",
    "postal_code": "68560"
  },
  {
    "name": "Bettlach",
    "code": "68034",
    "epci_code": "200066041",
    "departement_code": "68",
    "region_code": "44",
    "postal_code": "68480"
  },
  {
    "name": "Biederthal",
    "code": "68035",
    "epci_code": "200066041",
    "departement_code": "68",
    "region_code": "44",
    "postal_code": "68480"
  },
  {
    "name": "Biesheim",
    "code": "68036",
    "epci_code": "200066025",
    "departement_code": "68",
    "region_code": "44",
    "postal_code": "68600"
  },
  {
    "name": "Biltzheim",
    "code": "68037",
    "epci_code": "246800445",
    "departement_code": "68",
    "region_code": "44",
    "postal_code": "68127"
  },
  {
    "name": "Bischwihr",
    "code": "68038",
    "epci_code": "246800726",
    "departement_code": "68",
    "region_code": "44",
    "postal_code": "68320"
  },
  {
    "name": "Bisel",
    "code": "68039",
    "epci_code": "200066041",
    "departement_code": "68",
    "region_code": "44",
    "postal_code": "68580"
  },
  {
    "name": "Bitschwiller-lès-Thann",
    "code": "68040",
    "epci_code": "200036465",
    "departement_code": "68",
    "region_code": "44",
    "postal_code": "68620"
  },
  {
    "name": "Blodelsheim",
    "code": "68041",
    "epci_code": "200066025",
    "departement_code": "68",
    "region_code": "44",
    "postal_code": "68740"
  },
  {
    "name": "Blotzheim",
    "code": "68042",
    "epci_code": "200066058",
    "departement_code": "68",
    "region_code": "44",
    "postal_code": "68730"
  },
  {
    "name": "Bollwiller",
    "code": "68043",
    "epci_code": "200066009",
    "departement_code": "68",
    "region_code": "44",
    "postal_code": "68540"
  },
  {
    "name": "Le Bonhomme",
    "code": "68044",
    "epci_code": "246800551",
    "departement_code": "68",
    "region_code": "44",
    "postal_code": "68650"
  },
  {
    "name": "Bourbach-le-Bas",
    "code": "68045",
    "epci_code": "200036465",
    "departement_code": "68",
    "region_code": "44",
    "postal_code": "68290"
  },
  {
    "name": "Bourbach-le-Haut",
    "code": "68046",
    "epci_code": "200036465",
    "departement_code": "68",
    "region_code": "44",
    "postal_code": "68290"
  },
  {
    "name": "Bouxwiller",
    "code": "68049",
    "epci_code": "200066041",
    "departement_code": "68",
    "region_code": "44",
    "postal_code": "68480"
  },
  {
    "name": "Bréchaumont",
    "code": "68050",
    "epci_code": "200066033",
    "departement_code": "68",
    "region_code": "44",
    "postal_code": "68210"
  },
  {
    "name": "Breitenbach-Haut-Rhin",
    "code": "68051",
    "epci_code": "246800585",
    "departement_code": "68",
    "region_code": "44",
    "postal_code": "68380"
  },
  {
    "name": "Bretten",
    "code": "68052",
    "epci_code": "200066033",
    "departement_code": "68",
    "region_code": "44",
    "postal_code": "68780"
  },
  {
    "name": "Brinckheim",
    "code": "68054",
    "epci_code": "200066058",
    "departement_code": "68",
    "region_code": "44",
    "postal_code": "68870"
  },
  {
    "name": "Bruebach",
    "code": "68055",
    "epci_code": "200066009",
    "departement_code": "68",
    "region_code": "44",
    "postal_code": "68440"
  },
  {
    "name": "Brunstatt-Didenheim",
    "code": "68056",
    "epci_code": "200066009",
    "departement_code": "68",
    "region_code": "44",
    "postal_code": "68350"
  },
  {
    "name": "Buethwiller",
    "code": "68057",
    "epci_code": "200066033",
    "departement_code": "68",
    "region_code": "44",
    "postal_code": "68210"
  },
  {
    "name": "Buhl",
    "code": "68058",
    "epci_code": "246800569",
    "departement_code": "68",
    "region_code": "44",
    "postal_code": "68530"
  },
  {
    "name": "Burnhaupt-le-Bas",
    "code": "68059",
    "epci_code": "246800676",
    "departement_code": "68",
    "region_code": "44",
    "postal_code": "68520"
  },
  {
    "name": "Burnhaupt-le-Haut",
    "code": "68060",
    "epci_code": "246800676",
    "departement_code": "68",
    "region_code": "44",
    "postal_code": "68520"
  },
  {
    "name": "Buschwiller",
    "code": "68061",
    "epci_code": "200066058",
    "departement_code": "68",
    "region_code": "44",
    "postal_code": "68220"
  },
  {
    "name": "Carspach",
    "code": "68062",
    "epci_code": "200066041",
    "departement_code": "68",
    "region_code": "44",
    "postal_code": "68130"
  },
  {
    "name": "Cernay",
    "code": "68063",
    "epci_code": "200036465",
    "departement_code": "68",
    "region_code": "44",
    "postal_code": "68700"
  },
  {
    "name": "Chalampé",
    "code": "68064",
    "epci_code": "200066009",
    "departement_code": "68",
    "region_code": "44",
    "postal_code": "68490"
  },
  {
    "name": "Chavannes-sur-l’Étang",
    "code": "68065",
    "epci_code": "200066033",
    "departement_code": "68",
    "region_code": "44",
    "postal_code": "68210"
  },
  {
    "name": "Colmar",
    "code": "68066",
    "epci_code": "246800726",
    "departement_code": "68",
    "region_code": "44",
    "postal_code": "68000"
  },
  {
    "name": "Courtavon",
    "code": "68067",
    "epci_code": "200066041",
    "departement_code": "68",
    "region_code": "44",
    "postal_code": "68480"
  },
  {
    "name": "Dannemarie",
    "code": "68068",
    "epci_code": "200066033",
    "departement_code": "68",
    "region_code": "44",
    "postal_code": "68210"
  },
  {
    "name": "Dessenheim",
    "code": "68069",
    "epci_code": "200066025",
    "departement_code": "68",
    "region_code": "44",
    "postal_code": "68600"
  },
  {
    "name": "Diefmatten",
    "code": "68071",
    "epci_code": "200066033",
    "departement_code": "68",
    "region_code": "44",
    "postal_code": "68780"
  },
  {
    "name": "Dietwiller",
    "code": "68072",
    "epci_code": "200066009",
    "departement_code": "68",
    "region_code": "44",
    "postal_code": "68440"
  },
  {
    "name": "Dolleren",
    "code": "68073",
    "epci_code": "246800676",
    "departement_code": "68",
    "region_code": "44",
    "postal_code": "68290"
  },
  {
    "name": "Durlinsdorf",
    "code": "68074",
    "epci_code": "200066041",
    "departement_code": "68",
    "region_code": "44",
    "postal_code": "68480"
  },
  {
    "name": "Durmenach",
    "code": "68075",
    "epci_code": "200066041",
    "departement_code": "68",
    "region_code": "44",
    "postal_code": "68480"
  },
  {
    "name": "Durrenentzen",
    "code": "68076",
    "epci_code": "200066025",
    "departement_code": "68",
    "region_code": "44",
    "postal_code": "68320"
  },
  {
    "name": "Eglingen",
    "code": "68077",
    "epci_code": "200066033",
    "departement_code": "68",
    "region_code": "44",
    "postal_code": "68720"
  },
  {
    "name": "Eguisheim",
    "code": "68078",
    "epci_code": "246800494",
    "departement_code": "68",
    "region_code": "44",
    "postal_code": "68420"
  },
  {
    "name": "Elbach",
    "code": "68079",
    "epci_code": "200066033",
    "departement_code": "68",
    "region_code": "44",
    "postal_code": "68210"
  },
  {
    "name": "Emlingen",
    "code": "68080",
    "epci_code": "200066041",
    "departement_code": "68",
    "region_code": "44",
    "postal_code": "68130"
  },
  {
    "name": "Saint-Bernard",
    "code": "68081",
    "epci_code": "200066041",
    "departement_code": "68",
    "region_code": "44",
    "postal_code": "68720"
  },
  {
    "name": "Ensisheim",
    "code": "68082",
    "epci_code": "246800445",
    "departement_code": "68",
    "region_code": "44",
    "postal_code": "68190"
  },
  {
    "name": "Eschbach-au-Val",
    "code": "68083",
    "epci_code": "246800585",
    "departement_code": "68",
    "region_code": "44",
    "postal_code": "68140"
  },
  {
    "name": "Eschentzwiller",
    "code": "68084",
    "epci_code": "200066009",
    "departement_code": "68",
    "region_code": "44",
    "postal_code": "68440"
  },
  {
    "name": "Eteimbes",
    "code": "68085",
    "epci_code": "200066033",
    "departement_code": "68",
    "region_code": "44",
    "postal_code": "68210"
  },
  {
    "name": "Falkwiller",
    "code": "68086",
    "epci_code": "200066033",
    "departement_code": "68",
    "region_code": "44",
    "postal_code": "68210"
  },
  {
    "name": "Feldbach",
    "code": "68087",
    "epci_code": "200066041",
    "departement_code": "68",
    "region_code": "44",
    "postal_code": "68640"
  },
  {
    "name": "Feldkirch",
    "code": "68088",
    "epci_code": "200066009",
    "departement_code": "68",
    "region_code": "44",
    "postal_code": "68540"
  },
  {
    "name": "Fellering",
    "code": "68089",
    "epci_code": "246800205",
    "departement_code": "68",
    "region_code": "44",
    "postal_code": "68470"
  },
  {
    "name": "Ferrette",
    "code": "68090",
    "epci_code": "200066041",
    "departement_code": "68",
    "region_code": "44",
    "postal_code": "68480"
  },
  {
    "name": "Fessenheim",
    "code": "68091",
    "epci_code": "200066025",
    "departement_code": "68",
    "region_code": "44",
    "postal_code": "68740"
  },
  {
    "name": "Fislis",
    "code": "68092",
    "epci_code": "200066041",
    "departement_code": "68",
    "region_code": "44",
    "postal_code": "68480"
  },
  {
    "name": "Flaxlanden",
    "code": "68093",
    "epci_code": "200066009",
    "departement_code": "68",
    "region_code": "44",
    "postal_code": "68720"
  },
  {
    "name": "Folgensbourg",
    "code": "68094",
    "epci_code": "200066058",
    "departement_code": "68",
    "region_code": "44",
    "postal_code": "68220"
  },
  {
    "name": "Fortschwihr",
    "code": "68095",
    "epci_code": "246800726",
    "departement_code": "68",
    "region_code": "44",
    "postal_code": "68320"
  },
  {
    "name": "Franken",
    "code": "68096",
    "epci_code": "200066041",
    "departement_code": "68",
    "region_code": "44",
    "postal_code": "68130"
  },
  {
    "name": "Fréland",
    "code": "68097",
    "epci_code": "246800551",
    "departement_code": "68",
    "region_code": "44",
    "postal_code": "68240"
  },
  {
    "name": "Friesen",
    "code": "68098",
    "epci_code": "200066033",
    "departement_code": "68",
    "region_code": "44",
    "postal_code": "68580"
  },
  {
    "name": "Frœningen",
    "code": "68099",
    "epci_code": "200066041",
    "departement_code": "68",
    "region_code": "44",
    "postal_code": "68720"
  },
  {
    "name": "Fulleren",
    "code": "68100",
    "epci_code": "200066033",
    "departement_code": "68",
    "region_code": "44",
    "postal_code": "68210"
  },
  {
    "name": "Galfingue",
    "code": "68101",
    "epci_code": "200066009",
    "departement_code": "68",
    "region_code": "44",
    "postal_code": "68990"
  },
  {
    "name": "Geishouse",
    "code": "68102",
    "epci_code": "246800205",
    "departement_code": "68",
    "region_code": "44",
    "postal_code": "68690"
  },
  {
    "name": "Geispitzen",
    "code": "68103",
    "epci_code": "200066058",
    "departement_code": "68",
    "region_code": "44",
    "postal_code": "68510"
  },
  {
    "name": "Geiswasser",
    "code": "68104",
    "epci_code": "200066025",
    "departement_code": "68",
    "region_code": "44",
    "postal_code": "68600"
  },
  {
    "name": "Gildwiller",
    "code": "68105",
    "epci_code": "200066033",
    "departement_code": "68",
    "region_code": "44",
    "postal_code": "68210"
  },
  {
    "name": "Goldbach-Altenbach",
    "code": "68106",
    "epci_code": "246800205",
    "departement_code": "68",
    "region_code": "44",
    "postal_code": "68760"
  },
  {
    "name": "Gommersdorf",
    "code": "68107",
    "epci_code": "200066033",
    "departement_code": "68",
    "region_code": "44",
    "postal_code": "68210"
  },
  {
    "name": "Griesbach-au-Val",
    "code": "68109",
    "epci_code": "246800585",
    "departement_code": "68",
    "region_code": "44",
    "postal_code": "68140"
  },
  {
    "name": "Grussenheim",
    "code": "68110",
    "epci_code": "200030526",
    "departement_code": "68",
    "region_code": "44",
    "postal_code": "68320"
  },
  {
    "name": "Gueberschwihr",
    "code": "68111",
    "epci_code": "246800494",
    "departement_code": "68",
    "region_code": "44",
    "postal_code": "68420"
  },
  {
    "name": "Guebwiller",
    "code": "68112",
    "epci_code": "246800569",
    "departement_code": "68",
    "region_code": "44",
    "postal_code": "68500"
  },
  {
    "name": "Guémar",
    "code": "68113",
    "epci_code": "246800577",
    "departement_code": "68",
    "region_code": "44",
    "postal_code": "68970"
  },
  {
    "name": "Guevenatten",
    "code": "68114",
    "epci_code": "200066033",
    "departement_code": "68",
    "region_code": "44",
    "postal_code": "68210"
  },
  {
    "name": "Guewenheim",
    "code": "68115",
    "epci_code": "246800676",
    "departement_code": "68",
    "region_code": "44",
    "postal_code": "68116"
  },
  {
    "name": "Gundolsheim",
    "code": "68116",
    "epci_code": "246800494",
    "departement_code": "68",
    "region_code": "44",
    "postal_code": "68250"
  },
  {
    "name": "Gunsbach",
    "code": "68117",
    "epci_code": "246800585",
    "departement_code": "68",
    "region_code": "44",
    "postal_code": "68140"
  },
  {
    "name": "Habsheim",
    "code": "68118",
    "epci_code": "200066009",
    "departement_code": "68",
    "region_code": "44",
    "postal_code": "68440"
  },
  {
    "name": "Hagenbach",
    "code": "68119",
    "epci_code": "200066033",
    "departement_code": "68",
    "region_code": "44",
    "postal_code": "68210"
  },
  {
    "name": "Hagenthal-le-Bas",
    "code": "68120",
    "epci_code": "200066058",
    "departement_code": "68",
    "region_code": "44",
    "postal_code": "68220"
  },
  {
    "name": "Hagenthal-le-Haut",
    "code": "68121",
    "epci_code": "200066058",
    "departement_code": "68",
    "region_code": "44",
    "postal_code": "68220"
  },
  {
    "name": "Hartmannswiller",
    "code": "68122",
    "epci_code": "246800569",
    "departement_code": "68",
    "region_code": "44",
    "postal_code": "68500"
  },
  {
    "name": "Hattstatt",
    "code": "68123",
    "epci_code": "246800494",
    "departement_code": "68",
    "region_code": "44",
    "postal_code": "68420"
  },
  {
    "name": "Hausgauen",
    "code": "68124",
    "epci_code": "200066041",
    "departement_code": "68",
    "region_code": "44",
    "postal_code": "68130"
  },
  {
    "name": "Hecken",
    "code": "68125",
    "epci_code": "200066033",
    "departement_code": "68",
    "region_code": "44",
    "postal_code": "68210"
  },
  {
    "name": "Hégenheim",
    "code": "68126",
    "epci_code": "200066058",
    "departement_code": "68",
    "region_code": "44",
    "postal_code": "68220"
  },
  {
    "name": "Heidwiller",
    "code": "68127",
    "epci_code": "200066041",
    "departement_code": "68",
    "region_code": "44",
    "postal_code": "68720"
  },
  {
    "name": "Heimersdorf",
    "code": "68128",
    "epci_code": "200066041",
    "departement_code": "68",
    "region_code": "44",
    "postal_code": "68560"
  },
  {
    "name": "Heimsbrunn",
    "code": "68129",
    "epci_code": "200066009",
    "departement_code": "68",
    "region_code": "44",
    "postal_code": "68990"
  },
  {
    "name": "Heiteren",
    "code": "68130",
    "epci_code": "200066025",
    "departement_code": "68",
    "region_code": "44",
    "postal_code": "68600"
  },
  {
    "name": "Heiwiller",
    "code": "68131",
    "epci_code": "200066041",
    "departement_code": "68",
    "region_code": "44",
    "postal_code": "68130"
  },
  {
    "name": "Helfrantzkirch",
    "code": "68132",
    "epci_code": "200066058",
    "departement_code": "68",
    "region_code": "44",
    "postal_code": "68510"
  },
  {
    "name": "Herrlisheim-près-Colmar",
    "code": "68134",
    "epci_code": "246800726",
    "departement_code": "68",
    "region_code": "44",
    "postal_code": "68420"
  },
  {
    "name": "Hésingue",
    "code": "68135",
    "epci_code": "200066058",
    "departement_code": "68",
    "region_code": "44",
    "postal_code": "68220"
  },
  {
    "name": "Hettenschlag",
    "code": "68136",
    "epci_code": "200066025",
    "departement_code": "68",
    "region_code": "44",
    "postal_code": "68600"
  },
  {
    "name": "Hindlingen",
    "code": "68137",
    "epci_code": "200066033",
    "departement_code": "68",
    "region_code": "44",
    "postal_code": "68580"
  },
  {
    "name": "Hirsingue",
    "code": "68138",
    "epci_code": "200066041",
    "departement_code": "68",
    "region_code": "44",
    "postal_code": "68560"
  },
  {
    "name": "Hirtzbach",
    "code": "68139",
    "epci_code": "200066041",
    "departement_code": "68",
    "region_code": "44",
    "postal_code": "68118"
  },
  {
    "name": "Hirtzfelden",
    "code": "68140",
    "epci_code": "200066025",
    "departement_code": "68",
    "region_code": "44",
    "postal_code": "68740"
  },
  {
    "name": "Hochstatt",
    "code": "68141",
    "epci_code": "200066041",
    "departement_code": "68",
    "region_code": "44",
    "postal_code": "68720"
  },
  {
    "name": "Hohrod",
    "code": "68142",
    "epci_code": "246800585",
    "departement_code": "68",
    "region_code": "44",
    "postal_code": "68140"
  },
  {
    "name": "Porte du Ried",
    "code": "68143",
    "epci_code": "246800726",
    "departement_code": "68",
    "region_code": "44",
    "postal_code": "68320"
  },
  {
    "name": "Hombourg",
    "code": "68144",
    "epci_code": "200066009",
    "departement_code": "68",
    "region_code": "44",
    "postal_code": "68490"
  },
  {
    "name": "Horbourg-Wihr",
    "code": "68145",
    "epci_code": "246800726",
    "departement_code": "68",
    "region_code": "44",
    "postal_code": "68180"
  },
  {
    "name": "Houssen",
    "code": "68146",
    "epci_code": "246800726",
    "departement_code": "68",
    "region_code": "44",
    "postal_code": "68125"
  },
  {
    "name": "Hunawihr",
    "code": "68147",
    "epci_code": "246800577",
    "departement_code": "68",
    "region_code": "44",
    "postal_code": "68150"
  },
  {
    "name": "Hundsbach",
    "code": "68148",
    "epci_code": "200066041",
    "departement_code": "68",
    "region_code": "44",
    "postal_code": "68130"
  },
  {
    "name": "Huningue",
    "code": "68149",
    "epci_code": "200066058",
    "departement_code": "68",
    "region_code": "44",
    "postal_code": "68330"
  },
  {
    "name": "Husseren-les-Châteaux",
    "code": "68150",
    "epci_code": "246800494",
    "departement_code": "68",
    "region_code": "44",
    "postal_code": "68420"
  },
  {
    "name": "Husseren-Wesserling",
    "code": "68151",
    "epci_code": "246800205",
    "departement_code": "68",
    "region_code": "44",
    "postal_code": "68470"
  },
  {
    "name": "Illfurth",
    "code": "68152",
    "epci_code": "200066041",
    "departement_code": "68",
    "region_code": "44",
    "postal_code": "68720"
  },
  {
    "name": "Illhaeusern",
    "code": "68153",
    "epci_code": "246800577",
    "departement_code": "68",
    "region_code": "44",
    "postal_code": "68970"
  },
  {
    "name": "Illzach",
    "code": "68154",
    "epci_code": "200066009",
    "departement_code": "68",
    "region_code": "44",
    "postal_code": "68110"
  },
  {
    "name": "Ingersheim",
    "code": "68155",
    "epci_code": "246800726",
    "departement_code": "68",
    "region_code": "44",
    "postal_code": "68040"
  },
  {
    "name": "Issenheim",
    "code": "68156",
    "epci_code": "246800569",
    "departement_code": "68",
    "region_code": "44",
    "postal_code": "68500"
  },
  {
    "name": "Jebsheim",
    "code": "68157",
    "epci_code": "246800726",
    "departement_code": "68",
    "region_code": "44",
    "postal_code": "68320"
  },
  {
    "name": "Jettingen",
    "code": "68158",
    "epci_code": "200066041",
    "departement_code": "68",
    "region_code": "44",
    "postal_code": "68130"
  },
  {
    "name": "Jungholtz",
    "code": "68159",
    "epci_code": "246800569",
    "departement_code": "68",
    "region_code": "44",
    "postal_code": "68500"
  },
  {
    "name": "Kappelen",
    "code": "68160",
    "epci_code": "200066058",
    "departement_code": "68",
    "region_code": "44",
    "postal_code": "68510"
  },
  {
    "name": "Katzenthal",
    "code": "68161",
    "epci_code": "246800551",
    "departement_code": "68",
    "region_code": "44",
    "postal_code": "68230"
  },
  {
    "name": "Kaysersberg Vignoble",
    "code": "68162",
    "epci_code": "246800551",
    "departement_code": "68",
    "region_code": "44",
    "postal_code": "68240"
  },
  {
    "name": "Kembs",
    "code": "68163",
    "epci_code": "200066058",
    "departement_code": "68",
    "region_code": "44",
    "postal_code": "68680"
  },
  {
    "name": "Kiffis",
    "code": "68165",
    "epci_code": "200066041",
    "departement_code": "68",
    "region_code": "44",
    "postal_code": "68480"
  },
  {
    "name": "Kingersheim",
    "code": "68166",
    "epci_code": "200066009",
    "departement_code": "68",
    "region_code": "44",
    "postal_code": "68260"
  },
  {
    "name": "Kirchberg",
    "code": "68167",
    "epci_code": "246800676",
    "departement_code": "68",
    "region_code": "44",
    "postal_code": "68290"
  },
  {
    "name": "Knœringue",
    "code": "68168",
    "epci_code": "200066058",
    "departement_code": "68",
    "region_code": "44",
    "postal_code": "68220"
  },
  {
    "name": "Kœstlach",
    "code": "68169",
    "epci_code": "200066041",
    "departement_code": "68",
    "region_code": "44",
    "postal_code": "68480"
  },
  {
    "name": "Kœtzingue",
    "code": "68170",
    "epci_code": "200066058",
    "departement_code": "68",
    "region_code": "44",
    "postal_code": "68510"
  },
  {
    "name": "Kruth",
    "code": "68171",
    "epci_code": "246800205",
    "departement_code": "68",
    "region_code": "44",
    "postal_code": "68820"
  },
  {
    "name": "Kunheim",
    "code": "68172",
    "epci_code": "200066025",
    "departement_code": "68",
    "region_code": "44",
    "postal_code": "68320"
  },
  {
    "name": "Labaroche",
    "code": "68173",
    "epci_code": "246800551",
    "departement_code": "68",
    "region_code": "44",
    "postal_code": "68910"
  },
  {
    "name": "Landser",
    "code": "68174",
    "epci_code": "200066058",
    "departement_code": "68",
    "region_code": "44",
    "postal_code": "68440"
  },
  {
    "name": "Lapoutroie",
    "code": "68175",
    "epci_code": "246800551",
    "departement_code": "68",
    "region_code": "44",
    "postal_code": "68650"
  },
  {
    "name": "Largitzen",
    "code": "68176",
    "epci_code": "200066033",
    "departement_code": "68",
    "region_code": "44",
    "postal_code": "68580"
  },
  {
    "name": "Lautenbach",
    "code": "68177",
    "epci_code": "246800569",
    "departement_code": "68",
    "region_code": "44",
    "postal_code": "68610"
  },
  {
    "name": "Lautenbachzell",
    "code": "68178",
    "epci_code": "246800569",
    "departement_code": "68",
    "region_code": "44",
    "postal_code": "68610"
  },
  {
    "name": "Lauw",
    "code": "68179",
    "epci_code": "246800676",
    "departement_code": "68",
    "region_code": "44",
    "postal_code": "68290"
  },
  {
    "name": "Leimbach",
    "code": "68180",
    "epci_code": "200036465",
    "departement_code": "68",
    "region_code": "44",
    "postal_code": "68800"
  },
  {
    "name": "Levoncourt",
    "code": "68181",
    "epci_code": "200066041",
    "departement_code": "68",
    "region_code": "44",
    "postal_code": "68480"
  },
  {
    "name": "Leymen",
    "code": "68182",
    "epci_code": "200066058",
    "departement_code": "68",
    "region_code": "44",
    "postal_code": "68220"
  },
  {
    "name": "Liebenswiller",
    "code": "68183",
    "epci_code": "200066058",
    "departement_code": "68",
    "region_code": "44",
    "postal_code": "68220"
  },
  {
    "name": "Liebsdorf",
    "code": "68184",
    "epci_code": "200066041",
    "departement_code": "68",
    "region_code": "44",
    "postal_code": "68480"
  },
  {
    "name": "Lièpvre",
    "code": "68185",
    "epci_code": "246800395",
    "departement_code": "68",
    "region_code": "44",
    "postal_code": "68660"
  },
  {
    "name": "Ligsdorf",
    "code": "68186",
    "epci_code": "200066041",
    "departement_code": "68",
    "region_code": "44",
    "postal_code": "68480"
  },
  {
    "name": "Linsdorf",
    "code": "68187",
    "epci_code": "200066041",
    "departement_code": "68",
    "region_code": "44",
    "postal_code": "68480"
  },
  {
    "name": "Linthal",
    "code": "68188",
    "epci_code": "246800569",
    "departement_code": "68",
    "region_code": "44",
    "postal_code": "68610"
  },
  {
    "name": "Logelheim",
    "code": "68189",
    "epci_code": "200066025",
    "departement_code": "68",
    "region_code": "44",
    "postal_code": "68280"
  },
  {
    "name": "Lucelle",
    "code": "68190",
    "epci_code": "200066041",
    "departement_code": "68",
    "region_code": "44",
    "postal_code": "68480"
  },
  {
    "name": "Luemschwiller",
    "code": "68191",
    "epci_code": "200066041",
    "departement_code": "68",
    "region_code": "44",
    "postal_code": "68720"
  },
  {
    "name": "Valdieu-Lutran",
    "code": "68192",
    "epci_code": "200066033",
    "departement_code": "68",
    "region_code": "44",
    "postal_code": "68210"
  },
  {
    "name": "Luttenbach-près-Munster",
    "code": "68193",
    "epci_code": "246800585",
    "departement_code": "68",
    "region_code": "44",
    "postal_code": "68140"
  },
  {
    "name": "Lutter",
    "code": "68194",
    "epci_code": "200066041",
    "departement_code": "68",
    "region_code": "44",
    "postal_code": "68480"
  },
  {
    "name": "Lutterbach",
    "code": "68195",
    "epci_code": "200066009",
    "departement_code": "68",
    "region_code": "44",
    "postal_code": "68460"
  },
  {
    "name": "Magny",
    "code": "68196",
    "epci_code": "200066033",
    "departement_code": "68",
    "region_code": "44",
    "postal_code": "68210"
  },
  {
    "name": "Magstatt-le-Bas",
    "code": "68197",
    "epci_code": "200066058",
    "departement_code": "68",
    "region_code": "44",
    "postal_code": "68510"
  },
  {
    "name": "Magstatt-le-Haut",
    "code": "68198",
    "epci_code": "200066058",
    "departement_code": "68",
    "region_code": "44",
    "postal_code": "68510"
  },
  {
    "name": "Malmerspach",
    "code": "68199",
    "epci_code": "246800205",
    "departement_code": "68",
    "region_code": "44",
    "postal_code": "68550"
  },
  {
    "name": "Manspach",
    "code": "68200",
    "epci_code": "200066033",
    "departement_code": "68",
    "region_code": "44",
    "postal_code": "68210"
  },
  {
    "name": "Masevaux-Niederbruck",
    "code": "68201",
    "epci_code": "246800676",
    "departement_code": "68",
    "region_code": "44",
    "postal_code": "68290"
  },
  {
    "name": "Mertzen",
    "code": "68202",
    "epci_code": "200066033",
    "departement_code": "68",
    "region_code": "44",
    "postal_code": "68210"
  },
  {
    "name": "Merxheim",
    "code": "68203",
    "epci_code": "246800569",
    "departement_code": "68",
    "region_code": "44",
    "postal_code": "68500"
  },
  {
    "name": "Metzeral",
    "code": "68204",
    "epci_code": "246800585",
    "departement_code": "68",
    "region_code": "44",
    "postal_code": "68380"
  },
  {
    "name": "Meyenheim",
    "code": "68205",
    "epci_code": "246800445",
    "departement_code": "68",
    "region_code": "44",
    "postal_code": "68890"
  },
  {
    "name": "Michelbach-le-Bas",
    "code": "68207",
    "epci_code": "200066058",
    "departement_code": "68",
    "region_code": "44",
    "postal_code": "68730"
  },
  {
    "name": "Michelbach-le-Haut",
    "code": "68208",
    "epci_code": "200066058",
    "departement_code": "68",
    "region_code": "44",
    "postal_code": "68220"
  },
  {
    "name": "Mittelwihr",
    "code": "68209",
    "epci_code": "246800577",
    "departement_code": "68",
    "region_code": "44",
    "postal_code": "68630"
  },
  {
    "name": "Mittlach",
    "code": "68210",
    "epci_code": "246800585",
    "departement_code": "68",
    "region_code": "44",
    "postal_code": "68380"
  },
  {
    "name": "Mitzach",
    "code": "68211",
    "epci_code": "246800205",
    "departement_code": "68",
    "region_code": "44",
    "postal_code": "68470"
  },
  {
    "name": "Mœrnach",
    "code": "68212",
    "epci_code": "200066041",
    "departement_code": "68",
    "region_code": "44",
    "postal_code": "68480"
  },
  {
    "name": "Mollau",
    "code": "68213",
    "epci_code": "246800205",
    "departement_code": "68",
    "region_code": "44",
    "postal_code": "68470"
  },
  {
    "name": "Montreux-Jeune",
    "code": "68214",
    "epci_code": "200066033",
    "departement_code": "68",
    "region_code": "44",
    "postal_code": "68210"
  },
  {
    "name": "Montreux-Vieux",
    "code": "68215",
    "epci_code": "200066033",
    "departement_code": "68",
    "region_code": "44",
    "postal_code": "68210"
  },
  {
    "name": "Mooslargue",
    "code": "68216",
    "epci_code": "200066033",
    "departement_code": "68",
    "region_code": "44",
    "postal_code": "68580"
  },
  {
    "name": "Moosch",
    "code": "68217",
    "epci_code": "246800205",
    "departement_code": "68",
    "region_code": "44",
    "postal_code": "68690"
  },
  {
    "name": "Morschwiller-le-Bas",
    "code": "68218",
    "epci_code": "200066009",
    "departement_code": "68",
    "region_code": "44",
    "postal_code": "68790"
  },
  {
    "name": "Le Haut Soultzbach",
    "code": "68219",
    "epci_code": "246800676",
    "departement_code": "68",
    "region_code": "44",
    "postal_code": "68780"
  },
  {
    "name": "Muespach",
    "code": "68221",
    "epci_code": "200066041",
    "departement_code": "68",
    "region_code": "44",
    "postal_code": "68640"
  },
  {
    "name": "Muespach-le-Haut",
    "code": "68222",
    "epci_code": "200066041",
    "departement_code": "68",
    "region_code": "44",
    "postal_code": "68640"
  },
  {
    "name": "Muhlbach-sur-Munster",
    "code": "68223",
    "epci_code": "246800585",
    "departement_code": "68",
    "region_code": "44",
    "postal_code": "68380"
  },
  {
    "name": "Mulhouse",
    "code": "68224",
    "epci_code": "200066009",
    "departement_code": "68",
    "region_code": "44",
    "postal_code": "68100"
  },
  {
    "name": "Mulhouse",
    "code": "68224",
    "epci_code": "200066009",
    "departement_code": "68",
    "region_code": "44",
    "postal_code": "68200"
  },
  {
    "name": "Munchhouse",
    "code": "68225",
    "epci_code": "200066025",
    "departement_code": "68",
    "region_code": "44",
    "postal_code": "68740"
  },
  {
    "name": "Munster",
    "code": "68226",
    "epci_code": "246800585",
    "departement_code": "68",
    "region_code": "44",
    "postal_code": "68140"
  },
  {
    "name": "Muntzenheim",
    "code": "68227",
    "epci_code": "246800726",
    "departement_code": "68",
    "region_code": "44",
    "postal_code": "68320"
  },
  {
    "name": "Munwiller",
    "code": "68228",
    "epci_code": "246800445",
    "departement_code": "68",
    "region_code": "44",
    "postal_code": "68250"
  },
  {
    "name": "Murbach",
    "code": "68229",
    "epci_code": "246800569",
    "departement_code": "68",
    "region_code": "44",
    "postal_code": "68530"
  },
  {
    "name": "Nambsheim",
    "code": "68230",
    "epci_code": "200066025",
    "departement_code": "68",
    "region_code": "44",
    "postal_code": "68740"
  },
  {
    "name": "Neuf-Brisach",
    "code": "68231",
    "epci_code": "200066025",
    "departement_code": "68",
    "region_code": "44",
    "postal_code": "68600"
  },
  {
    "name": "Neuwiller",
    "code": "68232",
    "epci_code": "200066058",
    "departement_code": "68",
    "region_code": "44",
    "postal_code": "68220"
  },
  {
    "name": "Niederentzen",
    "code": "68234",
    "epci_code": "246800445",
    "departement_code": "68",
    "region_code": "44",
    "postal_code": "68127"
  },
  {
    "name": "Niederhergheim",
    "code": "68235",
    "epci_code": "246800445",
    "departement_code": "68",
    "region_code": "44",
    "postal_code": "68127"
  },
  {
    "name": "Niedermorschwihr",
    "code": "68237",
    "epci_code": "246800726",
    "departement_code": "68",
    "region_code": "44",
    "postal_code": "68230"
  },
  {
    "name": "Niffer",
    "code": "68238",
    "epci_code": "200066009",
    "departement_code": "68",
    "region_code": "44",
    "postal_code": "68680"
  },
  {
    "name": "Oberbruck",
    "code": "68239",
    "epci_code": "246800676",
    "departement_code": "68",
    "region_code": "44",
    "postal_code": "68290"
  },
  {
    "name": "Illtal",
    "code": "68240",
    "epci_code": "200066041",
    "departement_code": "68",
    "region_code": "44",
    "postal_code": "68960"
  },
  {
    "name": "Oberentzen",
    "code": "68241",
    "epci_code": "246800445",
    "departement_code": "68",
    "region_code": "44",
    "postal_code": "68127"
  },
  {
    "name": "Oberhergheim",
    "code": "68242",
    "epci_code": "246800445",
    "departement_code": "68",
    "region_code": "44",
    "postal_code": "68127"
  },
  {
    "name": "Oberlarg",
    "code": "68243",
    "epci_code": "200066041",
    "departement_code": "68",
    "region_code": "44",
    "postal_code": "68480"
  },
  {
    "name": "Obermorschwihr",
    "code": "68244",
    "epci_code": "246800494",
    "departement_code": "68",
    "region_code": "44",
    "postal_code": "68420"
  },
  {
    "name": "Obermorschwiller",
    "code": "68245",
    "epci_code": "200066041",
    "departement_code": "68",
    "region_code": "44",
    "postal_code": "68130"
  },
  {
    "name": "Obersaasheim",
    "code": "68246",
    "epci_code": "200066025",
    "departement_code": "68",
    "region_code": "44",
    "postal_code": "68600"
  },
  {
    "name": "Oderen",
    "code": "68247",
    "epci_code": "246800205",
    "departement_code": "68",
    "region_code": "44",
    "postal_code": "68830"
  },
  {
    "name": "Oltingue",
    "code": "68248",
    "epci_code": "200066041",
    "departement_code": "68",
    "region_code": "44",
    "postal_code": "68480"
  },
  {
    "name": "Orbey",
    "code": "68249",
    "epci_code": "246800551",
    "departement_code": "68",
    "region_code": "44",
    "postal_code": "68370"
  },
  {
    "name": "Orschwihr",
    "code": "68250",
    "epci_code": "246800569",
    "departement_code": "68",
    "region_code": "44",
    "postal_code": "68500"
  },
  {
    "name": "Osenbach",
    "code": "68251",
    "epci_code": "246800494",
    "departement_code": "68",
    "region_code": "44",
    "postal_code": "68570"
  },
  {
    "name": "Ostheim",
    "code": "68252",
    "epci_code": "246800577",
    "departement_code": "68",
    "region_code": "44",
    "postal_code": "68150"
  },
  {
    "name": "Ottmarsheim",
    "code": "68253",
    "epci_code": "200066009",
    "departement_code": "68",
    "region_code": "44",
    "postal_code": "68490"
  },
  {
    "name": "Petit-Landau",
    "code": "68254",
    "epci_code": "200066009",
    "departement_code": "68",
    "region_code": "44",
    "postal_code": "68490"
  },
  {
    "name": "Pfaffenheim",
    "code": "68255",
    "epci_code": "246800494",
    "departement_code": "68",
    "region_code": "44",
    "postal_code": "68250"
  },
  {
    "name": "Pfastatt",
    "code": "68256",
    "epci_code": "200066009",
    "departement_code": "68",
    "region_code": "44",
    "postal_code": "68120"
  },
  {
    "name": "Pfetterhouse",
    "code": "68257",
    "epci_code": "200066033",
    "departement_code": "68",
    "region_code": "44",
    "postal_code": "68480"
  },
  {
    "name": "Pulversheim",
    "code": "68258",
    "epci_code": "200066009",
    "departement_code": "68",
    "region_code": "44",
    "postal_code": "68840"
  },
  {
    "name": "Raedersdorf",
    "code": "68259",
    "epci_code": "200066041",
    "departement_code": "68",
    "region_code": "44",
    "postal_code": "68480"
  },
  {
    "name": "Raedersheim",
    "code": "68260",
    "epci_code": "246800569",
    "departement_code": "68",
    "region_code": "44",
    "postal_code": "68190"
  },
  {
    "name": "Rammersmatt",
    "code": "68261",
    "epci_code": "200036465",
    "departement_code": "68",
    "region_code": "44",
    "postal_code": "68800"
  },
  {
    "name": "Ranspach",
    "code": "68262",
    "epci_code": "246800205",
    "departement_code": "68",
    "region_code": "44",
    "postal_code": "68470"
  },
  {
    "name": "Ranspach-le-Bas",
    "code": "68263",
    "epci_code": "200066058",
    "departement_code": "68",
    "region_code": "44",
    "postal_code": "68730"
  },
  {
    "name": "Ranspach-le-Haut",
    "code": "68264",
    "epci_code": "200066058",
    "departement_code": "68",
    "region_code": "44",
    "postal_code": "68220"
  },
  {
    "name": "Rantzwiller",
    "code": "68265",
    "epci_code": "200066058",
    "departement_code": "68",
    "region_code": "44",
    "postal_code": "68510"
  },
  {
    "name": "Réguisheim",
    "code": "68266",
    "epci_code": "246800445",
    "departement_code": "68",
    "region_code": "44",
    "postal_code": "68890"
  },
  {
    "name": "Reiningue",
    "code": "68267",
    "epci_code": "200066009",
    "departement_code": "68",
    "region_code": "44",
    "postal_code": "68950"
  },
  {
    "name": "Retzwiller",
    "code": "68268",
    "epci_code": "200066033",
    "departement_code": "68",
    "region_code": "44",
    "postal_code": "68210"
  },
  {
    "name": "Ribeauvillé",
    "code": "68269",
    "epci_code": "246800577",
    "departement_code": "68",
    "region_code": "44",
    "postal_code": "68150"
  },
  {
    "name": "Richwiller",
    "code": "68270",
    "epci_code": "200066009",
    "departement_code": "68",
    "region_code": "44",
    "postal_code": "68120"
  },
  {
    "name": "Riedisheim",
    "code": "68271",
    "epci_code": "200066009",
    "departement_code": "68",
    "region_code": "44",
    "postal_code": "68400"
  },
  {
    "name": "Riespach",
    "code": "68273",
    "epci_code": "200066041",
    "departement_code": "68",
    "region_code": "44",
    "postal_code": "68640"
  },
  {
    "name": "Rimbach-près-Guebwiller",
    "code": "68274",
    "epci_code": "246800569",
    "departement_code": "68",
    "region_code": "44",
    "postal_code": "68500"
  },
  {
    "name": "Rimbach-près-Masevaux",
    "code": "68275",
    "epci_code": "246800676",
    "departement_code": "68",
    "region_code": "44",
    "postal_code": "68290"
  },
  {
    "name": "Rimbachzell",
    "code": "68276",
    "epci_code": "246800569",
    "departement_code": "68",
    "region_code": "44",
    "postal_code": "68500"
  },
  {
    "name": "Riquewihr",
    "code": "68277",
    "epci_code": "246800577",
    "departement_code": "68",
    "region_code": "44",
    "postal_code": "68340"
  },
  {
    "name": "Rixheim",
    "code": "68278",
    "epci_code": "200066009",
    "departement_code": "68",
    "region_code": "44",
    "postal_code": "68170"
  },
  {
    "name": "Roderen",
    "code": "68279",
    "epci_code": "200036465",
    "departement_code": "68",
    "region_code": "44",
    "postal_code": "68800"
  },
  {
    "name": "Rodern",
    "code": "68280",
    "epci_code": "246800577",
    "departement_code": "68",
    "region_code": "44",
    "postal_code": "68590"
  },
  {
    "name": "Roggenhouse",
    "code": "68281",
    "epci_code": "200066025",
    "departement_code": "68",
    "region_code": "44",
    "postal_code": "68740"
  },
  {
    "name": "Romagny",
    "code": "68282",
    "epci_code": "200066033",
    "departement_code": "68",
    "region_code": "44",
    "postal_code": "68210"
  },
  {
    "name": "Rombach-le-Franc",
    "code": "68283",
    "epci_code": "246800395",
    "departement_code": "68",
    "region_code": "44",
    "postal_code": "68660"
  },
  {
    "name": "Roppentzwiller",
    "code": "68284",
    "epci_code": "200066041",
    "departement_code": "68",
    "region_code": "44",
    "postal_code": "68480"
  },
  {
    "name": "Rorschwihr",
    "code": "68285",
    "epci_code": "246800577",
    "departement_code": "68",
    "region_code": "44",
    "postal_code": "68590"
  },
  {
    "name": "Rosenau",
    "code": "68286",
    "epci_code": "200066058",
    "departement_code": "68",
    "region_code": "44",
    "postal_code": "68128"
  },
  {
    "name": "Rouffach",
    "code": "68287",
    "epci_code": "246800494",
    "departement_code": "68",
    "region_code": "44",
    "postal_code": "68250"
  },
  {
    "name": "Ruederbach",
    "code": "68288",
    "epci_code": "200066041",
    "departement_code": "68",
    "region_code": "44",
    "postal_code": "68560"
  },
  {
    "name": "Ruelisheim",
    "code": "68289",
    "epci_code": "200066009",
    "departement_code": "68",
    "region_code": "44",
    "postal_code": "68270"
  },
  {
    "name": "Rustenhart",
    "code": "68290",
    "epci_code": "200066025",
    "departement_code": "68",
    "region_code": "44",
    "postal_code": "68740"
  },
  {
    "name": "Rumersheim-le-Haut",
    "code": "68291",
    "epci_code": "200066025",
    "departement_code": "68",
    "region_code": "44",
    "postal_code": "68740"
  },
  {
    "name": "Saint-Amarin",
    "code": "68292",
    "epci_code": "246800205",
    "departement_code": "68",
    "region_code": "44",
    "postal_code": "68550"
  },
  {
    "name": "Saint-Cosme",
    "code": "68293",
    "epci_code": "200066033",
    "departement_code": "68",
    "region_code": "44",
    "postal_code": "68210"
  },
  {
    "name": "Sainte-Croix-aux-Mines",
    "code": "68294",
    "epci_code": "246800395",
    "departement_code": "68",
    "region_code": "44",
    "postal_code": "68160"
  },
  {
    "name": "Sainte-Croix-en-Plaine",
    "code": "68295",
    "epci_code": "246800726",
    "departement_code": "68",
    "region_code": "44",
    "postal_code": "68127"
  },
  {
    "name": "Saint-Hippolyte",
    "code": "68296",
    "epci_code": "246800577",
    "departement_code": "68",
    "region_code": "44",
    "postal_code": "68590"
  },
  {
    "name": "Saint-Louis",
    "code": "68297",
    "epci_code": "200066058",
    "departement_code": "68",
    "region_code": "44",
    "postal_code": "68300"
  },
  {
    "name": "Sainte-Marie-aux-Mines",
    "code": "68298",
    "epci_code": "246800395",
    "departement_code": "68",
    "region_code": "44",
    "postal_code": "68160"
  },
  {
    "name": "Saint-Ulrich",
    "code": "68299",
    "epci_code": "200066033",
    "departement_code": "68",
    "region_code": "44",
    "postal_code": "68210"
  },
  {
    "name": "Sausheim",
    "code": "68300",
    "epci_code": "200066009",
    "departement_code": "68",
    "region_code": "44",
    "postal_code": "68390"
  },
  {
    "name": "Schlierbach",
    "code": "68301",
    "epci_code": "200066058",
    "departement_code": "68",
    "region_code": "44",
    "postal_code": "68440"
  },
  {
    "name": "Schweighouse-Thann",
    "code": "68302",
    "epci_code": "200036465",
    "departement_code": "68",
    "region_code": "44",
    "postal_code": "68520"
  },
  {
    "name": "Schwoben",
    "code": "68303",
    "epci_code": "200066041",
    "departement_code": "68",
    "region_code": "44",
    "postal_code": "68130"
  },
  {
    "name": "Sentheim",
    "code": "68304",
    "epci_code": "246800676",
    "departement_code": "68",
    "region_code": "44",
    "postal_code": "68780"
  },
  {
    "name": "Seppois-le-Bas",
    "code": "68305",
    "epci_code": "200066033",
    "departement_code": "68",
    "region_code": "44",
    "postal_code": "68580"
  },
  {
    "name": "Seppois-le-Haut",
    "code": "68306",
    "epci_code": "200066033",
    "departement_code": "68",
    "region_code": "44",
    "postal_code": "68580"
  },
  {
    "name": "Sewen",
    "code": "68307",
    "epci_code": "246800676",
    "departement_code": "68",
    "region_code": "44",
    "postal_code": "68290"
  },
  {
    "name": "Sickert",
    "code": "68308",
    "epci_code": "246800676",
    "departement_code": "68",
    "region_code": "44",
    "postal_code": "68290"
  },
  {
    "name": "Sierentz",
    "code": "68309",
    "epci_code": "200066058",
    "departement_code": "68",
    "region_code": "44",
    "postal_code": "68510"
  },
  {
    "name": "Sondernach",
    "code": "68311",
    "epci_code": "246800585",
    "departement_code": "68",
    "region_code": "44",
    "postal_code": "68380"
  },
  {
    "name": "Sondersdorf",
    "code": "68312",
    "epci_code": "200066041",
    "departement_code": "68",
    "region_code": "44",
    "postal_code": "68480"
  },
  {
    "name": "Soppe-le-Bas",
    "code": "68313",
    "epci_code": "246800676",
    "departement_code": "68",
    "region_code": "44",
    "postal_code": "68780"
  },
  {
    "name": "Soultz-Haut-Rhin",
    "code": "68315",
    "epci_code": "246800569",
    "departement_code": "68",
    "region_code": "44",
    "postal_code": "68360"
  },
  {
    "name": "Soultzbach-les-Bains",
    "code": "68316",
    "epci_code": "246800585",
    "departement_code": "68",
    "region_code": "44",
    "postal_code": "68230"
  },
  {
    "name": "Soultzeren",
    "code": "68317",
    "epci_code": "246800585",
    "departement_code": "68",
    "region_code": "44",
    "postal_code": "68140"
  },
  {
    "name": "Soultzmatt",
    "code": "68318",
    "epci_code": "246800569",
    "departement_code": "68",
    "region_code": "44",
    "postal_code": "68570"
  },
  {
    "name": "Spechbach",
    "code": "68320",
    "epci_code": "200066041",
    "departement_code": "68",
    "region_code": "44",
    "postal_code": "68720"
  },
  {
    "name": "Staffelfelden",
    "code": "68321",
    "epci_code": "200066009",
    "departement_code": "68",
    "region_code": "44",
    "postal_code": "68850"
  },
  {
    "name": "Steinbach",
    "code": "68322",
    "epci_code": "200036465",
    "departement_code": "68",
    "region_code": "44",
    "postal_code": "68700"
  },
  {
    "name": "Steinbrunn-le-Bas",
    "code": "68323",
    "epci_code": "200066009",
    "departement_code": "68",
    "region_code": "44",
    "postal_code": "68440"
  },
  {
    "name": "Steinbrunn-le-Haut",
    "code": "68324",
    "epci_code": "200066058",
    "departement_code": "68",
    "region_code": "44",
    "postal_code": "68440"
  },
  {
    "name": "Steinsoultz",
    "code": "68325",
    "epci_code": "200066041",
    "departement_code": "68",
    "region_code": "44",
    "postal_code": "68640"
  },
  {
    "name": "Sternenberg",
    "code": "68326",
    "epci_code": "200066033",
    "departement_code": "68",
    "region_code": "44",
    "postal_code": "68780"
  },
  {
    "name": "Stetten",
    "code": "68327",
    "epci_code": "200066058",
    "departement_code": "68",
    "region_code": "44",
    "postal_code": "68510"
  },
  {
    "name": "Storckensohn",
    "code": "68328",
    "epci_code": "246800205",
    "departement_code": "68",
    "region_code": "44",
    "postal_code": "68470"
  },
  {
    "name": "Stosswihr",
    "code": "68329",
    "epci_code": "246800585",
    "departement_code": "68",
    "region_code": "44",
    "postal_code": "68140"
  },
  {
    "name": "Strueth",
    "code": "68330",
    "epci_code": "200066033",
    "departement_code": "68",
    "region_code": "44",
    "postal_code": "68580"
  },
  {
    "name": "Sundhoffen",
    "code": "68331",
    "epci_code": "246800726",
    "departement_code": "68",
    "region_code": "44",
    "postal_code": "68280"
  },
  {
    "name": "Tagolsheim",
    "code": "68332",
    "epci_code": "200066041",
    "departement_code": "68",
    "region_code": "44",
    "postal_code": "68720"
  },
  {
    "name": "Tagsdorf",
    "code": "68333",
    "epci_code": "200066041",
    "departement_code": "68",
    "region_code": "44",
    "postal_code": "68130"
  },
  {
    "name": "Thann",
    "code": "68334",
    "epci_code": "200036465",
    "departement_code": "68",
    "region_code": "44",
    "postal_code": "68800"
  },
  {
    "name": "Thannenkirch",
    "code": "68335",
    "epci_code": "246800577",
    "departement_code": "68",
    "region_code": "44",
    "postal_code": "68590"
  },
  {
    "name": "Traubach-le-Bas",
    "code": "68336",
    "epci_code": "200066033",
    "departement_code": "68",
    "region_code": "44",
    "postal_code": "68210"
  },
  {
    "name": "Traubach-le-Haut",
    "code": "68337",
    "epci_code": "200066033",
    "departement_code": "68",
    "region_code": "44",
    "postal_code": "68210"
  },
  {
    "name": "Turckheim",
    "code": "68338",
    "epci_code": "246800726",
    "departement_code": "68",
    "region_code": "44",
    "postal_code": "68230"
  },
  {
    "name": "Ueberstrass",
    "code": "68340",
    "epci_code": "200066033",
    "departement_code": "68",
    "region_code": "44",
    "postal_code": "68580"
  },
  {
    "name": "Uffheim",
    "code": "68341",
    "epci_code": "200066058",
    "departement_code": "68",
    "region_code": "44",
    "postal_code": "68510"
  },
  {
    "name": "Uffholtz",
    "code": "68342",
    "epci_code": "200036465",
    "departement_code": "68",
    "region_code": "44",
    "postal_code": "68700"
  },
  {
    "name": "Ungersheim",
    "code": "68343",
    "epci_code": "200066009",
    "departement_code": "68",
    "region_code": "44",
    "postal_code": "68190"
  },
  {
    "name": "Urbès",
    "code": "68344",
    "epci_code": "246800205",
    "departement_code": "68",
    "region_code": "44",
    "postal_code": "68121"
  },
  {
    "name": "Urschenheim",
    "code": "68345",
    "epci_code": "200066025",
    "departement_code": "68",
    "region_code": "44",
    "postal_code": "68320"
  },
  {
    "name": "Vieux-Ferrette",
    "code": "68347",
    "epci_code": "200066041",
    "departement_code": "68",
    "region_code": "44",
    "postal_code": "68480"
  },
  {
    "name": "Vieux-Thann",
    "code": "68348",
    "epci_code": "200036465",
    "departement_code": "68",
    "region_code": "44",
    "postal_code": "68800"
  },
  {
    "name": "Village-Neuf",
    "code": "68349",
    "epci_code": "200066058",
    "departement_code": "68",
    "region_code": "44",
    "postal_code": "68128"
  },
  {
    "name": "Vœgtlinshoffen",
    "code": "68350",
    "epci_code": "246800494",
    "departement_code": "68",
    "region_code": "44",
    "postal_code": "68420"
  },
  {
    "name": "Vogelgrun",
    "code": "68351",
    "epci_code": "200066025",
    "departement_code": "68",
    "region_code": "44",
    "postal_code": "68600"
  },
  {
    "name": "Volgelsheim",
    "code": "68352",
    "epci_code": "200066025",
    "departement_code": "68",
    "region_code": "44",
    "postal_code": "68600"
  },
  {
    "name": "Wahlbach",
    "code": "68353",
    "epci_code": "200066058",
    "departement_code": "68",
    "region_code": "44",
    "postal_code": "68130"
  },
  {
    "name": "Walbach",
    "code": "68354",
    "epci_code": "246800726",
    "departement_code": "68",
    "region_code": "44",
    "postal_code": "68230"
  },
  {
    "name": "Waldighofen",
    "code": "68355",
    "epci_code": "200066041",
    "departement_code": "68",
    "region_code": "44",
    "postal_code": "68640"
  },
  {
    "name": "Walheim",
    "code": "68356",
    "epci_code": "200066041",
    "departement_code": "68",
    "region_code": "44",
    "postal_code": "68130"
  },
  {
    "name": "Waltenheim",
    "code": "68357",
    "epci_code": "200066058",
    "departement_code": "68",
    "region_code": "44",
    "postal_code": "68510"
  },
  {
    "name": "Wasserbourg",
    "code": "68358",
    "epci_code": "246800585",
    "departement_code": "68",
    "region_code": "44",
    "postal_code": "68230"
  },
  {
    "name": "Wattwiller",
    "code": "68359",
    "epci_code": "200036465",
    "departement_code": "68",
    "region_code": "44",
    "postal_code": "68700"
  },
  {
    "name": "Weckolsheim",
    "code": "68360",
    "epci_code": "200066025",
    "departement_code": "68",
    "region_code": "44",
    "postal_code": "68600"
  },
  {
    "name": "Wegscheid",
    "code": "68361",
    "epci_code": "246800676",
    "departement_code": "68",
    "region_code": "44",
    "postal_code": "68290"
  },
  {
    "name": "Wentzwiller",
    "code": "68362",
    "epci_code": "200066058",
    "departement_code": "68",
    "region_code": "44",
    "postal_code": "68220"
  },
  {
    "name": "Werentzhouse",
    "code": "68363",
    "epci_code": "200066041",
    "departement_code": "68",
    "region_code": "44",
    "postal_code": "68480"
  },
  {
    "name": "Westhalten",
    "code": "68364",
    "epci_code": "246800494",
    "departement_code": "68",
    "region_code": "44",
    "postal_code": "68250"
  },
  {
    "name": "Wettolsheim",
    "code": "68365",
    "epci_code": "246800726",
    "departement_code": "68",
    "region_code": "44",
    "postal_code": "68920"
  },
  {
    "name": "Wickerschwihr",
    "code": "68366",
    "epci_code": "246800726",
    "departement_code": "68",
    "region_code": "44",
    "postal_code": "68320"
  },
  {
    "name": "Widensolen",
    "code": "68367",
    "epci_code": "200066025",
    "departement_code": "68",
    "region_code": "44",
    "postal_code": "68320"
  },
  {
    "name": "Wihr-au-Val",
    "code": "68368",
    "epci_code": "246800585",
    "departement_code": "68",
    "region_code": "44",
    "postal_code": "68230"
  },
  {
    "name": "Wildenstein",
    "code": "68370",
    "epci_code": "246800205",
    "departement_code": "68",
    "region_code": "44",
    "postal_code": "68820"
  },
  {
    "name": "Willer",
    "code": "68371",
    "epci_code": "200066041",
    "departement_code": "68",
    "region_code": "44",
    "postal_code": "68960"
  },
  {
    "name": "Willer-sur-Thur",
    "code": "68372",
    "epci_code": "200036465",
    "departement_code": "68",
    "region_code": "44",
    "postal_code": "68760"
  },
  {
    "name": "Winkel",
    "code": "68373",
    "epci_code": "200066041",
    "departement_code": "68",
    "region_code": "44",
    "postal_code": "68480"
  },
  {
    "name": "Wintzenheim",
    "code": "68374",
    "epci_code": "246800726",
    "departement_code": "68",
    "region_code": "44",
    "postal_code": "68124"
  },
  {
    "name": "Wintzenheim",
    "code": "68374",
    "epci_code": "246800726",
    "departement_code": "68",
    "region_code": "44",
    "postal_code": "68920"
  },
  {
    "name": "Wittelsheim",
    "code": "68375",
    "epci_code": "200066009",
    "departement_code": "68",
    "region_code": "44",
    "postal_code": "68310"
  },
  {
    "name": "Wittenheim",
    "code": "68376",
    "epci_code": "200066009",
    "departement_code": "68",
    "region_code": "44",
    "postal_code": "68270"
  },
  {
    "name": "Wittersdorf",
    "code": "68377",
    "epci_code": "200066041",
    "departement_code": "68",
    "region_code": "44",
    "postal_code": "68130"
  },
  {
    "name": "Wolfersdorf",
    "code": "68378",
    "epci_code": "200066033",
    "departement_code": "68",
    "region_code": "44",
    "postal_code": "68210"
  },
  {
    "name": "Wolfgantzen",
    "code": "68379",
    "epci_code": "200066025",
    "departement_code": "68",
    "region_code": "44",
    "postal_code": "68600"
  },
  {
    "name": "Wolschwiller",
    "code": "68380",
    "epci_code": "200066041",
    "departement_code": "68",
    "region_code": "44",
    "postal_code": "68480"
  },
  {
    "name": "Wuenheim",
    "code": "68381",
    "epci_code": "246800569",
    "departement_code": "68",
    "region_code": "44",
    "postal_code": "68500"
  },
  {
    "name": "Zaessingue",
    "code": "68382",
    "epci_code": "200066058",
    "departement_code": "68",
    "region_code": "44",
    "postal_code": "68130"
  },
  {
    "name": "Zellenberg",
    "code": "68383",
    "epci_code": "246800577",
    "departement_code": "68",
    "region_code": "44",
    "postal_code": "68340"
  },
  {
    "name": "Zillisheim",
    "code": "68384",
    "epci_code": "200066009",
    "departement_code": "68",
    "region_code": "44",
    "postal_code": "68720"
  },
  {
    "name": "Zimmerbach",
    "code": "68385",
    "epci_code": "246800726",
    "departement_code": "68",
    "region_code": "44",
    "postal_code": "68230"
  },
  {
    "name": "Zimmersheim",
    "code": "68386",
    "epci_code": "200066009",
    "departement_code": "68",
    "region_code": "44",
    "postal_code": "68440"
  }
]