[
  {
    "name": "Aiguebelette-le-Lac",
    "code": "73001",
    "epci_code": "247300668",
    "departement_code": "73",
    "region_code": "84",
    "postal_code": "73610"
  },
  {
    "name": "Grand-Aigueblanche",
    "code": "73003",
    "epci_code": "247300015",
    "departement_code": "73",
    "region_code": "84",
    "postal_code": "73260"
  },
  {
    "name": "Aillon-le-Jeune",
    "code": "73004",
    "epci_code": "200069110",
    "departement_code": "73",
    "region_code": "84",
    "postal_code": "73340"
  },
  {
    "name": "Aillon-le-Vieux",
    "code": "73005",
    "epci_code": "200069110",
    "departement_code": "73",
    "region_code": "84",
    "postal_code": "73340"
  },
  {
    "name": "Aime-la-Plagne",
    "code": "73006",
    "epci_code": "247300817",
    "departement_code": "73",
    "region_code": "84",
    "postal_code": "73210"
  },
  {
    "name": "Aiton",
    "code": "73007",
    "epci_code": "247300676",
    "departement_code": "73",
    "region_code": "84",
    "postal_code": "73220"
  },
  {
    "name": "Aix-les-Bains",
    "code": "73008",
    "epci_code": "200068674",
    "departement_code": "73",
    "region_code": "84",
    "postal_code": "73100"
  },
  {
    "name": "Entrelacs",
    "code": "73010",
    "epci_code": "200068674",
    "departement_code": "73",
    "region_code": "84",
    "postal_code": "73410"
  },
  {
    "name": "Albertville",
    "code": "73011",
    "epci_code": "200068997",
    "departement_code": "73",
    "region_code": "84",
    "postal_code": "73200"
  },
  {
    "name": "Albiez-le-Jeune",
    "code": "73012",
    "epci_code": "200070464",
    "departement_code": "73",
    "region_code": "84",
    "postal_code": "73300"
  },
  {
    "name": "Albiez-Montrond",
    "code": "73013",
    "epci_code": "200070464",
    "departement_code": "73",
    "region_code": "84",
    "postal_code": "73300"
  },
  {
    "name": "Allondaz",
    "code": "73014",
    "epci_code": "200068997",
    "departement_code": "73",
    "region_code": "84",
    "postal_code": "73200"
  },
  {
    "name": "Les Allues",
    "code": "73015",
    "epci_code": "200040798",
    "departement_code": "73",
    "region_code": "84",
    "postal_code": "73550"
  },
  {
    "name": "Apremont",
    "code": "73017",
    "epci_code": "200041010",
    "departement_code": "73",
    "region_code": "84",
    "postal_code": "73190"
  },
  {
    "name": "Arbin",
    "code": "73018",
    "epci_code": "200041010",
    "departement_code": "73",
    "region_code": "84",
    "postal_code": "73800"
  },
  {
    "name": "Argentine",
    "code": "73019",
    "epci_code": "247300676",
    "departement_code": "73",
    "region_code": "84",
    "postal_code": "73220"
  },
  {
    "name": "Arith",
    "code": "73020",
    "epci_code": "200069110",
    "departement_code": "73",
    "region_code": "84",
    "postal_code": "73340"
  },
  {
    "name": "Arvillard",
    "code": "73021",
    "epci_code": "200041010",
    "departement_code": "73",
    "region_code": "84",
    "postal_code": "73110"
  },
  {
    "name": "Attignat-Oncin",
    "code": "73022",
    "epci_code": "247300668",
    "departement_code": "73",
    "region_code": "84",
    "postal_code": "73610"
  },
  {
    "name": "Aussois",
    "code": "73023",
    "epci_code": "200070340",
    "departement_code": "73",
    "region_code": "84",
    "postal_code": "73500"
  },
  {
    "name": "Les Avanchers-Valmorel",
    "code": "73024",
    "epci_code": "247300015",
    "departement_code": "73",
    "region_code": "84",
    "postal_code": "73260"
  },
  {
    "name": "Avressieux",
    "code": "73025",
    "epci_code": "247300528",
    "departement_code": "73",
    "region_code": "84",
    "postal_code": "73240"
  },
  {
    "name": "Avrieux",
    "code": "73026",
    "epci_code": "200070340",
    "departement_code": "73",
    "region_code": "84",
    "postal_code": "73500"
  },
  {
    "name": "Ayn",
    "code": "73027",
    "epci_code": "247300668",
    "departement_code": "73",
    "region_code": "84",
    "postal_code": "73470"
  },
  {
    "name": "La Balme",
    "code": "73028",
    "epci_code": "247300262",
    "departement_code": "73",
    "region_code": "84",
    "postal_code": "73170"
  },
  {
    "name": "Barberaz",
    "code": "73029",
    "epci_code": "200069110",
    "departement_code": "73",
    "region_code": "84",
    "postal_code": "73000"
  },
  {
    "name": "Barby",
    "code": "73030",
    "epci_code": "200069110",
    "departement_code": "73",
    "region_code": "84",
    "postal_code": "73230"
  },
  {
    "name": "Bassens",
    "code": "73031",
    "epci_code": "200069110",
    "departement_code": "73",
    "region_code": "84",
    "postal_code": "73000"
  },
  {
    "name": "La Bâthie",
    "code": "73032",
    "epci_code": "200068997",
    "departement_code": "73",
    "region_code": "84",
    "postal_code": "73540"
  },
  {
    "name": "La Bauche",
    "code": "73033",
    "epci_code": "200040111",
    "departement_code": "73",
    "region_code": "84",
    "postal_code": "73360"
  },
  {
    "name": "Beaufort",
    "code": "73034",
    "epci_code": "200068997",
    "departement_code": "73",
    "region_code": "84",
    "postal_code": "73270"
  },
  {
    "name": "Bellecombe-en-Bauges",
    "code": "73036",
    "epci_code": "200069110",
    "departement_code": "73",
    "region_code": "84",
    "postal_code": "73340"
  },
  {
    "name": "Belmont-Tramonet",
    "code": "73039",
    "epci_code": "247300528",
    "departement_code": "73",
    "region_code": "84",
    "postal_code": "73330"
  },
  {
    "name": "Bessans",
    "code": "73040",
    "epci_code": "200070340",
    "departement_code": "73",
    "region_code": "84",
    "postal_code": "73480"
  },
  {
    "name": "Betton-Bettonet",
    "code": "73041",
    "epci_code": "200041010",
    "departement_code": "73",
    "region_code": "84",
    "postal_code": "73390"
  },
  {
    "name": "Billième",
    "code": "73042",
    "epci_code": "247300262",
    "departement_code": "73",
    "region_code": "84",
    "postal_code": "73170"
  },
  {
    "name": "La Biolle",
    "code": "73043",
    "epci_code": "200068674",
    "departement_code": "73",
    "region_code": "84",
    "postal_code": "73410"
  },
  {
    "name": "Bonneval-sur-Arc",
    "code": "73047",
    "epci_code": "200070340",
    "departement_code": "73",
    "region_code": "84",
    "postal_code": "73480"
  },
  {
    "name": "Bonvillard",
    "code": "73048",
    "epci_code": "200068997",
    "departement_code": "73",
    "region_code": "84",
    "postal_code": "73460"
  },
  {
    "name": "Bonvillaret",
    "code": "73049",
    "epci_code": "247300676",
    "departement_code": "73",
    "region_code": "84",
    "postal_code": "73220"
  },
  {
    "name": "Bourdeau",
    "code": "73050",
    "epci_code": "200068674",
    "departement_code": "73",
    "region_code": "84",
    "postal_code": "73370"
  },
  {
    "name": "Le Bourget-du-Lac",
    "code": "73051",
    "epci_code": "200068674",
    "departement_code": "73",
    "region_code": "84",
    "postal_code": "73370"
  },
  {
    "name": "Bourget-en-Huile",
    "code": "73052",
    "epci_code": "200041010",
    "departement_code": "73",
    "region_code": "84",
    "postal_code": "73110"
  },
  {
    "name": "Bourgneuf",
    "code": "73053",
    "epci_code": "200041010",
    "departement_code": "73",
    "region_code": "84",
    "postal_code": "73390"
  },
  {
    "name": "Bourg-Saint-Maurice",
    "code": "73054",
    "epci_code": "247300254",
    "departement_code": "73",
    "region_code": "84",
    "postal_code": "73700"
  },
  {
    "name": "Bozel",
    "code": "73055",
    "epci_code": "200040798",
    "departement_code": "73",
    "region_code": "84",
    "postal_code": "73350"
  },
  {
    "name": "Brides-les-Bains",
    "code": "73057",
    "epci_code": "200040798",
    "departement_code": "73",
    "region_code": "84",
    "postal_code": "73570"
  },
  {
    "name": "La Bridoire",
    "code": "73058",
    "epci_code": "247300528",
    "departement_code": "73",
    "region_code": "84",
    "postal_code": "73520"
  },
  {
    "name": "Brison-Saint-Innocent",
    "code": "73059",
    "epci_code": "200068674",
    "departement_code": "73",
    "region_code": "84",
    "postal_code": "73100"
  },
  {
    "name": "Césarches",
    "code": "73061",
    "epci_code": "200068997",
    "departement_code": "73",
    "region_code": "84",
    "postal_code": "73200"
  },
  {
    "name": "Cevins",
    "code": "73063",
    "epci_code": "200068997",
    "departement_code": "73",
    "region_code": "84",
    "postal_code": "73730"
  },
  {
    "name": "Challes-les-Eaux",
    "code": "73064",
    "epci_code": "200069110",
    "departement_code": "73",
    "region_code": "84",
    "postal_code": "73190"
  },
  {
    "name": "Chambéry",
    "code": "73065",
    "epci_code": "200069110",
    "departement_code": "73",
    "region_code": "84",
    "postal_code": "73000"
  },
  {
    "name": "La Chambre",
    "code": "73067",
    "epci_code": "247300361",
    "departement_code": "73",
    "region_code": "84",
    "postal_code": "73130"
  },
  {
    "name": "Chamousset",
    "code": "73068",
    "epci_code": "200041010",
    "departement_code": "73",
    "region_code": "84",
    "postal_code": "73390"
  },
  {
    "name": "Chamoux-sur-Gelon",
    "code": "73069",
    "epci_code": "200041010",
    "departement_code": "73",
    "region_code": "84",
    "postal_code": "73390"
  },
  {
    "name": "Champagneux",
    "code": "73070",
    "epci_code": "247300528",
    "departement_code": "73",
    "region_code": "84",
    "postal_code": "73240"
  },
  {
    "name": "Champagny-en-Vanoise",
    "code": "73071",
    "epci_code": "200040798",
    "departement_code": "73",
    "region_code": "84",
    "postal_code": "73350"
  },
  {
    "name": "Champ-Laurent",
    "code": "73072",
    "epci_code": "200041010",
    "departement_code": "73",
    "region_code": "84",
    "postal_code": "73390"
  },
  {
    "name": "Chanaz",
    "code": "73073",
    "epci_code": "200068674",
    "departement_code": "73",
    "region_code": "84",
    "postal_code": "73310"
  },
  {
    "name": "La Chapelle",
    "code": "73074",
    "epci_code": "247300361",
    "departement_code": "73",
    "region_code": "84",
    "postal_code": "73660"
  },
  {
    "name": "La Chapelle-Blanche",
    "code": "73075",
    "epci_code": "200041010",
    "departement_code": "73",
    "region_code": "84",
    "postal_code": "73110"
  },
  {
    "name": "La Chapelle-du-Mont-du-Chat",
    "code": "73076",
    "epci_code": "200068674",
    "departement_code": "73",
    "region_code": "84",
    "postal_code": "73370"
  },
  {
    "name": "Les Chapelles",
    "code": "73077",
    "epci_code": "247300254",
    "departement_code": "73",
    "region_code": "84",
    "postal_code": "73700"
  },
  {
    "name": "La Chapelle-Saint-Martin",
    "code": "73078",
    "epci_code": "247300262",
    "departement_code": "73",
    "region_code": "84",
    "postal_code": "73170"
  },
  {
    "name": "Châteauneuf",
    "code": "73079",
    "epci_code": "200041010",
    "departement_code": "73",
    "region_code": "84",
    "postal_code": "73390"
  },
  {
    "name": "Le Châtelard",
    "code": "73081",
    "epci_code": "200069110",
    "departement_code": "73",
    "region_code": "84",
    "postal_code": "73630"
  },
  {
    "name": "La Chavanne",
    "code": "73082",
    "epci_code": "200041010",
    "departement_code": "73",
    "region_code": "84",
    "postal_code": "73800"
  },
  {
    "name": "Les Chavannes-en-Maurienne",
    "code": "73083",
    "epci_code": "247300361",
    "departement_code": "73",
    "region_code": "84",
    "postal_code": "73660"
  },
  {
    "name": "Chignin",
    "code": "73084",
    "epci_code": "200041010",
    "departement_code": "73",
    "region_code": "84",
    "postal_code": "73800"
  },
  {
    "name": "Chindrieux",
    "code": "73085",
    "epci_code": "200068674",
    "departement_code": "73",
    "region_code": "84",
    "postal_code": "73310"
  },
  {
    "name": "Cléry",
    "code": "73086",
    "epci_code": "200068997",
    "departement_code": "73",
    "region_code": "84",
    "postal_code": "73460"
  },
  {
    "name": "Cognin",
    "code": "73087",
    "epci_code": "200069110",
    "departement_code": "73",
    "region_code": "84",
    "postal_code": "73160"
  },
  {
    "name": "Cohennoz",
    "code": "73088",
    "epci_code": "200068997",
    "departement_code": "73",
    "region_code": "84",
    "postal_code": "73400"
  },
  {
    "name": "Cohennoz",
    "code": "73088",
    "epci_code": "200068997",
    "departement_code": "73",
    "region_code": "84",
    "postal_code": "73590"
  },
  {
    "name": "Coise-Saint-Jean-Pied-Gauthier",
    "code": "73089",
    "epci_code": "200041010",
    "departement_code": "73",
    "region_code": "84",
    "postal_code": "73800"
  },
  {
    "name": "La Compôte",
    "code": "73090",
    "epci_code": "200069110",
    "departement_code": "73",
    "region_code": "84",
    "postal_code": "73630"
  },
  {
    "name": "Conjux",
    "code": "73091",
    "epci_code": "200068674",
    "departement_code": "73",
    "region_code": "84",
    "postal_code": "73310"
  },
  {
    "name": "Corbel",
    "code": "73092",
    "epci_code": "200040111",
    "departement_code": "73",
    "region_code": "84",
    "postal_code": "73160"
  },
  {
    "name": "Crest-Voland",
    "code": "73094",
    "epci_code": "200068997",
    "departement_code": "73",
    "region_code": "84",
    "postal_code": "73590"
  },
  {
    "name": "La Croix-de-la-Rochette",
    "code": "73095",
    "epci_code": "200041010",
    "departement_code": "73",
    "region_code": "84",
    "postal_code": "73110"
  },
  {
    "name": "Cruet",
    "code": "73096",
    "epci_code": "200041010",
    "departement_code": "73",
    "region_code": "84",
    "postal_code": "73800"
  },
  {
    "name": "Curienne",
    "code": "73097",
    "epci_code": "200069110",
    "departement_code": "73",
    "region_code": "84",
    "postal_code": "73190"
  },
  {
    "name": "Les Déserts",
    "code": "73098",
    "epci_code": "200069110",
    "departement_code": "73",
    "region_code": "84",
    "postal_code": "73230"
  },
  {
    "name": "Détrier",
    "code": "73099",
    "epci_code": "200041010",
    "departement_code": "73",
    "region_code": "84",
    "postal_code": "73110"
  },
  {
    "name": "Domessin",
    "code": "73100",
    "epci_code": "247300528",
    "departement_code": "73",
    "region_code": "84",
    "postal_code": "73330"
  },
  {
    "name": "Doucy-en-Bauges",
    "code": "73101",
    "epci_code": "200069110",
    "departement_code": "73",
    "region_code": "84",
    "postal_code": "73630"
  },
  {
    "name": "Drumettaz-Clarafond",
    "code": "73103",
    "epci_code": "200068674",
    "departement_code": "73",
    "region_code": "84",
    "postal_code": "73420"
  },
  {
    "name": "Dullin",
    "code": "73104",
    "epci_code": "247300668",
    "departement_code": "73",
    "region_code": "84",
    "postal_code": "73610"
  },
  {
    "name": "Les Échelles",
    "code": "73105",
    "epci_code": "200040111",
    "departement_code": "73",
    "region_code": "84",
    "postal_code": "73360"
  },
  {
    "name": "École",
    "code": "73106",
    "epci_code": "200069110",
    "departement_code": "73",
    "region_code": "84",
    "postal_code": "73630"
  },
  {
    "name": "Entremont-le-Vieux",
    "code": "73107",
    "epci_code": "200040111",
    "departement_code": "73",
    "region_code": "84",
    "postal_code": "73670"
  },
  {
    "name": "Épierre",
    "code": "73109",
    "epci_code": "247300676",
    "departement_code": "73",
    "region_code": "84",
    "postal_code": "73220"
  },
  {
    "name": "Esserts-Blay",
    "code": "73110",
    "epci_code": "200068997",
    "departement_code": "73",
    "region_code": "84",
    "postal_code": "73540"
  },
  {
    "name": "Feissons-sur-Salins",
    "code": "73113",
    "epci_code": "200040798",
    "departement_code": "73",
    "region_code": "84",
    "postal_code": "73350"
  },
  {
    "name": "Flumet",
    "code": "73114",
    "epci_code": "200068997",
    "departement_code": "73",
    "region_code": "84",
    "postal_code": "73590"
  },
  {
    "name": "Fontcouverte-la-Toussuire",
    "code": "73116",
    "epci_code": "200070464",
    "departement_code": "73",
    "region_code": "84",
    "postal_code": "73300"
  },
  {
    "name": "Fourneaux",
    "code": "73117",
    "epci_code": "200070340",
    "departement_code": "73",
    "region_code": "84",
    "postal_code": "73500"
  },
  {
    "name": "Freney",
    "code": "73119",
    "epci_code": "200070340",
    "departement_code": "73",
    "region_code": "84",
    "postal_code": "73500"
  },
  {
    "name": "Fréterive",
    "code": "73120",
    "epci_code": "200041010",
    "departement_code": "73",
    "region_code": "84",
    "postal_code": "73250"
  },
  {
    "name": "Frontenex",
    "code": "73121",
    "epci_code": "200068997",
    "departement_code": "73",
    "region_code": "84",
    "postal_code": "73460"
  },
  {
    "name": "Gerbaix",
    "code": "73122",
    "epci_code": "247300668",
    "departement_code": "73",
    "region_code": "84",
    "postal_code": "73470"
  },
  {
    "name": "La Giettaz",
    "code": "73123",
    "epci_code": "200068997",
    "departement_code": "73",
    "region_code": "84",
    "postal_code": "73590"
  },
  {
    "name": "Gilly-sur-Isère",
    "code": "73124",
    "epci_code": "200068997",
    "departement_code": "73",
    "region_code": "84",
    "postal_code": "73200"
  },
  {
    "name": "Grésy-sur-Aix",
    "code": "73128",
    "epci_code": "200068674",
    "departement_code": "73",
    "region_code": "84",
    "postal_code": "73100"
  },
  {
    "name": "Grésy-sur-Isère",
    "code": "73129",
    "epci_code": "200068997",
    "departement_code": "73",
    "region_code": "84",
    "postal_code": "73460"
  },
  {
    "name": "Grignon",
    "code": "73130",
    "epci_code": "200068997",
    "departement_code": "73",
    "region_code": "84",
    "postal_code": "73200"
  },
  {
    "name": "Hautecour",
    "code": "73131",
    "epci_code": "200023299",
    "departement_code": "73",
    "region_code": "84",
    "postal_code": "73600"
  },
  {
    "name": "Hauteluce",
    "code": "73132",
    "epci_code": "200068997",
    "departement_code": "73",
    "region_code": "84",
    "postal_code": "73620"
  },
  {
    "name": "Hauteville",
    "code": "73133",
    "epci_code": "200041010",
    "departement_code": "73",
    "region_code": "84",
    "postal_code": "73390"
  },
  {
    "name": "La Tour-en-Maurienne",
    "code": "73135",
    "epci_code": "200070464",
    "departement_code": "73",
    "region_code": "84",
    "postal_code": "73300"
  },
  {
    "name": "Jacob-Bellecombette",
    "code": "73137",
    "epci_code": "200069110",
    "departement_code": "73",
    "region_code": "84",
    "postal_code": "73000"
  },
  {
    "name": "Jarrier",
    "code": "73138",
    "epci_code": "200070464",
    "departement_code": "73",
    "region_code": "84",
    "postal_code": "73300"
  },
  {
    "name": "Jarsy",
    "code": "73139",
    "epci_code": "200069110",
    "departement_code": "73",
    "region_code": "84",
    "postal_code": "73630"
  },
  {
    "name": "Jongieux",
    "code": "73140",
    "epci_code": "247300262",
    "departement_code": "73",
    "region_code": "84",
    "postal_code": "73170"
  },
  {
    "name": "Laissaud",
    "code": "73141",
    "epci_code": "200041010",
    "departement_code": "73",
    "region_code": "84",
    "postal_code": "73800"
  },
  {
    "name": "Landry",
    "code": "73142",
    "epci_code": "247300817",
    "departement_code": "73",
    "region_code": "84",
    "postal_code": "73210"
  },
  {
    "name": "Lépin-le-Lac",
    "code": "73145",
    "epci_code": "247300668",
    "departement_code": "73",
    "region_code": "84",
    "postal_code": "73610"
  },
  {
    "name": "Lescheraines",
    "code": "73146",
    "epci_code": "200069110",
    "departement_code": "73",
    "region_code": "84",
    "postal_code": "73340"
  },
  {
    "name": "Loisieux",
    "code": "73147",
    "epci_code": "247300262",
    "departement_code": "73",
    "region_code": "84",
    "postal_code": "73170"
  },
  {
    "name": "Lucey",
    "code": "73149",
    "epci_code": "247300262",
    "departement_code": "73",
    "region_code": "84",
    "postal_code": "73170"
  },
  {
    "name": "La Plagne Tarentaise",
    "code": "73150",
    "epci_code": "247300817",
    "departement_code": "73",
    "region_code": "84",
    "postal_code": "73210"
  },
  {
    "name": "Porte-de-Savoie",
    "code": "73151",
    "epci_code": "200041010",
    "departement_code": "73",
    "region_code": "84",
    "postal_code": "73800"
  },
  {
    "name": "Marcieux",
    "code": "73152",
    "epci_code": "247300668",
    "departement_code": "73",
    "region_code": "84",
    "postal_code": "73470"
  },
  {
    "name": "Marthod",
    "code": "73153",
    "epci_code": "200068997",
    "departement_code": "73",
    "region_code": "84",
    "postal_code": "73400"
  },
  {
    "name": "Mercury",
    "code": "73154",
    "epci_code": "200068997",
    "departement_code": "73",
    "region_code": "84",
    "postal_code": "73200"
  },
  {
    "name": "Méry",
    "code": "73155",
    "epci_code": "200068674",
    "departement_code": "73",
    "region_code": "84",
    "postal_code": "73420"
  },
  {
    "name": "Meyrieux-Trouet",
    "code": "73156",
    "epci_code": "247300262",
    "departement_code": "73",
    "region_code": "84",
    "postal_code": "73170"
  },
  {
    "name": "Modane",
    "code": "73157",
    "epci_code": "200070340",
    "departement_code": "73",
    "region_code": "84",
    "postal_code": "73500"
  },
  {
    "name": "Les Mollettes",
    "code": "73159",
    "epci_code": "200041010",
    "departement_code": "73",
    "region_code": "84",
    "postal_code": "73800"
  },
  {
    "name": "Montagnole",
    "code": "73160",
    "epci_code": "200069110",
    "departement_code": "73",
    "region_code": "84",
    "postal_code": "73000"
  },
  {
    "name": "Montagny",
    "code": "73161",
    "epci_code": "200040798",
    "departement_code": "73",
    "region_code": "84",
    "postal_code": "73350"
  },
  {
    "name": "Montailleur",
    "code": "73162",
    "epci_code": "200068997",
    "departement_code": "73",
    "region_code": "84",
    "postal_code": "73460"
  },
  {
    "name": "Montcel",
    "code": "73164",
    "epci_code": "200068674",
    "departement_code": "73",
    "region_code": "84",
    "postal_code": "73100"
  },
  {
    "name": "Montendry",
    "code": "73166",
    "epci_code": "200041010",
    "departement_code": "73",
    "region_code": "84",
    "postal_code": "73390"
  },
  {
    "name": "Montgilbert",
    "code": "73168",
    "epci_code": "247300676",
    "departement_code": "73",
    "region_code": "84",
    "postal_code": "73220"
  },
  {
    "name": "Monthion",
    "code": "73170",
    "epci_code": "200068997",
    "departement_code": "73",
    "region_code": "84",
    "postal_code": "73200"
  },
  {
    "name": "Montmélian",
    "code": "73171",
    "epci_code": "200041010",
    "departement_code": "73",
    "region_code": "84",
    "postal_code": "73800"
  },
  {
    "name": "Montricher-Albanne",
    "code": "73173",
    "epci_code": "200070464",
    "departement_code": "73",
    "region_code": "84",
    "postal_code": "73870"
  },
  {
    "name": "Montsapey",
    "code": "73175",
    "epci_code": "247300676",
    "departement_code": "73",
    "region_code": "84",
    "postal_code": "73220"
  },
  {
    "name": "Montvalezan",
    "code": "73176",
    "epci_code": "247300254",
    "departement_code": "73",
    "region_code": "84",
    "postal_code": "73700"
  },
  {
    "name": "Montvernier",
    "code": "73177",
    "epci_code": "200070464",
    "departement_code": "73",
    "region_code": "84",
    "postal_code": "73300"
  },
  {
    "name": "La Motte-en-Bauges",
    "code": "73178",
    "epci_code": "200069110",
    "departement_code": "73",
    "region_code": "84",
    "postal_code": "73340"
  },
  {
    "name": "La Motte-Servolex",
    "code": "73179",
    "epci_code": "200069110",
    "departement_code": "73",
    "region_code": "84",
    "postal_code": "73290"
  },
  {
    "name": "Motz",
    "code": "73180",
    "epci_code": "200068674",
    "departement_code": "73",
    "region_code": "84",
    "postal_code": "73310"
  },
  {
    "name": "Moûtiers",
    "code": "73181",
    "epci_code": "200023299",
    "departement_code": "73",
    "region_code": "84",
    "postal_code": "73600"
  },
  {
    "name": "Mouxy",
    "code": "73182",
    "epci_code": "200068674",
    "departement_code": "73",
    "region_code": "84",
    "postal_code": "73100"
  },
  {
    "name": "Myans",
    "code": "73183",
    "epci_code": "200041010",
    "departement_code": "73",
    "region_code": "84",
    "postal_code": "73800"
  },
  {
    "name": "Nances",
    "code": "73184",
    "epci_code": "247300668",
    "departement_code": "73",
    "region_code": "84",
    "postal_code": "73470"
  },
  {
    "name": "Notre-Dame-de-Bellecombe",
    "code": "73186",
    "epci_code": "200068997",
    "departement_code": "73",
    "region_code": "84",
    "postal_code": "73590"
  },
  {
    "name": "La Léchère",
    "code": "73187",
    "epci_code": "247300015",
    "departement_code": "73",
    "region_code": "84",
    "postal_code": "73260"
  },
  {
    "name": "Notre-Dame-des-Millières",
    "code": "73188",
    "epci_code": "200068997",
    "departement_code": "73",
    "region_code": "84",
    "postal_code": "73460"
  },
  {
    "name": "Notre-Dame-du-Cruet",
    "code": "73189",
    "epci_code": "247300361",
    "departement_code": "73",
    "region_code": "84",
    "postal_code": "73130"
  },
  {
    "name": "Notre-Dame-du-Pré",
    "code": "73190",
    "epci_code": "200023299",
    "departement_code": "73",
    "region_code": "84",
    "postal_code": "73600"
  },
  {
    "name": "Novalaise",
    "code": "73191",
    "epci_code": "247300668",
    "departement_code": "73",
    "region_code": "84",
    "postal_code": "73470"
  },
  {
    "name": "Le Noyer",
    "code": "73192",
    "epci_code": "200069110",
    "departement_code": "73",
    "region_code": "84",
    "postal_code": "73340"
  },
  {
    "name": "Ontex",
    "code": "73193",
    "epci_code": "200068674",
    "departement_code": "73",
    "region_code": "84",
    "postal_code": "73310"
  },
  {
    "name": "Orelle",
    "code": "73194",
    "epci_code": "247300452",
    "departement_code": "73",
    "region_code": "84",
    "postal_code": "73140"
  },
  {
    "name": "Pallud",
    "code": "73196",
    "epci_code": "200068997",
    "departement_code": "73",
    "region_code": "84",
    "postal_code": "73200"
  },
  {
    "name": "Peisey-Nancroix",
    "code": "73197",
    "epci_code": "247300817",
    "departement_code": "73",
    "region_code": "84",
    "postal_code": "73210"
  },
  {
    "name": "Planaise",
    "code": "73200",
    "epci_code": "200041010",
    "departement_code": "73",
    "region_code": "84",
    "postal_code": "73800"
  },
  {
    "name": "Planay",
    "code": "73201",
    "epci_code": "200040798",
    "departement_code": "73",
    "region_code": "84",
    "postal_code": "73350"
  },
  {
    "name": "Plancherine",
    "code": "73202",
    "epci_code": "200068997",
    "departement_code": "73",
    "region_code": "84",
    "postal_code": "73200"
  },
  {
    "name": "Le Pont-de-Beauvoisin",
    "code": "73204",
    "epci_code": "247300528",
    "departement_code": "73",
    "region_code": "84",
    "postal_code": "73330"
  },
  {
    "name": "Le Pontet",
    "code": "73205",
    "epci_code": "200041010",
    "departement_code": "73",
    "region_code": "84",
    "postal_code": "73110"
  },
  {
    "name": "Pralognan-la-Vanoise",
    "code": "73206",
    "epci_code": "200040798",
    "departement_code": "73",
    "region_code": "84",
    "postal_code": "73710"
  },
  {
    "name": "Presle",
    "code": "73207",
    "epci_code": "200041010",
    "departement_code": "73",
    "region_code": "84",
    "postal_code": "73110"
  },
  {
    "name": "Pugny-Chatenod",
    "code": "73208",
    "epci_code": "200068674",
    "departement_code": "73",
    "region_code": "84",
    "postal_code": "73100"
  },
  {
    "name": "Puygros",
    "code": "73210",
    "epci_code": "200069110",
    "departement_code": "73",
    "region_code": "84",
    "postal_code": "73190"
  },
  {
    "name": "Queige",
    "code": "73211",
    "epci_code": "200068997",
    "departement_code": "73",
    "region_code": "84",
    "postal_code": "73720"
  },
  {
    "name": "Val-d’Arc",
    "code": "73212",
    "epci_code": "247300676",
    "departement_code": "73",
    "region_code": "84",
    "postal_code": "73220"
  },
  {
    "name": "La Ravoire",
    "code": "73213",
    "epci_code": "200069110",
    "departement_code": "73",
    "region_code": "84",
    "postal_code": "73490"
  },
  {
    "name": "Rochefort",
    "code": "73214",
    "epci_code": "247300528",
    "departement_code": "73",
    "region_code": "84",
    "postal_code": "73240"
  },
  {
    "name": "Valgelon-La Rochette",
    "code": "73215",
    "epci_code": "200041010",
    "departement_code": "73",
    "region_code": "84",
    "postal_code": "73110"
  },
  {
    "name": "Rognaix",
    "code": "73216",
    "epci_code": "200068997",
    "departement_code": "73",
    "region_code": "84",
    "postal_code": "73730"
  },
  {
    "name": "Rotherens",
    "code": "73217",
    "epci_code": "200041010",
    "departement_code": "73",
    "region_code": "84",
    "postal_code": "73110"
  },
  {
    "name": "Ruffieux",
    "code": "73218",
    "epci_code": "200068674",
    "departement_code": "73",
    "region_code": "84",
    "postal_code": "73310"
  },
  {
    "name": "Saint-Alban-de-Montbel",
    "code": "73219",
    "epci_code": "247300668",
    "departement_code": "73",
    "region_code": "84",
    "postal_code": "73610"
  },
  {
    "name": "Saint-Alban-d’Hurtières",
    "code": "73220",
    "epci_code": "247300676",
    "departement_code": "73",
    "region_code": "84",
    "postal_code": "73220"
  },
  {
    "name": "Saint-Alban-des-Villards",
    "code": "73221",
    "epci_code": "247300361",
    "departement_code": "73",
    "region_code": "84",
    "postal_code": "73130"
  },
  {
    "name": "Saint-Alban-Leysse",
    "code": "73222",
    "epci_code": "200069110",
    "departement_code": "73",
    "region_code": "84",
    "postal_code": "73230"
  },
  {
    "name": "Saint-André",
    "code": "73223",
    "epci_code": "200070340",
    "departement_code": "73",
    "region_code": "84",
    "postal_code": "73500"
  },
  {
    "name": "Saint-Avre",
    "code": "73224",
    "epci_code": "247300361",
    "departement_code": "73",
    "region_code": "84",
    "postal_code": "73130"
  },
  {
    "name": "Saint-Baldoph",
    "code": "73225",
    "epci_code": "200069110",
    "departement_code": "73",
    "region_code": "84",
    "postal_code": "73190"
  },
  {
    "name": "Saint-Béron",
    "code": "73226",
    "epci_code": "247300528",
    "departement_code": "73",
    "region_code": "84",
    "postal_code": "73520"
  },
  {
    "name": "Courchevel",
    "code": "73227",
    "epci_code": "200040798",
    "departement_code": "73",
    "region_code": "84",
    "postal_code": "73120"
  },
  {
    "name": "Saint-Cassin",
    "code": "73228",
    "epci_code": "200069110",
    "departement_code": "73",
    "region_code": "84",
    "postal_code": "73160"
  },
  {
    "name": "Saint-Christophe",
    "code": "73229",
    "epci_code": "200040111",
    "departement_code": "73",
    "region_code": "84",
    "postal_code": "73360"
  },
  {
    "name": "Saint-Colomban-des-Villards",
    "code": "73230",
    "epci_code": "247300361",
    "departement_code": "73",
    "region_code": "84",
    "postal_code": "73130"
  },
  {
    "name": "Saint-Étienne-de-Cuines",
    "code": "73231",
    "epci_code": "247300361",
    "departement_code": "73",
    "region_code": "84",
    "postal_code": "73130"
  },
  {
    "name": "Sainte-Foy-Tarentaise",
    "code": "73232",
    "epci_code": "247300254",
    "departement_code": "73",
    "region_code": "84",
    "postal_code": "73640"
  },
  {
    "name": "Saint-Franc",
    "code": "73233",
    "epci_code": "200040111",
    "departement_code": "73",
    "region_code": "84",
    "postal_code": "73360"
  },
  {
    "name": "Saint-François-de-Sales",
    "code": "73234",
    "epci_code": "200069110",
    "departement_code": "73",
    "region_code": "84",
    "postal_code": "73340"
  },
  {
    "name": "Saint François Longchamp",
    "code": "73235",
    "epci_code": "247300361",
    "departement_code": "73",
    "region_code": "84",
    "postal_code": "73130"
  },
  {
    "name": "Saint-Genix-les-Villages",
    "code": "73236",
    "epci_code": "247300528",
    "departement_code": "73",
    "region_code": "84",
    "postal_code": "73240"
  },
  {
    "name": "Saint-Georges-d’Hurtières",
    "code": "73237",
    "epci_code": "247300676",
    "departement_code": "73",
    "region_code": "84",
    "postal_code": "73220"
  },
  {
    "name": "Sainte-Hélène-du-Lac",
    "code": "73240",
    "epci_code": "200041010",
    "departement_code": "73",
    "region_code": "84",
    "postal_code": "73800"
  },
  {
    "name": "Sainte-Hélène-sur-Isère",
    "code": "73241",
    "epci_code": "200068997",
    "departement_code": "73",
    "region_code": "84",
    "postal_code": "73460"
  },
  {
    "name": "Saint-Jean-d’Arves",
    "code": "73242",
    "epci_code": "200070464",
    "departement_code": "73",
    "region_code": "84",
    "postal_code": "73530"
  },
  {
    "name": "Saint-Jean-d’Arvey",
    "code": "73243",
    "epci_code": "200069110",
    "departement_code": "73",
    "region_code": "84",
    "postal_code": "73230"
  },
  {
    "name": "Saint-Jean-de-Chevelu",
    "code": "73245",
    "epci_code": "247300262",
    "departement_code": "73",
    "region_code": "84",
    "postal_code": "73170"
  },
  {
    "name": "Saint-Jean-de-Couz",
    "code": "73246",
    "epci_code": "200040111",
    "departement_code": "73",
    "region_code": "84",
    "postal_code": "73160"
  },
  {
    "name": "Saint-Jean-de-la-Porte",
    "code": "73247",
    "epci_code": "200041010",
    "departement_code": "73",
    "region_code": "84",
    "postal_code": "73250"
  },
  {
    "name": "Saint-Jean-de-Maurienne",
    "code": "73248",
    "epci_code": "200070464",
    "departement_code": "73",
    "region_code": "84",
    "postal_code": "73300"
  },
  {
    "name": "Saint-Jeoire-Prieuré",
    "code": "73249",
    "epci_code": "200069110",
    "departement_code": "73",
    "region_code": "84",
    "postal_code": "73190"
  },
  {
    "name": "Saint-Julien-Mont-Denis",
    "code": "73250",
    "epci_code": "200070464",
    "departement_code": "73",
    "region_code": "84",
    "postal_code": "73870"
  },
  {
    "name": "Saint-Léger",
    "code": "73252",
    "epci_code": "247300676",
    "departement_code": "73",
    "region_code": "84",
    "postal_code": "73220"
  },
  {
    "name": "Saint-Marcel",
    "code": "73253",
    "epci_code": "200023299",
    "departement_code": "73",
    "region_code": "84",
    "postal_code": "73600"
  },
  {
    "name": "Sainte-Marie-d’Alvey",
    "code": "73254",
    "epci_code": "247300528",
    "departement_code": "73",
    "region_code": "84",
    "postal_code": "73240"
  },
  {
    "name": "Sainte-Marie-de-Cuines",
    "code": "73255",
    "epci_code": "247300361",
    "departement_code": "73",
    "region_code": "84",
    "postal_code": "73130"
  },
  {
    "name": "Saint-Martin-d’Arc",
    "code": "73256",
    "epci_code": "247300452",
    "departement_code": "73",
    "region_code": "84",
    "postal_code": "73140"
  },
  {
    "name": "Les Belleville",
    "code": "73257",
    "epci_code": "200023299",
    "departement_code": "73",
    "region_code": "84",
    "postal_code": "73440"
  },
  {
    "name": "Les Belleville",
    "code": "73257",
    "epci_code": "200023299",
    "departement_code": "73",
    "region_code": "84",
    "postal_code": "73600"
  },
  {
    "name": "Saint-Martin-de-la-Porte",
    "code": "73258",
    "epci_code": "247300452",
    "departement_code": "73",
    "region_code": "84",
    "postal_code": "73140"
  },
  {
    "name": "Saint-Martin-sur-la-Chambre",
    "code": "73259",
    "epci_code": "247300361",
    "departement_code": "73",
    "region_code": "84",
    "postal_code": "73130"
  },
  {
    "name": "Saint-Michel-de-Maurienne",
    "code": "73261",
    "epci_code": "247300452",
    "departement_code": "73",
    "region_code": "84",
    "postal_code": "73140"
  },
  {
    "name": "Saint-Nicolas-la-Chapelle",
    "code": "73262",
    "epci_code": "200068997",
    "departement_code": "73",
    "region_code": "84",
    "postal_code": "73590"
  },
  {
    "name": "Saint-Offenge",
    "code": "73263",
    "epci_code": "200068674",
    "departement_code": "73",
    "region_code": "84",
    "postal_code": "73100"
  },
  {
    "name": "Saint-Ours",
    "code": "73265",
    "epci_code": "200068674",
    "departement_code": "73",
    "region_code": "84",
    "postal_code": "73410"
  },
  {
    "name": "Saint-Pancrace",
    "code": "73267",
    "epci_code": "200070464",
    "departement_code": "73",
    "region_code": "84",
    "postal_code": "73300"
  },
  {
    "name": "Saint-Paul-sur-Isère",
    "code": "73268",
    "epci_code": "200068997",
    "departement_code": "73",
    "region_code": "84",
    "postal_code": "73730"
  },
  {
    "name": "Saint-Paul-sur-Yenne",
    "code": "73269",
    "epci_code": "247300262",
    "departement_code": "73",
    "region_code": "84",
    "postal_code": "73170"
  },
  {
    "name": "Saint-Pierre-d’Albigny",
    "code": "73270",
    "epci_code": "200041010",
    "departement_code": "73",
    "region_code": "84",
    "postal_code": "73250"
  },
  {
    "name": "Saint-Pierre-d’Alvey",
    "code": "73271",
    "epci_code": "247300262",
    "departement_code": "73",
    "region_code": "84",
    "postal_code": "73170"
  },
  {
    "name": "Saint-Pierre-de-Belleville",
    "code": "73272",
    "epci_code": "247300676",
    "departement_code": "73",
    "region_code": "84",
    "postal_code": "73220"
  },
  {
    "name": "Saint-Pierre-de-Curtille",
    "code": "73273",
    "epci_code": "200068674",
    "departement_code": "73",
    "region_code": "84",
    "postal_code": "73310"
  },
  {
    "name": "Saint-Pierre-d’Entremont",
    "code": "73274",
    "epci_code": "200040111",
    "departement_code": "73",
    "region_code": "84",
    "postal_code": "73670"
  },
  {
    "name": "Saint-Pierre-de-Genebroz",
    "code": "73275",
    "epci_code": "200040111",
    "departement_code": "73",
    "region_code": "84",
    "postal_code": "73360"
  },
  {
    "name": "Saint-Pierre-de-Soucy",
    "code": "73276",
    "epci_code": "200041010",
    "departement_code": "73",
    "region_code": "84",
    "postal_code": "73800"
  },
  {
    "name": "Sainte-Reine",
    "code": "73277",
    "epci_code": "200069110",
    "departement_code": "73",
    "region_code": "84",
    "postal_code": "73630"
  },
  {
    "name": "Saint-Rémy-de-Maurienne",
    "code": "73278",
    "epci_code": "247300361",
    "departement_code": "73",
    "region_code": "84",
    "postal_code": "73660"
  },
  {
    "name": "Saint-Sorlin-d’Arves",
    "code": "73280",
    "epci_code": "200070464",
    "departement_code": "73",
    "region_code": "84",
    "postal_code": "73530"
  },
  {
    "name": "Saint-Sulpice",
    "code": "73281",
    "epci_code": "200069110",
    "departement_code": "73",
    "region_code": "84",
    "postal_code": "73160"
  },
  {
    "name": "Saint-Thibaud-de-Couz",
    "code": "73282",
    "epci_code": "200040111",
    "departement_code": "73",
    "region_code": "84",
    "postal_code": "73160"
  },
  {
    "name": "Saint-Vital",
    "code": "73283",
    "epci_code": "200068997",
    "departement_code": "73",
    "region_code": "84",
    "postal_code": "73460"
  },
  {
    "name": "Salins-Fontaine",
    "code": "73284",
    "epci_code": "200023299",
    "departement_code": "73",
    "region_code": "84",
    "postal_code": "73600"
  },
  {
    "name": "Séez",
    "code": "73285",
    "epci_code": "247300254",
    "departement_code": "73",
    "region_code": "84",
    "postal_code": "73700"
  },
  {
    "name": "Serrières-en-Chautagne",
    "code": "73286",
    "epci_code": "200068674",
    "departement_code": "73",
    "region_code": "84",
    "postal_code": "73310"
  },
  {
    "name": "Sonnaz",
    "code": "73288",
    "epci_code": "200069110",
    "departement_code": "73",
    "region_code": "84",
    "postal_code": "73000"
  },
  {
    "name": "La Table",
    "code": "73289",
    "epci_code": "200041010",
    "departement_code": "73",
    "region_code": "84",
    "postal_code": "73110"
  },
  {
    "name": "Val-Cenis",
    "code": "73290",
    "epci_code": "200070340",
    "departement_code": "73",
    "region_code": "84",
    "postal_code": "73480"
  },
  {
    "name": "Val-Cenis",
    "code": "73290",
    "epci_code": "200070340",
    "departement_code": "73",
    "region_code": "84",
    "postal_code": "73500"
  },
  {
    "name": "Thénésol",
    "code": "73292",
    "epci_code": "200068997",
    "departement_code": "73",
    "region_code": "84",
    "postal_code": "73200"
  },
  {
    "name": "Thoiry",
    "code": "73293",
    "epci_code": "200069110",
    "departement_code": "73",
    "region_code": "84",
    "postal_code": "73230"
  },
  {
    "name": "La Thuile",
    "code": "73294",
    "epci_code": "200069110",
    "departement_code": "73",
    "region_code": "84",
    "postal_code": "73190"
  },
  {
    "name": "Tignes",
    "code": "73296",
    "epci_code": "247300254",
    "departement_code": "73",
    "region_code": "84",
    "postal_code": "73320"
  },
  {
    "name": "Tournon",
    "code": "73297",
    "epci_code": "200068997",
    "departement_code": "73",
    "region_code": "84",
    "postal_code": "73460"
  },
  {
    "name": "Tours-en-Savoie",
    "code": "73298",
    "epci_code": "200068997",
    "departement_code": "73",
    "region_code": "84",
    "postal_code": "73790"
  },
  {
    "name": "Traize",
    "code": "73299",
    "epci_code": "247300262",
    "departement_code": "73",
    "region_code": "84",
    "postal_code": "73170"
  },
  {
    "name": "Tresserve",
    "code": "73300",
    "epci_code": "200068674",
    "departement_code": "73",
    "region_code": "84",
    "postal_code": "73100"
  },
  {
    "name": "Trévignin",
    "code": "73301",
    "epci_code": "200068674",
    "departement_code": "73",
    "region_code": "84",
    "postal_code": "73100"
  },
  {
    "name": "La Trinité",
    "code": "73302",
    "epci_code": "200041010",
    "departement_code": "73",
    "region_code": "84",
    "postal_code": "73110"
  },
  {
    "name": "Ugine",
    "code": "73303",
    "epci_code": "200068997",
    "departement_code": "73",
    "region_code": "84",
    "postal_code": "73400"
  },
  {
    "name": "Val-d’Isère",
    "code": "73304",
    "epci_code": "247300254",
    "departement_code": "73",
    "region_code": "84",
    "postal_code": "73150"
  },
  {
    "name": "Valloire",
    "code": "73306",
    "epci_code": "247300452",
    "departement_code": "73",
    "region_code": "84",
    "postal_code": "73450"
  },
  {
    "name": "Valmeinier",
    "code": "73307",
    "epci_code": "247300452",
    "departement_code": "73",
    "region_code": "84",
    "postal_code": "73450"
  },
  {
    "name": "Venthon",
    "code": "73308",
    "epci_code": "200068997",
    "departement_code": "73",
    "region_code": "84",
    "postal_code": "73200"
  },
  {
    "name": "Verel-de-Montbel",
    "code": "73309",
    "epci_code": "247300528",
    "departement_code": "73",
    "region_code": "84",
    "postal_code": "73330"
  },
  {
    "name": "Verel-Pragondran",
    "code": "73310",
    "epci_code": "200069110",
    "departement_code": "73",
    "region_code": "84",
    "postal_code": "73230"
  },
  {
    "name": "Le Verneil",
    "code": "73311",
    "epci_code": "200041010",
    "departement_code": "73",
    "region_code": "84",
    "postal_code": "73110"
  },
  {
    "name": "Verrens-Arvey",
    "code": "73312",
    "epci_code": "200068997",
    "departement_code": "73",
    "region_code": "84",
    "postal_code": "73460"
  },
  {
    "name": "Verthemex",
    "code": "73313",
    "epci_code": "247300262",
    "departement_code": "73",
    "region_code": "84",
    "postal_code": "73170"
  },
  {
    "name": "Villard-d’Héry",
    "code": "73314",
    "epci_code": "200041010",
    "departement_code": "73",
    "region_code": "84",
    "postal_code": "73800"
  },
  {
    "name": "Villard-Léger",
    "code": "73315",
    "epci_code": "200041010",
    "departement_code": "73",
    "region_code": "84",
    "postal_code": "73390"
  },
  {
    "name": "Villard-Sallet",
    "code": "73316",
    "epci_code": "200041010",
    "departement_code": "73",
    "region_code": "84",
    "postal_code": "73110"
  },
  {
    "name": "Villard-sur-Doron",
    "code": "73317",
    "epci_code": "200068997",
    "departement_code": "73",
    "region_code": "84",
    "postal_code": "73270"
  },
  {
    "name": "Villarembert",
    "code": "73318",
    "epci_code": "200070464",
    "departement_code": "73",
    "region_code": "84",
    "postal_code": "73300"
  },
  {
    "name": "Villargondran",
    "code": "73320",
    "epci_code": "200070464",
    "departement_code": "73",
    "region_code": "84",
    "postal_code": "73300"
  },
  {
    "name": "Villarodin-Bourget",
    "code": "73322",
    "epci_code": "200070340",
    "departement_code": "73",
    "region_code": "84",
    "postal_code": "73500"
  },
  {
    "name": "Villaroger",
    "code": "73323",
    "epci_code": "247300254",
    "departement_code": "73",
    "region_code": "84",
    "postal_code": "73640"
  },
  {
    "name": "Villaroux",
    "code": "73324",
    "epci_code": "200041010",
    "departement_code": "73",
    "region_code": "84",
    "postal_code": "73110"
  },
  {
    "name": "Vimines",
    "code": "73326",
    "epci_code": "200069110",
    "departement_code": "73",
    "region_code": "84",
    "postal_code": "73160"
  },
  {
    "name": "Vions",
    "code": "73327",
    "epci_code": "200068674",
    "departement_code": "73",
    "region_code": "84",
    "postal_code": "73310"
  },
  {
    "name": "Viviers-du-Lac",
    "code": "73328",
    "epci_code": "200068674",
    "departement_code": "73",
    "region_code": "84",
    "postal_code": "73420"
  },
  {
    "name": "Voglans",
    "code": "73329",
    "epci_code": "200068674",
    "departement_code": "73",
    "region_code": "84",
    "postal_code": "73420"
  },
  {
    "name": "Yenne",
    "code": "73330",
    "epci_code": "247300262",
    "departement_code": "73",
    "region_code": "84",
    "postal_code": "73170"
  }
]