[
  {
    "name": "Andelnans",
    "code": "90001",
    "epci_code": "200069052",
    "departement_code": "90",
    "region_code": "27",
    "postal_code": "90400"
  },
  {
    "name": "Angeot",
    "code": "90002",
    "epci_code": "200069052",
    "departement_code": "90",
    "region_code": "27",
    "postal_code": "90150"
  },
  {
    "name": "Anjoutey",
    "code": "90003",
    "epci_code": "200069060",
    "departement_code": "90",
    "region_code": "27",
    "postal_code": "90170"
  },
  {
    "name": "Argiésans",
    "code": "90004",
    "epci_code": "200069052",
    "departement_code": "90",
    "region_code": "27",
    "postal_code": "90800"
  },
  {
    "name": "Auxelles-Bas",
    "code": "90005",
    "epci_code": "200069060",
    "departement_code": "90",
    "region_code": "27",
    "postal_code": "90200"
  },
  {
    "name": "Auxelles-Haut",
    "code": "90006",
    "epci_code": "200069060",
    "departement_code": "90",
    "region_code": "27",
    "postal_code": "90200"
  },
  {
    "name": "Banvillars",
    "code": "90007",
    "epci_code": "200069052",
    "departement_code": "90",
    "region_code": "27",
    "postal_code": "90800"
  },
  {
    "name": "Bavilliers",
    "code": "90008",
    "epci_code": "200069052",
    "departement_code": "90",
    "region_code": "27",
    "postal_code": "90800"
  },
  {
    "name": "Beaucourt",
    "code": "90009",
    "epci_code": "249000241",
    "departement_code": "90",
    "region_code": "27",
    "postal_code": "90500"
  },
  {
    "name": "Belfort",
    "code": "90010",
    "epci_code": "200069052",
    "departement_code": "90",
    "region_code": "27",
    "postal_code": "90000"
  },
  {
    "name": "Bermont",
    "code": "90011",
    "epci_code": "200069052",
    "departement_code": "90",
    "region_code": "27",
    "postal_code": "90400"
  },
  {
    "name": "Bessoncourt",
    "code": "90012",
    "epci_code": "200069052",
    "departement_code": "90",
    "region_code": "27",
    "postal_code": "90160"
  },
  {
    "name": "Bethonvilliers",
    "code": "90013",
    "epci_code": "200069052",
    "departement_code": "90",
    "region_code": "27",
    "postal_code": "90150"
  },
  {
    "name": "Boron",
    "code": "90014",
    "epci_code": "249000241",
    "departement_code": "90",
    "region_code": "27",
    "postal_code": "90100"
  },
  {
    "name": "Botans",
    "code": "90015",
    "epci_code": "200069052",
    "departement_code": "90",
    "region_code": "27",
    "postal_code": "90400"
  },
  {
    "name": "Bourg-sous-Châtelet",
    "code": "90016",
    "epci_code": "200069060",
    "departement_code": "90",
    "region_code": "27",
    "postal_code": "90110"
  },
  {
    "name": "Bourogne",
    "code": "90017",
    "epci_code": "200069052",
    "departement_code": "90",
    "region_code": "27",
    "postal_code": "90140"
  },
  {
    "name": "Brebotte",
    "code": "90018",
    "epci_code": "249000241",
    "departement_code": "90",
    "region_code": "27",
    "postal_code": "90140"
  },
  {
    "name": "Bretagne",
    "code": "90019",
    "epci_code": "249000241",
    "departement_code": "90",
    "region_code": "27",
    "postal_code": "90130"
  },
  {
    "name": "Buc",
    "code": "90020",
    "epci_code": "200069052",
    "departement_code": "90",
    "region_code": "27",
    "postal_code": "90800"
  },
  {
    "name": "Charmois",
    "code": "90021",
    "epci_code": "200069052",
    "departement_code": "90",
    "region_code": "27",
    "postal_code": "90140"
  },
  {
    "name": "Châtenois-les-Forges",
    "code": "90022",
    "epci_code": "200069052",
    "departement_code": "90",
    "region_code": "27",
    "postal_code": "90700"
  },
  {
    "name": "Chaux",
    "code": "90023",
    "epci_code": "200069060",
    "departement_code": "90",
    "region_code": "27",
    "postal_code": "90330"
  },
  {
    "name": "Chavanatte",
    "code": "90024",
    "epci_code": "249000241",
    "departement_code": "90",
    "region_code": "27",
    "postal_code": "90100"
  },
  {
    "name": "Chavannes-les-Grands",
    "code": "90025",
    "epci_code": "249000241",
    "departement_code": "90",
    "region_code": "27",
    "postal_code": "90100"
  },
  {
    "name": "Chèvremont",
    "code": "90026",
    "epci_code": "200069052",
    "departement_code": "90",
    "region_code": "27",
    "postal_code": "90340"
  },
  {
    "name": "Courcelles",
    "code": "90027",
    "epci_code": "249000241",
    "departement_code": "90",
    "region_code": "27",
    "postal_code": "90100"
  },
  {
    "name": "Courtelevant",
    "code": "90028",
    "epci_code": "249000241",
    "departement_code": "90",
    "region_code": "27",
    "postal_code": "90100"
  },
  {
    "name": "Cravanche",
    "code": "90029",
    "epci_code": "200069052",
    "departement_code": "90",
    "region_code": "27",
    "postal_code": "90300"
  },
  {
    "name": "Croix",
    "code": "90030",
    "epci_code": "249000241",
    "departement_code": "90",
    "region_code": "27",
    "postal_code": "90100"
  },
  {
    "name": "Cunelières",
    "code": "90031",
    "epci_code": "200069052",
    "departement_code": "90",
    "region_code": "27",
    "postal_code": "90150"
  },
  {
    "name": "Danjoutin",
    "code": "90032",
    "epci_code": "200069052",
    "departement_code": "90",
    "region_code": "27",
    "postal_code": "90400"
  },
  {
    "name": "Delle",
    "code": "90033",
    "epci_code": "249000241",
    "departement_code": "90",
    "region_code": "27",
    "postal_code": "90100"
  },
  {
    "name": "Denney",
    "code": "90034",
    "epci_code": "200069052",
    "departement_code": "90",
    "region_code": "27",
    "postal_code": "90160"
  },
  {
    "name": "Dorans",
    "code": "90035",
    "epci_code": "200069052",
    "departement_code": "90",
    "region_code": "27",
    "postal_code": "90400"
  },
  {
    "name": "Eguenigue",
    "code": "90036",
    "epci_code": "200069052",
    "departement_code": "90",
    "region_code": "27",
    "postal_code": "90150"
  },
  {
    "name": "Éloie",
    "code": "90037",
    "epci_code": "200069052",
    "departement_code": "90",
    "region_code": "27",
    "postal_code": "90300"
  },
  {
    "name": "Essert",
    "code": "90039",
    "epci_code": "200069052",
    "departement_code": "90",
    "region_code": "27",
    "postal_code": "90850"
  },
  {
    "name": "Étueffont",
    "code": "90041",
    "epci_code": "200069060",
    "departement_code": "90",
    "region_code": "27",
    "postal_code": "90170"
  },
  {
    "name": "Évette-Salbert",
    "code": "90042",
    "epci_code": "200069052",
    "departement_code": "90",
    "region_code": "27",
    "postal_code": "90350"
  },
  {
    "name": "Faverois",
    "code": "90043",
    "epci_code": "249000241",
    "departement_code": "90",
    "region_code": "27",
    "postal_code": "90100"
  },
  {
    "name": "Felon",
    "code": "90044",
    "epci_code": "200069060",
    "departement_code": "90",
    "region_code": "27",
    "postal_code": "90110"
  },
  {
    "name": "Fêche-l’Église",
    "code": "90045",
    "epci_code": "249000241",
    "departement_code": "90",
    "region_code": "27",
    "postal_code": "90100"
  },
  {
    "name": "Florimont",
    "code": "90046",
    "epci_code": "249000241",
    "departement_code": "90",
    "region_code": "27",
    "postal_code": "90100"
  },
  {
    "name": "Fontaine",
    "code": "90047",
    "epci_code": "200069052",
    "departement_code": "90",
    "region_code": "27",
    "postal_code": "90150"
  },
  {
    "name": "Fontenelle",
    "code": "90048",
    "epci_code": "200069052",
    "departement_code": "90",
    "region_code": "27",
    "postal_code": "90340"
  },
  {
    "name": "Foussemagne",
    "code": "90049",
    "epci_code": "200069052",
    "departement_code": "90",
    "region_code": "27",
    "postal_code": "90150"
  },
  {
    "name": "Frais",
    "code": "90050",
    "epci_code": "200069052",
    "departement_code": "90",
    "region_code": "27",
    "postal_code": "90150"
  },
  {
    "name": "Froidefontaine",
    "code": "90051",
    "epci_code": "249000241",
    "departement_code": "90",
    "region_code": "27",
    "postal_code": "90140"
  },
  {
    "name": "Giromagny",
    "code": "90052",
    "epci_code": "200069060",
    "departement_code": "90",
    "region_code": "27",
    "postal_code": "90200"
  },
  {
    "name": "Grandvillars",
    "code": "90053",
    "epci_code": "249000241",
    "departement_code": "90",
    "region_code": "27",
    "postal_code": "90600"
  },
  {
    "name": "Grosmagny",
    "code": "90054",
    "epci_code": "200069060",
    "departement_code": "90",
    "region_code": "27",
    "postal_code": "90200"
  },
  {
    "name": "Grosne",
    "code": "90055",
    "epci_code": "249000241",
    "departement_code": "90",
    "region_code": "27",
    "postal_code": "90100"
  },
  {
    "name": "Joncherey",
    "code": "90056",
    "epci_code": "249000241",
    "departement_code": "90",
    "region_code": "27",
    "postal_code": "90100"
  },
  {
    "name": "Lachapelle-sous-Chaux",
    "code": "90057",
    "epci_code": "200069060",
    "departement_code": "90",
    "region_code": "27",
    "postal_code": "90300"
  },
  {
    "name": "Lachapelle-sous-Rougemont",
    "code": "90058",
    "epci_code": "200069060",
    "departement_code": "90",
    "region_code": "27",
    "postal_code": "90360"
  },
  {
    "name": "Lacollonge",
    "code": "90059",
    "epci_code": "200069052",
    "departement_code": "90",
    "region_code": "27",
    "postal_code": "90150"
  },
  {
    "name": "Lagrange",
    "code": "90060",
    "epci_code": "200069052",
    "departement_code": "90",
    "region_code": "27",
    "postal_code": "90150"
  },
  {
    "name": "Lamadeleine-Val-des-Anges",
    "code": "90061",
    "epci_code": "200069060",
    "departement_code": "90",
    "region_code": "27",
    "postal_code": "90170"
  },
  {
    "name": "Larivière",
    "code": "90062",
    "epci_code": "200069052",
    "departement_code": "90",
    "region_code": "27",
    "postal_code": "90150"
  },
  {
    "name": "Lebetain",
    "code": "90063",
    "epci_code": "249000241",
    "departement_code": "90",
    "region_code": "27",
    "postal_code": "90100"
  },
  {
    "name": "Lepuix-Neuf",
    "code": "90064",
    "epci_code": "249000241",
    "departement_code": "90",
    "region_code": "27",
    "postal_code": "90100"
  },
  {
    "name": "Lepuix",
    "code": "90065",
    "epci_code": "200069060",
    "departement_code": "90",
    "region_code": "27",
    "postal_code": "90200"
  },
  {
    "name": "Leval",
    "code": "90066",
    "epci_code": "200069060",
    "departement_code": "90",
    "region_code": "27",
    "postal_code": "90110"
  },
  {
    "name": "Menoncourt",
    "code": "90067",
    "epci_code": "200069052",
    "departement_code": "90",
    "region_code": "27",
    "postal_code": "90150"
  },
  {
    "name": "Meroux-Moval",
    "code": "90068",
    "epci_code": "200069052",
    "departement_code": "90",
    "region_code": "27",
    "postal_code": "90400"
  },
  {
    "name": "Méziré",
    "code": "90069",
    "epci_code": "200069052",
    "departement_code": "90",
    "region_code": "27",
    "postal_code": "90120"
  },
  {
    "name": "Montbouton",
    "code": "90070",
    "epci_code": "249000241",
    "departement_code": "90",
    "region_code": "27",
    "postal_code": "90500"
  },
  {
    "name": "Montreux-Château",
    "code": "90071",
    "epci_code": "200069052",
    "departement_code": "90",
    "region_code": "27",
    "postal_code": "90130"
  },
  {
    "name": "Morvillars",
    "code": "90072",
    "epci_code": "200069052",
    "departement_code": "90",
    "region_code": "27",
    "postal_code": "90120"
  },
  {
    "name": "Novillard",
    "code": "90074",
    "epci_code": "200069052",
    "departement_code": "90",
    "region_code": "27",
    "postal_code": "90340"
  },
  {
    "name": "Offemont",
    "code": "90075",
    "epci_code": "200069052",
    "departement_code": "90",
    "region_code": "27",
    "postal_code": "90300"
  },
  {
    "name": "Pérouse",
    "code": "90076",
    "epci_code": "200069052",
    "departement_code": "90",
    "region_code": "27",
    "postal_code": "90160"
  },
  {
    "name": "Petit-Croix",
    "code": "90077",
    "epci_code": "200069052",
    "departement_code": "90",
    "region_code": "27",
    "postal_code": "90130"
  },
  {
    "name": "Petitefontaine",
    "code": "90078",
    "epci_code": "200069060",
    "departement_code": "90",
    "region_code": "27",
    "postal_code": "90360"
  },
  {
    "name": "Petitmagny",
    "code": "90079",
    "epci_code": "200069060",
    "departement_code": "90",
    "region_code": "27",
    "postal_code": "90170"
  },
  {
    "name": "Phaffans",
    "code": "90080",
    "epci_code": "200069052",
    "departement_code": "90",
    "region_code": "27",
    "postal_code": "90150"
  },
  {
    "name": "Réchésy",
    "code": "90081",
    "epci_code": "249000241",
    "departement_code": "90",
    "region_code": "27",
    "postal_code": "90370"
  },
  {
    "name": "Autrechêne",
    "code": "90082",
    "epci_code": "200069052",
    "departement_code": "90",
    "region_code": "27",
    "postal_code": "90140"
  },
  {
    "name": "Recouvrance",
    "code": "90083",
    "epci_code": "249000241",
    "departement_code": "90",
    "region_code": "27",
    "postal_code": "90140"
  },
  {
    "name": "Reppe",
    "code": "90084",
    "epci_code": "200069052",
    "departement_code": "90",
    "region_code": "27",
    "postal_code": "90150"
  },
  {
    "name": "Riervescemont",
    "code": "90085",
    "epci_code": "200069060",
    "departement_code": "90",
    "region_code": "27",
    "postal_code": "90200"
  },
  {
    "name": "Romagny-sous-Rougemont",
    "code": "90086",
    "epci_code": "200069060",
    "departement_code": "90",
    "region_code": "27",
    "postal_code": "90110"
  },
  {
    "name": "Roppe",
    "code": "90087",
    "epci_code": "200069052",
    "departement_code": "90",
    "region_code": "27",
    "postal_code": "90380"
  },
  {
    "name": "Rougegoutte",
    "code": "90088",
    "epci_code": "200069060",
    "departement_code": "90",
    "region_code": "27",
    "postal_code": "90200"
  },
  {
    "name": "Rougemont-le-Château",
    "code": "90089",
    "epci_code": "200069060",
    "departement_code": "90",
    "region_code": "27",
    "postal_code": "90110"
  },
  {
    "name": "Saint-Dizier-l’Évêque",
    "code": "90090",
    "epci_code": "249000241",
    "departement_code": "90",
    "region_code": "27",
    "postal_code": "90100"
  },
  {
    "name": "Saint-Germain-le-Châtelet",
    "code": "90091",
    "epci_code": "200069060",
    "departement_code": "90",
    "region_code": "27",
    "postal_code": "90110"
  },
  {
    "name": "Sermamagny",
    "code": "90093",
    "epci_code": "200069052",
    "departement_code": "90",
    "region_code": "27",
    "postal_code": "90300"
  },
  {
    "name": "Sevenans",
    "code": "90094",
    "epci_code": "200069052",
    "departement_code": "90",
    "region_code": "27",
    "postal_code": "90400"
  },
  {
    "name": "Suarce",
    "code": "90095",
    "epci_code": "249000241",
    "departement_code": "90",
    "region_code": "27",
    "postal_code": "90100"
  },
  {
    "name": "Thiancourt",
    "code": "90096",
    "epci_code": "249000241",
    "departement_code": "90",
    "region_code": "27",
    "postal_code": "90100"
  },
  {
    "name": "Trévenans",
    "code": "90097",
    "epci_code": "200069052",
    "departement_code": "90",
    "region_code": "27",
    "postal_code": "90400"
  },
  {
    "name": "Urcerey",
    "code": "90098",
    "epci_code": "200069052",
    "departement_code": "90",
    "region_code": "27",
    "postal_code": "90800"
  },
  {
    "name": "Valdoie",
    "code": "90099",
    "epci_code": "200069052",
    "departement_code": "90",
    "region_code": "27",
    "postal_code": "90300"
  },
  {
    "name": "Vauthiermont",
    "code": "90100",
    "epci_code": "200069052",
    "departement_code": "90",
    "region_code": "27",
    "postal_code": "90150"
  },
  {
    "name": "Vellescot",
    "code": "90101",
    "epci_code": "249000241",
    "departement_code": "90",
    "region_code": "27",
    "postal_code": "90100"
  },
  {
    "name": "Vescemont",
    "code": "90102",
    "epci_code": "200069060",
    "departement_code": "90",
    "region_code": "27",
    "postal_code": "90200"
  },
  {
    "name": "Vétrigne",
    "code": "90103",
    "epci_code": "200069052",
    "departement_code": "90",
    "region_code": "27",
    "postal_code": "90300"
  },
  {
    "name": "Vézelois",
    "code": "90104",
    "epci_code": "200069052",
    "departement_code": "90",
    "region_code": "27",
    "postal_code": "90400"
  },
  {
    "name": "Villars-le-Sec",
    "code": "90105",
    "epci_code": "249000241",
    "departement_code": "90",
    "region_code": "27",
    "postal_code": "90100"
  }
]