[
  {
    "name": "Abbéville-la-Rivière",
    "code": "91001",
    "epci_code": "200017846",
    "departement_code": "91",
    "region_code": "11",
    "postal_code": "91150"
  },
  {
    "name": "Angerville",
    "code": "91016",
    "epci_code": "200017846",
    "departement_code": "91",
    "region_code": "11",
    "postal_code": "91670"
  },
  {
    "name": "Angervilliers",
    "code": "91017",
    "epci_code": "249100074",
    "departement_code": "91",
    "region_code": "11",
    "postal_code": "91470"
  },
  {
    "name": "Arpajon",
    "code": "91021",
    "epci_code": "200057859",
    "departement_code": "91",
    "region_code": "11",
    "postal_code": "91290"
  },
  {
    "name": "Arrancourt",
    "code": "91022",
    "epci_code": "200017846",
    "departement_code": "91",
    "region_code": "11",
    "postal_code": "91690"
  },
  {
    "name": "Athis-Mons",
    "code": "91027",
    "epci_code": "200054781",
    "departement_code": "91",
    "region_code": "11",
    "postal_code": "91200"
  },
  {
    "name": "Authon-la-Plaine",
    "code": "91035",
    "epci_code": "200017846",
    "departement_code": "91",
    "region_code": "11",
    "postal_code": "91410"
  },
  {
    "name": "Auvernaux",
    "code": "91037",
    "epci_code": "249100546",
    "departement_code": "91",
    "region_code": "11",
    "postal_code": "91830"
  },
  {
    "name": "Auvers-Saint-Georges",
    "code": "91038",
    "epci_code": "249100553",
    "departement_code": "91",
    "region_code": "11",
    "postal_code": "91580"
  },
  {
    "name": "Avrainville",
    "code": "91041",
    "epci_code": "200057859",
    "departement_code": "91",
    "region_code": "11",
    "postal_code": "91630"
  },
  {
    "name": "Ballainvilliers",
    "code": "91044",
    "epci_code": "200056232",
    "departement_code": "91",
    "region_code": "11",
    "postal_code": "91160"
  },
  {
    "name": "Ballancourt-sur-Essonne",
    "code": "91045",
    "epci_code": "249100546",
    "departement_code": "91",
    "region_code": "11",
    "postal_code": "91610"
  },
  {
    "name": "Baulne",
    "code": "91047",
    "epci_code": "249100546",
    "departement_code": "91",
    "region_code": "11",
    "postal_code": "91590"
  },
  {
    "name": "Bièvres",
    "code": "91064",
    "epci_code": "247800584",
    "departement_code": "91",
    "region_code": "11",
    "postal_code": "91570"
  },
  {
    "name": "Blandy",
    "code": "91067",
    "epci_code": "200017846",
    "departement_code": "91",
    "region_code": "11",
    "postal_code": "91150"
  },
  {
    "name": "Boigneville",
    "code": "91069",
    "epci_code": "249100157",
    "departement_code": "91",
    "region_code": "11",
    "postal_code": "91720"
  },
  {
    "name": "Bois-Herpin",
    "code": "91075",
    "epci_code": "200017846",
    "departement_code": "91",
    "region_code": "11",
    "postal_code": "91150"
  },
  {
    "name": "Boissy-la-Rivière",
    "code": "91079",
    "epci_code": "200017846",
    "departement_code": "91",
    "region_code": "11",
    "postal_code": "91690"
  },
  {
    "name": "Boissy-le-Cutté",
    "code": "91080",
    "epci_code": "249100553",
    "departement_code": "91",
    "region_code": "11",
    "postal_code": "91590"
  },
  {
    "name": "Boissy-le-Sec",
    "code": "91081",
    "epci_code": "200017846",
    "departement_code": "91",
    "region_code": "11",
    "postal_code": "91870"
  },
  {
    "name": "Boissy-sous-Saint-Yon",
    "code": "91085",
    "epci_code": "249100553",
    "departement_code": "91",
    "region_code": "11",
    "postal_code": "91790"
  },
  {
    "name": "Bondoufle",
    "code": "91086",
    "epci_code": "200059228",
    "departement_code": "91",
    "region_code": "11",
    "postal_code": "91070"
  },
  {
    "name": "Boullay-les-Troux",
    "code": "91093",
    "epci_code": "249100074",
    "departement_code": "91",
    "region_code": "11",
    "postal_code": "91470"
  },
  {
    "name": "Bouray-sur-Juine",
    "code": "91095",
    "epci_code": "249100553",
    "departement_code": "91",
    "region_code": "11",
    "postal_code": "91850"
  },
  {
    "name": "Boussy-Saint-Antoine",
    "code": "91097",
    "epci_code": "200058477",
    "departement_code": "91",
    "region_code": "11",
    "postal_code": "91800"
  },
  {
    "name": "Boutervilliers",
    "code": "91098",
    "epci_code": "200017846",
    "departement_code": "91",
    "region_code": "11",
    "postal_code": "91150"
  },
  {
    "name": "Boutigny-sur-Essonne",
    "code": "91099",
    "epci_code": "249100157",
    "departement_code": "91",
    "region_code": "11",
    "postal_code": "91820"
  },
  {
    "name": "Bouville",
    "code": "91100",
    "epci_code": "200017846",
    "departement_code": "91",
    "region_code": "11",
    "postal_code": "91880"
  },
  {
    "name": "Brétigny-sur-Orge",
    "code": "91103",
    "epci_code": "200057859",
    "departement_code": "91",
    "region_code": "11",
    "postal_code": "91220"
  },
  {
    "name": "Breuillet",
    "code": "91105",
    "epci_code": "200057859",
    "departement_code": "91",
    "region_code": "11",
    "postal_code": "91650"
  },
  {
    "name": "Breux-Jouy",
    "code": "91106",
    "epci_code": "249100595",
    "departement_code": "91",
    "region_code": "11",
    "postal_code": "91650"
  },
  {
    "name": "Brières-les-Scellés",
    "code": "91109",
    "epci_code": "200017846",
    "departement_code": "91",
    "region_code": "11",
    "postal_code": "91150"
  },
  {
    "name": "Briis-sous-Forges",
    "code": "91111",
    "epci_code": "249100074",
    "departement_code": "91",
    "region_code": "11",
    "postal_code": "91640"
  },
  {
    "name": "Brouy",
    "code": "91112",
    "epci_code": "200017846",
    "departement_code": "91",
    "region_code": "11",
    "postal_code": "91150"
  },
  {
    "name": "Brunoy",
    "code": "91114",
    "epci_code": "200058477",
    "departement_code": "91",
    "region_code": "11",
    "postal_code": "91800"
  },
  {
    "name": "Bruyères-le-Châtel",
    "code": "91115",
    "epci_code": "200057859",
    "departement_code": "91",
    "region_code": "11",
    "postal_code": "91680"
  },
  {
    "name": "Buno-Bonnevaux",
    "code": "91121",
    "epci_code": "249100157",
    "departement_code": "91",
    "region_code": "11",
    "postal_code": "91720"
  },
  {
    "name": "Bures-sur-Yvette",
    "code": "91122",
    "epci_code": "200056232",
    "departement_code": "91",
    "region_code": "11",
    "postal_code": "91440"
  },
  {
    "name": "Cerny",
    "code": "91129",
    "epci_code": "249100546",
    "departement_code": "91",
    "region_code": "11",
    "postal_code": "91590"
  },
  {
    "name": "Chalo-Saint-Mars",
    "code": "91130",
    "epci_code": "200017846",
    "departement_code": "91",
    "region_code": "11",
    "postal_code": "91780"
  },
  {
    "name": "Chalou-Moulineux",
    "code": "91131",
    "epci_code": "200017846",
    "departement_code": "91",
    "region_code": "11",
    "postal_code": "91740"
  },
  {
    "name": "Chamarande",
    "code": "91132",
    "epci_code": "249100553",
    "departement_code": "91",
    "region_code": "11",
    "postal_code": "91730"
  },
  {
    "name": "Champcueil",
    "code": "91135",
    "epci_code": "249100546",
    "departement_code": "91",
    "region_code": "11",
    "postal_code": "91750"
  },
  {
    "name": "Champlan",
    "code": "91136",
    "epci_code": "200056232",
    "departement_code": "91",
    "region_code": "11",
    "postal_code": "91160"
  },
  {
    "name": "Champmotteux",
    "code": "91137",
    "epci_code": "200017846",
    "departement_code": "91",
    "region_code": "11",
    "postal_code": "91150"
  },
  {
    "name": "Chatignonville",
    "code": "91145",
    "epci_code": "200017846",
    "departement_code": "91",
    "region_code": "11",
    "postal_code": "91410"
  },
  {
    "name": "Chauffour-lès-Étréchy",
    "code": "91148",
    "epci_code": "249100553",
    "departement_code": "91",
    "region_code": "11",
    "postal_code": "91580"
  },
  {
    "name": "Cheptainville",
    "code": "91156",
    "epci_code": "200057859",
    "departement_code": "91",
    "region_code": "11",
    "postal_code": "91630"
  },
  {
    "name": "Chevannes",
    "code": "91159",
    "epci_code": "249100546",
    "departement_code": "91",
    "region_code": "11",
    "postal_code": "91750"
  },
  {
    "name": "Chilly-Mazarin",
    "code": "91161",
    "epci_code": "200056232",
    "departement_code": "91",
    "region_code": "11",
    "postal_code": "91380"
  },
  {
    "name": "Corbeil-Essonnes",
    "code": "91174",
    "epci_code": "200059228",
    "departement_code": "91",
    "region_code": "11",
    "postal_code": "91100"
  },
  {
    "name": "Corbreuse",
    "code": "91175",
    "epci_code": "249100595",
    "departement_code": "91",
    "region_code": "11",
    "postal_code": "91410"
  },
  {
    "name": "Le Coudray-Montceaux",
    "code": "91179",
    "epci_code": "200059228",
    "departement_code": "91",
    "region_code": "11",
    "postal_code": "91830"
  },
  {
    "name": "Courances",
    "code": "91180",
    "epci_code": "249100157",
    "departement_code": "91",
    "region_code": "11",
    "postal_code": "91490"
  },
  {
    "name": "Courdimanche-sur-Essonne",
    "code": "91184",
    "epci_code": "249100157",
    "departement_code": "91",
    "region_code": "11",
    "postal_code": "91720"
  },
  {
    "name": "Courson-Monteloup",
    "code": "91186",
    "epci_code": "249100074",
    "departement_code": "91",
    "region_code": "11",
    "postal_code": "91680"
  },
  {
    "name": "Crosne",
    "code": "91191",
    "epci_code": "200058477",
    "departement_code": "91",
    "region_code": "11",
    "postal_code": "91560"
  },
  {
    "name": "Dannemois",
    "code": "91195",
    "epci_code": "249100157",
    "departement_code": "91",
    "region_code": "11",
    "postal_code": "91490"
  },
  {
    "name": "D’Huison-Longueville",
    "code": "91198",
    "epci_code": "249100546",
    "departement_code": "91",
    "region_code": "11",
    "postal_code": "91590"
  },
  {
    "name": "Dourdan",
    "code": "91200",
    "epci_code": "249100595",
    "departement_code": "91",
    "region_code": "11",
    "postal_code": "91410"
  },
  {
    "name": "Draveil",
    "code": "91201",
    "epci_code": "200058477",
    "departement_code": "91",
    "region_code": "11",
    "postal_code": "91210"
  },
  {
    "name": "Écharcon",
    "code": "91204",
    "epci_code": "249100546",
    "departement_code": "91",
    "region_code": "11",
    "postal_code": "91540"
  },
  {
    "name": "Égly",
    "code": "91207",
    "epci_code": "200057859",
    "departement_code": "91",
    "region_code": "11",
    "postal_code": "91520"
  },
  {
    "name": "Épinay-sous-Sénart",
    "code": "91215",
    "epci_code": "200058477",
    "departement_code": "91",
    "region_code": "11",
    "postal_code": "91860"
  },
  {
    "name": "Épinay-sur-Orge",
    "code": "91216",
    "epci_code": "200056232",
    "departement_code": "91",
    "region_code": "11",
    "postal_code": "91360"
  },
  {
    "name": "Étampes",
    "code": "91223",
    "epci_code": "200017846",
    "departement_code": "91",
    "region_code": "11",
    "postal_code": "91150"
  },
  {
    "name": "Étiolles",
    "code": "91225",
    "epci_code": "200059228",
    "departement_code": "91",
    "region_code": "11",
    "postal_code": "91450"
  },
  {
    "name": "Étréchy",
    "code": "91226",
    "epci_code": "249100553",
    "departement_code": "91",
    "region_code": "11",
    "postal_code": "91580"
  },
  {
    "name": "Évry-Courcouronnes",
    "code": "91228",
    "epci_code": "200059228",
    "departement_code": "91",
    "region_code": "11",
    "postal_code": "91000"
  },
  {
    "name": "Évry-Courcouronnes",
    "code": "91228",
    "epci_code": "200059228",
    "departement_code": "91",
    "region_code": "11",
    "postal_code": "91080"
  },
  {
    "name": "La Ferté-Alais",
    "code": "91232",
    "epci_code": "249100546",
    "departement_code": "91",
    "region_code": "11",
    "postal_code": "91590"
  },
  {
    "name": "Fleury-Mérogis",
    "code": "91235",
    "epci_code": "200057859",
    "departement_code": "91",
    "region_code": "11",
    "postal_code": "91700"
  },
  {
    "name": "Fontaine-la-Rivière",
    "code": "91240",
    "epci_code": "200017846",
    "departement_code": "91",
    "region_code": "11",
    "postal_code": "91690"
  },
  {
    "name": "Fontenay-lès-Briis",
    "code": "91243",
    "epci_code": "249100074",
    "departement_code": "91",
    "region_code": "11",
    "postal_code": "91640"
  },
  {
    "name": "Fontenay-le-Vicomte",
    "code": "91244",
    "epci_code": "249100546",
    "departement_code": "91",
    "region_code": "11",
    "postal_code": "91540"
  },
  {
    "name": "La Forêt-le-Roi",
    "code": "91247",
    "epci_code": "249100595",
    "departement_code": "91",
    "region_code": "11",
    "postal_code": "91410"
  },
  {
    "name": "La Forêt-Sainte-Croix",
    "code": "91248",
    "epci_code": "200017846",
    "departement_code": "91",
    "region_code": "11",
    "postal_code": "91150"
  },
  {
    "name": "Forges-les-Bains",
    "code": "91249",
    "epci_code": "249100074",
    "departement_code": "91",
    "region_code": "11",
    "postal_code": "91470"
  },
  {
    "name": "Gif-sur-Yvette",
    "code": "91272",
    "epci_code": "200056232",
    "departement_code": "91",
    "region_code": "11",
    "postal_code": "91190"
  },
  {
    "name": "Gironville-sur-Essonne",
    "code": "91273",
    "epci_code": "249100157",
    "departement_code": "91",
    "region_code": "11",
    "postal_code": "91720"
  },
  {
    "name": "Gometz-la-Ville",
    "code": "91274",
    "epci_code": "249100074",
    "departement_code": "91",
    "region_code": "11",
    "postal_code": "91400"
  },
  {
    "name": "Gometz-le-Châtel",
    "code": "91275",
    "epci_code": "200056232",
    "departement_code": "91",
    "region_code": "11",
    "postal_code": "91940"
  },
  {
    "name": "Les Granges-le-Roi",
    "code": "91284",
    "epci_code": "249100595",
    "departement_code": "91",
    "region_code": "11",
    "postal_code": "91410"
  },
  {
    "name": "Grigny",
    "code": "91286",
    "epci_code": "200059228",
    "departement_code": "91",
    "region_code": "11",
    "postal_code": "91350"
  },
  {
    "name": "Guibeville",
    "code": "91292",
    "epci_code": "200057859",
    "departement_code": "91",
    "region_code": "11",
    "postal_code": "91630"
  },
  {
    "name": "Guigneville-sur-Essonne",
    "code": "91293",
    "epci_code": "249100546",
    "departement_code": "91",
    "region_code": "11",
    "postal_code": "91590"
  },
  {
    "name": "Guillerval",
    "code": "91294",
    "epci_code": "200017846",
    "departement_code": "91",
    "region_code": "11",
    "postal_code": "91690"
  },
  {
    "name": "Igny",
    "code": "91312",
    "epci_code": "200056232",
    "departement_code": "91",
    "region_code": "11",
    "postal_code": "91430"
  },
  {
    "name": "Itteville",
    "code": "91315",
    "epci_code": "249100546",
    "departement_code": "91",
    "region_code": "11",
    "postal_code": "91760"
  },
  {
    "name": "Janville-sur-Juine",
    "code": "91318",
    "epci_code": "249100553",
    "departement_code": "91",
    "region_code": "11",
    "postal_code": "91510"
  },
  {
    "name": "Janvry",
    "code": "91319",
    "epci_code": "249100074",
    "departement_code": "91",
    "region_code": "11",
    "postal_code": "91640"
  },
  {
    "name": "Juvisy-sur-Orge",
    "code": "91326",
    "epci_code": "200054781",
    "departement_code": "91",
    "region_code": "11",
    "postal_code": "91260"
  },
  {
    "name": "Lardy",
    "code": "91330",
    "epci_code": "249100553",
    "departement_code": "91",
    "region_code": "11",
    "postal_code": "91510"
  },
  {
    "name": "Leudeville",
    "code": "91332",
    "epci_code": "249100546",
    "departement_code": "91",
    "region_code": "11",
    "postal_code": "91630"
  },
  {
    "name": "Leuville-sur-Orge",
    "code": "91333",
    "epci_code": "200057859",
    "departement_code": "91",
    "region_code": "11",
    "postal_code": "91310"
  },
  {
    "name": "Limours",
    "code": "91338",
    "epci_code": "249100074",
    "departement_code": "91",
    "region_code": "11",
    "postal_code": "91470"
  },
  {
    "name": "Linas",
    "code": "91339",
    "epci_code": "200056232",
    "departement_code": "91",
    "region_code": "11",
    "postal_code": "91310"
  },
  {
    "name": "Lisses",
    "code": "91340",
    "epci_code": "200059228",
    "departement_code": "91",
    "region_code": "11",
    "postal_code": "91090"
  },
  {
    "name": "Longjumeau",
    "code": "91345",
    "epci_code": "200056232",
    "departement_code": "91",
    "region_code": "11",
    "postal_code": "91160"
  },
  {
    "name": "Longpont-sur-Orge",
    "code": "91347",
    "epci_code": "200057859",
    "departement_code": "91",
    "region_code": "11",
    "postal_code": "91310"
  },
  {
    "name": "Maisse",
    "code": "91359",
    "epci_code": "249100157",
    "departement_code": "91",
    "region_code": "11",
    "postal_code": "91720"
  },
  {
    "name": "Marcoussis",
    "code": "91363",
    "epci_code": "200056232",
    "departement_code": "91",
    "region_code": "11",
    "postal_code": "91460"
  },
  {
    "name": "Marolles-en-Beauce",
    "code": "91374",
    "epci_code": "200017846",
    "departement_code": "91",
    "region_code": "11",
    "postal_code": "91150"
  },
  {
    "name": "Marolles-en-Hurepoix",
    "code": "91376",
    "epci_code": "200057859",
    "departement_code": "91",
    "region_code": "11",
    "postal_code": "91630"
  },
  {
    "name": "Massy",
    "code": "91377",
    "epci_code": "200056232",
    "departement_code": "91",
    "region_code": "11",
    "postal_code": "91300"
  },
  {
    "name": "Mauchamps",
    "code": "91378",
    "epci_code": "249100553",
    "departement_code": "91",
    "region_code": "11",
    "postal_code": "91730"
  },
  {
    "name": "Mennecy",
    "code": "91386",
    "epci_code": "249100546",
    "departement_code": "91",
    "region_code": "11",
    "postal_code": "91540"
  },
  {
    "name": "Le Mérévillois",
    "code": "91390",
    "epci_code": "200017846",
    "departement_code": "91",
    "region_code": "11",
    "postal_code": "91660"
  },
  {
    "name": "Mérobert",
    "code": "91393",
    "epci_code": "200017846",
    "departement_code": "91",
    "region_code": "11",
    "postal_code": "91780"
  },
  {
    "name": "Mespuits",
    "code": "91399",
    "epci_code": "200017846",
    "departement_code": "91",
    "region_code": "11",
    "postal_code": "91150"
  },
  {
    "name": "Milly-la-Forêt",
    "code": "91405",
    "epci_code": "249100157",
    "departement_code": "91",
    "region_code": "11",
    "postal_code": "91490"
  },
  {
    "name": "Moigny-sur-École",
    "code": "91408",
    "epci_code": "249100157",
    "departement_code": "91",
    "region_code": "11",
    "postal_code": "91490"
  },
  {
    "name": "Les Molières",
    "code": "91411",
    "epci_code": "249100074",
    "departement_code": "91",
    "region_code": "11",
    "postal_code": "91470"
  },
  {
    "name": "Mondeville",
    "code": "91412",
    "epci_code": "249100157",
    "departement_code": "91",
    "region_code": "11",
    "postal_code": "91590"
  },
  {
    "name": "Monnerville",
    "code": "91414",
    "epci_code": "200017846",
    "departement_code": "91",
    "region_code": "11",
    "postal_code": "91930"
  },
  {
    "name": "Montgeron",
    "code": "91421",
    "epci_code": "200058477",
    "departement_code": "91",
    "region_code": "11",
    "postal_code": "91230"
  },
  {
    "name": "Montlhéry",
    "code": "91425",
    "epci_code": "200056232",
    "departement_code": "91",
    "region_code": "11",
    "postal_code": "91310"
  },
  {
    "name": "Morangis",
    "code": "91432",
    "epci_code": "200054781",
    "departement_code": "91",
    "region_code": "11",
    "postal_code": "91420"
  },
  {
    "name": "Morigny-Champigny",
    "code": "91433",
    "epci_code": "200017846",
    "departement_code": "91",
    "region_code": "11",
    "postal_code": "91150"
  },
  {
    "name": "Morsang-sur-Orge",
    "code": "91434",
    "epci_code": "200057859",
    "departement_code": "91",
    "region_code": "11",
    "postal_code": "91390"
  },
  {
    "name": "Morsang-sur-Seine",
    "code": "91435",
    "epci_code": "200059228",
    "departement_code": "91",
    "region_code": "11",
    "postal_code": "91250"
  },
  {
    "name": "Nainville-les-Roches",
    "code": "91441",
    "epci_code": "249100546",
    "departement_code": "91",
    "region_code": "11",
    "postal_code": "91750"
  },
  {
    "name": "La Norville",
    "code": "91457",
    "epci_code": "200057859",
    "departement_code": "91",
    "region_code": "11",
    "postal_code": "91290"
  },
  {
    "name": "Nozay",
    "code": "91458",
    "epci_code": "200056232",
    "departement_code": "91",
    "region_code": "11",
    "postal_code": "91620"
  },
  {
    "name": "Ollainville",
    "code": "91461",
    "epci_code": "200057859",
    "departement_code": "91",
    "region_code": "11",
    "postal_code": "91340"
  },
  {
    "name": "Oncy-sur-École",
    "code": "91463",
    "epci_code": "249100157",
    "departement_code": "91",
    "region_code": "11",
    "postal_code": "91490"
  },
  {
    "name": "Ormoy",
    "code": "91468",
    "epci_code": "249100546",
    "departement_code": "91",
    "region_code": "11",
    "postal_code": "91540"
  },
  {
    "name": "Ormoy-la-Rivière",
    "code": "91469",
    "epci_code": "200017846",
    "departement_code": "91",
    "region_code": "11",
    "postal_code": "91150"
  },
  {
    "name": "Orsay",
    "code": "91471",
    "epci_code": "200056232",
    "departement_code": "91",
    "region_code": "11",
    "postal_code": "91400"
  },
  {
    "name": "Orveau",
    "code": "91473",
    "epci_code": "249100546",
    "departement_code": "91",
    "region_code": "11",
    "postal_code": "91590"
  },
  {
    "name": "Palaiseau",
    "code": "91477",
    "epci_code": "200056232",
    "departement_code": "91",
    "region_code": "11",
    "postal_code": "91120"
  },
  {
    "name": "Paray-Vieille-Poste",
    "code": "91479",
    "epci_code": "200054781",
    "departement_code": "91",
    "region_code": "11",
    "postal_code": "91550"
  },
  {
    "name": "Paray-Vieille-Poste",
    "code": "91479",
    "epci_code": "200054781",
    "departement_code": "91",
    "region_code": "11",
    "postal_code": "94390"
  },
  {
    "name": "Pecqueuse",
    "code": "91482",
    "epci_code": "249100074",
    "departement_code": "91",
    "region_code": "11",
    "postal_code": "91470"
  },
  {
    "name": "Le Plessis-Pâté",
    "code": "91494",
    "epci_code": "200057859",
    "departement_code": "91",
    "region_code": "11",
    "postal_code": "91220"
  },
  {
    "name": "Plessis-Saint-Benoist",
    "code": "91495",
    "epci_code": "200017846",
    "departement_code": "91",
    "region_code": "11",
    "postal_code": "91410"
  },
  {
    "name": "Prunay-sur-Essonne",
    "code": "91507",
    "epci_code": "249100157",
    "departement_code": "91",
    "region_code": "11",
    "postal_code": "91720"
  },
  {
    "name": "Puiselet-le-Marais",
    "code": "91508",
    "epci_code": "200017846",
    "departement_code": "91",
    "region_code": "11",
    "postal_code": "91150"
  },
  {
    "name": "Pussay",
    "code": "91511",
    "epci_code": "200017846",
    "departement_code": "91",
    "region_code": "11",
    "postal_code": "91740"
  },
  {
    "name": "Quincy-sous-Sénart",
    "code": "91514",
    "epci_code": "200058477",
    "departement_code": "91",
    "region_code": "11",
    "postal_code": "91480"
  },
  {
    "name": "Richarville",
    "code": "91519",
    "epci_code": "249100595",
    "departement_code": "91",
    "region_code": "11",
    "postal_code": "91410"
  },
  {
    "name": "Ris-Orangis",
    "code": "91521",
    "epci_code": "200059228",
    "departement_code": "91",
    "region_code": "11",
    "postal_code": "91130"
  },
  {
    "name": "Roinville",
    "code": "91525",
    "epci_code": "249100595",
    "departement_code": "91",
    "region_code": "11",
    "postal_code": "91410"
  },
  {
    "name": "Roinvilliers",
    "code": "91526",
    "epci_code": "200017846",
    "departement_code": "91",
    "region_code": "11",
    "postal_code": "91150"
  },
  {
    "name": "Saclas",
    "code": "91533",
    "epci_code": "200017846",
    "departement_code": "91",
    "region_code": "11",
    "postal_code": "91690"
  },
  {
    "name": "Saclay",
    "code": "91534",
    "epci_code": "200056232",
    "departement_code": "91",
    "region_code": "11",
    "postal_code": "91400"
  },
  {
    "name": "Saint-Aubin",
    "code": "91538",
    "epci_code": "200056232",
    "departement_code": "91",
    "region_code": "11",
    "postal_code": "91190"
  },
  {
    "name": "Saint-Chéron",
    "code": "91540",
    "epci_code": "249100595",
    "departement_code": "91",
    "region_code": "11",
    "postal_code": "91530"
  },
  {
    "name": "Saint-Cyr-la-Rivière",
    "code": "91544",
    "epci_code": "200017846",
    "departement_code": "91",
    "region_code": "11",
    "postal_code": "91690"
  },
  {
    "name": "Saint-Cyr-sous-Dourdan",
    "code": "91546",
    "epci_code": "249100595",
    "departement_code": "91",
    "region_code": "11",
    "postal_code": "91410"
  },
  {
    "name": "Saint-Escobille",
    "code": "91547",
    "epci_code": "200017846",
    "departement_code": "91",
    "region_code": "11",
    "postal_code": "91410"
  },
  {
    "name": "Sainte-Geneviève-des-Bois",
    "code": "91549",
    "epci_code": "200057859",
    "departement_code": "91",
    "region_code": "11",
    "postal_code": "91700"
  },
  {
    "name": "Saint-Germain-lès-Arpajon",
    "code": "91552",
    "epci_code": "200057859",
    "departement_code": "91",
    "region_code": "11",
    "postal_code": "91180"
  },
  {
    "name": "Saint-Germain-lès-Corbeil",
    "code": "91553",
    "epci_code": "200059228",
    "departement_code": "91",
    "region_code": "11",
    "postal_code": "91250"
  },
  {
    "name": "Saint-Hilaire",
    "code": "91556",
    "epci_code": "200017846",
    "departement_code": "91",
    "region_code": "11",
    "postal_code": "91780"
  },
  {
    "name": "Saint-Jean-de-Beauregard",
    "code": "91560",
    "epci_code": "249100074",
    "departement_code": "91",
    "region_code": "11",
    "postal_code": "91940"
  },
  {
    "name": "Saint-Maurice-Montcouronne",
    "code": "91568",
    "epci_code": "249100074",
    "departement_code": "91",
    "region_code": "11",
    "postal_code": "91530"
  },
  {
    "name": "Saint-Michel-sur-Orge",
    "code": "91570",
    "epci_code": "200057859",
    "departement_code": "91",
    "region_code": "11",
    "postal_code": "91240"
  },
  {
    "name": "Saint-Pierre-du-Perray",
    "code": "91573",
    "epci_code": "200059228",
    "departement_code": "91",
    "region_code": "11",
    "postal_code": "91280"
  },
  {
    "name": "Saintry-sur-Seine",
    "code": "91577",
    "epci_code": "200059228",
    "departement_code": "91",
    "region_code": "11",
    "postal_code": "91250"
  },
  {
    "name": "Saint-Sulpice-de-Favières",
    "code": "91578",
    "epci_code": "249100553",
    "departement_code": "91",
    "region_code": "11",
    "postal_code": "91910"
  },
  {
    "name": "Saint-Vrain",
    "code": "91579",
    "epci_code": "249100546",
    "departement_code": "91",
    "region_code": "11",
    "postal_code": "91770"
  },
  {
    "name": "Saint-Yon",
    "code": "91581",
    "epci_code": "249100553",
    "departement_code": "91",
    "region_code": "11",
    "postal_code": "91650"
  },
  {
    "name": "Saulx-les-Chartreux",
    "code": "91587",
    "epci_code": "200056232",
    "departement_code": "91",
    "region_code": "11",
    "postal_code": "91160"
  },
  {
    "name": "Savigny-sur-Orge",
    "code": "91589",
    "epci_code": "200054781",
    "departement_code": "91",
    "region_code": "11",
    "postal_code": "91600"
  },
  {
    "name": "Sermaise",
    "code": "91593",
    "epci_code": "249100595",
    "departement_code": "91",
    "region_code": "11",
    "postal_code": "91530"
  },
  {
    "name": "Soisy-sur-École",
    "code": "91599",
    "epci_code": "249100157",
    "departement_code": "91",
    "region_code": "11",
    "postal_code": "91840"
  },
  {
    "name": "Soisy-sur-Seine",
    "code": "91600",
    "epci_code": "200059228",
    "departement_code": "91",
    "region_code": "11",
    "postal_code": "91450"
  },
  {
    "name": "Souzy-la-Briche",
    "code": "91602",
    "epci_code": "249100553",
    "departement_code": "91",
    "region_code": "11",
    "postal_code": "91580"
  },
  {
    "name": "Congerville-Thionville",
    "code": "91613",
    "epci_code": "200017846",
    "departement_code": "91",
    "region_code": "11",
    "postal_code": "91740"
  },
  {
    "name": "Tigery",
    "code": "91617",
    "epci_code": "200059228",
    "departement_code": "91",
    "region_code": "11",
    "postal_code": "91250"
  },
  {
    "name": "Torfou",
    "code": "91619",
    "epci_code": "249100553",
    "departement_code": "91",
    "region_code": "11",
    "postal_code": "91730"
  },
  {
    "name": "Valpuiseaux",
    "code": "91629",
    "epci_code": "200017846",
    "departement_code": "91",
    "region_code": "11",
    "postal_code": "91720"
  },
  {
    "name": "Le Val-Saint-Germain",
    "code": "91630",
    "epci_code": "249100595",
    "departement_code": "91",
    "region_code": "11",
    "postal_code": "91530"
  },
  {
    "name": "Varennes-Jarcy",
    "code": "91631",
    "epci_code": "247700644",
    "departement_code": "91",
    "region_code": "11",
    "postal_code": "91480"
  },
  {
    "name": "Vaugrigneuse",
    "code": "91634",
    "epci_code": "249100074",
    "departement_code": "91",
    "region_code": "11",
    "postal_code": "91640"
  },
  {
    "name": "Vauhallan",
    "code": "91635",
    "epci_code": "200056232",
    "departement_code": "91",
    "region_code": "11",
    "postal_code": "91430"
  },
  {
    "name": "Vayres-sur-Essonne",
    "code": "91639",
    "epci_code": "249100546",
    "departement_code": "91",
    "region_code": "11",
    "postal_code": "91820"
  },
  {
    "name": "Verrières-le-Buisson",
    "code": "91645",
    "epci_code": "200056232",
    "departement_code": "91",
    "region_code": "11",
    "postal_code": "91370"
  },
  {
    "name": "Vert-le-Grand",
    "code": "91648",
    "epci_code": "249100546",
    "departement_code": "91",
    "region_code": "11",
    "postal_code": "91810"
  },
  {
    "name": "Vert-le-Petit",
    "code": "91649",
    "epci_code": "249100546",
    "departement_code": "91",
    "region_code": "11",
    "postal_code": "91710"
  },
  {
    "name": "Videlles",
    "code": "91654",
    "epci_code": "249100157",
    "departement_code": "91",
    "region_code": "11",
    "postal_code": "91890"
  },
  {
    "name": "Vigneux-sur-Seine",
    "code": "91657",
    "epci_code": "200058477",
    "departement_code": "91",
    "region_code": "11",
    "postal_code": "91270"
  },
  {
    "name": "Villabé",
    "code": "91659",
    "epci_code": "200059228",
    "departement_code": "91",
    "region_code": "11",
    "postal_code": "91100"
  },
  {
    "name": "Villebon-sur-Yvette",
    "code": "91661",
    "epci_code": "200056232",
    "departement_code": "91",
    "region_code": "11",
    "postal_code": "91140"
  },
  {
    "name": "Villeconin",
    "code": "91662",
    "epci_code": "249100553",
    "departement_code": "91",
    "region_code": "11",
    "postal_code": "91580"
  },
  {
    "name": "La Ville-du-Bois",
    "code": "91665",
    "epci_code": "200056232",
    "departement_code": "91",
    "region_code": "11",
    "postal_code": "91620"
  },
  {
    "name": "Villejust",
    "code": "91666",
    "epci_code": "200056232",
    "departement_code": "91",
    "region_code": "11",
    "postal_code": "91140"
  },
  {
    "name": "Villemoisson-sur-Orge",
    "code": "91667",
    "epci_code": "200057859",
    "departement_code": "91",
    "region_code": "11",
    "postal_code": "91360"
  },
  {
    "name": "Villeneuve-sur-Auvers",
    "code": "91671",
    "epci_code": "249100553",
    "departement_code": "91",
    "region_code": "11",
    "postal_code": "91580"
  },
  {
    "name": "Villiers-le-Bâcle",
    "code": "91679",
    "epci_code": "200056232",
    "departement_code": "91",
    "region_code": "11",
    "postal_code": "91190"
  },
  {
    "name": "Villiers-sur-Orge",
    "code": "91685",
    "epci_code": "200057859",
    "departement_code": "91",
    "region_code": "11",
    "postal_code": "91700"
  },
  {
    "name": "Viry-Châtillon",
    "code": "91687",
    "epci_code": "200054781",
    "departement_code": "91",
    "region_code": "11",
    "postal_code": "91170"
  },
  {
    "name": "Wissous",
    "code": "91689",
    "epci_code": "200056232",
    "departement_code": "91",
    "region_code": "11",
    "postal_code": "91320"
  },
  {
    "name": "Yerres",
    "code": "91691",
    "epci_code": "200058477",
    "departement_code": "91",
    "region_code": "11",
    "postal_code": "91330"
  },
  {
    "name": "Les Ulis",
    "code": "91692",
    "epci_code": "200056232",
    "departement_code": "91",
    "region_code": "11",
    "postal_code": "91940"
  }
]