[
  {
    "name": "Abaucourt",
    "code": "54001",
    "epci_code": "200070589",
    "departement_code": "54",
    "region_code": "44",
    "postal_code": "54610"
  },
  {
    "name": "Abbéville-lès-Conflans",
    "code": "54002",
    "epci_code": "200070845",
    "departement_code": "54",
    "region_code": "44",
    "postal_code": "54800"
  },
  {
    "name": "Aboncourt",
    "code": "54003",
    "epci_code": "245400510",
    "departement_code": "54",
    "region_code": "44",
    "postal_code": "54115"
  },
  {
    "name": "Affléville",
    "code": "54004",
    "epci_code": "200070845",
    "departement_code": "54",
    "region_code": "44",
    "postal_code": "54800"
  },
  {
    "name": "Affracourt",
    "code": "54005",
    "epci_code": "200035772",
    "departement_code": "54",
    "region_code": "44",
    "postal_code": "54740"
  },
  {
    "name": "Agincourt",
    "code": "54006",
    "epci_code": "200070589",
    "departement_code": "54",
    "region_code": "44",
    "postal_code": "54770"
  },
  {
    "name": "Aingeray",
    "code": "54007",
    "epci_code": "200070563",
    "departement_code": "54",
    "region_code": "44",
    "postal_code": "54460"
  },
  {
    "name": "Allain",
    "code": "54008",
    "epci_code": "245400510",
    "departement_code": "54",
    "region_code": "44",
    "postal_code": "54170"
  },
  {
    "name": "Allamont",
    "code": "54009",
    "epci_code": "200070845",
    "departement_code": "54",
    "region_code": "44",
    "postal_code": "54800"
  },
  {
    "name": "Allamps",
    "code": "54010",
    "epci_code": "245400510",
    "departement_code": "54",
    "region_code": "44",
    "postal_code": "54112"
  },
  {
    "name": "Allondrelle-la-Malmaison",
    "code": "54011",
    "epci_code": "200043693",
    "departement_code": "54",
    "region_code": "44",
    "postal_code": "54260"
  },
  {
    "name": "Amance",
    "code": "54012",
    "epci_code": "200070589",
    "departement_code": "54",
    "region_code": "44",
    "postal_code": "54770"
  },
  {
    "name": "Amenoncourt",
    "code": "54013",
    "epci_code": "200069433",
    "departement_code": "54",
    "region_code": "44",
    "postal_code": "54450"
  },
  {
    "name": "Ancerviller",
    "code": "54014",
    "epci_code": "200069433",
    "departement_code": "54",
    "region_code": "44",
    "postal_code": "54450"
  },
  {
    "name": "Anderny",
    "code": "54015",
    "epci_code": "200070290",
    "departement_code": "54",
    "region_code": "44",
    "postal_code": "54560"
  },
  {
    "name": "Andilly",
    "code": "54016",
    "epci_code": "200070563",
    "departement_code": "54",
    "region_code": "44",
    "postal_code": "54200"
  },
  {
    "name": "Angomont",
    "code": "54017",
    "epci_code": "200069433",
    "departement_code": "54",
    "region_code": "44",
    "postal_code": "54540"
  },
  {
    "name": "Anoux",
    "code": "54018",
    "epci_code": "200070845",
    "departement_code": "54",
    "region_code": "44",
    "postal_code": "54150"
  },
  {
    "name": "Ansauville",
    "code": "54019",
    "epci_code": "200070563",
    "departement_code": "54",
    "region_code": "44",
    "postal_code": "54470"
  },
  {
    "name": "Anthelupt",
    "code": "54020",
    "epci_code": "245400759",
    "departement_code": "54",
    "region_code": "44",
    "postal_code": "54110"
  },
  {
    "name": "Armaucourt",
    "code": "54021",
    "epci_code": "200070589",
    "departement_code": "54",
    "region_code": "44",
    "postal_code": "54760"
  },
  {
    "name": "Arnaville",
    "code": "54022",
    "epci_code": "200070738",
    "departement_code": "54",
    "region_code": "44",
    "postal_code": "54530"
  },
  {
    "name": "Arracourt",
    "code": "54023",
    "epci_code": "245400759",
    "departement_code": "54",
    "region_code": "44",
    "postal_code": "54370"
  },
  {
    "name": "Arraye-et-Han",
    "code": "54024",
    "epci_code": "200070589",
    "departement_code": "54",
    "region_code": "44",
    "postal_code": "54760"
  },
  {
    "name": "Art-sur-Meurthe",
    "code": "54025",
    "epci_code": "245400676",
    "departement_code": "54",
    "region_code": "44",
    "postal_code": "54510"
  },
  {
    "name": "Athienville",
    "code": "54026",
    "epci_code": "245400759",
    "departement_code": "54",
    "region_code": "44",
    "postal_code": "54370"
  },
  {
    "name": "Atton",
    "code": "54027",
    "epci_code": "200041515",
    "departement_code": "54",
    "region_code": "44",
    "postal_code": "54700"
  },
  {
    "name": "Auboué",
    "code": "54028",
    "epci_code": "200070845",
    "departement_code": "54",
    "region_code": "44",
    "postal_code": "54580"
  },
  {
    "name": "Audun-le-Roman",
    "code": "54029",
    "epci_code": "200070290",
    "departement_code": "54",
    "region_code": "44",
    "postal_code": "54560"
  },
  {
    "name": "Autrepierre",
    "code": "54030",
    "epci_code": "200069433",
    "departement_code": "54",
    "region_code": "44",
    "postal_code": "54450"
  },
  {
    "name": "Autreville-sur-Moselle",
    "code": "54031",
    "epci_code": "200041515",
    "departement_code": "54",
    "region_code": "44",
    "postal_code": "54380"
  },
  {
    "name": "Autrey",
    "code": "54032",
    "epci_code": "200035772",
    "departement_code": "54",
    "region_code": "44",
    "postal_code": "54160"
  },
  {
    "name": "Avillers",
    "code": "54033",
    "epci_code": "200070290",
    "departement_code": "54",
    "region_code": "44",
    "postal_code": "54490"
  },
  {
    "name": "Avrainville",
    "code": "54034",
    "epci_code": "200070563",
    "departement_code": "54",
    "region_code": "44",
    "postal_code": "54385"
  },
  {
    "name": "Avricourt",
    "code": "54035",
    "epci_code": "200069433",
    "departement_code": "54",
    "region_code": "44",
    "postal_code": "54450"
  },
  {
    "name": "Avril",
    "code": "54036",
    "epci_code": "200070845",
    "departement_code": "54",
    "region_code": "44",
    "postal_code": "54150"
  },
  {
    "name": "Azelot",
    "code": "54037",
    "epci_code": "245400189",
    "departement_code": "54",
    "region_code": "44",
    "postal_code": "54210"
  },
  {
    "name": "Azerailles",
    "code": "54038",
    "epci_code": "200070324",
    "departement_code": "54",
    "region_code": "44",
    "postal_code": "54122"
  },
  {
    "name": "Baccarat",
    "code": "54039",
    "epci_code": "200070324",
    "departement_code": "54",
    "region_code": "44",
    "postal_code": "54120"
  },
  {
    "name": "Badonviller",
    "code": "54040",
    "epci_code": "200069433",
    "departement_code": "54",
    "region_code": "44",
    "postal_code": "54540"
  },
  {
    "name": "Bagneux",
    "code": "54041",
    "epci_code": "245400510",
    "departement_code": "54",
    "region_code": "44",
    "postal_code": "54170"
  },
  {
    "name": "Bainville-aux-Miroirs",
    "code": "54042",
    "epci_code": "200035772",
    "departement_code": "54",
    "region_code": "44",
    "postal_code": "54290"
  },
  {
    "name": "Bainville-sur-Madon",
    "code": "54043",
    "epci_code": "245400171",
    "departement_code": "54",
    "region_code": "44",
    "postal_code": "54550"
  },
  {
    "name": "Barbas",
    "code": "54044",
    "epci_code": "200069433",
    "departement_code": "54",
    "region_code": "44",
    "postal_code": "54450"
  },
  {
    "name": "Barbonville",
    "code": "54045",
    "epci_code": "200067643",
    "departement_code": "54",
    "region_code": "44",
    "postal_code": "54360"
  },
  {
    "name": "Barisey-au-Plain",
    "code": "54046",
    "epci_code": "245400510",
    "departement_code": "54",
    "region_code": "44",
    "postal_code": "54170"
  },
  {
    "name": "Barisey-la-Côte",
    "code": "54047",
    "epci_code": "245400510",
    "departement_code": "54",
    "region_code": "44",
    "postal_code": "54170"
  },
  {
    "name": "Les Baroches",
    "code": "54048",
    "epci_code": "200070845",
    "departement_code": "54",
    "region_code": "44",
    "postal_code": "54150"
  },
  {
    "name": "Baslieux",
    "code": "54049",
    "epci_code": "200043693",
    "departement_code": "54",
    "region_code": "44",
    "postal_code": "54620"
  },
  {
    "name": "Bathelémont",
    "code": "54050",
    "epci_code": "245400759",
    "departement_code": "54",
    "region_code": "44",
    "postal_code": "54370"
  },
  {
    "name": "Batilly",
    "code": "54051",
    "epci_code": "200070845",
    "departement_code": "54",
    "region_code": "44",
    "postal_code": "54980"
  },
  {
    "name": "Battigny",
    "code": "54052",
    "epci_code": "245400510",
    "departement_code": "54",
    "region_code": "44",
    "postal_code": "54115"
  },
  {
    "name": "Bauzemont",
    "code": "54053",
    "epci_code": "245400759",
    "departement_code": "54",
    "region_code": "44",
    "postal_code": "54370"
  },
  {
    "name": "Bayon",
    "code": "54054",
    "epci_code": "200067643",
    "departement_code": "54",
    "region_code": "44",
    "postal_code": "54290"
  },
  {
    "name": "Bayonville-sur-Mad",
    "code": "54055",
    "epci_code": "200070738",
    "departement_code": "54",
    "region_code": "44",
    "postal_code": "54890"
  },
  {
    "name": "Bazailles",
    "code": "54056",
    "epci_code": "200043693",
    "departement_code": "54",
    "region_code": "44",
    "postal_code": "54620"
  },
  {
    "name": "Beaumont",
    "code": "54057",
    "epci_code": "200070738",
    "departement_code": "54",
    "region_code": "44",
    "postal_code": "54470"
  },
  {
    "name": "Béchamps",
    "code": "54058",
    "epci_code": "200070845",
    "departement_code": "54",
    "region_code": "44",
    "postal_code": "54800"
  },
  {
    "name": "Belleau",
    "code": "54059",
    "epci_code": "200070589",
    "departement_code": "54",
    "region_code": "44",
    "postal_code": "54610"
  },
  {
    "name": "Belleville",
    "code": "54060",
    "epci_code": "200041515",
    "departement_code": "54",
    "region_code": "44",
    "postal_code": "54940"
  },
  {
    "name": "Bénaménil",
    "code": "54061",
    "epci_code": "200070324",
    "departement_code": "54",
    "region_code": "44",
    "postal_code": "54450"
  },
  {
    "name": "Benney",
    "code": "54062",
    "epci_code": "200035772",
    "departement_code": "54",
    "region_code": "44",
    "postal_code": "54740"
  },
  {
    "name": "Bernécourt",
    "code": "54063",
    "epci_code": "200070738",
    "departement_code": "54",
    "region_code": "44",
    "postal_code": "54470"
  },
  {
    "name": "Bertrambois",
    "code": "54064",
    "epci_code": "200069433",
    "departement_code": "54",
    "region_code": "44",
    "postal_code": "54480"
  },
  {
    "name": "Bertrichamps",
    "code": "54065",
    "epci_code": "200070324",
    "departement_code": "54",
    "region_code": "44",
    "postal_code": "54120"
  },
  {
    "name": "Bettainvillers",
    "code": "54066",
    "epci_code": "200070845",
    "departement_code": "54",
    "region_code": "44",
    "postal_code": "54640"
  },
  {
    "name": "Beuveille",
    "code": "54067",
    "epci_code": "200043693",
    "departement_code": "54",
    "region_code": "44",
    "postal_code": "54620"
  },
  {
    "name": "Beuvezin",
    "code": "54068",
    "epci_code": "245400510",
    "departement_code": "54",
    "region_code": "44",
    "postal_code": "54115"
  },
  {
    "name": "Beuvillers",
    "code": "54069",
    "epci_code": "200070290",
    "departement_code": "54",
    "region_code": "44",
    "postal_code": "54560"
  },
  {
    "name": "Bey-sur-Seille",
    "code": "54070",
    "epci_code": "200070589",
    "departement_code": "54",
    "region_code": "44",
    "postal_code": "54760"
  },
  {
    "name": "Bezange-la-Grande",
    "code": "54071",
    "epci_code": "245400759",
    "departement_code": "54",
    "region_code": "44",
    "postal_code": "54370"
  },
  {
    "name": "Bezaumont",
    "code": "54072",
    "epci_code": "200041515",
    "departement_code": "54",
    "region_code": "44",
    "postal_code": "54380"
  },
  {
    "name": "Bicqueley",
    "code": "54073",
    "epci_code": "200070563",
    "departement_code": "54",
    "region_code": "44",
    "postal_code": "54200"
  },
  {
    "name": "Bienville-la-Petite",
    "code": "54074",
    "epci_code": "245400759",
    "departement_code": "54",
    "region_code": "44",
    "postal_code": "54300"
  },
  {
    "name": "Bionville",
    "code": "54075",
    "epci_code": "200071066",
    "departement_code": "54",
    "region_code": "44",
    "postal_code": "54540"
  },
  {
    "name": "Blainville-sur-l’Eau",
    "code": "54076",
    "epci_code": "200067643",
    "departement_code": "54",
    "region_code": "44",
    "postal_code": "54360"
  },
  {
    "name": "Blâmont",
    "code": "54077",
    "epci_code": "200069433",
    "departement_code": "54",
    "region_code": "44",
    "postal_code": "54450"
  },
  {
    "name": "Blémerey",
    "code": "54078",
    "epci_code": "200069433",
    "departement_code": "54",
    "region_code": "44",
    "postal_code": "54450"
  },
  {
    "name": "Blénod-lès-Pont-à-Mousson",
    "code": "54079",
    "epci_code": "200041515",
    "departement_code": "54",
    "region_code": "44",
    "postal_code": "54700"
  },
  {
    "name": "Blénod-lès-Toul",
    "code": "54080",
    "epci_code": "245400510",
    "departement_code": "54",
    "region_code": "44",
    "postal_code": "54113"
  },
  {
    "name": "Boismont",
    "code": "54081",
    "epci_code": "200043693",
    "departement_code": "54",
    "region_code": "44",
    "postal_code": "54620"
  },
  {
    "name": "Boncourt",
    "code": "54082",
    "epci_code": "200070845",
    "departement_code": "54",
    "region_code": "44",
    "postal_code": "54800"
  },
  {
    "name": "Bonviller",
    "code": "54083",
    "epci_code": "245400759",
    "departement_code": "54",
    "region_code": "44",
    "postal_code": "54300"
  },
  {
    "name": "Mont-Bonvillers",
    "code": "54084",
    "epci_code": "200070290",
    "departement_code": "54",
    "region_code": "44",
    "postal_code": "54111"
  },
  {
    "name": "Borville",
    "code": "54085",
    "epci_code": "200067643",
    "departement_code": "54",
    "region_code": "44",
    "postal_code": "54290"
  },
  {
    "name": "Boucq",
    "code": "54086",
    "epci_code": "200070563",
    "departement_code": "54",
    "region_code": "44",
    "postal_code": "54200"
  },
  {
    "name": "Bouillonville",
    "code": "54087",
    "epci_code": "200070738",
    "departement_code": "54",
    "region_code": "44",
    "postal_code": "54470"
  },
  {
    "name": "Bouvron",
    "code": "54088",
    "epci_code": "200070563",
    "departement_code": "54",
    "region_code": "44",
    "postal_code": "54200"
  },
  {
    "name": "Bouxières-aux-Chênes",
    "code": "54089",
    "epci_code": "200070589",
    "departement_code": "54",
    "region_code": "44",
    "postal_code": "54770"
  },
  {
    "name": "Bouxières-aux-Dames",
    "code": "54090",
    "epci_code": "245400601",
    "departement_code": "54",
    "region_code": "44",
    "postal_code": "54136"
  },
  {
    "name": "Bouxières-sous-Froidmont",
    "code": "54091",
    "epci_code": "200041515",
    "departement_code": "54",
    "region_code": "44",
    "postal_code": "54700"
  },
  {
    "name": "Bouzanville",
    "code": "54092",
    "epci_code": "200035772",
    "departement_code": "54",
    "region_code": "44",
    "postal_code": "54930"
  },
  {
    "name": "Brainville",
    "code": "54093",
    "epci_code": "200070845",
    "departement_code": "54",
    "region_code": "44",
    "postal_code": "54800"
  },
  {
    "name": "Bralleville",
    "code": "54094",
    "epci_code": "200035772",
    "departement_code": "54",
    "region_code": "44",
    "postal_code": "54740"
  },
  {
    "name": "Bratte",
    "code": "54095",
    "epci_code": "200070589",
    "departement_code": "54",
    "region_code": "44",
    "postal_code": "54610"
  },
  {
    "name": "Bréhain-la-Ville",
    "code": "54096",
    "epci_code": "200070290",
    "departement_code": "54",
    "region_code": "44",
    "postal_code": "54190"
  },
  {
    "name": "Bréménil",
    "code": "54097",
    "epci_code": "200069433",
    "departement_code": "54",
    "region_code": "44",
    "postal_code": "54540"
  },
  {
    "name": "Brémoncourt",
    "code": "54098",
    "epci_code": "200067643",
    "departement_code": "54",
    "region_code": "44",
    "postal_code": "54290"
  },
  {
    "name": "Val de Briey",
    "code": "54099",
    "epci_code": "200070845",
    "departement_code": "54",
    "region_code": "44",
    "postal_code": "54150"
  },
  {
    "name": "Val de Briey",
    "code": "54099",
    "epci_code": "200070845",
    "departement_code": "54",
    "region_code": "44",
    "postal_code": "54790"
  },
  {
    "name": "Brin-sur-Seille",
    "code": "54100",
    "epci_code": "200070589",
    "departement_code": "54",
    "region_code": "44",
    "postal_code": "54280"
  },
  {
    "name": "Brouville",
    "code": "54101",
    "epci_code": "200070324",
    "departement_code": "54",
    "region_code": "44",
    "postal_code": "54120"
  },
  {
    "name": "Bruley",
    "code": "54102",
    "epci_code": "200070563",
    "departement_code": "54",
    "region_code": "44",
    "postal_code": "54200"
  },
  {
    "name": "Bruville",
    "code": "54103",
    "epci_code": "200070845",
    "departement_code": "54",
    "region_code": "44",
    "postal_code": "54800"
  },
  {
    "name": "Buissoncourt",
    "code": "54104",
    "epci_code": "200070589",
    "departement_code": "54",
    "region_code": "44",
    "postal_code": "54110"
  },
  {
    "name": "Bulligny",
    "code": "54105",
    "epci_code": "245400510",
    "departement_code": "54",
    "region_code": "44",
    "postal_code": "54113"
  },
  {
    "name": "Bures",
    "code": "54106",
    "epci_code": "245400759",
    "departement_code": "54",
    "region_code": "44",
    "postal_code": "54370"
  },
  {
    "name": "Buriville",
    "code": "54107",
    "epci_code": "200069433",
    "departement_code": "54",
    "region_code": "44",
    "postal_code": "54450"
  },
  {
    "name": "Burthecourt-aux-Chênes",
    "code": "54108",
    "epci_code": "245400189",
    "departement_code": "54",
    "region_code": "44",
    "postal_code": "54210"
  },
  {
    "name": "Ceintrey",
    "code": "54109",
    "epci_code": "200035772",
    "departement_code": "54",
    "region_code": "44",
    "postal_code": "54134"
  },
  {
    "name": "Cerville",
    "code": "54110",
    "epci_code": "200070589",
    "departement_code": "54",
    "region_code": "44",
    "postal_code": "54420"
  },
  {
    "name": "Chaligny",
    "code": "54111",
    "epci_code": "245400171",
    "departement_code": "54",
    "region_code": "44",
    "postal_code": "54230"
  },
  {
    "name": "Chambley-Bussières",
    "code": "54112",
    "epci_code": "200070738",
    "departement_code": "54",
    "region_code": "44",
    "postal_code": "54890"
  },
  {
    "name": "Champenoux",
    "code": "54113",
    "epci_code": "200070589",
    "departement_code": "54",
    "region_code": "44",
    "postal_code": "54280"
  },
  {
    "name": "Champey-sur-Moselle",
    "code": "54114",
    "epci_code": "200041515",
    "departement_code": "54",
    "region_code": "44",
    "postal_code": "54700"
  },
  {
    "name": "Champigneulles",
    "code": "54115",
    "epci_code": "245400601",
    "departement_code": "54",
    "region_code": "44",
    "postal_code": "54250"
  },
  {
    "name": "Chanteheux",
    "code": "54116",
    "epci_code": "200070324",
    "departement_code": "54",
    "region_code": "44",
    "postal_code": "54300"
  },
  {
    "name": "Chaouilley",
    "code": "54117",
    "epci_code": "200035772",
    "departement_code": "54",
    "region_code": "44",
    "postal_code": "54330"
  },
  {
    "name": "Charency-Vezin",
    "code": "54118",
    "epci_code": "200043693",
    "departement_code": "54",
    "region_code": "44",
    "postal_code": "54260"
  },
  {
    "name": "Charey",
    "code": "54119",
    "epci_code": "200070738",
    "departement_code": "54",
    "region_code": "44",
    "postal_code": "54470"
  },
  {
    "name": "Charmes-la-Côte",
    "code": "54120",
    "epci_code": "200070563",
    "departement_code": "54",
    "region_code": "44",
    "postal_code": "54113"
  },
  {
    "name": "Charmois",
    "code": "54121",
    "epci_code": "200067643",
    "departement_code": "54",
    "region_code": "44",
    "postal_code": "54360"
  },
  {
    "name": "Chaudeney-sur-Moselle",
    "code": "54122",
    "epci_code": "200070563",
    "departement_code": "54",
    "region_code": "44",
    "postal_code": "54200"
  },
  {
    "name": "Chavigny",
    "code": "54123",
    "epci_code": "245400171",
    "departement_code": "54",
    "region_code": "44",
    "postal_code": "54230"
  },
  {
    "name": "Chazelles-sur-Albe",
    "code": "54124",
    "epci_code": "200069433",
    "departement_code": "54",
    "region_code": "44",
    "postal_code": "54450"
  },
  {
    "name": "Chenevières",
    "code": "54125",
    "epci_code": "200070324",
    "departement_code": "54",
    "region_code": "44",
    "postal_code": "54122"
  },
  {
    "name": "Chenicourt",
    "code": "54126",
    "epci_code": "200070589",
    "departement_code": "54",
    "region_code": "44",
    "postal_code": "54610"
  },
  {
    "name": "Chenières",
    "code": "54127",
    "epci_code": "245400262",
    "departement_code": "54",
    "region_code": "44",
    "postal_code": "54720"
  },
  {
    "name": "Choloy-Ménillot",
    "code": "54128",
    "epci_code": "200070563",
    "departement_code": "54",
    "region_code": "44",
    "postal_code": "54200"
  },
  {
    "name": "Cirey-sur-Vezouze",
    "code": "54129",
    "epci_code": "200069433",
    "departement_code": "54",
    "region_code": "44",
    "postal_code": "54480"
  },
  {
    "name": "Clayeures",
    "code": "54130",
    "epci_code": "200067643",
    "departement_code": "54",
    "region_code": "44",
    "postal_code": "54290"
  },
  {
    "name": "Clémery",
    "code": "54131",
    "epci_code": "200070589",
    "departement_code": "54",
    "region_code": "44",
    "postal_code": "54610"
  },
  {
    "name": "Clérey-sur-Brenon",
    "code": "54132",
    "epci_code": "200035772",
    "departement_code": "54",
    "region_code": "44",
    "postal_code": "54330"
  },
  {
    "name": "Coincourt",
    "code": "54133",
    "epci_code": "245400759",
    "departement_code": "54",
    "region_code": "44",
    "postal_code": "54370"
  },
  {
    "name": "Colmey",
    "code": "54134",
    "epci_code": "200043693",
    "departement_code": "54",
    "region_code": "44",
    "postal_code": "54260"
  },
  {
    "name": "Colombey-les-Belles",
    "code": "54135",
    "epci_code": "245400510",
    "departement_code": "54",
    "region_code": "44",
    "postal_code": "54170"
  },
  {
    "name": "Conflans-en-Jarnisy",
    "code": "54136",
    "epci_code": "200070845",
    "departement_code": "54",
    "region_code": "44",
    "postal_code": "54800"
  },
  {
    "name": "Cons-la-Grandville",
    "code": "54137",
    "epci_code": "245400262",
    "departement_code": "54",
    "region_code": "44",
    "postal_code": "54870"
  },
  {
    "name": "Cosnes-et-Romain",
    "code": "54138",
    "epci_code": "245400262",
    "departement_code": "54",
    "region_code": "44",
    "postal_code": "54400"
  },
  {
    "name": "Courbesseaux",
    "code": "54139",
    "epci_code": "245400759",
    "departement_code": "54",
    "region_code": "44",
    "postal_code": "54110"
  },
  {
    "name": "Courcelles",
    "code": "54140",
    "epci_code": "245400510",
    "departement_code": "54",
    "region_code": "44",
    "postal_code": "54930"
  },
  {
    "name": "Coyviller",
    "code": "54141",
    "epci_code": "245400189",
    "departement_code": "54",
    "region_code": "44",
    "postal_code": "54210"
  },
  {
    "name": "Crantenoy",
    "code": "54142",
    "epci_code": "200035772",
    "departement_code": "54",
    "region_code": "44",
    "postal_code": "54740"
  },
  {
    "name": "Crépey",
    "code": "54143",
    "epci_code": "245400510",
    "departement_code": "54",
    "region_code": "44",
    "postal_code": "54170"
  },
  {
    "name": "Crévéchamps",
    "code": "54144",
    "epci_code": "200067643",
    "departement_code": "54",
    "region_code": "44",
    "postal_code": "54290"
  },
  {
    "name": "Crévic",
    "code": "54145",
    "epci_code": "245400189",
    "departement_code": "54",
    "region_code": "44",
    "postal_code": "54110"
  },
  {
    "name": "Crézilles",
    "code": "54146",
    "epci_code": "245400510",
    "departement_code": "54",
    "region_code": "44",
    "postal_code": "54113"
  },
  {
    "name": "Crion",
    "code": "54147",
    "epci_code": "245400759",
    "departement_code": "54",
    "region_code": "44",
    "postal_code": "54300"
  },
  {
    "name": "Croismare",
    "code": "54148",
    "epci_code": "200070324",
    "departement_code": "54",
    "region_code": "44",
    "postal_code": "54300"
  },
  {
    "name": "Crusnes",
    "code": "54149",
    "epci_code": "200070290",
    "departement_code": "54",
    "region_code": "44",
    "postal_code": "54680"
  },
  {
    "name": "Custines",
    "code": "54150",
    "epci_code": "245400601",
    "departement_code": "54",
    "region_code": "44",
    "postal_code": "54670"
  },
  {
    "name": "Cutry",
    "code": "54151",
    "epci_code": "245400262",
    "departement_code": "54",
    "region_code": "44",
    "postal_code": "54720"
  },
  {
    "name": "Damelevières",
    "code": "54152",
    "epci_code": "200067643",
    "departement_code": "54",
    "region_code": "44",
    "postal_code": "54360"
  },
  {
    "name": "Dampvitoux",
    "code": "54153",
    "epci_code": "200070738",
    "departement_code": "54",
    "region_code": "44",
    "postal_code": "54470"
  },
  {
    "name": "Deneuvre",
    "code": "54154",
    "epci_code": "200070324",
    "departement_code": "54",
    "region_code": "44",
    "postal_code": "54120"
  },
  {
    "name": "Deuxville",
    "code": "54155",
    "epci_code": "245400759",
    "departement_code": "54",
    "region_code": "44",
    "postal_code": "54370"
  },
  {
    "name": "Diarville",
    "code": "54156",
    "epci_code": "200035772",
    "departement_code": "54",
    "region_code": "44",
    "postal_code": "54930"
  },
  {
    "name": "Dieulouard",
    "code": "54157",
    "epci_code": "200041515",
    "departement_code": "54",
    "region_code": "44",
    "postal_code": "54380"
  },
  {
    "name": "Dolcourt",
    "code": "54158",
    "epci_code": "245400510",
    "departement_code": "54",
    "region_code": "44",
    "postal_code": "54170"
  },
  {
    "name": "Dombasle-sur-Meurthe",
    "code": "54159",
    "epci_code": "245400189",
    "departement_code": "54",
    "region_code": "44",
    "postal_code": "54110"
  },
  {
    "name": "Domèvre-en-Haye",
    "code": "54160",
    "epci_code": "200070563",
    "departement_code": "54",
    "region_code": "44",
    "postal_code": "54385"
  },
  {
    "name": "Domèvre-sur-Vezouze",
    "code": "54161",
    "epci_code": "200069433",
    "departement_code": "54",
    "region_code": "44",
    "postal_code": "54450"
  },
  {
    "name": "Domgermain",
    "code": "54162",
    "epci_code": "200070563",
    "departement_code": "54",
    "region_code": "44",
    "postal_code": "54119"
  },
  {
    "name": "Domjevin",
    "code": "54163",
    "epci_code": "200069433",
    "departement_code": "54",
    "region_code": "44",
    "postal_code": "54450"
  },
  {
    "name": "Dommarie-Eulmont",
    "code": "54164",
    "epci_code": "200035772",
    "departement_code": "54",
    "region_code": "44",
    "postal_code": "54115"
  },
  {
    "name": "Dommartemont",
    "code": "54165",
    "epci_code": "245400676",
    "departement_code": "54",
    "region_code": "44",
    "postal_code": "54130"
  },
  {
    "name": "Dommartin-la-Chaussée",
    "code": "54166",
    "epci_code": "200070738",
    "departement_code": "54",
    "region_code": "44",
    "postal_code": "54470"
  },
  {
    "name": "Dommartin-lès-Toul",
    "code": "54167",
    "epci_code": "200070563",
    "departement_code": "54",
    "region_code": "44",
    "postal_code": "54200"
  },
  {
    "name": "Dommartin-sous-Amance",
    "code": "54168",
    "epci_code": "200070589",
    "departement_code": "54",
    "region_code": "44",
    "postal_code": "54770"
  },
  {
    "name": "Domprix",
    "code": "54169",
    "epci_code": "200070290",
    "departement_code": "54",
    "region_code": "44",
    "postal_code": "54490"
  },
  {
    "name": "Domptail-en-l’Air",
    "code": "54170",
    "epci_code": "200067643",
    "departement_code": "54",
    "region_code": "44",
    "postal_code": "54290"
  },
  {
    "name": "Doncourt-lès-Conflans",
    "code": "54171",
    "epci_code": "200070845",
    "departement_code": "54",
    "region_code": "44",
    "postal_code": "54800"
  },
  {
    "name": "Doncourt-lès-Longuyon",
    "code": "54172",
    "epci_code": "200043693",
    "departement_code": "54",
    "region_code": "44",
    "postal_code": "54620"
  },
  {
    "name": "Drouville",
    "code": "54173",
    "epci_code": "245400759",
    "departement_code": "54",
    "region_code": "44",
    "postal_code": "54370"
  },
  {
    "name": "Écrouves",
    "code": "54174",
    "epci_code": "200070563",
    "departement_code": "54",
    "region_code": "44",
    "postal_code": "54200"
  },
  {
    "name": "Einvaux",
    "code": "54175",
    "epci_code": "200067643",
    "departement_code": "54",
    "region_code": "44",
    "postal_code": "54360"
  },
  {
    "name": "Einville-au-Jard",
    "code": "54176",
    "epci_code": "245400759",
    "departement_code": "54",
    "region_code": "44",
    "postal_code": "54370"
  },
  {
    "name": "Emberménil",
    "code": "54177",
    "epci_code": "200069433",
    "departement_code": "54",
    "region_code": "44",
    "postal_code": "54370"
  },
  {
    "name": "Épiez-sur-Chiers",
    "code": "54178",
    "epci_code": "200043693",
    "departement_code": "54",
    "region_code": "44",
    "postal_code": "54260"
  },
  {
    "name": "Éply",
    "code": "54179",
    "epci_code": "200070589",
    "departement_code": "54",
    "region_code": "44",
    "postal_code": "54610"
  },
  {
    "name": "Erbéviller-sur-Amezule",
    "code": "54180",
    "epci_code": "200070589",
    "departement_code": "54",
    "region_code": "44",
    "postal_code": "54280"
  },
  {
    "name": "Errouville",
    "code": "54181",
    "epci_code": "200070290",
    "departement_code": "54",
    "region_code": "44",
    "postal_code": "54680"
  },
  {
    "name": "Essey-et-Maizerais",
    "code": "54182",
    "epci_code": "200070738",
    "departement_code": "54",
    "region_code": "44",
    "postal_code": "54470"
  },
  {
    "name": "Essey-la-Côte",
    "code": "54183",
    "epci_code": "200067643",
    "departement_code": "54",
    "region_code": "44",
    "postal_code": "54830"
  },
  {
    "name": "Essey-lès-Nancy",
    "code": "54184",
    "epci_code": "245400676",
    "departement_code": "54",
    "region_code": "44",
    "postal_code": "54270"
  },
  {
    "name": "Étreval",
    "code": "54185",
    "epci_code": "200035772",
    "departement_code": "54",
    "region_code": "44",
    "postal_code": "54330"
  },
  {
    "name": "Eulmont",
    "code": "54186",
    "epci_code": "200070589",
    "departement_code": "54",
    "region_code": "44",
    "postal_code": "54690"
  },
  {
    "name": "Euvezin",
    "code": "54187",
    "epci_code": "200070738",
    "departement_code": "54",
    "region_code": "44",
    "postal_code": "54470"
  },
  {
    "name": "Faulx",
    "code": "54188",
    "epci_code": "245400601",
    "departement_code": "54",
    "region_code": "44",
    "postal_code": "54760"
  },
  {
    "name": "Favières",
    "code": "54189",
    "epci_code": "245400510",
    "departement_code": "54",
    "region_code": "44",
    "postal_code": "54115"
  },
  {
    "name": "Fécocourt",
    "code": "54190",
    "epci_code": "245400510",
    "departement_code": "54",
    "region_code": "44",
    "postal_code": "54115"
  },
  {
    "name": "Fenneviller",
    "code": "54191",
    "epci_code": "200069433",
    "departement_code": "54",
    "region_code": "44",
    "postal_code": "54540"
  },
  {
    "name": "Ferrières",
    "code": "54192",
    "epci_code": "245400189",
    "departement_code": "54",
    "region_code": "44",
    "postal_code": "54210"
  },
  {
    "name": "Fey-en-Haye",
    "code": "54193",
    "epci_code": "200070738",
    "departement_code": "54",
    "region_code": "44",
    "postal_code": "54470"
  },
  {
    "name": "Fillières",
    "code": "54194",
    "epci_code": "245400262",
    "departement_code": "54",
    "region_code": "44",
    "postal_code": "54560"
  },
  {
    "name": "Flainval",
    "code": "54195",
    "epci_code": "245400759",
    "departement_code": "54",
    "region_code": "44",
    "postal_code": "54110"
  },
  {
    "name": "Flavigny-sur-Moselle",
    "code": "54196",
    "epci_code": "245400171",
    "departement_code": "54",
    "region_code": "44",
    "postal_code": "54630"
  },
  {
    "name": "Fléville-devant-Nancy",
    "code": "54197",
    "epci_code": "245400676",
    "departement_code": "54",
    "region_code": "44",
    "postal_code": "54710"
  },
  {
    "name": "Fléville-Lixières",
    "code": "54198",
    "epci_code": "200070845",
    "departement_code": "54",
    "region_code": "44",
    "postal_code": "54150"
  },
  {
    "name": "Flin",
    "code": "54199",
    "epci_code": "200070324",
    "departement_code": "54",
    "region_code": "44",
    "postal_code": "54122"
  },
  {
    "name": "Flirey",
    "code": "54200",
    "epci_code": "200070738",
    "departement_code": "54",
    "region_code": "44",
    "postal_code": "54470"
  },
  {
    "name": "Fontenoy-la-Joûte",
    "code": "54201",
    "epci_code": "200070324",
    "departement_code": "54",
    "region_code": "44",
    "postal_code": "54122"
  },
  {
    "name": "Fontenoy-sur-Moselle",
    "code": "54202",
    "epci_code": "200070563",
    "departement_code": "54",
    "region_code": "44",
    "postal_code": "54840"
  },
  {
    "name": "Forcelles-Saint-Gorgon",
    "code": "54203",
    "epci_code": "200035772",
    "departement_code": "54",
    "region_code": "44",
    "postal_code": "54330"
  },
  {
    "name": "Forcelles-sous-Gugney",
    "code": "54204",
    "epci_code": "200035772",
    "departement_code": "54",
    "region_code": "44",
    "postal_code": "54930"
  },
  {
    "name": "Foug",
    "code": "54205",
    "epci_code": "200070563",
    "departement_code": "54",
    "region_code": "44",
    "postal_code": "54570"
  },
  {
    "name": "Fraimbois",
    "code": "54206",
    "epci_code": "200070324",
    "departement_code": "54",
    "region_code": "44",
    "postal_code": "54300"
  },
  {
    "name": "Fraisnes-en-Saintois",
    "code": "54207",
    "epci_code": "200035772",
    "departement_code": "54",
    "region_code": "44",
    "postal_code": "54930"
  },
  {
    "name": "Francheville",
    "code": "54208",
    "epci_code": "200070563",
    "departement_code": "54",
    "region_code": "44",
    "postal_code": "54200"
  },
  {
    "name": "Franconville",
    "code": "54209",
    "epci_code": "200070324",
    "departement_code": "54",
    "region_code": "44",
    "postal_code": "54830"
  },
  {
    "name": "Fréménil",
    "code": "54210",
    "epci_code": "200069433",
    "departement_code": "54",
    "region_code": "44",
    "postal_code": "54450"
  },
  {
    "name": "Frémonville",
    "code": "54211",
    "epci_code": "200069433",
    "departement_code": "54",
    "region_code": "44",
    "postal_code": "54450"
  },
  {
    "name": "Fresnois-la-Montagne",
    "code": "54212",
    "epci_code": "200043693",
    "departement_code": "54",
    "region_code": "44",
    "postal_code": "54260"
  },
  {
    "name": "Friauville",
    "code": "54213",
    "epci_code": "200070845",
    "departement_code": "54",
    "region_code": "44",
    "postal_code": "54800"
  },
  {
    "name": "Frolois",
    "code": "54214",
    "epci_code": "245400171",
    "departement_code": "54",
    "region_code": "44",
    "postal_code": "54160"
  },
  {
    "name": "Frouard",
    "code": "54215",
    "epci_code": "245400601",
    "departement_code": "54",
    "region_code": "44",
    "postal_code": "54390"
  },
  {
    "name": "Froville",
    "code": "54216",
    "epci_code": "200067643",
    "departement_code": "54",
    "region_code": "44",
    "postal_code": "54290"
  },
  {
    "name": "Gélacourt",
    "code": "54217",
    "epci_code": "200070324",
    "departement_code": "54",
    "region_code": "44",
    "postal_code": "54120"
  },
  {
    "name": "Gélaucourt",
    "code": "54218",
    "epci_code": "245400510",
    "departement_code": "54",
    "region_code": "44",
    "postal_code": "54115"
  },
  {
    "name": "Gellenoncourt",
    "code": "54219",
    "epci_code": "200070589",
    "departement_code": "54",
    "region_code": "44",
    "postal_code": "54110"
  },
  {
    "name": "Gémonville",
    "code": "54220",
    "epci_code": "245400510",
    "departement_code": "54",
    "region_code": "44",
    "postal_code": "54115"
  },
  {
    "name": "Gerbécourt-et-Haplemont",
    "code": "54221",
    "epci_code": "200035772",
    "departement_code": "54",
    "region_code": "44",
    "postal_code": "54740"
  },
  {
    "name": "Gerbéviller",
    "code": "54222",
    "epci_code": "200067643",
    "departement_code": "54",
    "region_code": "44",
    "postal_code": "54830"
  },
  {
    "name": "Germiny",
    "code": "54223",
    "epci_code": "245400510",
    "departement_code": "54",
    "region_code": "44",
    "postal_code": "54170"
  },
  {
    "name": "Germonville",
    "code": "54224",
    "epci_code": "200035772",
    "departement_code": "54",
    "region_code": "44",
    "postal_code": "54740"
  },
  {
    "name": "Gézoncourt",
    "code": "54225",
    "epci_code": "200041515",
    "departement_code": "54",
    "region_code": "44",
    "postal_code": "54380"
  },
  {
    "name": "Gibeaumeix",
    "code": "54226",
    "epci_code": "245400510",
    "departement_code": "54",
    "region_code": "44",
    "postal_code": "54112"
  },
  {
    "name": "Giraumont",
    "code": "54227",
    "epci_code": "200070845",
    "departement_code": "54",
    "region_code": "44",
    "postal_code": "54780"
  },
  {
    "name": "Giriviller",
    "code": "54228",
    "epci_code": "200067643",
    "departement_code": "54",
    "region_code": "44",
    "postal_code": "54830"
  },
  {
    "name": "Glonville",
    "code": "54229",
    "epci_code": "200070324",
    "departement_code": "54",
    "region_code": "44",
    "postal_code": "54122"
  },
  {
    "name": "Gogney",
    "code": "54230",
    "epci_code": "200069433",
    "departement_code": "54",
    "region_code": "44",
    "postal_code": "54450"
  },
  {
    "name": "Gondrecourt-Aix",
    "code": "54231",
    "epci_code": "200070845",
    "departement_code": "54",
    "region_code": "44",
    "postal_code": "54800"
  },
  {
    "name": "Gondreville",
    "code": "54232",
    "epci_code": "200070563",
    "departement_code": "54",
    "region_code": "44",
    "postal_code": "54840"
  },
  {
    "name": "Gondrexon",
    "code": "54233",
    "epci_code": "200069433",
    "departement_code": "54",
    "region_code": "44",
    "postal_code": "54450"
  },
  {
    "name": "Gorcy",
    "code": "54234",
    "epci_code": "245400262",
    "departement_code": "54",
    "region_code": "44",
    "postal_code": "54730"
  },
  {
    "name": "Goviller",
    "code": "54235",
    "epci_code": "200035772",
    "departement_code": "54",
    "region_code": "44",
    "postal_code": "54330"
  },
  {
    "name": "Grand-Failly",
    "code": "54236",
    "epci_code": "200043693",
    "departement_code": "54",
    "region_code": "44",
    "postal_code": "54260"
  },
  {
    "name": "Grimonviller",
    "code": "54237",
    "epci_code": "245400510",
    "departement_code": "54",
    "region_code": "44",
    "postal_code": "54115"
  },
  {
    "name": "Gripport",
    "code": "54238",
    "epci_code": "200035772",
    "departement_code": "54",
    "region_code": "44",
    "postal_code": "54290"
  },
  {
    "name": "Griscourt",
    "code": "54239",
    "epci_code": "200041515",
    "departement_code": "54",
    "region_code": "44",
    "postal_code": "54380"
  },
  {
    "name": "Grosrouvres",
    "code": "54240",
    "epci_code": "200070563",
    "departement_code": "54",
    "region_code": "44",
    "postal_code": "54470"
  },
  {
    "name": "Gugney",
    "code": "54241",
    "epci_code": "200035772",
    "departement_code": "54",
    "region_code": "44",
    "postal_code": "54930"
  },
  {
    "name": "Gye",
    "code": "54242",
    "epci_code": "200070563",
    "departement_code": "54",
    "region_code": "44",
    "postal_code": "54113"
  },
  {
    "name": "Hablainville",
    "code": "54243",
    "epci_code": "200070324",
    "departement_code": "54",
    "region_code": "44",
    "postal_code": "54120"
  },
  {
    "name": "Hagéville",
    "code": "54244",
    "epci_code": "200070738",
    "departement_code": "54",
    "region_code": "44",
    "postal_code": "54470"
  },
  {
    "name": "Haigneville",
    "code": "54245",
    "epci_code": "200067643",
    "departement_code": "54",
    "region_code": "44",
    "postal_code": "54290"
  },
  {
    "name": "Halloville",
    "code": "54246",
    "epci_code": "200069433",
    "departement_code": "54",
    "region_code": "44",
    "postal_code": "54450"
  },
  {
    "name": "Hammeville",
    "code": "54247",
    "epci_code": "200035772",
    "departement_code": "54",
    "region_code": "44",
    "postal_code": "54330"
  },
  {
    "name": "Hamonville",
    "code": "54248",
    "epci_code": "200070738",
    "departement_code": "54",
    "region_code": "44",
    "postal_code": "54470"
  },
  {
    "name": "Hannonville-Suzémont",
    "code": "54249",
    "epci_code": "200070738",
    "departement_code": "54",
    "region_code": "44",
    "postal_code": "54800"
  },
  {
    "name": "Haraucourt",
    "code": "54250",
    "epci_code": "200070589",
    "departement_code": "54",
    "region_code": "44",
    "postal_code": "54110"
  },
  {
    "name": "Harbouey",
    "code": "54251",
    "epci_code": "200069433",
    "departement_code": "54",
    "region_code": "44",
    "postal_code": "54450"
  },
  {
    "name": "Haroué",
    "code": "54252",
    "epci_code": "200035772",
    "departement_code": "54",
    "region_code": "44",
    "postal_code": "54740"
  },
  {
    "name": "Hatrize",
    "code": "54253",
    "epci_code": "200070845",
    "departement_code": "54",
    "region_code": "44",
    "postal_code": "54800"
  },
  {
    "name": "Haucourt-Moulaine",
    "code": "54254",
    "epci_code": "245400262",
    "departement_code": "54",
    "region_code": "44",
    "postal_code": "54860"
  },
  {
    "name": "Haudonville",
    "code": "54255",
    "epci_code": "200070324",
    "departement_code": "54",
    "region_code": "44",
    "postal_code": "54830"
  },
  {
    "name": "Haussonville",
    "code": "54256",
    "epci_code": "200067643",
    "departement_code": "54",
    "region_code": "44",
    "postal_code": "54290"
  },
  {
    "name": "Heillecourt",
    "code": "54257",
    "epci_code": "245400676",
    "departement_code": "54",
    "region_code": "44",
    "postal_code": "54180"
  },
  {
    "name": "Hénaménil",
    "code": "54258",
    "epci_code": "245400759",
    "departement_code": "54",
    "region_code": "44",
    "postal_code": "54370"
  },
  {
    "name": "Herbéviller",
    "code": "54259",
    "epci_code": "200069433",
    "departement_code": "54",
    "region_code": "44",
    "postal_code": "54450"
  },
  {
    "name": "Hériménil",
    "code": "54260",
    "epci_code": "200070324",
    "departement_code": "54",
    "region_code": "44",
    "postal_code": "54300"
  },
  {
    "name": "Herserange",
    "code": "54261",
    "epci_code": "245400262",
    "departement_code": "54",
    "region_code": "44",
    "postal_code": "54440"
  },
  {
    "name": "Hoéville",
    "code": "54262",
    "epci_code": "245400759",
    "departement_code": "54",
    "region_code": "44",
    "postal_code": "54370"
  },
  {
    "name": "Homécourt",
    "code": "54263",
    "epci_code": "200070845",
    "departement_code": "54",
    "region_code": "44",
    "postal_code": "54310"
  },
  {
    "name": "Houdelmont",
    "code": "54264",
    "epci_code": "200035772",
    "departement_code": "54",
    "region_code": "44",
    "postal_code": "54330"
  },
  {
    "name": "Houdemont",
    "code": "54265",
    "epci_code": "245400676",
    "departement_code": "54",
    "region_code": "44",
    "postal_code": "54180"
  },
  {
    "name": "Houdreville",
    "code": "54266",
    "epci_code": "200035772",
    "departement_code": "54",
    "region_code": "44",
    "postal_code": "54330"
  },
  {
    "name": "Housséville",
    "code": "54268",
    "epci_code": "200035772",
    "departement_code": "54",
    "region_code": "44",
    "postal_code": "54930"
  },
  {
    "name": "Hudiviller",
    "code": "54269",
    "epci_code": "245400189",
    "departement_code": "54",
    "region_code": "44",
    "postal_code": "54110"
  },
  {
    "name": "Hussigny-Godbrange",
    "code": "54270",
    "epci_code": "245400262",
    "departement_code": "54",
    "region_code": "44",
    "postal_code": "54590"
  },
  {
    "name": "Igney",
    "code": "54271",
    "epci_code": "200069433",
    "departement_code": "54",
    "region_code": "44",
    "postal_code": "54450"
  },
  {
    "name": "Jaillon",
    "code": "54272",
    "epci_code": "200070563",
    "departement_code": "54",
    "region_code": "44",
    "postal_code": "54200"
  },
  {
    "name": "Jarny",
    "code": "54273",
    "epci_code": "200070845",
    "departement_code": "54",
    "region_code": "44",
    "postal_code": "54800"
  },
  {
    "name": "Jarville-la-Malgrange",
    "code": "54274",
    "epci_code": "245400676",
    "departement_code": "54",
    "region_code": "44",
    "postal_code": "54140"
  },
  {
    "name": "Jaulny",
    "code": "54275",
    "epci_code": "200070738",
    "departement_code": "54",
    "region_code": "44",
    "postal_code": "54470"
  },
  {
    "name": "Jeandelaincourt",
    "code": "54276",
    "epci_code": "200070589",
    "departement_code": "54",
    "region_code": "44",
    "postal_code": "54114"
  },
  {
    "name": "Jeandelize",
    "code": "54277",
    "epci_code": "200070845",
    "departement_code": "54",
    "region_code": "44",
    "postal_code": "54800"
  },
  {
    "name": "Jevoncourt",
    "code": "54278",
    "epci_code": "200035772",
    "departement_code": "54",
    "region_code": "44",
    "postal_code": "54740"
  },
  {
    "name": "Jezainville",
    "code": "54279",
    "epci_code": "200041515",
    "departement_code": "54",
    "region_code": "44",
    "postal_code": "54700"
  },
  {
    "name": "Jœuf",
    "code": "54280",
    "epci_code": "200070845",
    "departement_code": "54",
    "region_code": "44",
    "postal_code": "54240"
  },
  {
    "name": "Jolivet",
    "code": "54281",
    "epci_code": "200070324",
    "departement_code": "54",
    "region_code": "44",
    "postal_code": "54300"
  },
  {
    "name": "Joppécourt",
    "code": "54282",
    "epci_code": "200070290",
    "departement_code": "54",
    "region_code": "44",
    "postal_code": "54620"
  },
  {
    "name": "Jouaville",
    "code": "54283",
    "epci_code": "200070845",
    "departement_code": "54",
    "region_code": "44",
    "postal_code": "54800"
  },
  {
    "name": "Joudreville",
    "code": "54284",
    "epci_code": "200070290",
    "departement_code": "54",
    "region_code": "44",
    "postal_code": "54490"
  },
  {
    "name": "Juvrecourt",
    "code": "54285",
    "epci_code": "245400759",
    "departement_code": "54",
    "region_code": "44",
    "postal_code": "54370"
  },
  {
    "name": "Labry",
    "code": "54286",
    "epci_code": "200070845",
    "departement_code": "54",
    "region_code": "44",
    "postal_code": "54800"
  },
  {
    "name": "Lachapelle",
    "code": "54287",
    "epci_code": "200070324",
    "departement_code": "54",
    "region_code": "44",
    "postal_code": "54120"
  },
  {
    "name": "Lagney",
    "code": "54288",
    "epci_code": "200070563",
    "departement_code": "54",
    "region_code": "44",
    "postal_code": "54200"
  },
  {
    "name": "Laître-sous-Amance",
    "code": "54289",
    "epci_code": "200070589",
    "departement_code": "54",
    "region_code": "44",
    "postal_code": "54770"
  },
  {
    "name": "Laix",
    "code": "54290",
    "epci_code": "245400262",
    "departement_code": "54",
    "region_code": "44",
    "postal_code": "54720"
  },
  {
    "name": "Lalœuf",
    "code": "54291",
    "epci_code": "200035772",
    "departement_code": "54",
    "region_code": "44",
    "postal_code": "54115"
  },
  {
    "name": "Lamath",
    "code": "54292",
    "epci_code": "200070324",
    "departement_code": "54",
    "region_code": "44",
    "postal_code": "54300"
  },
  {
    "name": "Landécourt",
    "code": "54293",
    "epci_code": "200067643",
    "departement_code": "54",
    "region_code": "44",
    "postal_code": "54360"
  },
  {
    "name": "Landremont",
    "code": "54294",
    "epci_code": "200041515",
    "departement_code": "54",
    "region_code": "44",
    "postal_code": "54380"
  },
  {
    "name": "Landres",
    "code": "54295",
    "epci_code": "200070290",
    "departement_code": "54",
    "region_code": "44",
    "postal_code": "54970"
  },
  {
    "name": "Laneuvelotte",
    "code": "54296",
    "epci_code": "200070589",
    "departement_code": "54",
    "region_code": "44",
    "postal_code": "54280"
  },
  {
    "name": "Laneuveville-aux-Bois",
    "code": "54297",
    "epci_code": "200070324",
    "departement_code": "54",
    "region_code": "44",
    "postal_code": "54370"
  },
  {
    "name": "Laneuveville-derrière-Foug",
    "code": "54298",
    "epci_code": "200070563",
    "departement_code": "54",
    "region_code": "44",
    "postal_code": "54570"
  },
  {
    "name": "Laneuveville-devant-Bayon",
    "code": "54299",
    "epci_code": "200035772",
    "departement_code": "54",
    "region_code": "44",
    "postal_code": "54740"
  },
  {
    "name": "Laneuveville-devant-Nancy",
    "code": "54300",
    "epci_code": "245400676",
    "departement_code": "54",
    "region_code": "44",
    "postal_code": "54410"
  },
  {
    "name": "Lanfroicourt",
    "code": "54301",
    "epci_code": "200070589",
    "departement_code": "54",
    "region_code": "44",
    "postal_code": "54760"
  },
  {
    "name": "Lantéfontaine",
    "code": "54302",
    "epci_code": "200070845",
    "departement_code": "54",
    "region_code": "44",
    "postal_code": "54150"
  },
  {
    "name": "Laronxe",
    "code": "54303",
    "epci_code": "200070324",
    "departement_code": "54",
    "region_code": "44",
    "postal_code": "54950"
  },
  {
    "name": "Laxou",
    "code": "54304",
    "epci_code": "245400676",
    "departement_code": "54",
    "region_code": "44",
    "postal_code": "54520"
  },
  {
    "name": "Lay-Saint-Christophe",
    "code": "54305",
    "epci_code": "245400601",
    "departement_code": "54",
    "region_code": "44",
    "postal_code": "54690"
  },
  {
    "name": "Lay-Saint-Remy",
    "code": "54306",
    "epci_code": "200070563",
    "departement_code": "54",
    "region_code": "44",
    "postal_code": "54570"
  },
  {
    "name": "Lebeuville",
    "code": "54307",
    "epci_code": "200035772",
    "departement_code": "54",
    "region_code": "44",
    "postal_code": "54740"
  },
  {
    "name": "Leintrey",
    "code": "54308",
    "epci_code": "200069433",
    "departement_code": "54",
    "region_code": "44",
    "postal_code": "54450"
  },
  {
    "name": "Lemainville",
    "code": "54309",
    "epci_code": "200035772",
    "departement_code": "54",
    "region_code": "44",
    "postal_code": "54740"
  },
  {
    "name": "Leménil-Mitry",
    "code": "54310",
    "epci_code": "200035772",
    "departement_code": "54",
    "region_code": "44",
    "postal_code": "54740"
  },
  {
    "name": "Lenoncourt",
    "code": "54311",
    "epci_code": "200070589",
    "departement_code": "54",
    "region_code": "44",
    "postal_code": "54110"
  },
  {
    "name": "Lesménils",
    "code": "54312",
    "epci_code": "200041515",
    "departement_code": "54",
    "region_code": "44",
    "postal_code": "54700"
  },
  {
    "name": "Létricourt",
    "code": "54313",
    "epci_code": "200070589",
    "departement_code": "54",
    "region_code": "44",
    "postal_code": "54610"
  },
  {
    "name": "Lexy",
    "code": "54314",
    "epci_code": "245400262",
    "departement_code": "54",
    "region_code": "44",
    "postal_code": "54720"
  },
  {
    "name": "Leyr",
    "code": "54315",
    "epci_code": "200070589",
    "departement_code": "54",
    "region_code": "44",
    "postal_code": "54760"
  },
  {
    "name": "Limey-Remenauville",
    "code": "54316",
    "epci_code": "200070738",
    "departement_code": "54",
    "region_code": "44",
    "postal_code": "54470"
  },
  {
    "name": "Lironville",
    "code": "54317",
    "epci_code": "200070738",
    "departement_code": "54",
    "region_code": "44",
    "postal_code": "54470"
  },
  {
    "name": "Liverdun",
    "code": "54318",
    "epci_code": "245400601",
    "departement_code": "54",
    "region_code": "44",
    "postal_code": "54460"
  },
  {
    "name": "Loisy",
    "code": "54320",
    "epci_code": "200041515",
    "departement_code": "54",
    "region_code": "44",
    "postal_code": "54700"
  },
  {
    "name": "Longlaville",
    "code": "54321",
    "epci_code": "245400262",
    "departement_code": "54",
    "region_code": "44",
    "postal_code": "54810"
  },
  {
    "name": "Longuyon",
    "code": "54322",
    "epci_code": "200043693",
    "departement_code": "54",
    "region_code": "44",
    "postal_code": "54260"
  },
  {
    "name": "Longwy",
    "code": "54323",
    "epci_code": "245400262",
    "departement_code": "54",
    "region_code": "44",
    "postal_code": "54400"
  },
  {
    "name": "Lorey",
    "code": "54324",
    "epci_code": "200067643",
    "departement_code": "54",
    "region_code": "44",
    "postal_code": "54290"
  },
  {
    "name": "Loromontzey",
    "code": "54325",
    "epci_code": "200067643",
    "departement_code": "54",
    "region_code": "44",
    "postal_code": "54290"
  },
  {
    "name": "Lubey",
    "code": "54326",
    "epci_code": "200070845",
    "departement_code": "54",
    "region_code": "44",
    "postal_code": "54150"
  },
  {
    "name": "Lucey",
    "code": "54327",
    "epci_code": "200070563",
    "departement_code": "54",
    "region_code": "44",
    "postal_code": "54200"
  },
  {
    "name": "Ludres",
    "code": "54328",
    "epci_code": "245400676",
    "departement_code": "54",
    "region_code": "44",
    "postal_code": "54710"
  },
  {
    "name": "Lunéville",
    "code": "54329",
    "epci_code": "200070324",
    "departement_code": "54",
    "region_code": "44",
    "postal_code": "54300"
  },
  {
    "name": "Lupcourt",
    "code": "54330",
    "epci_code": "245400189",
    "departement_code": "54",
    "region_code": "44",
    "postal_code": "54210"
  },
  {
    "name": "Magnières",
    "code": "54331",
    "epci_code": "200070324",
    "departement_code": "54",
    "region_code": "44",
    "postal_code": "54129"
  },
  {
    "name": "Maidières",
    "code": "54332",
    "epci_code": "200041515",
    "departement_code": "54",
    "region_code": "44",
    "postal_code": "54700"
  },
  {
    "name": "Mailly-sur-Seille",
    "code": "54333",
    "epci_code": "200070589",
    "departement_code": "54",
    "region_code": "44",
    "postal_code": "54610"
  },
  {
    "name": "Mairy-Mainville",
    "code": "54334",
    "epci_code": "200070290",
    "departement_code": "54",
    "region_code": "44",
    "postal_code": "54150"
  },
  {
    "name": "Maixe",
    "code": "54335",
    "epci_code": "245400759",
    "departement_code": "54",
    "region_code": "44",
    "postal_code": "54370"
  },
  {
    "name": "Maizières",
    "code": "54336",
    "epci_code": "245400171",
    "departement_code": "54",
    "region_code": "44",
    "postal_code": "54550"
  },
  {
    "name": "Malavillers",
    "code": "54337",
    "epci_code": "200070290",
    "departement_code": "54",
    "region_code": "44",
    "postal_code": "54560"
  },
  {
    "name": "Malleloy",
    "code": "54338",
    "epci_code": "245400601",
    "departement_code": "54",
    "region_code": "44",
    "postal_code": "54670"
  },
  {
    "name": "Malzéville",
    "code": "54339",
    "epci_code": "245400676",
    "departement_code": "54",
    "region_code": "44",
    "postal_code": "54220"
  },
  {
    "name": "Mamey",
    "code": "54340",
    "epci_code": "200070738",
    "departement_code": "54",
    "region_code": "44",
    "postal_code": "54470"
  },
  {
    "name": "Mandres-aux-Quatre-Tours",
    "code": "54343",
    "epci_code": "200070738",
    "departement_code": "54",
    "region_code": "44",
    "postal_code": "54470"
  },
  {
    "name": "Mangonville",
    "code": "54344",
    "epci_code": "200035772",
    "departement_code": "54",
    "region_code": "44",
    "postal_code": "54290"
  },
  {
    "name": "Manoncourt-en-Vermois",
    "code": "54345",
    "epci_code": "245400189",
    "departement_code": "54",
    "region_code": "44",
    "postal_code": "54210"
  },
  {
    "name": "Manoncourt-en-Woëvre",
    "code": "54346",
    "epci_code": "200070563",
    "departement_code": "54",
    "region_code": "44",
    "postal_code": "54385"
  },
  {
    "name": "Manonville",
    "code": "54348",
    "epci_code": "200070563",
    "departement_code": "54",
    "region_code": "44",
    "postal_code": "54385"
  },
  {
    "name": "Manonviller",
    "code": "54349",
    "epci_code": "200070324",
    "departement_code": "54",
    "region_code": "44",
    "postal_code": "54300"
  },
  {
    "name": "Marainviller",
    "code": "54350",
    "epci_code": "200070324",
    "departement_code": "54",
    "region_code": "44",
    "postal_code": "54300"
  },
  {
    "name": "Marbache",
    "code": "54351",
    "epci_code": "245400601",
    "departement_code": "54",
    "region_code": "44",
    "postal_code": "54820"
  },
  {
    "name": "Maron",
    "code": "54352",
    "epci_code": "245400171",
    "departement_code": "54",
    "region_code": "44",
    "postal_code": "54230"
  },
  {
    "name": "Mars-la-Tour",
    "code": "54353",
    "epci_code": "200070738",
    "departement_code": "54",
    "region_code": "44",
    "postal_code": "54800"
  },
  {
    "name": "Marthemont",
    "code": "54354",
    "epci_code": "245400171",
    "departement_code": "54",
    "region_code": "44",
    "postal_code": "54330"
  },
  {
    "name": "Martincourt",
    "code": "54355",
    "epci_code": "200041515",
    "departement_code": "54",
    "region_code": "44",
    "postal_code": "54380"
  },
  {
    "name": "Mattexey",
    "code": "54356",
    "epci_code": "200067643",
    "departement_code": "54",
    "region_code": "44",
    "postal_code": "54830"
  },
  {
    "name": "Maxéville",
    "code": "54357",
    "epci_code": "245400676",
    "departement_code": "54",
    "region_code": "44",
    "postal_code": "54320"
  },
  {
    "name": "Mazerulles",
    "code": "54358",
    "epci_code": "200070589",
    "departement_code": "54",
    "region_code": "44",
    "postal_code": "54280"
  },
  {
    "name": "Méhoncourt",
    "code": "54359",
    "epci_code": "200067643",
    "departement_code": "54",
    "region_code": "44",
    "postal_code": "54360"
  },
  {
    "name": "Ménil-la-Tour",
    "code": "54360",
    "epci_code": "200070563",
    "departement_code": "54",
    "region_code": "44",
    "postal_code": "54200"
  },
  {
    "name": "Mercy-le-Bas",
    "code": "54362",
    "epci_code": "200070290",
    "departement_code": "54",
    "region_code": "44",
    "postal_code": "54960"
  },
  {
    "name": "Mercy-le-Haut",
    "code": "54363",
    "epci_code": "200070290",
    "departement_code": "54",
    "region_code": "44",
    "postal_code": "54560"
  },
  {
    "name": "Méréville",
    "code": "54364",
    "epci_code": "245400171",
    "departement_code": "54",
    "region_code": "44",
    "postal_code": "54850"
  },
  {
    "name": "Merviller",
    "code": "54365",
    "epci_code": "200070324",
    "departement_code": "54",
    "region_code": "44",
    "postal_code": "54120"
  },
  {
    "name": "Messein",
    "code": "54366",
    "epci_code": "245400171",
    "departement_code": "54",
    "region_code": "44",
    "postal_code": "54850"
  },
  {
    "name": "Mexy",
    "code": "54367",
    "epci_code": "245400262",
    "departement_code": "54",
    "region_code": "44",
    "postal_code": "54135"
  },
  {
    "name": "Mignéville",
    "code": "54368",
    "epci_code": "200069433",
    "departement_code": "54",
    "region_code": "44",
    "postal_code": "54540"
  },
  {
    "name": "Millery",
    "code": "54369",
    "epci_code": "245400601",
    "departement_code": "54",
    "region_code": "44",
    "postal_code": "54670"
  },
  {
    "name": "Minorville",
    "code": "54370",
    "epci_code": "200070563",
    "departement_code": "54",
    "region_code": "44",
    "postal_code": "54385"
  },
  {
    "name": "Moineville",
    "code": "54371",
    "epci_code": "200070845",
    "departement_code": "54",
    "region_code": "44",
    "postal_code": "54580"
  },
  {
    "name": "Moivrons",
    "code": "54372",
    "epci_code": "200070589",
    "departement_code": "54",
    "region_code": "44",
    "postal_code": "54760"
  },
  {
    "name": "Moncel-lès-Lunéville",
    "code": "54373",
    "epci_code": "200070324",
    "departement_code": "54",
    "region_code": "44",
    "postal_code": "54300"
  },
  {
    "name": "Moncel-sur-Seille",
    "code": "54374",
    "epci_code": "200070589",
    "departement_code": "54",
    "region_code": "44",
    "postal_code": "54280"
  },
  {
    "name": "Montauville",
    "code": "54375",
    "epci_code": "200041515",
    "departement_code": "54",
    "region_code": "44",
    "postal_code": "54700"
  },
  {
    "name": "Montenoy",
    "code": "54376",
    "epci_code": "245400601",
    "departement_code": "54",
    "region_code": "44",
    "postal_code": "54760"
  },
  {
    "name": "Montigny",
    "code": "54377",
    "epci_code": "200069433",
    "departement_code": "54",
    "region_code": "44",
    "postal_code": "54540"
  },
  {
    "name": "Montigny-sur-Chiers",
    "code": "54378",
    "epci_code": "200043693",
    "departement_code": "54",
    "region_code": "44",
    "postal_code": "54870"
  },
  {
    "name": "Mont-l’Étroit",
    "code": "54379",
    "epci_code": "245400510",
    "departement_code": "54",
    "region_code": "44",
    "postal_code": "54170"
  },
  {
    "name": "Mont-le-Vignoble",
    "code": "54380",
    "epci_code": "245400510",
    "departement_code": "54",
    "region_code": "44",
    "postal_code": "54113"
  },
  {
    "name": "Montreux",
    "code": "54381",
    "epci_code": "200069433",
    "departement_code": "54",
    "region_code": "44",
    "postal_code": "54450"
  },
  {
    "name": "Mont-Saint-Martin",
    "code": "54382",
    "epci_code": "245400262",
    "departement_code": "54",
    "region_code": "44",
    "postal_code": "54350"
  },
  {
    "name": "Mont-sur-Meurthe",
    "code": "54383",
    "epci_code": "200067643",
    "departement_code": "54",
    "region_code": "44",
    "postal_code": "54360"
  },
  {
    "name": "Morfontaine",
    "code": "54385",
    "epci_code": "245400262",
    "departement_code": "54",
    "region_code": "44",
    "postal_code": "54920"
  },
  {
    "name": "Moriviller",
    "code": "54386",
    "epci_code": "200067643",
    "departement_code": "54",
    "region_code": "44",
    "postal_code": "54830"
  },
  {
    "name": "Morville-sur-Seille",
    "code": "54387",
    "epci_code": "200041515",
    "departement_code": "54",
    "region_code": "44",
    "postal_code": "54700"
  },
  {
    "name": "Mouacourt",
    "code": "54388",
    "epci_code": "245400759",
    "departement_code": "54",
    "region_code": "44",
    "postal_code": "54370"
  },
  {
    "name": "Mouaville",
    "code": "54389",
    "epci_code": "200070845",
    "departement_code": "54",
    "region_code": "44",
    "postal_code": "54800"
  },
  {
    "name": "Mousson",
    "code": "54390",
    "epci_code": "200041515",
    "departement_code": "54",
    "region_code": "44",
    "postal_code": "54700"
  },
  {
    "name": "Moutiers",
    "code": "54391",
    "epci_code": "200070845",
    "departement_code": "54",
    "region_code": "44",
    "postal_code": "54660"
  },
  {
    "name": "Moutrot",
    "code": "54392",
    "epci_code": "245400510",
    "departement_code": "54",
    "region_code": "44",
    "postal_code": "54113"
  },
  {
    "name": "Moyen",
    "code": "54393",
    "epci_code": "200070324",
    "departement_code": "54",
    "region_code": "44",
    "postal_code": "54118"
  },
  {
    "name": "Murville",
    "code": "54394",
    "epci_code": "200070290",
    "departement_code": "54",
    "region_code": "44",
    "postal_code": "54490"
  },
  {
    "name": "Nancy",
    "code": "54395",
    "epci_code": "245400676",
    "departement_code": "54",
    "region_code": "44",
    "postal_code": "54000"
  },
  {
    "name": "Nancy",
    "code": "54395",
    "epci_code": "245400676",
    "departement_code": "54",
    "region_code": "44",
    "postal_code": "54100"
  },
  {
    "name": "Neufmaisons",
    "code": "54396",
    "epci_code": "200069433",
    "departement_code": "54",
    "region_code": "44",
    "postal_code": "54540"
  },
  {
    "name": "Neuves-Maisons",
    "code": "54397",
    "epci_code": "245400171",
    "departement_code": "54",
    "region_code": "44",
    "postal_code": "54230"
  },
  {
    "name": "Neuviller-lès-Badonviller",
    "code": "54398",
    "epci_code": "200069433",
    "departement_code": "54",
    "region_code": "44",
    "postal_code": "54540"
  },
  {
    "name": "Neuviller-sur-Moselle",
    "code": "54399",
    "epci_code": "200035772",
    "departement_code": "54",
    "region_code": "44",
    "postal_code": "54290"
  },
  {
    "name": "Nomeny",
    "code": "54400",
    "epci_code": "200070589",
    "departement_code": "54",
    "region_code": "44",
    "postal_code": "54610"
  },
  {
    "name": "Nonhigny",
    "code": "54401",
    "epci_code": "200069433",
    "departement_code": "54",
    "region_code": "44",
    "postal_code": "54450"
  },
  {
    "name": "Norroy-le-Sec",
    "code": "54402",
    "epci_code": "200070845",
    "departement_code": "54",
    "region_code": "44",
    "postal_code": "54150"
  },
  {
    "name": "Norroy-lès-Pont-à-Mousson",
    "code": "54403",
    "epci_code": "200041515",
    "departement_code": "54",
    "region_code": "44",
    "postal_code": "54700"
  },
  {
    "name": "Noviant-aux-Prés",
    "code": "54404",
    "epci_code": "200070563",
    "departement_code": "54",
    "region_code": "44",
    "postal_code": "54385"
  },
  {
    "name": "Ochey",
    "code": "54405",
    "epci_code": "245400510",
    "departement_code": "54",
    "region_code": "44",
    "postal_code": "54170"
  },
  {
    "name": "Ogéviller",
    "code": "54406",
    "epci_code": "200069433",
    "departement_code": "54",
    "region_code": "44",
    "postal_code": "54450"
  },
  {
    "name": "Ognéville",
    "code": "54407",
    "epci_code": "200035772",
    "departement_code": "54",
    "region_code": "44",
    "postal_code": "54330"
  },
  {
    "name": "Olley",
    "code": "54408",
    "epci_code": "200070845",
    "departement_code": "54",
    "region_code": "44",
    "postal_code": "54800"
  },
  {
    "name": "Omelmont",
    "code": "54409",
    "epci_code": "200035772",
    "departement_code": "54",
    "region_code": "44",
    "postal_code": "54330"
  },
  {
    "name": "Onville",
    "code": "54410",
    "epci_code": "200070738",
    "departement_code": "54",
    "region_code": "44",
    "postal_code": "54890"
  },
  {
    "name": "Ormes-et-Ville",
    "code": "54411",
    "epci_code": "200035772",
    "departement_code": "54",
    "region_code": "44",
    "postal_code": "54740"
  },
  {
    "name": "Othe",
    "code": "54412",
    "epci_code": "200043693",
    "departement_code": "54",
    "region_code": "44",
    "postal_code": "54260"
  },
  {
    "name": "Ozerailles",
    "code": "54413",
    "epci_code": "200070845",
    "departement_code": "54",
    "region_code": "44",
    "postal_code": "54150"
  },
  {
    "name": "Pagney-derrière-Barine",
    "code": "54414",
    "epci_code": "200070563",
    "departement_code": "54",
    "region_code": "44",
    "postal_code": "54200"
  },
  {
    "name": "Pagny-sur-Moselle",
    "code": "54415",
    "epci_code": "200041515",
    "departement_code": "54",
    "region_code": "44",
    "postal_code": "54530"
  },
  {
    "name": "Pannes",
    "code": "54416",
    "epci_code": "200070738",
    "departement_code": "54",
    "region_code": "44",
    "postal_code": "54470"
  },
  {
    "name": "Parey-Saint-Césaire",
    "code": "54417",
    "epci_code": "200035772",
    "departement_code": "54",
    "region_code": "44",
    "postal_code": "54330"
  },
  {
    "name": "Parroy",
    "code": "54418",
    "epci_code": "245400759",
    "departement_code": "54",
    "region_code": "44",
    "postal_code": "54370"
  },
  {
    "name": "Parux",
    "code": "54419",
    "epci_code": "200069433",
    "departement_code": "54",
    "region_code": "44",
    "postal_code": "54480"
  },
  {
    "name": "Petit-Failly",
    "code": "54420",
    "epci_code": "200043693",
    "departement_code": "54",
    "region_code": "44",
    "postal_code": "54260"
  },
  {
    "name": "Petitmont",
    "code": "54421",
    "epci_code": "200069433",
    "departement_code": "54",
    "region_code": "44",
    "postal_code": "54480"
  },
  {
    "name": "Pettonville",
    "code": "54422",
    "epci_code": "200070324",
    "departement_code": "54",
    "region_code": "44",
    "postal_code": "54120"
  },
  {
    "name": "Pexonne",
    "code": "54423",
    "epci_code": "200069433",
    "departement_code": "54",
    "region_code": "44",
    "postal_code": "54540"
  },
  {
    "name": "Phlin",
    "code": "54424",
    "epci_code": "200070589",
    "departement_code": "54",
    "region_code": "44",
    "postal_code": "54610"
  },
  {
    "name": "Piennes",
    "code": "54425",
    "epci_code": "200070290",
    "departement_code": "54",
    "region_code": "44",
    "postal_code": "54490"
  },
  {
    "name": "Pierre-la-Treiche",
    "code": "54426",
    "epci_code": "200070563",
    "departement_code": "54",
    "region_code": "44",
    "postal_code": "54200"
  },
  {
    "name": "Pierre-Percée",
    "code": "54427",
    "epci_code": "200071066",
    "departement_code": "54",
    "region_code": "44",
    "postal_code": "54540"
  },
  {
    "name": "Pierrepont",
    "code": "54428",
    "epci_code": "200043693",
    "departement_code": "54",
    "region_code": "44",
    "postal_code": "54620"
  },
  {
    "name": "Pierreville",
    "code": "54429",
    "epci_code": "245400171",
    "departement_code": "54",
    "region_code": "44",
    "postal_code": "54160"
  },
  {
    "name": "Pompey",
    "code": "54430",
    "epci_code": "245400601",
    "departement_code": "54",
    "region_code": "44",
    "postal_code": "54340"
  },
  {
    "name": "Pont-à-Mousson",
    "code": "54431",
    "epci_code": "200041515",
    "departement_code": "54",
    "region_code": "44",
    "postal_code": "54700"
  },
  {
    "name": "Pont-Saint-Vincent",
    "code": "54432",
    "epci_code": "245400171",
    "departement_code": "54",
    "region_code": "44",
    "postal_code": "54550"
  },
  {
    "name": "Port-sur-Seille",
    "code": "54433",
    "epci_code": "200041515",
    "departement_code": "54",
    "region_code": "44",
    "postal_code": "54700"
  },
  {
    "name": "Praye",
    "code": "54434",
    "epci_code": "200035772",
    "departement_code": "54",
    "region_code": "44",
    "postal_code": "54116"
  },
  {
    "name": "Prény",
    "code": "54435",
    "epci_code": "200070738",
    "departement_code": "54",
    "region_code": "44",
    "postal_code": "54530"
  },
  {
    "name": "Preutin-Higny",
    "code": "54436",
    "epci_code": "200070290",
    "departement_code": "54",
    "region_code": "44",
    "postal_code": "54490"
  },
  {
    "name": "Pulligny",
    "code": "54437",
    "epci_code": "245400171",
    "departement_code": "54",
    "region_code": "44",
    "postal_code": "54160"
  },
  {
    "name": "Pulney",
    "code": "54438",
    "epci_code": "245400510",
    "departement_code": "54",
    "region_code": "44",
    "postal_code": "54115"
  },
  {
    "name": "Pulnoy",
    "code": "54439",
    "epci_code": "245400676",
    "departement_code": "54",
    "region_code": "44",
    "postal_code": "54425"
  },
  {
    "name": "Puxe",
    "code": "54440",
    "epci_code": "200070845",
    "departement_code": "54",
    "region_code": "44",
    "postal_code": "54800"
  },
  {
    "name": "Puxieux",
    "code": "54441",
    "epci_code": "200070738",
    "departement_code": "54",
    "region_code": "44",
    "postal_code": "54800"
  },
  {
    "name": "Quevilloncourt",
    "code": "54442",
    "epci_code": "200035772",
    "departement_code": "54",
    "region_code": "44",
    "postal_code": "54330"
  },
  {
    "name": "Raon-lès-Leau",
    "code": "54443",
    "epci_code": "200071066",
    "departement_code": "54",
    "region_code": "44",
    "postal_code": "54540"
  },
  {
    "name": "Raucourt",
    "code": "54444",
    "epci_code": "200070589",
    "departement_code": "54",
    "region_code": "44",
    "postal_code": "54610"
  },
  {
    "name": "Raville-sur-Sânon",
    "code": "54445",
    "epci_code": "245400759",
    "departement_code": "54",
    "region_code": "44",
    "postal_code": "54370"
  },
  {
    "name": "Réchicourt-la-Petite",
    "code": "54446",
    "epci_code": "245400759",
    "departement_code": "54",
    "region_code": "44",
    "postal_code": "54370"
  },
  {
    "name": "Réclonville",
    "code": "54447",
    "epci_code": "200069433",
    "departement_code": "54",
    "region_code": "44",
    "postal_code": "54450"
  },
  {
    "name": "Rehainviller",
    "code": "54449",
    "epci_code": "200070324",
    "departement_code": "54",
    "region_code": "44",
    "postal_code": "54300"
  },
  {
    "name": "Reherrey",
    "code": "54450",
    "epci_code": "200070324",
    "departement_code": "54",
    "region_code": "44",
    "postal_code": "54120"
  },
  {
    "name": "Réhon",
    "code": "54451",
    "epci_code": "245400262",
    "departement_code": "54",
    "region_code": "44",
    "postal_code": "54430"
  },
  {
    "name": "Reillon",
    "code": "54452",
    "epci_code": "200069433",
    "departement_code": "54",
    "region_code": "44",
    "postal_code": "54450"
  },
  {
    "name": "Rembercourt-sur-Mad",
    "code": "54453",
    "epci_code": "200070738",
    "departement_code": "54",
    "region_code": "44",
    "postal_code": "54470"
  },
  {
    "name": "Remenoville",
    "code": "54455",
    "epci_code": "200067643",
    "departement_code": "54",
    "region_code": "44",
    "postal_code": "54830"
  },
  {
    "name": "Réméréville",
    "code": "54456",
    "epci_code": "200070589",
    "departement_code": "54",
    "region_code": "44",
    "postal_code": "54110"
  },
  {
    "name": "Remoncourt",
    "code": "54457",
    "epci_code": "200069433",
    "departement_code": "54",
    "region_code": "44",
    "postal_code": "54370"
  },
  {
    "name": "Repaix",
    "code": "54458",
    "epci_code": "200069433",
    "departement_code": "54",
    "region_code": "44",
    "postal_code": "54450"
  },
  {
    "name": "Richardménil",
    "code": "54459",
    "epci_code": "245400171",
    "departement_code": "54",
    "region_code": "44",
    "postal_code": "54630"
  },
  {
    "name": "Rogéville",
    "code": "54460",
    "epci_code": "200041515",
    "departement_code": "54",
    "region_code": "44",
    "postal_code": "54380"
  },
  {
    "name": "Romain",
    "code": "54461",
    "epci_code": "200067643",
    "departement_code": "54",
    "region_code": "44",
    "postal_code": "54360"
  },
  {
    "name": "Rosières-aux-Salines",
    "code": "54462",
    "epci_code": "245400189",
    "departement_code": "54",
    "region_code": "44",
    "postal_code": "54110"
  },
  {
    "name": "Rosières-en-Haye",
    "code": "54463",
    "epci_code": "200041515",
    "departement_code": "54",
    "region_code": "44",
    "postal_code": "54385"
  },
  {
    "name": "Rouves",
    "code": "54464",
    "epci_code": "200070589",
    "departement_code": "54",
    "region_code": "44",
    "postal_code": "54610"
  },
  {
    "name": "Roville-devant-Bayon",
    "code": "54465",
    "epci_code": "200035772",
    "departement_code": "54",
    "region_code": "44",
    "postal_code": "54290"
  },
  {
    "name": "Royaumeix",
    "code": "54466",
    "epci_code": "200070563",
    "departement_code": "54",
    "region_code": "44",
    "postal_code": "54200"
  },
  {
    "name": "Rozelieures",
    "code": "54467",
    "epci_code": "200067643",
    "departement_code": "54",
    "region_code": "44",
    "postal_code": "54290"
  },
  {
    "name": "Saffais",
    "code": "54468",
    "epci_code": "245400189",
    "departement_code": "54",
    "region_code": "44",
    "postal_code": "54210"
  },
  {
    "name": "Saint-Ail",
    "code": "54469",
    "epci_code": "200070845",
    "departement_code": "54",
    "region_code": "44",
    "postal_code": "54580"
  },
  {
    "name": "Saint-Baussant",
    "code": "54470",
    "epci_code": "200070738",
    "departement_code": "54",
    "region_code": "44",
    "postal_code": "54470"
  },
  {
    "name": "Saint-Boingt",
    "code": "54471",
    "epci_code": "200067643",
    "departement_code": "54",
    "region_code": "44",
    "postal_code": "54290"
  },
  {
    "name": "Saint-Clément",
    "code": "54472",
    "epci_code": "200070324",
    "departement_code": "54",
    "region_code": "44",
    "postal_code": "54950"
  },
  {
    "name": "Saint-Firmin",
    "code": "54473",
    "epci_code": "200035772",
    "departement_code": "54",
    "region_code": "44",
    "postal_code": "54930"
  },
  {
    "name": "Sainte-Geneviève",
    "code": "54474",
    "epci_code": "200041515",
    "departement_code": "54",
    "region_code": "44",
    "postal_code": "54700"
  },
  {
    "name": "Saint-Germain",
    "code": "54475",
    "epci_code": "200067643",
    "departement_code": "54",
    "region_code": "44",
    "postal_code": "54290"
  },
  {
    "name": "Saint-Jean-lès-Longuyon",
    "code": "54476",
    "epci_code": "200043693",
    "departement_code": "54",
    "region_code": "44",
    "postal_code": "54260"
  },
  {
    "name": "Saint-Julien-lès-Gorze",
    "code": "54477",
    "epci_code": "200070738",
    "departement_code": "54",
    "region_code": "44",
    "postal_code": "54470"
  },
  {
    "name": "Saint-Marcel",
    "code": "54478",
    "epci_code": "200070845",
    "departement_code": "54",
    "region_code": "44",
    "postal_code": "54800"
  },
  {
    "name": "Saint-Mard",
    "code": "54479",
    "epci_code": "200067643",
    "departement_code": "54",
    "region_code": "44",
    "postal_code": "54290"
  },
  {
    "name": "Saint-Martin",
    "code": "54480",
    "epci_code": "200069433",
    "departement_code": "54",
    "region_code": "44",
    "postal_code": "54450"
  },
  {
    "name": "Saint-Maurice-aux-Forges",
    "code": "54481",
    "epci_code": "200069433",
    "departement_code": "54",
    "region_code": "44",
    "postal_code": "54540"
  },
  {
    "name": "Saint-Max",
    "code": "54482",
    "epci_code": "245400676",
    "departement_code": "54",
    "region_code": "44",
    "postal_code": "54130"
  },
  {
    "name": "Saint-Nicolas-de-Port",
    "code": "54483",
    "epci_code": "245400189",
    "departement_code": "54",
    "region_code": "44",
    "postal_code": "54210"
  },
  {
    "name": "Sainte-Pôle",
    "code": "54484",
    "epci_code": "200069433",
    "departement_code": "54",
    "region_code": "44",
    "postal_code": "54540"
  },
  {
    "name": "Saint-Pancré",
    "code": "54485",
    "epci_code": "200043693",
    "departement_code": "54",
    "region_code": "44",
    "postal_code": "54730"
  },
  {
    "name": "Saint-Remimont",
    "code": "54486",
    "epci_code": "200035772",
    "departement_code": "54",
    "region_code": "44",
    "postal_code": "54740"
  },
  {
    "name": "Saint-Rémy-aux-Bois",
    "code": "54487",
    "epci_code": "200067643",
    "departement_code": "54",
    "region_code": "44",
    "postal_code": "54290"
  },
  {
    "name": "Saint-Sauveur",
    "code": "54488",
    "epci_code": "200069433",
    "departement_code": "54",
    "region_code": "44",
    "postal_code": "54480"
  },
  {
    "name": "Saint-Supplet",
    "code": "54489",
    "epci_code": "200043693",
    "departement_code": "54",
    "region_code": "44",
    "postal_code": "54620"
  },
  {
    "name": "Saizerais",
    "code": "54490",
    "epci_code": "245400601",
    "departement_code": "54",
    "region_code": "44",
    "postal_code": "54380"
  },
  {
    "name": "Sancy",
    "code": "54491",
    "epci_code": "200070290",
    "departement_code": "54",
    "region_code": "44",
    "postal_code": "54560"
  },
  {
    "name": "Sanzey",
    "code": "54492",
    "epci_code": "200070563",
    "departement_code": "54",
    "region_code": "44",
    "postal_code": "54200"
  },
  {
    "name": "Saulnes",
    "code": "54493",
    "epci_code": "245400262",
    "departement_code": "54",
    "region_code": "44",
    "postal_code": "54650"
  },
  {
    "name": "Saulxerotte",
    "code": "54494",
    "epci_code": "245400510",
    "departement_code": "54",
    "region_code": "44",
    "postal_code": "54115"
  },
  {
    "name": "Saulxures-lès-Nancy",
    "code": "54495",
    "epci_code": "245400676",
    "departement_code": "54",
    "region_code": "44",
    "postal_code": "54420"
  },
  {
    "name": "Saulxures-lès-Vannes",
    "code": "54496",
    "epci_code": "245400510",
    "departement_code": "54",
    "region_code": "44",
    "postal_code": "54170"
  },
  {
    "name": "Saxon-Sion",
    "code": "54497",
    "epci_code": "200035772",
    "departement_code": "54",
    "region_code": "44",
    "postal_code": "54330"
  },
  {
    "name": "Seichamps",
    "code": "54498",
    "epci_code": "245400676",
    "departement_code": "54",
    "region_code": "44",
    "postal_code": "54280"
  },
  {
    "name": "Seicheprey",
    "code": "54499",
    "epci_code": "200070738",
    "departement_code": "54",
    "region_code": "44",
    "postal_code": "54470"
  },
  {
    "name": "Selaincourt",
    "code": "54500",
    "epci_code": "245400510",
    "departement_code": "54",
    "region_code": "44",
    "postal_code": "54170"
  },
  {
    "name": "Seranville",
    "code": "54501",
    "epci_code": "200067643",
    "departement_code": "54",
    "region_code": "44",
    "postal_code": "54830"
  },
  {
    "name": "Serres",
    "code": "54502",
    "epci_code": "245400759",
    "departement_code": "54",
    "region_code": "44",
    "postal_code": "54370"
  },
  {
    "name": "Serrouville",
    "code": "54504",
    "epci_code": "200070290",
    "departement_code": "54",
    "region_code": "44",
    "postal_code": "54560"
  },
  {
    "name": "Sexey-aux-Forges",
    "code": "54505",
    "epci_code": "245400171",
    "departement_code": "54",
    "region_code": "44",
    "postal_code": "54550"
  },
  {
    "name": "Sionviller",
    "code": "54507",
    "epci_code": "245400759",
    "departement_code": "54",
    "region_code": "44",
    "postal_code": "54300"
  },
  {
    "name": "Sivry",
    "code": "54508",
    "epci_code": "200070589",
    "departement_code": "54",
    "region_code": "44",
    "postal_code": "54610"
  },
  {
    "name": "Sommerviller",
    "code": "54509",
    "epci_code": "245400189",
    "departement_code": "54",
    "region_code": "44",
    "postal_code": "54110"
  },
  {
    "name": "Sornéville",
    "code": "54510",
    "epci_code": "200070589",
    "departement_code": "54",
    "region_code": "44",
    "postal_code": "54280"
  },
  {
    "name": "Sponville",
    "code": "54511",
    "epci_code": "200070738",
    "departement_code": "54",
    "region_code": "44",
    "postal_code": "54800"
  },
  {
    "name": "Tanconville",
    "code": "54512",
    "epci_code": "200069433",
    "departement_code": "54",
    "region_code": "44",
    "postal_code": "54480"
  },
  {
    "name": "Tantonville",
    "code": "54513",
    "epci_code": "200035772",
    "departement_code": "54",
    "region_code": "44",
    "postal_code": "54116"
  },
  {
    "name": "Tellancourt",
    "code": "54514",
    "epci_code": "200043693",
    "departement_code": "54",
    "region_code": "44",
    "postal_code": "54260"
  },
  {
    "name": "Thélod",
    "code": "54515",
    "epci_code": "245400171",
    "departement_code": "54",
    "region_code": "44",
    "postal_code": "54330"
  },
  {
    "name": "They-sous-Vaudemont",
    "code": "54516",
    "epci_code": "200035772",
    "departement_code": "54",
    "region_code": "44",
    "postal_code": "54930"
  },
  {
    "name": "Thézey-Saint-Martin",
    "code": "54517",
    "epci_code": "200070589",
    "departement_code": "54",
    "region_code": "44",
    "postal_code": "54610"
  },
  {
    "name": "Thiaucourt-Regniéville",
    "code": "54518",
    "epci_code": "200070738",
    "departement_code": "54",
    "region_code": "44",
    "postal_code": "54470"
  },
  {
    "name": "Thiaville-sur-Meurthe",
    "code": "54519",
    "epci_code": "200070324",
    "departement_code": "54",
    "region_code": "44",
    "postal_code": "54120"
  },
  {
    "name": "Thiébauménil",
    "code": "54520",
    "epci_code": "200070324",
    "departement_code": "54",
    "region_code": "44",
    "postal_code": "54300"
  },
  {
    "name": "Thil",
    "code": "54521",
    "epci_code": "245701404",
    "departement_code": "54",
    "region_code": "44",
    "postal_code": "54880"
  },
  {
    "name": "Thorey-Lyautey",
    "code": "54522",
    "epci_code": "200035772",
    "departement_code": "54",
    "region_code": "44",
    "postal_code": "54115"
  },
  {
    "name": "Thuilley-aux-Groseilles",
    "code": "54523",
    "epci_code": "245400510",
    "departement_code": "54",
    "region_code": "44",
    "postal_code": "54170"
  },
  {
    "name": "Thumeréville",
    "code": "54524",
    "epci_code": "200070845",
    "departement_code": "54",
    "region_code": "44",
    "postal_code": "54800"
  },
  {
    "name": "Tiercelet",
    "code": "54525",
    "epci_code": "245400262",
    "departement_code": "54",
    "region_code": "44",
    "postal_code": "54190"
  },
  {
    "name": "Tomblaine",
    "code": "54526",
    "epci_code": "245400676",
    "departement_code": "54",
    "region_code": "44",
    "postal_code": "54510"
  },
  {
    "name": "Tonnoy",
    "code": "54527",
    "epci_code": "245400189",
    "departement_code": "54",
    "region_code": "44",
    "postal_code": "54210"
  },
  {
    "name": "Toul",
    "code": "54528",
    "epci_code": "200070563",
    "departement_code": "54",
    "region_code": "44",
    "postal_code": "54200"
  },
  {
    "name": "Tramont-Émy",
    "code": "54529",
    "epci_code": "245400510",
    "departement_code": "54",
    "region_code": "44",
    "postal_code": "54115"
  },
  {
    "name": "Tramont-Lassus",
    "code": "54530",
    "epci_code": "245400510",
    "departement_code": "54",
    "region_code": "44",
    "postal_code": "54115"
  },
  {
    "name": "Tramont-Saint-André",
    "code": "54531",
    "epci_code": "245400510",
    "departement_code": "54",
    "region_code": "44",
    "postal_code": "54115"
  },
  {
    "name": "Tremblecourt",
    "code": "54532",
    "epci_code": "200070563",
    "departement_code": "54",
    "region_code": "44",
    "postal_code": "54385"
  },
  {
    "name": "Trieux",
    "code": "54533",
    "epci_code": "200070290",
    "departement_code": "54",
    "region_code": "44",
    "postal_code": "54750"
  },
  {
    "name": "Trondes",
    "code": "54534",
    "epci_code": "200070563",
    "departement_code": "54",
    "region_code": "44",
    "postal_code": "54570"
  },
  {
    "name": "Tronville",
    "code": "54535",
    "epci_code": "200070738",
    "departement_code": "54",
    "region_code": "44",
    "postal_code": "54800"
  },
  {
    "name": "Tucquegnieux",
    "code": "54536",
    "epci_code": "200070290",
    "departement_code": "54",
    "region_code": "44",
    "postal_code": "54640"
  },
  {
    "name": "Ugny",
    "code": "54537",
    "epci_code": "245400262",
    "departement_code": "54",
    "region_code": "44",
    "postal_code": "54870"
  },
  {
    "name": "Uruffe",
    "code": "54538",
    "epci_code": "245400510",
    "departement_code": "54",
    "region_code": "44",
    "postal_code": "54112"
  },
  {
    "name": "Vacqueville",
    "code": "54539",
    "epci_code": "200070324",
    "departement_code": "54",
    "region_code": "44",
    "postal_code": "54540"
  },
  {
    "name": "Val-et-Châtillon",
    "code": "54540",
    "epci_code": "200069433",
    "departement_code": "54",
    "region_code": "44",
    "postal_code": "54480"
  },
  {
    "name": "Valhey",
    "code": "54541",
    "epci_code": "245400759",
    "departement_code": "54",
    "region_code": "44",
    "postal_code": "54370"
  },
  {
    "name": "Valleroy",
    "code": "54542",
    "epci_code": "200070845",
    "departement_code": "54",
    "region_code": "44",
    "postal_code": "54910"
  },
  {
    "name": "Vallois",
    "code": "54543",
    "epci_code": "200070324",
    "departement_code": "54",
    "region_code": "44",
    "postal_code": "54830"
  },
  {
    "name": "Vandelainville",
    "code": "54544",
    "epci_code": "200070738",
    "departement_code": "54",
    "region_code": "44",
    "postal_code": "54890"
  },
  {
    "name": "Vandeléville",
    "code": "54545",
    "epci_code": "245400510",
    "departement_code": "54",
    "region_code": "44",
    "postal_code": "54115"
  },
  {
    "name": "Vandières",
    "code": "54546",
    "epci_code": "200041515",
    "departement_code": "54",
    "region_code": "44",
    "postal_code": "54121"
  },
  {
    "name": "Vandœuvre-lès-Nancy",
    "code": "54547",
    "epci_code": "245400676",
    "departement_code": "54",
    "region_code": "44",
    "postal_code": "54500"
  },
  {
    "name": "Vannes-le-Châtel",
    "code": "54548",
    "epci_code": "245400510",
    "departement_code": "54",
    "region_code": "44",
    "postal_code": "54112"
  },
  {
    "name": "Varangéville",
    "code": "54549",
    "epci_code": "245400189",
    "departement_code": "54",
    "region_code": "44",
    "postal_code": "54110"
  },
  {
    "name": "Vathiménil",
    "code": "54550",
    "epci_code": "200070324",
    "departement_code": "54",
    "region_code": "44",
    "postal_code": "54122"
  },
  {
    "name": "Vaucourt",
    "code": "54551",
    "epci_code": "200069433",
    "departement_code": "54",
    "region_code": "44",
    "postal_code": "54370"
  },
  {
    "name": "Vaudémont",
    "code": "54552",
    "epci_code": "200035772",
    "departement_code": "54",
    "region_code": "44",
    "postal_code": "54330"
  },
  {
    "name": "Vaudeville",
    "code": "54553",
    "epci_code": "200035772",
    "departement_code": "54",
    "region_code": "44",
    "postal_code": "54740"
  },
  {
    "name": "Vaudigny",
    "code": "54554",
    "epci_code": "200035772",
    "departement_code": "54",
    "region_code": "44",
    "postal_code": "54740"
  },
  {
    "name": "Vaxainville",
    "code": "54555",
    "epci_code": "200070324",
    "departement_code": "54",
    "region_code": "44",
    "postal_code": "54120"
  },
  {
    "name": "Vého",
    "code": "54556",
    "epci_code": "200069433",
    "departement_code": "54",
    "region_code": "44",
    "postal_code": "54450"
  },
  {
    "name": "Bois-de-Haye",
    "code": "54557",
    "epci_code": "200070563",
    "departement_code": "54",
    "region_code": "44",
    "postal_code": "54840"
  },
  {
    "name": "Velaine-sous-Amance",
    "code": "54558",
    "epci_code": "200070589",
    "departement_code": "54",
    "region_code": "44",
    "postal_code": "54280"
  },
  {
    "name": "Velle-sur-Moselle",
    "code": "54559",
    "epci_code": "200067643",
    "departement_code": "54",
    "region_code": "44",
    "postal_code": "54290"
  },
  {
    "name": "Veney",
    "code": "54560",
    "epci_code": "200070324",
    "departement_code": "54",
    "region_code": "44",
    "postal_code": "54540"
  },
  {
    "name": "Vennezey",
    "code": "54561",
    "epci_code": "200067643",
    "departement_code": "54",
    "region_code": "44",
    "postal_code": "54830"
  },
  {
    "name": "Verdenal",
    "code": "54562",
    "epci_code": "200069433",
    "departement_code": "54",
    "region_code": "44",
    "postal_code": "54450"
  },
  {
    "name": "Vézelise",
    "code": "54563",
    "epci_code": "200035772",
    "departement_code": "54",
    "region_code": "44",
    "postal_code": "54330"
  },
  {
    "name": "Viéville-en-Haye",
    "code": "54564",
    "epci_code": "200070738",
    "departement_code": "54",
    "region_code": "44",
    "postal_code": "54470"
  },
  {
    "name": "Vigneulles",
    "code": "54565",
    "epci_code": "200067643",
    "departement_code": "54",
    "region_code": "44",
    "postal_code": "54360"
  },
  {
    "name": "Vilcey-sur-Trey",
    "code": "54566",
    "epci_code": "200070738",
    "departement_code": "54",
    "region_code": "44",
    "postal_code": "54700"
  },
  {
    "name": "Villacourt",
    "code": "54567",
    "epci_code": "200067643",
    "departement_code": "54",
    "region_code": "44",
    "postal_code": "54290"
  },
  {
    "name": "Ville-au-Montois",
    "code": "54568",
    "epci_code": "200043693",
    "departement_code": "54",
    "region_code": "44",
    "postal_code": "54620"
  },
  {
    "name": "Ville-au-Val",
    "code": "54569",
    "epci_code": "200041515",
    "departement_code": "54",
    "region_code": "44",
    "postal_code": "54380"
  },
  {
    "name": "Villecey-sur-Mad",
    "code": "54570",
    "epci_code": "200070738",
    "departement_code": "54",
    "region_code": "44",
    "postal_code": "54890"
  },
  {
    "name": "Ville-en-Vermois",
    "code": "54571",
    "epci_code": "245400189",
    "departement_code": "54",
    "region_code": "44",
    "postal_code": "54210"
  },
  {
    "name": "Ville-Houdlémont",
    "code": "54572",
    "epci_code": "200043693",
    "departement_code": "54",
    "region_code": "44",
    "postal_code": "54730"
  },
  {
    "name": "Villers-en-Haye",
    "code": "54573",
    "epci_code": "200041515",
    "departement_code": "54",
    "region_code": "44",
    "postal_code": "54380"
  },
  {
    "name": "Villers-la-Chèvre",
    "code": "54574",
    "epci_code": "200043693",
    "departement_code": "54",
    "region_code": "44",
    "postal_code": "54870"
  },
  {
    "name": "Villers-la-Montagne",
    "code": "54575",
    "epci_code": "245400262",
    "departement_code": "54",
    "region_code": "44",
    "postal_code": "54920"
  },
  {
    "name": "Villers-le-Rond",
    "code": "54576",
    "epci_code": "200043693",
    "departement_code": "54",
    "region_code": "44",
    "postal_code": "54260"
  },
  {
    "name": "Villers-lès-Moivrons",
    "code": "54577",
    "epci_code": "200070589",
    "departement_code": "54",
    "region_code": "44",
    "postal_code": "54760"
  },
  {
    "name": "Villers-lès-Nancy",
    "code": "54578",
    "epci_code": "245400676",
    "departement_code": "54",
    "region_code": "44",
    "postal_code": "54600"
  },
  {
    "name": "Villers-sous-Prény",
    "code": "54579",
    "epci_code": "200041515",
    "departement_code": "54",
    "region_code": "44",
    "postal_code": "54700"
  },
  {
    "name": "Villerupt",
    "code": "54580",
    "epci_code": "245701404",
    "departement_code": "54",
    "region_code": "44",
    "postal_code": "54190"
  },
  {
    "name": "Ville-sur-Yron",
    "code": "54581",
    "epci_code": "200070845",
    "departement_code": "54",
    "region_code": "44",
    "postal_code": "54800"
  },
  {
    "name": "Villette",
    "code": "54582",
    "epci_code": "200043693",
    "departement_code": "54",
    "region_code": "44",
    "postal_code": "54260"
  },
  {
    "name": "Villey-le-Sec",
    "code": "54583",
    "epci_code": "200070563",
    "departement_code": "54",
    "region_code": "44",
    "postal_code": "54840"
  },
  {
    "name": "Villey-Saint-Étienne",
    "code": "54584",
    "epci_code": "200070563",
    "departement_code": "54",
    "region_code": "44",
    "postal_code": "54200"
  },
  {
    "name": "Virecourt",
    "code": "54585",
    "epci_code": "200067643",
    "departement_code": "54",
    "region_code": "44",
    "postal_code": "54290"
  },
  {
    "name": "Viterne",
    "code": "54586",
    "epci_code": "245400171",
    "departement_code": "54",
    "region_code": "44",
    "postal_code": "54123"
  },
  {
    "name": "Vitrey",
    "code": "54587",
    "epci_code": "200035772",
    "departement_code": "54",
    "region_code": "44",
    "postal_code": "54330"
  },
  {
    "name": "Vitrimont",
    "code": "54588",
    "epci_code": "200070324",
    "departement_code": "54",
    "region_code": "44",
    "postal_code": "54300"
  },
  {
    "name": "Vittonville",
    "code": "54589",
    "epci_code": "200041515",
    "departement_code": "54",
    "region_code": "44",
    "postal_code": "54700"
  },
  {
    "name": "Viviers-sur-Chiers",
    "code": "54590",
    "epci_code": "200043693",
    "departement_code": "54",
    "region_code": "44",
    "postal_code": "54260"
  },
  {
    "name": "Voinémont",
    "code": "54591",
    "epci_code": "200035772",
    "departement_code": "54",
    "region_code": "44",
    "postal_code": "54134"
  },
  {
    "name": "Vroncourt",
    "code": "54592",
    "epci_code": "200035772",
    "departement_code": "54",
    "region_code": "44",
    "postal_code": "54330"
  },
  {
    "name": "Waville",
    "code": "54593",
    "epci_code": "200070738",
    "departement_code": "54",
    "region_code": "44",
    "postal_code": "54890"
  },
  {
    "name": "Xammes",
    "code": "54594",
    "epci_code": "200070738",
    "departement_code": "54",
    "region_code": "44",
    "postal_code": "54470"
  },
  {
    "name": "Xermaménil",
    "code": "54595",
    "epci_code": "200070324",
    "departement_code": "54",
    "region_code": "44",
    "postal_code": "54300"
  },
  {
    "name": "Xeuilley",
    "code": "54596",
    "epci_code": "245400171",
    "departement_code": "54",
    "region_code": "44",
    "postal_code": "54990"
  },
  {
    "name": "Xirocourt",
    "code": "54597",
    "epci_code": "200035772",
    "departement_code": "54",
    "region_code": "44",
    "postal_code": "54740"
  },
  {
    "name": "Xivry-Circourt",
    "code": "54598",
    "epci_code": "200070290",
    "departement_code": "54",
    "region_code": "44",
    "postal_code": "54490"
  },
  {
    "name": "Xonville",
    "code": "54599",
    "epci_code": "200070738",
    "departement_code": "54",
    "region_code": "44",
    "postal_code": "54800"
  },
  {
    "name": "Xousse",
    "code": "54600",
    "epci_code": "200069433",
    "departement_code": "54",
    "region_code": "44",
    "postal_code": "54370"
  },
  {
    "name": "Xures",
    "code": "54601",
    "epci_code": "245400759",
    "departement_code": "54",
    "region_code": "44",
    "postal_code": "54370"
  },
  {
    "name": "Han-devant-Pierrepont",
    "code": "54602",
    "epci_code": "200043693",
    "departement_code": "54",
    "region_code": "44",
    "postal_code": "54620"
  }
]