[
  {
    "name": "Acigné",
    "code": "35001",
    "epci_code": "243500139",
    "departement_code": "35",
    "region_code": "53",
    "postal_code": "35690"
  },
  {
    "name": "Amanlis",
    "code": "35002",
    "epci_code": "243500634",
    "departement_code": "35",
    "region_code": "53",
    "postal_code": "35150"
  },
  {
    "name": "Andouillé-Neuville",
    "code": "35003",
    "epci_code": "243500667",
    "departement_code": "35",
    "region_code": "53",
    "postal_code": "35250"
  },
  {
    "name": "Val-Couesnon",
    "code": "35004",
    "epci_code": "200070688",
    "departement_code": "35",
    "region_code": "53",
    "postal_code": "35460"
  },
  {
    "name": "Val-Couesnon",
    "code": "35004",
    "epci_code": "200070688",
    "departement_code": "35",
    "region_code": "53",
    "postal_code": "35560"
  },
  {
    "name": "Arbrissel",
    "code": "35005",
    "epci_code": "243500634",
    "departement_code": "35",
    "region_code": "53",
    "postal_code": "35130"
  },
  {
    "name": "Argentré-du-Plessis",
    "code": "35006",
    "epci_code": "200039022",
    "departement_code": "35",
    "region_code": "53",
    "postal_code": "35370"
  },
  {
    "name": "Aubigné",
    "code": "35007",
    "epci_code": "243500667",
    "departement_code": "35",
    "region_code": "53",
    "postal_code": "35250"
  },
  {
    "name": "Availles-sur-Seiche",
    "code": "35008",
    "epci_code": "200039022",
    "departement_code": "35",
    "region_code": "53",
    "postal_code": "35130"
  },
  {
    "name": "Baguer-Morvan",
    "code": "35009",
    "epci_code": "200070670",
    "departement_code": "35",
    "region_code": "53",
    "postal_code": "35120"
  },
  {
    "name": "Baguer-Pican",
    "code": "35010",
    "epci_code": "200070670",
    "departement_code": "35",
    "region_code": "53",
    "postal_code": "35120"
  },
  {
    "name": "Bain-de-Bretagne",
    "code": "35012",
    "epci_code": "200070662",
    "departement_code": "35",
    "region_code": "53",
    "postal_code": "35470"
  },
  {
    "name": "Bains-sur-Oust",
    "code": "35013",
    "epci_code": "243500741",
    "departement_code": "35",
    "region_code": "53",
    "postal_code": "35600"
  },
  {
    "name": "Bais",
    "code": "35014",
    "epci_code": "200039022",
    "departement_code": "35",
    "region_code": "53",
    "postal_code": "35680"
  },
  {
    "name": "Balazé",
    "code": "35015",
    "epci_code": "200039022",
    "departement_code": "35",
    "region_code": "53",
    "postal_code": "35500"
  },
  {
    "name": "Baulon",
    "code": "35016",
    "epci_code": "200043990",
    "departement_code": "35",
    "region_code": "53",
    "postal_code": "35580"
  },
  {
    "name": "La Baussaine",
    "code": "35017",
    "epci_code": "243500733",
    "departement_code": "35",
    "region_code": "53",
    "postal_code": "35190"
  },
  {
    "name": "La Bazouge-du-Désert",
    "code": "35018",
    "epci_code": "200072452",
    "departement_code": "35",
    "region_code": "53",
    "postal_code": "35420"
  },
  {
    "name": "Bazouges-la-Pérouse",
    "code": "35019",
    "epci_code": "200070688",
    "departement_code": "35",
    "region_code": "53",
    "postal_code": "35560"
  },
  {
    "name": "Beaucé",
    "code": "35021",
    "epci_code": "200072452",
    "departement_code": "35",
    "region_code": "53",
    "postal_code": "35133"
  },
  {
    "name": "Bécherel",
    "code": "35022",
    "epci_code": "243500139",
    "departement_code": "35",
    "region_code": "53",
    "postal_code": "35190"
  },
  {
    "name": "Bédée",
    "code": "35023",
    "epci_code": "243500550",
    "departement_code": "35",
    "region_code": "53",
    "postal_code": "35137"
  },
  {
    "name": "Betton",
    "code": "35024",
    "epci_code": "243500139",
    "departement_code": "35",
    "region_code": "53",
    "postal_code": "35830"
  },
  {
    "name": "Billé",
    "code": "35025",
    "epci_code": "200072452",
    "departement_code": "35",
    "region_code": "53",
    "postal_code": "35133"
  },
  {
    "name": "Bléruais",
    "code": "35026",
    "epci_code": "200038990",
    "departement_code": "35",
    "region_code": "53",
    "postal_code": "35750"
  },
  {
    "name": "Boisgervilly",
    "code": "35027",
    "epci_code": "200038990",
    "departement_code": "35",
    "region_code": "53",
    "postal_code": "35360"
  },
  {
    "name": "Boistrudan",
    "code": "35028",
    "epci_code": "243500634",
    "departement_code": "35",
    "region_code": "53",
    "postal_code": "35150"
  },
  {
    "name": "Bonnemain",
    "code": "35029",
    "epci_code": "243500733",
    "departement_code": "35",
    "region_code": "53",
    "postal_code": "35270"
  },
  {
    "name": "La Bosse-de-Bretagne",
    "code": "35030",
    "epci_code": "200070662",
    "departement_code": "35",
    "region_code": "53",
    "postal_code": "35320"
  },
  {
    "name": "La Bouëxière",
    "code": "35031",
    "epci_code": "243500774",
    "departement_code": "35",
    "region_code": "53",
    "postal_code": "35340"
  },
  {
    "name": "Bourgbarré",
    "code": "35032",
    "epci_code": "243500139",
    "departement_code": "35",
    "region_code": "53",
    "postal_code": "35230"
  },
  {
    "name": "Bourg-des-Comptes",
    "code": "35033",
    "epci_code": "200043990",
    "departement_code": "35",
    "region_code": "53",
    "postal_code": "35890"
  },
  {
    "name": "La Boussac",
    "code": "35034",
    "epci_code": "200070670",
    "departement_code": "35",
    "region_code": "53",
    "postal_code": "35120"
  },
  {
    "name": "Bovel",
    "code": "35035",
    "epci_code": "200043990",
    "departement_code": "35",
    "region_code": "53",
    "postal_code": "35330"
  },
  {
    "name": "Bréal-sous-Montfort",
    "code": "35037",
    "epci_code": "243500618",
    "departement_code": "35",
    "region_code": "53",
    "postal_code": "35310"
  },
  {
    "name": "Bréal-sous-Vitré",
    "code": "35038",
    "epci_code": "200039022",
    "departement_code": "35",
    "region_code": "53",
    "postal_code": "35370"
  },
  {
    "name": "Brécé",
    "code": "35039",
    "epci_code": "243500139",
    "departement_code": "35",
    "region_code": "53",
    "postal_code": "35530"
  },
  {
    "name": "Breteil",
    "code": "35040",
    "epci_code": "243500550",
    "departement_code": "35",
    "region_code": "53",
    "postal_code": "35160"
  },
  {
    "name": "Brie",
    "code": "35041",
    "epci_code": "243500634",
    "departement_code": "35",
    "region_code": "53",
    "postal_code": "35150"
  },
  {
    "name": "Brielles",
    "code": "35042",
    "epci_code": "200039022",
    "departement_code": "35",
    "region_code": "53",
    "postal_code": "35370"
  },
  {
    "name": "Broualan",
    "code": "35044",
    "epci_code": "200070670",
    "departement_code": "35",
    "region_code": "53",
    "postal_code": "35120"
  },
  {
    "name": "Bruc-sur-Aff",
    "code": "35045",
    "epci_code": "243500741",
    "departement_code": "35",
    "region_code": "53",
    "postal_code": "35550"
  },
  {
    "name": "Les Brulais",
    "code": "35046",
    "epci_code": "200043990",
    "departement_code": "35",
    "region_code": "53",
    "postal_code": "35330"
  },
  {
    "name": "Bruz",
    "code": "35047",
    "epci_code": "243500139",
    "departement_code": "35",
    "region_code": "53",
    "postal_code": "35170"
  },
  {
    "name": "Cancale",
    "code": "35049",
    "epci_code": "243500782",
    "departement_code": "35",
    "region_code": "53",
    "postal_code": "35260"
  },
  {
    "name": "Cardroc",
    "code": "35050",
    "epci_code": "243500733",
    "departement_code": "35",
    "region_code": "53",
    "postal_code": "35190"
  },
  {
    "name": "Cesson-Sévigné",
    "code": "35051",
    "epci_code": "243500139",
    "departement_code": "35",
    "region_code": "53",
    "postal_code": "35510"
  },
  {
    "name": "Champeaux",
    "code": "35052",
    "epci_code": "200039022",
    "departement_code": "35",
    "region_code": "53",
    "postal_code": "35500"
  },
  {
    "name": "Chanteloup",
    "code": "35054",
    "epci_code": "200070662",
    "departement_code": "35",
    "region_code": "53",
    "postal_code": "35150"
  },
  {
    "name": "Chantepie",
    "code": "35055",
    "epci_code": "243500139",
    "departement_code": "35",
    "region_code": "53",
    "postal_code": "35135"
  },
  {
    "name": "La Chapelle-aux-Filtzméens",
    "code": "35056",
    "epci_code": "243500733",
    "departement_code": "35",
    "region_code": "53",
    "postal_code": "35190"
  },
  {
    "name": "La Chapelle-Bouëxic",
    "code": "35057",
    "epci_code": "200043990",
    "departement_code": "35",
    "region_code": "53",
    "postal_code": "35330"
  },
  {
    "name": "La Chapelle-Chaussée",
    "code": "35058",
    "epci_code": "243500139",
    "departement_code": "35",
    "region_code": "53",
    "postal_code": "35630"
  },
  {
    "name": "La Chapelle-des-Fougeretz",
    "code": "35059",
    "epci_code": "243500139",
    "departement_code": "35",
    "region_code": "53",
    "postal_code": "35520"
  },
  {
    "name": "La Chapelle du Lou du Lac",
    "code": "35060",
    "epci_code": "200038990",
    "departement_code": "35",
    "region_code": "53",
    "postal_code": "35360"
  },
  {
    "name": "La Chapelle-Erbrée",
    "code": "35061",
    "epci_code": "200039022",
    "departement_code": "35",
    "region_code": "53",
    "postal_code": "35500"
  },
  {
    "name": "La Chapelle-Fleurigné",
    "code": "35062",
    "epci_code": "200072452",
    "departement_code": "35",
    "region_code": "53",
    "postal_code": "35133"
  },
  {
    "name": "La Chapelle-Saint-Aubert",
    "code": "35063",
    "epci_code": "200072452",
    "departement_code": "35",
    "region_code": "53",
    "postal_code": "35140"
  },
  {
    "name": "La Chapelle-de-Brain",
    "code": "35064",
    "epci_code": "243500741",
    "departement_code": "35",
    "region_code": "53",
    "postal_code": "35660"
  },
  {
    "name": "La Chapelle-Thouarault",
    "code": "35065",
    "epci_code": "243500139",
    "departement_code": "35",
    "region_code": "53",
    "postal_code": "35590"
  },
  {
    "name": "Chartres-de-Bretagne",
    "code": "35066",
    "epci_code": "243500139",
    "departement_code": "35",
    "region_code": "53",
    "postal_code": "35131"
  },
  {
    "name": "Chasné-sur-Illet",
    "code": "35067",
    "epci_code": "243500774",
    "departement_code": "35",
    "region_code": "53",
    "postal_code": "35250"
  },
  {
    "name": "Châteaubourg",
    "code": "35068",
    "epci_code": "200039022",
    "departement_code": "35",
    "region_code": "53",
    "postal_code": "35220"
  },
  {
    "name": "Châteaugiron",
    "code": "35069",
    "epci_code": "243500659",
    "departement_code": "35",
    "region_code": "53",
    "postal_code": "35410"
  },
  {
    "name": "Châteauneuf-d’Ille-et-Vilaine",
    "code": "35070",
    "epci_code": "243500782",
    "departement_code": "35",
    "region_code": "53",
    "postal_code": "35430"
  },
  {
    "name": "Le Châtellier",
    "code": "35071",
    "epci_code": "200070688",
    "departement_code": "35",
    "region_code": "53",
    "postal_code": "35133"
  },
  {
    "name": "Châtillon-en-Vendelais",
    "code": "35072",
    "epci_code": "200039022",
    "departement_code": "35",
    "region_code": "53",
    "postal_code": "35210"
  },
  {
    "name": "Chauvigné",
    "code": "35075",
    "epci_code": "200070688",
    "departement_code": "35",
    "region_code": "53",
    "postal_code": "35490"
  },
  {
    "name": "Chavagne",
    "code": "35076",
    "epci_code": "243500139",
    "departement_code": "35",
    "region_code": "53",
    "postal_code": "35310"
  },
  {
    "name": "Chelun",
    "code": "35077",
    "epci_code": "243500634",
    "departement_code": "35",
    "region_code": "53",
    "postal_code": "35640"
  },
  {
    "name": "Cherrueix",
    "code": "35078",
    "epci_code": "200070670",
    "departement_code": "35",
    "region_code": "53",
    "postal_code": "35120"
  },
  {
    "name": "Chevaigné",
    "code": "35079",
    "epci_code": "243500139",
    "departement_code": "35",
    "region_code": "53",
    "postal_code": "35250"
  },
  {
    "name": "Cintré",
    "code": "35080",
    "epci_code": "243500139",
    "departement_code": "35",
    "region_code": "53",
    "postal_code": "35310"
  },
  {
    "name": "Clayes",
    "code": "35081",
    "epci_code": "243500139",
    "departement_code": "35",
    "region_code": "53",
    "postal_code": "35590"
  },
  {
    "name": "Coësmes",
    "code": "35082",
    "epci_code": "243500634",
    "departement_code": "35",
    "region_code": "53",
    "postal_code": "35134"
  },
  {
    "name": "Comblessac",
    "code": "35084",
    "epci_code": "200043990",
    "departement_code": "35",
    "region_code": "53",
    "postal_code": "35330"
  },
  {
    "name": "Combourg",
    "code": "35085",
    "epci_code": "243500733",
    "departement_code": "35",
    "region_code": "53",
    "postal_code": "35270"
  },
  {
    "name": "Combourtillé",
    "code": "35086",
    "epci_code": "200072452",
    "departement_code": "35",
    "region_code": "53",
    "postal_code": "35210"
  },
  {
    "name": "Cornillé",
    "code": "35087",
    "epci_code": "200039022",
    "departement_code": "35",
    "region_code": "53",
    "postal_code": "35500"
  },
  {
    "name": "Corps-Nuds",
    "code": "35088",
    "epci_code": "243500139",
    "departement_code": "35",
    "region_code": "53",
    "postal_code": "35150"
  },
  {
    "name": "La Couyère",
    "code": "35089",
    "epci_code": "200070662",
    "departement_code": "35",
    "region_code": "53",
    "postal_code": "35320"
  },
  {
    "name": "Crevin",
    "code": "35090",
    "epci_code": "200070662",
    "departement_code": "35",
    "region_code": "53",
    "postal_code": "35320"
  },
  {
    "name": "Le Crouais",
    "code": "35091",
    "epci_code": "200038990",
    "departement_code": "35",
    "region_code": "53",
    "postal_code": "35290"
  },
  {
    "name": "Cuguen",
    "code": "35092",
    "epci_code": "243500733",
    "departement_code": "35",
    "region_code": "53",
    "postal_code": "35270"
  },
  {
    "name": "Dinard",
    "code": "35093",
    "epci_code": "243500725",
    "departement_code": "35",
    "region_code": "53",
    "postal_code": "35800"
  },
  {
    "name": "Dingé",
    "code": "35094",
    "epci_code": "243500733",
    "departement_code": "35",
    "region_code": "53",
    "postal_code": "35440"
  },
  {
    "name": "Dol-de-Bretagne",
    "code": "35095",
    "epci_code": "200070670",
    "departement_code": "35",
    "region_code": "53",
    "postal_code": "35120"
  },
  {
    "name": "Domagné",
    "code": "35096",
    "epci_code": "200039022",
    "departement_code": "35",
    "region_code": "53",
    "postal_code": "35113"
  },
  {
    "name": "Domalain",
    "code": "35097",
    "epci_code": "200039022",
    "departement_code": "35",
    "region_code": "53",
    "postal_code": "35680"
  },
  {
    "name": "La Dominelais",
    "code": "35098",
    "epci_code": "200070662",
    "departement_code": "35",
    "region_code": "53",
    "postal_code": "35390"
  },
  {
    "name": "Domloup",
    "code": "35099",
    "epci_code": "243500659",
    "departement_code": "35",
    "region_code": "53",
    "postal_code": "35410"
  },
  {
    "name": "Dourdain",
    "code": "35101",
    "epci_code": "243500774",
    "departement_code": "35",
    "region_code": "53",
    "postal_code": "35450"
  },
  {
    "name": "Drouges",
    "code": "35102",
    "epci_code": "200039022",
    "departement_code": "35",
    "region_code": "53",
    "postal_code": "35130"
  },
  {
    "name": "Eancé",
    "code": "35103",
    "epci_code": "243500634",
    "departement_code": "35",
    "region_code": "53",
    "postal_code": "35640"
  },
  {
    "name": "Epiniac",
    "code": "35104",
    "epci_code": "200070670",
    "departement_code": "35",
    "region_code": "53",
    "postal_code": "35120"
  },
  {
    "name": "Erbrée",
    "code": "35105",
    "epci_code": "200039022",
    "departement_code": "35",
    "region_code": "53",
    "postal_code": "35500"
  },
  {
    "name": "Ercé-en-Lamée",
    "code": "35106",
    "epci_code": "200070662",
    "departement_code": "35",
    "region_code": "53",
    "postal_code": "35620"
  },
  {
    "name": "Ercé-près-Liffré",
    "code": "35107",
    "epci_code": "243500774",
    "departement_code": "35",
    "region_code": "53",
    "postal_code": "35340"
  },
  {
    "name": "Essé",
    "code": "35108",
    "epci_code": "243500634",
    "departement_code": "35",
    "region_code": "53",
    "postal_code": "35150"
  },
  {
    "name": "Étrelles",
    "code": "35109",
    "epci_code": "200039022",
    "departement_code": "35",
    "region_code": "53",
    "postal_code": "35370"
  },
  {
    "name": "Feins",
    "code": "35110",
    "epci_code": "243500667",
    "departement_code": "35",
    "region_code": "53",
    "postal_code": "35440"
  },
  {
    "name": "Le Ferré",
    "code": "35111",
    "epci_code": "200072452",
    "departement_code": "35",
    "region_code": "53",
    "postal_code": "35420"
  },
  {
    "name": "Forges-la-Forêt",
    "code": "35114",
    "epci_code": "243500634",
    "departement_code": "35",
    "region_code": "53",
    "postal_code": "35640"
  },
  {
    "name": "Fougères",
    "code": "35115",
    "epci_code": "200072452",
    "departement_code": "35",
    "region_code": "53",
    "postal_code": "35300"
  },
  {
    "name": "La Fresnais",
    "code": "35116",
    "epci_code": "243500782",
    "departement_code": "35",
    "region_code": "53",
    "postal_code": "35111"
  },
  {
    "name": "Gaël",
    "code": "35117",
    "epci_code": "200038990",
    "departement_code": "35",
    "region_code": "53",
    "postal_code": "35290"
  },
  {
    "name": "Gahard",
    "code": "35118",
    "epci_code": "243500667",
    "departement_code": "35",
    "region_code": "53",
    "postal_code": "35490"
  },
  {
    "name": "Gennes-sur-Seiche",
    "code": "35119",
    "epci_code": "200039022",
    "departement_code": "35",
    "region_code": "53",
    "postal_code": "35370"
  },
  {
    "name": "Gévezé",
    "code": "35120",
    "epci_code": "243500139",
    "departement_code": "35",
    "region_code": "53",
    "postal_code": "35850"
  },
  {
    "name": "Gosné",
    "code": "35121",
    "epci_code": "243500774",
    "departement_code": "35",
    "region_code": "53",
    "postal_code": "35140"
  },
  {
    "name": "La Gouesnière",
    "code": "35122",
    "epci_code": "243500782",
    "departement_code": "35",
    "region_code": "53",
    "postal_code": "35350"
  },
  {
    "name": "Goven",
    "code": "35123",
    "epci_code": "200043990",
    "departement_code": "35",
    "region_code": "53",
    "postal_code": "35580"
  },
  {
    "name": "Grand-Fougeray",
    "code": "35124",
    "epci_code": "200070662",
    "departement_code": "35",
    "region_code": "53",
    "postal_code": "35390"
  },
  {
    "name": "La Guerche-de-Bretagne",
    "code": "35125",
    "epci_code": "200039022",
    "departement_code": "35",
    "region_code": "53",
    "postal_code": "35130"
  },
  {
    "name": "Guichen",
    "code": "35126",
    "epci_code": "200043990",
    "departement_code": "35",
    "region_code": "53",
    "postal_code": "35580"
  },
  {
    "name": "Guignen",
    "code": "35127",
    "epci_code": "200043990",
    "departement_code": "35",
    "region_code": "53",
    "postal_code": "35580"
  },
  {
    "name": "Guipel",
    "code": "35128",
    "epci_code": "243500667",
    "departement_code": "35",
    "region_code": "53",
    "postal_code": "35440"
  },
  {
    "name": "Hédé-Bazouges",
    "code": "35130",
    "epci_code": "243500733",
    "departement_code": "35",
    "region_code": "53",
    "postal_code": "35630"
  },
  {
    "name": "L’Hermitage",
    "code": "35131",
    "epci_code": "243500139",
    "departement_code": "35",
    "region_code": "53",
    "postal_code": "35590"
  },
  {
    "name": "Hirel",
    "code": "35132",
    "epci_code": "243500782",
    "departement_code": "35",
    "region_code": "53",
    "postal_code": "35120"
  },
  {
    "name": "Iffendic",
    "code": "35133",
    "epci_code": "243500550",
    "departement_code": "35",
    "region_code": "53",
    "postal_code": "35750"
  },
  {
    "name": "Les Iffs",
    "code": "35134",
    "epci_code": "243500733",
    "departement_code": "35",
    "region_code": "53",
    "postal_code": "35630"
  },
  {
    "name": "Irodouër",
    "code": "35135",
    "epci_code": "200038990",
    "departement_code": "35",
    "region_code": "53",
    "postal_code": "35850"
  },
  {
    "name": "Janzé",
    "code": "35136",
    "epci_code": "243500634",
    "departement_code": "35",
    "region_code": "53",
    "postal_code": "35150"
  },
  {
    "name": "Javené",
    "code": "35137",
    "epci_code": "200072452",
    "departement_code": "35",
    "region_code": "53",
    "postal_code": "35133"
  },
  {
    "name": "Laignelet",
    "code": "35138",
    "epci_code": "200072452",
    "departement_code": "35",
    "region_code": "53",
    "postal_code": "35133"
  },
  {
    "name": "Laillé",
    "code": "35139",
    "epci_code": "243500139",
    "departement_code": "35",
    "region_code": "53",
    "postal_code": "35890"
  },
  {
    "name": "Lalleu",
    "code": "35140",
    "epci_code": "200070662",
    "departement_code": "35",
    "region_code": "53",
    "postal_code": "35320"
  },
  {
    "name": "Landavran",
    "code": "35141",
    "epci_code": "200039022",
    "departement_code": "35",
    "region_code": "53",
    "postal_code": "35450"
  },
  {
    "name": "Landéan",
    "code": "35142",
    "epci_code": "200072452",
    "departement_code": "35",
    "region_code": "53",
    "postal_code": "35133"
  },
  {
    "name": "Landujan",
    "code": "35143",
    "epci_code": "200038990",
    "departement_code": "35",
    "region_code": "53",
    "postal_code": "35360"
  },
  {
    "name": "Langan",
    "code": "35144",
    "epci_code": "243500139",
    "departement_code": "35",
    "region_code": "53",
    "postal_code": "35850"
  },
  {
    "name": "Langon",
    "code": "35145",
    "epci_code": "243500741",
    "departement_code": "35",
    "region_code": "53",
    "postal_code": "35660"
  },
  {
    "name": "Langouet",
    "code": "35146",
    "epci_code": "243500667",
    "departement_code": "35",
    "region_code": "53",
    "postal_code": "35630"
  },
  {
    "name": "Lanrigan",
    "code": "35148",
    "epci_code": "243500733",
    "departement_code": "35",
    "region_code": "53",
    "postal_code": "35270"
  },
  {
    "name": "Lassy",
    "code": "35149",
    "epci_code": "200043990",
    "departement_code": "35",
    "region_code": "53",
    "postal_code": "35580"
  },
  {
    "name": "Lécousse",
    "code": "35150",
    "epci_code": "200072452",
    "departement_code": "35",
    "region_code": "53",
    "postal_code": "35133"
  },
  {
    "name": "Lieuron",
    "code": "35151",
    "epci_code": "243500741",
    "departement_code": "35",
    "region_code": "53",
    "postal_code": "35550"
  },
  {
    "name": "Liffré",
    "code": "35152",
    "epci_code": "243500774",
    "departement_code": "35",
    "region_code": "53",
    "postal_code": "35340"
  },
  {
    "name": "Lillemer",
    "code": "35153",
    "epci_code": "243500782",
    "departement_code": "35",
    "region_code": "53",
    "postal_code": "35111"
  },
  {
    "name": "Livré-sur-Changeon",
    "code": "35154",
    "epci_code": "243500774",
    "departement_code": "35",
    "region_code": "53",
    "postal_code": "35450"
  },
  {
    "name": "Lohéac",
    "code": "35155",
    "epci_code": "200043990",
    "departement_code": "35",
    "region_code": "53",
    "postal_code": "35550"
  },
  {
    "name": "Longaulnay",
    "code": "35156",
    "epci_code": "243500733",
    "departement_code": "35",
    "region_code": "53",
    "postal_code": "35190"
  },
  {
    "name": "Le Loroux",
    "code": "35157",
    "epci_code": "200072452",
    "departement_code": "35",
    "region_code": "53",
    "postal_code": "35133"
  },
  {
    "name": "Lourmais",
    "code": "35159",
    "epci_code": "243500733",
    "departement_code": "35",
    "region_code": "53",
    "postal_code": "35270"
  },
  {
    "name": "Loutehel",
    "code": "35160",
    "epci_code": "200043990",
    "departement_code": "35",
    "region_code": "53",
    "postal_code": "35330"
  },
  {
    "name": "Louvigné-de-Bais",
    "code": "35161",
    "epci_code": "200039022",
    "departement_code": "35",
    "region_code": "53",
    "postal_code": "35680"
  },
  {
    "name": "Louvigné-du-Désert",
    "code": "35162",
    "epci_code": "200072452",
    "departement_code": "35",
    "region_code": "53",
    "postal_code": "35420"
  },
  {
    "name": "Luitré-Dompierre",
    "code": "35163",
    "epci_code": "200072452",
    "departement_code": "35",
    "region_code": "53",
    "postal_code": "35133"
  },
  {
    "name": "Luitré-Dompierre",
    "code": "35163",
    "epci_code": "200072452",
    "departement_code": "35",
    "region_code": "53",
    "postal_code": "35210"
  },
  {
    "name": "Marcillé-Raoul",
    "code": "35164",
    "epci_code": "200070688",
    "departement_code": "35",
    "region_code": "53",
    "postal_code": "35560"
  },
  {
    "name": "Marcillé-Robert",
    "code": "35165",
    "epci_code": "243500634",
    "departement_code": "35",
    "region_code": "53",
    "postal_code": "35240"
  },
  {
    "name": "Marpiré",
    "code": "35166",
    "epci_code": "200039022",
    "departement_code": "35",
    "region_code": "53",
    "postal_code": "35220"
  },
  {
    "name": "Martigné-Ferchaud",
    "code": "35167",
    "epci_code": "243500634",
    "departement_code": "35",
    "region_code": "53",
    "postal_code": "35640"
  },
  {
    "name": "Val d’Anast",
    "code": "35168",
    "epci_code": "200043990",
    "departement_code": "35",
    "region_code": "53",
    "postal_code": "35330"
  },
  {
    "name": "Maxent",
    "code": "35169",
    "epci_code": "243500618",
    "departement_code": "35",
    "region_code": "53",
    "postal_code": "35380"
  },
  {
    "name": "Mecé",
    "code": "35170",
    "epci_code": "200039022",
    "departement_code": "35",
    "region_code": "53",
    "postal_code": "35450"
  },
  {
    "name": "Médréac",
    "code": "35171",
    "epci_code": "200038990",
    "departement_code": "35",
    "region_code": "53",
    "postal_code": "35360"
  },
  {
    "name": "Meillac",
    "code": "35172",
    "epci_code": "243500733",
    "departement_code": "35",
    "region_code": "53",
    "postal_code": "35270"
  },
  {
    "name": "Melesse",
    "code": "35173",
    "epci_code": "243500667",
    "departement_code": "35",
    "region_code": "53",
    "postal_code": "35520"
  },
  {
    "name": "Mellé",
    "code": "35174",
    "epci_code": "200072452",
    "departement_code": "35",
    "region_code": "53",
    "postal_code": "35420"
  },
  {
    "name": "Mernel",
    "code": "35175",
    "epci_code": "200043990",
    "departement_code": "35",
    "region_code": "53",
    "postal_code": "35330"
  },
  {
    "name": "Guipry-Messac",
    "code": "35176",
    "epci_code": "200043990",
    "departement_code": "35",
    "region_code": "53",
    "postal_code": "35480"
  },
  {
    "name": "La Mézière",
    "code": "35177",
    "epci_code": "243500667",
    "departement_code": "35",
    "region_code": "53",
    "postal_code": "35520"
  },
  {
    "name": "Mézières-sur-Couesnon",
    "code": "35178",
    "epci_code": "243500774",
    "departement_code": "35",
    "region_code": "53",
    "postal_code": "35140"
  },
  {
    "name": "Miniac-Morvan",
    "code": "35179",
    "epci_code": "243500782",
    "departement_code": "35",
    "region_code": "53",
    "postal_code": "35540"
  },
  {
    "name": "Miniac-sous-Bécherel",
    "code": "35180",
    "epci_code": "243500139",
    "departement_code": "35",
    "region_code": "53",
    "postal_code": "35190"
  },
  {
    "name": "Le Minihic-sur-Rance",
    "code": "35181",
    "epci_code": "243500725",
    "departement_code": "35",
    "region_code": "53",
    "postal_code": "35870"
  },
  {
    "name": "Mondevert",
    "code": "35183",
    "epci_code": "200039022",
    "departement_code": "35",
    "region_code": "53",
    "postal_code": "35370"
  },
  {
    "name": "Montauban-de-Bretagne",
    "code": "35184",
    "epci_code": "200038990",
    "departement_code": "35",
    "region_code": "53",
    "postal_code": "35360"
  },
  {
    "name": "Montautour",
    "code": "35185",
    "epci_code": "200039022",
    "departement_code": "35",
    "region_code": "53",
    "postal_code": "35210"
  },
  {
    "name": "Mont-Dol",
    "code": "35186",
    "epci_code": "200070670",
    "departement_code": "35",
    "region_code": "53",
    "postal_code": "35120"
  },
  {
    "name": "Monterfil",
    "code": "35187",
    "epci_code": "243500618",
    "departement_code": "35",
    "region_code": "53",
    "postal_code": "35160"
  },
  {
    "name": "Montfort-sur-Meu",
    "code": "35188",
    "epci_code": "243500550",
    "departement_code": "35",
    "region_code": "53",
    "postal_code": "35160"
  },
  {
    "name": "Montgermont",
    "code": "35189",
    "epci_code": "243500139",
    "departement_code": "35",
    "region_code": "53",
    "postal_code": "35760"
  },
  {
    "name": "Monthault",
    "code": "35190",
    "epci_code": "200072452",
    "departement_code": "35",
    "region_code": "53",
    "postal_code": "35420"
  },
  {
    "name": "Les Portes du Coglais",
    "code": "35191",
    "epci_code": "200070688",
    "departement_code": "35",
    "region_code": "53",
    "postal_code": "35460"
  },
  {
    "name": "Montreuil-des-Landes",
    "code": "35192",
    "epci_code": "200039022",
    "departement_code": "35",
    "region_code": "53",
    "postal_code": "35210"
  },
  {
    "name": "Montreuil-le-Gast",
    "code": "35193",
    "epci_code": "243500667",
    "departement_code": "35",
    "region_code": "53",
    "postal_code": "35520"
  },
  {
    "name": "Montreuil-sous-Pérouse",
    "code": "35194",
    "epci_code": "200039022",
    "departement_code": "35",
    "region_code": "53",
    "postal_code": "35500"
  },
  {
    "name": "Montreuil-sur-Ille",
    "code": "35195",
    "epci_code": "243500667",
    "departement_code": "35",
    "region_code": "53",
    "postal_code": "35440"
  },
  {
    "name": "Mordelles",
    "code": "35196",
    "epci_code": "243500139",
    "departement_code": "35",
    "region_code": "53",
    "postal_code": "35310"
  },
  {
    "name": "Mouazé",
    "code": "35197",
    "epci_code": "243500667",
    "departement_code": "35",
    "region_code": "53",
    "postal_code": "35250"
  },
  {
    "name": "Moulins",
    "code": "35198",
    "epci_code": "200039022",
    "departement_code": "35",
    "region_code": "53",
    "postal_code": "35680"
  },
  {
    "name": "Moussé",
    "code": "35199",
    "epci_code": "200039022",
    "departement_code": "35",
    "region_code": "53",
    "postal_code": "35130"
  },
  {
    "name": "Moutiers",
    "code": "35200",
    "epci_code": "200039022",
    "departement_code": "35",
    "region_code": "53",
    "postal_code": "35130"
  },
  {
    "name": "Muel",
    "code": "35201",
    "epci_code": "200038990",
    "departement_code": "35",
    "region_code": "53",
    "postal_code": "35290"
  },
  {
    "name": "La Noë-Blanche",
    "code": "35202",
    "epci_code": "200070662",
    "departement_code": "35",
    "region_code": "53",
    "postal_code": "35470"
  },
  {
    "name": "La Nouaye",
    "code": "35203",
    "epci_code": "243500550",
    "departement_code": "35",
    "region_code": "53",
    "postal_code": "35137"
  },
  {
    "name": "Nouvoitou",
    "code": "35204",
    "epci_code": "243500139",
    "departement_code": "35",
    "region_code": "53",
    "postal_code": "35410"
  },
  {
    "name": "Noyal-sous-Bazouges",
    "code": "35205",
    "epci_code": "200070688",
    "departement_code": "35",
    "region_code": "53",
    "postal_code": "35560"
  },
  {
    "name": "Noyal-Châtillon-sur-Seiche",
    "code": "35206",
    "epci_code": "243500139",
    "departement_code": "35",
    "region_code": "53",
    "postal_code": "35230"
  },
  {
    "name": "Noyal-sur-Vilaine",
    "code": "35207",
    "epci_code": "243500659",
    "departement_code": "35",
    "region_code": "53",
    "postal_code": "35530"
  },
  {
    "name": "Orgères",
    "code": "35208",
    "epci_code": "243500139",
    "departement_code": "35",
    "region_code": "53",
    "postal_code": "35230"
  },
  {
    "name": "Pacé",
    "code": "35210",
    "epci_code": "243500139",
    "departement_code": "35",
    "region_code": "53",
    "postal_code": "35740"
  },
  {
    "name": "Paimpont",
    "code": "35211",
    "epci_code": "243500618",
    "departement_code": "35",
    "region_code": "53",
    "postal_code": "35380"
  },
  {
    "name": "Pancé",
    "code": "35212",
    "epci_code": "200070662",
    "departement_code": "35",
    "region_code": "53",
    "postal_code": "35320"
  },
  {
    "name": "Parcé",
    "code": "35214",
    "epci_code": "200072452",
    "departement_code": "35",
    "region_code": "53",
    "postal_code": "35210"
  },
  {
    "name": "Parigné",
    "code": "35215",
    "epci_code": "200072452",
    "departement_code": "35",
    "region_code": "53",
    "postal_code": "35133"
  },
  {
    "name": "Parthenay-de-Bretagne",
    "code": "35216",
    "epci_code": "243500139",
    "departement_code": "35",
    "region_code": "53",
    "postal_code": "35850"
  },
  {
    "name": "Le Pertre",
    "code": "35217",
    "epci_code": "200039022",
    "departement_code": "35",
    "region_code": "53",
    "postal_code": "35370"
  },
  {
    "name": "Le Petit-Fougeray",
    "code": "35218",
    "epci_code": "200070662",
    "departement_code": "35",
    "region_code": "53",
    "postal_code": "35320"
  },
  {
    "name": "Pipriac",
    "code": "35219",
    "epci_code": "243500741",
    "departement_code": "35",
    "region_code": "53",
    "postal_code": "35550"
  },
  {
    "name": "Piré-Chancé",
    "code": "35220",
    "epci_code": "243500659",
    "departement_code": "35",
    "region_code": "53",
    "postal_code": "35150"
  },
  {
    "name": "Piré-Chancé",
    "code": "35220",
    "epci_code": "243500659",
    "departement_code": "35",
    "region_code": "53",
    "postal_code": "35680"
  },
  {
    "name": "Pléchâtel",
    "code": "35221",
    "epci_code": "200070662",
    "departement_code": "35",
    "region_code": "53",
    "postal_code": "35470"
  },
  {
    "name": "Pleine-Fougères",
    "code": "35222",
    "epci_code": "200070670",
    "departement_code": "35",
    "region_code": "53",
    "postal_code": "35610"
  },
  {
    "name": "Plélan-le-Grand",
    "code": "35223",
    "epci_code": "243500618",
    "departement_code": "35",
    "region_code": "53",
    "postal_code": "35380"
  },
  {
    "name": "Plerguer",
    "code": "35224",
    "epci_code": "243500782",
    "departement_code": "35",
    "region_code": "53",
    "postal_code": "35540"
  },
  {
    "name": "Plesder",
    "code": "35225",
    "epci_code": "243500733",
    "departement_code": "35",
    "region_code": "53",
    "postal_code": "35720"
  },
  {
    "name": "Pleugueneuc",
    "code": "35226",
    "epci_code": "243500733",
    "departement_code": "35",
    "region_code": "53",
    "postal_code": "35720"
  },
  {
    "name": "Pleumeleuc",
    "code": "35227",
    "epci_code": "243500550",
    "departement_code": "35",
    "region_code": "53",
    "postal_code": "35137"
  },
  {
    "name": "Pleurtuit",
    "code": "35228",
    "epci_code": "243500725",
    "departement_code": "35",
    "region_code": "53",
    "postal_code": "35730"
  },
  {
    "name": "Pocé-les-Bois",
    "code": "35229",
    "epci_code": "200039022",
    "departement_code": "35",
    "region_code": "53",
    "postal_code": "35500"
  },
  {
    "name": "Poilley",
    "code": "35230",
    "epci_code": "200072452",
    "departement_code": "35",
    "region_code": "53",
    "postal_code": "35420"
  },
  {
    "name": "Poligné",
    "code": "35231",
    "epci_code": "200070662",
    "departement_code": "35",
    "region_code": "53",
    "postal_code": "35320"
  },
  {
    "name": "Princé",
    "code": "35232",
    "epci_code": "200039022",
    "departement_code": "35",
    "region_code": "53",
    "postal_code": "35210"
  },
  {
    "name": "Québriac",
    "code": "35233",
    "epci_code": "243500733",
    "departement_code": "35",
    "region_code": "53",
    "postal_code": "35190"
  },
  {
    "name": "Quédillac",
    "code": "35234",
    "epci_code": "200038990",
    "departement_code": "35",
    "region_code": "53",
    "postal_code": "35290"
  },
  {
    "name": "Rannée",
    "code": "35235",
    "epci_code": "200039022",
    "departement_code": "35",
    "region_code": "53",
    "postal_code": "35130"
  },
  {
    "name": "Redon",
    "code": "35236",
    "epci_code": "243500741",
    "departement_code": "35",
    "region_code": "53",
    "postal_code": "35600"
  },
  {
    "name": "Renac",
    "code": "35237",
    "epci_code": "243500741",
    "departement_code": "35",
    "region_code": "53",
    "postal_code": "35660"
  },
  {
    "name": "Rennes",
    "code": "35238",
    "epci_code": "243500139",
    "departement_code": "35",
    "region_code": "53",
    "postal_code": "35000"
  },
  {
    "name": "Rennes",
    "code": "35238",
    "epci_code": "243500139",
    "departement_code": "35",
    "region_code": "53",
    "postal_code": "35200"
  },
  {
    "name": "Rennes",
    "code": "35238",
    "epci_code": "243500139",
    "departement_code": "35",
    "region_code": "53",
    "postal_code": "35700"
  },
  {
    "name": "Retiers",
    "code": "35239",
    "epci_code": "243500634",
    "departement_code": "35",
    "region_code": "53",
    "postal_code": "35240"
  },
  {
    "name": "Le Rheu",
    "code": "35240",
    "epci_code": "243500139",
    "departement_code": "35",
    "region_code": "53",
    "postal_code": "35650"
  },
  {
    "name": "La Richardais",
    "code": "35241",
    "epci_code": "243500725",
    "departement_code": "35",
    "region_code": "53",
    "postal_code": "35780"
  },
  {
    "name": "Rimou",
    "code": "35242",
    "epci_code": "200070688",
    "departement_code": "35",
    "region_code": "53",
    "postal_code": "35560"
  },
  {
    "name": "Romagné",
    "code": "35243",
    "epci_code": "200072452",
    "departement_code": "35",
    "region_code": "53",
    "postal_code": "35133"
  },
  {
    "name": "Romazy",
    "code": "35244",
    "epci_code": "200070688",
    "departement_code": "35",
    "region_code": "53",
    "postal_code": "35490"
  },
  {
    "name": "Romillé",
    "code": "35245",
    "epci_code": "243500139",
    "departement_code": "35",
    "region_code": "53",
    "postal_code": "35850"
  },
  {
    "name": "Roz-Landrieux",
    "code": "35246",
    "epci_code": "200070670",
    "departement_code": "35",
    "region_code": "53",
    "postal_code": "35120"
  },
  {
    "name": "Roz-sur-Couesnon",
    "code": "35247",
    "epci_code": "200070670",
    "departement_code": "35",
    "region_code": "53",
    "postal_code": "35610"
  },
  {
    "name": "Sains",
    "code": "35248",
    "epci_code": "200070670",
    "departement_code": "35",
    "region_code": "53",
    "postal_code": "35610"
  },
  {
    "name": "Sainte-Anne-sur-Vilaine",
    "code": "35249",
    "epci_code": "200070662",
    "departement_code": "35",
    "region_code": "53",
    "postal_code": "35390"
  },
  {
    "name": "Saint-Armel",
    "code": "35250",
    "epci_code": "243500139",
    "departement_code": "35",
    "region_code": "53",
    "postal_code": "35230"
  },
  {
    "name": "Saint-Aubin-d’Aubigné",
    "code": "35251",
    "epci_code": "243500667",
    "departement_code": "35",
    "region_code": "53",
    "postal_code": "35250"
  },
  {
    "name": "Saint-Aubin-des-Landes",
    "code": "35252",
    "epci_code": "200039022",
    "departement_code": "35",
    "region_code": "53",
    "postal_code": "35500"
  },
  {
    "name": "Saint-Aubin-du-Cormier",
    "code": "35253",
    "epci_code": "243500774",
    "departement_code": "35",
    "region_code": "53",
    "postal_code": "35140"
  },
  {
    "name": "Saint-Benoît-des-Ondes",
    "code": "35255",
    "epci_code": "243500782",
    "departement_code": "35",
    "region_code": "53",
    "postal_code": "35114"
  },
  {
    "name": "Saint-Briac-sur-Mer",
    "code": "35256",
    "epci_code": "243500725",
    "departement_code": "35",
    "region_code": "53",
    "postal_code": "35800"
  },
  {
    "name": "Maen Roch",
    "code": "35257",
    "epci_code": "200070688",
    "departement_code": "35",
    "region_code": "53",
    "postal_code": "35460"
  },
  {
    "name": "Saint-Brieuc-des-Iffs",
    "code": "35258",
    "epci_code": "243500733",
    "departement_code": "35",
    "region_code": "53",
    "postal_code": "35630"
  },
  {
    "name": "Saint-Broladre",
    "code": "35259",
    "epci_code": "200070670",
    "departement_code": "35",
    "region_code": "53",
    "postal_code": "35120"
  },
  {
    "name": "Saint-Christophe-des-Bois",
    "code": "35260",
    "epci_code": "200039022",
    "departement_code": "35",
    "region_code": "53",
    "postal_code": "35210"
  },
  {
    "name": "Saint-Christophe-de-Valains",
    "code": "35261",
    "epci_code": "200072452",
    "departement_code": "35",
    "region_code": "53",
    "postal_code": "35140"
  },
  {
    "name": "Sainte-Colombe",
    "code": "35262",
    "epci_code": "243500634",
    "departement_code": "35",
    "region_code": "53",
    "postal_code": "35134"
  },
  {
    "name": "Saint-Coulomb",
    "code": "35263",
    "epci_code": "243500782",
    "departement_code": "35",
    "region_code": "53",
    "postal_code": "35350"
  },
  {
    "name": "Saint-Didier",
    "code": "35264",
    "epci_code": "200039022",
    "departement_code": "35",
    "region_code": "53",
    "postal_code": "35220"
  },
  {
    "name": "Saint-Domineuc",
    "code": "35265",
    "epci_code": "243500733",
    "departement_code": "35",
    "region_code": "53",
    "postal_code": "35190"
  },
  {
    "name": "Saint-Erblon",
    "code": "35266",
    "epci_code": "243500139",
    "departement_code": "35",
    "region_code": "53",
    "postal_code": "35230"
  },
  {
    "name": "Saint-Ganton",
    "code": "35268",
    "epci_code": "243500741",
    "departement_code": "35",
    "region_code": "53",
    "postal_code": "35550"
  },
  {
    "name": "Saint-Georges-de-Gréhaigne",
    "code": "35270",
    "epci_code": "200070670",
    "departement_code": "35",
    "region_code": "53",
    "postal_code": "35610"
  },
  {
    "name": "Saint-Georges-de-Reintembault",
    "code": "35271",
    "epci_code": "200072452",
    "departement_code": "35",
    "region_code": "53",
    "postal_code": "35420"
  },
  {
    "name": "Saint-Germain-du-Pinel",
    "code": "35272",
    "epci_code": "200039022",
    "departement_code": "35",
    "region_code": "53",
    "postal_code": "35370"
  },
  {
    "name": "Saint-Germain-en-Coglès",
    "code": "35273",
    "epci_code": "200070688",
    "departement_code": "35",
    "region_code": "53",
    "postal_code": "35133"
  },
  {
    "name": "Saint-Germain-sur-Ille",
    "code": "35274",
    "epci_code": "243500667",
    "departement_code": "35",
    "region_code": "53",
    "postal_code": "35250"
  },
  {
    "name": "Saint-Gilles",
    "code": "35275",
    "epci_code": "243500139",
    "departement_code": "35",
    "region_code": "53",
    "postal_code": "35590"
  },
  {
    "name": "Saint-Gondran",
    "code": "35276",
    "epci_code": "243500667",
    "departement_code": "35",
    "region_code": "53",
    "postal_code": "35630"
  },
  {
    "name": "Saint-Gonlay",
    "code": "35277",
    "epci_code": "243500550",
    "departement_code": "35",
    "region_code": "53",
    "postal_code": "35750"
  },
  {
    "name": "Saint-Grégoire",
    "code": "35278",
    "epci_code": "243500139",
    "departement_code": "35",
    "region_code": "53",
    "postal_code": "35760"
  },
  {
    "name": "Saint-Guinoux",
    "code": "35279",
    "epci_code": "243500782",
    "departement_code": "35",
    "region_code": "53",
    "postal_code": "35430"
  },
  {
    "name": "Saint-Hilaire-des-Landes",
    "code": "35280",
    "epci_code": "200070688",
    "departement_code": "35",
    "region_code": "53",
    "postal_code": "35140"
  },
  {
    "name": "Saint-Jacques-de-la-Lande",
    "code": "35281",
    "epci_code": "243500139",
    "departement_code": "35",
    "region_code": "53",
    "postal_code": "35136"
  },
  {
    "name": "Rives-du-Couesnon",
    "code": "35282",
    "epci_code": "200072452",
    "departement_code": "35",
    "region_code": "53",
    "postal_code": "35140"
  },
  {
    "name": "Saint-Jean-sur-Vilaine",
    "code": "35283",
    "epci_code": "200039022",
    "departement_code": "35",
    "region_code": "53",
    "postal_code": "35220"
  },
  {
    "name": "Saint-Jouan-des-Guérets",
    "code": "35284",
    "epci_code": "243500782",
    "departement_code": "35",
    "region_code": "53",
    "postal_code": "35430"
  },
  {
    "name": "Saint-Just",
    "code": "35285",
    "epci_code": "243500741",
    "departement_code": "35",
    "region_code": "53",
    "postal_code": "35550"
  },
  {
    "name": "Saint-Léger-des-Prés",
    "code": "35286",
    "epci_code": "243500733",
    "departement_code": "35",
    "region_code": "53",
    "postal_code": "35270"
  },
  {
    "name": "Saint-Lunaire",
    "code": "35287",
    "epci_code": "243500725",
    "departement_code": "35",
    "region_code": "53",
    "postal_code": "35800"
  },
  {
    "name": "Saint-Malo",
    "code": "35288",
    "epci_code": "243500782",
    "departement_code": "35",
    "region_code": "53",
    "postal_code": "35400"
  },
  {
    "name": "Saint-Malo-de-Phily",
    "code": "35289",
    "epci_code": "200043990",
    "departement_code": "35",
    "region_code": "53",
    "postal_code": "35480"
  },
  {
    "name": "Saint-Malon-sur-Mel",
    "code": "35290",
    "epci_code": "200038990",
    "departement_code": "35",
    "region_code": "53",
    "postal_code": "35750"
  },
  {
    "name": "Saint-Marcan",
    "code": "35291",
    "epci_code": "200070670",
    "departement_code": "35",
    "region_code": "53",
    "postal_code": "35120"
  },
  {
    "name": "Saint-Marc-le-Blanc",
    "code": "35292",
    "epci_code": "200070688",
    "departement_code": "35",
    "region_code": "53",
    "postal_code": "35460"
  },
  {
    "name": "Sainte-Marie",
    "code": "35294",
    "epci_code": "243500741",
    "departement_code": "35",
    "region_code": "53",
    "postal_code": "35600"
  },
  {
    "name": "Saint-Maugan",
    "code": "35295",
    "epci_code": "200038990",
    "departement_code": "35",
    "region_code": "53",
    "postal_code": "35750"
  },
  {
    "name": "Saint-Médard-sur-Ille",
    "code": "35296",
    "epci_code": "243500667",
    "departement_code": "35",
    "region_code": "53",
    "postal_code": "35250"
  },
  {
    "name": "Saint-Méen-le-Grand",
    "code": "35297",
    "epci_code": "200038990",
    "departement_code": "35",
    "region_code": "53",
    "postal_code": "35290"
  },
  {
    "name": "Saint-Méloir-des-Ondes",
    "code": "35299",
    "epci_code": "243500782",
    "departement_code": "35",
    "region_code": "53",
    "postal_code": "35350"
  },
  {
    "name": "Saint-M’Hervé",
    "code": "35300",
    "epci_code": "200039022",
    "departement_code": "35",
    "region_code": "53",
    "postal_code": "35500"
  },
  {
    "name": "Saint-Onen-la-Chapelle",
    "code": "35302",
    "epci_code": "200038990",
    "departement_code": "35",
    "region_code": "53",
    "postal_code": "35290"
  },
  {
    "name": "Saint-Ouen-des-Alleux",
    "code": "35304",
    "epci_code": "200072452",
    "departement_code": "35",
    "region_code": "53",
    "postal_code": "35140"
  },
  {
    "name": "Saint-Péran",
    "code": "35305",
    "epci_code": "243500618",
    "departement_code": "35",
    "region_code": "53",
    "postal_code": "35380"
  },
  {
    "name": "Saint-Père-Marc-en-Poulet",
    "code": "35306",
    "epci_code": "243500782",
    "departement_code": "35",
    "region_code": "53",
    "postal_code": "35430"
  },
  {
    "name": "Saint-Pern",
    "code": "35307",
    "epci_code": "200038990",
    "departement_code": "35",
    "region_code": "53",
    "postal_code": "35190"
  },
  {
    "name": "Mesnil-Roc’h",
    "code": "35308",
    "epci_code": "243500733",
    "departement_code": "35",
    "region_code": "53",
    "postal_code": "35720"
  },
  {
    "name": "Saint-Rémy-du-Plain",
    "code": "35309",
    "epci_code": "200070688",
    "departement_code": "35",
    "region_code": "53",
    "postal_code": "35560"
  },
  {
    "name": "Saint-Sauveur-des-Landes",
    "code": "35310",
    "epci_code": "200072452",
    "departement_code": "35",
    "region_code": "53",
    "postal_code": "35133"
  },
  {
    "name": "Saint-Séglin",
    "code": "35311",
    "epci_code": "200043990",
    "departement_code": "35",
    "region_code": "53",
    "postal_code": "35330"
  },
  {
    "name": "Saint-Senoux",
    "code": "35312",
    "epci_code": "200043990",
    "departement_code": "35",
    "region_code": "53",
    "postal_code": "35580"
  },
  {
    "name": "Saint-Suliac",
    "code": "35314",
    "epci_code": "243500782",
    "departement_code": "35",
    "region_code": "53",
    "postal_code": "35430"
  },
  {
    "name": "Saint-Sulpice-la-Forêt",
    "code": "35315",
    "epci_code": "243500139",
    "departement_code": "35",
    "region_code": "53",
    "postal_code": "35250"
  },
  {
    "name": "Saint-Sulpice-des-Landes",
    "code": "35316",
    "epci_code": "200070662",
    "departement_code": "35",
    "region_code": "53",
    "postal_code": "35390"
  },
  {
    "name": "Saint-Symphorien",
    "code": "35317",
    "epci_code": "243500667",
    "departement_code": "35",
    "region_code": "53",
    "postal_code": "35630"
  },
  {
    "name": "Saint-Thual",
    "code": "35318",
    "epci_code": "243500733",
    "departement_code": "35",
    "region_code": "53",
    "postal_code": "35190"
  },
  {
    "name": "Saint-Thurial",
    "code": "35319",
    "epci_code": "243500618",
    "departement_code": "35",
    "region_code": "53",
    "postal_code": "35310"
  },
  {
    "name": "Saint-Uniac",
    "code": "35320",
    "epci_code": "200038990",
    "departement_code": "35",
    "region_code": "53",
    "postal_code": "35360"
  },
  {
    "name": "Saulnières",
    "code": "35321",
    "epci_code": "200070662",
    "departement_code": "35",
    "region_code": "53",
    "postal_code": "35320"
  },
  {
    "name": "Le Sel-de-Bretagne",
    "code": "35322",
    "epci_code": "200070662",
    "departement_code": "35",
    "region_code": "53",
    "postal_code": "35320"
  },
  {
    "name": "La Selle-en-Luitré",
    "code": "35324",
    "epci_code": "200072452",
    "departement_code": "35",
    "region_code": "53",
    "postal_code": "35133"
  },
  {
    "name": "La Selle-Guerchaise",
    "code": "35325",
    "epci_code": "200039022",
    "departement_code": "35",
    "region_code": "53",
    "postal_code": "35130"
  },
  {
    "name": "Sens-de-Bretagne",
    "code": "35326",
    "epci_code": "243500667",
    "departement_code": "35",
    "region_code": "53",
    "postal_code": "35490"
  },
  {
    "name": "Servon-sur-Vilaine",
    "code": "35327",
    "epci_code": "243500659",
    "departement_code": "35",
    "region_code": "53",
    "postal_code": "35530"
  },
  {
    "name": "Sixt-sur-Aff",
    "code": "35328",
    "epci_code": "243500741",
    "departement_code": "35",
    "region_code": "53",
    "postal_code": "35550"
  },
  {
    "name": "Sougeal",
    "code": "35329",
    "epci_code": "200070670",
    "departement_code": "35",
    "region_code": "53",
    "postal_code": "35610"
  },
  {
    "name": "Taillis",
    "code": "35330",
    "epci_code": "200039022",
    "departement_code": "35",
    "region_code": "53",
    "postal_code": "35500"
  },
  {
    "name": "Talensac",
    "code": "35331",
    "epci_code": "243500550",
    "departement_code": "35",
    "region_code": "53",
    "postal_code": "35160"
  },
  {
    "name": "Teillay",
    "code": "35332",
    "epci_code": "200070662",
    "departement_code": "35",
    "region_code": "53",
    "postal_code": "35620"
  },
  {
    "name": "Le Theil-de-Bretagne",
    "code": "35333",
    "epci_code": "243500634",
    "departement_code": "35",
    "region_code": "53",
    "postal_code": "35240"
  },
  {
    "name": "Thorigné-Fouillard",
    "code": "35334",
    "epci_code": "243500139",
    "departement_code": "35",
    "region_code": "53",
    "postal_code": "35235"
  },
  {
    "name": "Thourie",
    "code": "35335",
    "epci_code": "243500634",
    "departement_code": "35",
    "region_code": "53",
    "postal_code": "35134"
  },
  {
    "name": "Le Tiercent",
    "code": "35336",
    "epci_code": "200070688",
    "departement_code": "35",
    "region_code": "53",
    "postal_code": "35460"
  },
  {
    "name": "Tinténiac",
    "code": "35337",
    "epci_code": "243500733",
    "departement_code": "35",
    "region_code": "53",
    "postal_code": "35190"
  },
  {
    "name": "Torcé",
    "code": "35338",
    "epci_code": "200039022",
    "departement_code": "35",
    "region_code": "53",
    "postal_code": "35370"
  },
  {
    "name": "Trans-la-Forêt",
    "code": "35339",
    "epci_code": "200070670",
    "departement_code": "35",
    "region_code": "53",
    "postal_code": "35610"
  },
  {
    "name": "Treffendel",
    "code": "35340",
    "epci_code": "243500618",
    "departement_code": "35",
    "region_code": "53",
    "postal_code": "35380"
  },
  {
    "name": "Trémeheuc",
    "code": "35342",
    "epci_code": "243500733",
    "departement_code": "35",
    "region_code": "53",
    "postal_code": "35270"
  },
  {
    "name": "Tresbœuf",
    "code": "35343",
    "epci_code": "200070662",
    "departement_code": "35",
    "region_code": "53",
    "postal_code": "35320"
  },
  {
    "name": "Trévérien",
    "code": "35345",
    "epci_code": "243500733",
    "departement_code": "35",
    "region_code": "53",
    "postal_code": "35190"
  },
  {
    "name": "Trimer",
    "code": "35346",
    "epci_code": "243500733",
    "departement_code": "35",
    "region_code": "53",
    "postal_code": "35190"
  },
  {
    "name": "Val-d’Izé",
    "code": "35347",
    "epci_code": "200039022",
    "departement_code": "35",
    "region_code": "53",
    "postal_code": "35450"
  },
  {
    "name": "Vergéal",
    "code": "35350",
    "epci_code": "200039022",
    "departement_code": "35",
    "region_code": "53",
    "postal_code": "35680"
  },
  {
    "name": "Le Verger",
    "code": "35351",
    "epci_code": "243500139",
    "departement_code": "35",
    "region_code": "53",
    "postal_code": "35160"
  },
  {
    "name": "Vern-sur-Seiche",
    "code": "35352",
    "epci_code": "243500139",
    "departement_code": "35",
    "region_code": "53",
    "postal_code": "35770"
  },
  {
    "name": "Vezin-le-Coquet",
    "code": "35353",
    "epci_code": "243500139",
    "departement_code": "35",
    "region_code": "53",
    "postal_code": "35132"
  },
  {
    "name": "Vieux-Viel",
    "code": "35354",
    "epci_code": "200070670",
    "departement_code": "35",
    "region_code": "53",
    "postal_code": "35610"
  },
  {
    "name": "Vieux-Vy-sur-Couesnon",
    "code": "35355",
    "epci_code": "243500667",
    "departement_code": "35",
    "region_code": "53",
    "postal_code": "35490"
  },
  {
    "name": "Vignoc",
    "code": "35356",
    "epci_code": "243500667",
    "departement_code": "35",
    "region_code": "53",
    "postal_code": "35630"
  },
  {
    "name": "Villamée",
    "code": "35357",
    "epci_code": "200072452",
    "departement_code": "35",
    "region_code": "53",
    "postal_code": "35420"
  },
  {
    "name": "La Ville-ès-Nonais",
    "code": "35358",
    "epci_code": "243500782",
    "departement_code": "35",
    "region_code": "53",
    "postal_code": "35430"
  },
  {
    "name": "Visseiche",
    "code": "35359",
    "epci_code": "200039022",
    "departement_code": "35",
    "region_code": "53",
    "postal_code": "35130"
  },
  {
    "name": "Vitré",
    "code": "35360",
    "epci_code": "200039022",
    "departement_code": "35",
    "region_code": "53",
    "postal_code": "35500"
  },
  {
    "name": "Le Vivier-sur-Mer",
    "code": "35361",
    "epci_code": "200070670",
    "departement_code": "35",
    "region_code": "53",
    "postal_code": "35960"
  },
  {
    "name": "Le Tronchet",
    "code": "35362",
    "epci_code": "243500782",
    "departement_code": "35",
    "region_code": "53",
    "postal_code": "35540"
  },
  {
    "name": "Pont-Péan",
    "code": "35363",
    "epci_code": "243500139",
    "departement_code": "35",
    "region_code": "53",
    "postal_code": "35131"
  }
]