[
  {
    "name": "Anaa",
    "code": "98711",
    "departement_code": "987",
    "region_code": "987",
    "postal_code": "98786"
  },
  {
    "name": "Anaa",
    "code": "98711",
    "departement_code": "987",
    "region_code": "987",
    "postal_code": "98790"
  },
  {
    "name": "Anaa",
    "code": "98711",
    "departement_code": "987",
    "region_code": "987",
    "postal_code": "98760"
  },
  {
    "name": "Arue",
    "code": "98712",
    "departement_code": "987",
    "region_code": "987",
    "postal_code": "98701"
  },
  {
    "name": "Arutua",
    "code": "98713",
    "departement_code": "987",
    "region_code": "987",
    "postal_code": "98761"
  },
  {
    "name": "Arutua",
    "code": "98713",
    "departement_code": "987",
    "region_code": "987",
    "postal_code": "98762"
  },
  {
    "name": "Arutua",
    "code": "98713",
    "departement_code": "987",
    "region_code": "987",
    "postal_code": "98785"
  },
  {
    "name": "Bora-Bora",
    "code": "98714",
    "departement_code": "987",
    "region_code": "987",
    "postal_code": "98730"
  },
  {
    "name": "Faaa",
    "code": "98715",
    "departement_code": "987",
    "region_code": "987",
    "postal_code": "98704"
  },
  {
    "name": "Fakarava",
    "code": "98716",
    "departement_code": "987",
    "region_code": "987",
    "postal_code": "98787"
  },
  {
    "name": "Fakarava",
    "code": "98716",
    "departement_code": "987",
    "region_code": "987",
    "postal_code": "98763"
  },
  {
    "name": "Fakarava",
    "code": "98716",
    "departement_code": "987",
    "region_code": "987",
    "postal_code": "98764"
  },
  {
    "name": "Fakarava",
    "code": "98716",
    "departement_code": "987",
    "region_code": "987",
    "postal_code": "98790"
  },
  {
    "name": "Fangatau",
    "code": "98717",
    "departement_code": "987",
    "region_code": "987",
    "postal_code": "98766"
  },
  {
    "name": "Fangatau",
    "code": "98717",
    "departement_code": "987",
    "region_code": "987",
    "postal_code": "98765"
  },
  {
    "name": "Fatu-Hiva",
    "code": "98718",
    "departement_code": "987",
    "region_code": "987",
    "postal_code": "98740"
  },
  {
    "name": "Gambier",
    "code": "98719",
    "departement_code": "987",
    "region_code": "987",
    "postal_code": "98793"
  },
  {
    "name": "Gambier",
    "code": "98719",
    "departement_code": "987",
    "region_code": "987",
    "postal_code": "98755"
  },
  {
    "name": "Gambier",
    "code": "98719",
    "departement_code": "987",
    "region_code": "987",
    "postal_code": "98792"
  },
  {
    "name": "Hao",
    "code": "98720",
    "departement_code": "987",
    "region_code": "987",
    "postal_code": "98767"
  },
  {
    "name": "Hao",
    "code": "98720",
    "departement_code": "987",
    "region_code": "987",
    "postal_code": "98790"
  },
  {
    "name": "Hikueru",
    "code": "98721",
    "departement_code": "987",
    "region_code": "987",
    "postal_code": "98768"
  },
  {
    "name": "Hikueru",
    "code": "98721",
    "departement_code": "987",
    "region_code": "987",
    "postal_code": "98790"
  },
  {
    "name": "Hitiaa O Te Ra",
    "code": "98722",
    "departement_code": "987",
    "region_code": "987",
    "postal_code": "98705"
  },
  {
    "name": "Hitiaa O Te Ra",
    "code": "98722",
    "departement_code": "987",
    "region_code": "987",
    "postal_code": "98706"
  },
  {
    "name": "Hitiaa O Te Ra",
    "code": "98722",
    "departement_code": "987",
    "region_code": "987",
    "postal_code": "98707"
  },
  {
    "name": "Hitiaa O Te Ra",
    "code": "98722",
    "departement_code": "987",
    "region_code": "987",
    "postal_code": "98708"
  },
  {
    "name": "Hiva-Oa",
    "code": "98723",
    "departement_code": "987",
    "region_code": "987",
    "postal_code": "98749"
  },
  {
    "name": "Hiva-Oa",
    "code": "98723",
    "departement_code": "987",
    "region_code": "987",
    "postal_code": "98796"
  },
  {
    "name": "Hiva-Oa",
    "code": "98723",
    "departement_code": "987",
    "region_code": "987",
    "postal_code": "98741"
  },
  {
    "name": "Huahine",
    "code": "98724",
    "departement_code": "987",
    "region_code": "987",
    "postal_code": "98731"
  },
  {
    "name": "Huahine",
    "code": "98724",
    "departement_code": "987",
    "region_code": "987",
    "postal_code": "98732"
  },
  {
    "name": "Mahina",
    "code": "98725",
    "departement_code": "987",
    "region_code": "987",
    "postal_code": "98709"
  },
  {
    "name": "Mahina",
    "code": "98725",
    "departement_code": "987",
    "region_code": "987",
    "postal_code": "98710"
  },
  {
    "name": "Makemo",
    "code": "98726",
    "departement_code": "987",
    "region_code": "987",
    "postal_code": "98790"
  },
  {
    "name": "Makemo",
    "code": "98726",
    "departement_code": "987",
    "region_code": "987",
    "postal_code": "98769"
  },
  {
    "name": "Makemo",
    "code": "98726",
    "departement_code": "987",
    "region_code": "987",
    "postal_code": "98789"
  },
  {
    "name": "Manihi",
    "code": "98727",
    "departement_code": "987",
    "region_code": "987",
    "postal_code": "98771"
  },
  {
    "name": "Manihi",
    "code": "98727",
    "departement_code": "987",
    "region_code": "987",
    "postal_code": "98770"
  },
  {
    "name": "Maupiti",
    "code": "98728",
    "departement_code": "987",
    "region_code": "987",
    "postal_code": "98732"
  },
  {
    "name": "Moorea-Maiao",
    "code": "98729",
    "departement_code": "987",
    "region_code": "987",
    "postal_code": "98729"
  },
  {
    "name": "Moorea-Maiao",
    "code": "98729",
    "departement_code": "987",
    "region_code": "987",
    "postal_code": "98728"
  },
  {
    "name": "Napuka",
    "code": "98730",
    "departement_code": "987",
    "region_code": "987",
    "postal_code": "98772"
  },
  {
    "name": "Nuku-Hiva",
    "code": "98731",
    "departement_code": "987",
    "region_code": "987",
    "postal_code": "98742"
  },
  {
    "name": "Nuku-Hiva",
    "code": "98731",
    "departement_code": "987",
    "region_code": "987",
    "postal_code": "98748"
  },
  {
    "name": "Nuku-Hiva",
    "code": "98731",
    "departement_code": "987",
    "region_code": "987",
    "postal_code": "98796"
  },
  {
    "name": "Nukutavake",
    "code": "98732",
    "departement_code": "987",
    "region_code": "987",
    "postal_code": "98773"
  },
  {
    "name": "Nukutavake",
    "code": "98732",
    "departement_code": "987",
    "region_code": "987",
    "postal_code": "98788"
  },
  {
    "name": "Paea",
    "code": "98733",
    "departement_code": "987",
    "region_code": "987",
    "postal_code": "98711"
  },
  {
    "name": "Papara",
    "code": "98734",
    "departement_code": "987",
    "region_code": "987",
    "postal_code": "98712"
  },
  {
    "name": "Papeete",
    "code": "98735",
    "departement_code": "987",
    "region_code": "987",
    "postal_code": "98714"
  },
  {
    "name": "Pirae",
    "code": "98736",
    "departement_code": "987",
    "region_code": "987",
    "postal_code": "98716"
  },
  {
    "name": "Pukapuka",
    "code": "98737",
    "departement_code": "987",
    "region_code": "987",
    "postal_code": "98774"
  },
  {
    "name": "Punaauia",
    "code": "98738",
    "departement_code": "987",
    "region_code": "987",
    "postal_code": "98703"
  },
  {
    "name": "Punaauia",
    "code": "98738",
    "departement_code": "987",
    "region_code": "987",
    "postal_code": "98718"
  },
  {
    "name": "Raivavae",
    "code": "98739",
    "departement_code": "987",
    "region_code": "987",
    "postal_code": "98750"
  },
  {
    "name": "Rangiroa",
    "code": "98740",
    "departement_code": "987",
    "region_code": "987",
    "postal_code": "98775"
  },
  {
    "name": "Rangiroa",
    "code": "98740",
    "departement_code": "987",
    "region_code": "987",
    "postal_code": "98776"
  },
  {
    "name": "Rangiroa",
    "code": "98740",
    "departement_code": "987",
    "region_code": "987",
    "postal_code": "98777"
  },
  {
    "name": "Rangiroa",
    "code": "98740",
    "departement_code": "987",
    "region_code": "987",
    "postal_code": "98778"
  },
  {
    "name": "Rangiroa",
    "code": "98740",
    "departement_code": "987",
    "region_code": "987",
    "postal_code": "98790"
  },
  {
    "name": "Rapa",
    "code": "98741",
    "departement_code": "987",
    "region_code": "987",
    "postal_code": "98751"
  },
  {
    "name": "Rapa",
    "code": "98741",
    "departement_code": "987",
    "region_code": "987",
    "postal_code": "98794"
  },
  {
    "name": "Reao",
    "code": "98742",
    "departement_code": "987",
    "region_code": "987",
    "postal_code": "98779"
  },
  {
    "name": "Reao",
    "code": "98742",
    "departement_code": "987",
    "region_code": "987",
    "postal_code": "98780"
  },
  {
    "name": "Rimatara",
    "code": "98743",
    "departement_code": "987",
    "region_code": "987",
    "postal_code": "98752"
  },
  {
    "name": "Rimatara",
    "code": "98743",
    "departement_code": "987",
    "region_code": "987",
    "postal_code": "98795"
  },
  {
    "name": "Rurutu",
    "code": "98744",
    "departement_code": "987",
    "region_code": "987",
    "postal_code": "98753"
  },
  {
    "name": "Tahaa",
    "code": "98745",
    "departement_code": "987",
    "region_code": "987",
    "postal_code": "98733"
  },
  {
    "name": "Tahaa",
    "code": "98745",
    "departement_code": "987",
    "region_code": "987",
    "postal_code": "98734"
  },
  {
    "name": "Tahuata",
    "code": "98746",
    "departement_code": "987",
    "region_code": "987",
    "postal_code": "98743"
  },
  {
    "name": "Taiarapu-Est",
    "code": "98747",
    "departement_code": "987",
    "region_code": "987",
    "postal_code": "98719"
  },
  {
    "name": "Taiarapu-Est",
    "code": "98747",
    "departement_code": "987",
    "region_code": "987",
    "postal_code": "98720"
  },
  {
    "name": "Taiarapu-Est",
    "code": "98747",
    "departement_code": "987",
    "region_code": "987",
    "postal_code": "98721"
  },
  {
    "name": "Taiarapu-Est",
    "code": "98747",
    "departement_code": "987",
    "region_code": "987",
    "postal_code": "98722"
  },
  {
    "name": "Taiarapu-Ouest",
    "code": "98748",
    "departement_code": "987",
    "region_code": "987",
    "postal_code": "98723"
  },
  {
    "name": "Taiarapu-Ouest",
    "code": "98748",
    "departement_code": "987",
    "region_code": "987",
    "postal_code": "98724"
  },
  {
    "name": "Taiarapu-Ouest",
    "code": "98748",
    "departement_code": "987",
    "region_code": "987",
    "postal_code": "98725"
  },
  {
    "name": "Takaroa",
    "code": "98749",
    "departement_code": "987",
    "region_code": "987",
    "postal_code": "98781"
  },
  {
    "name": "Takaroa",
    "code": "98749",
    "departement_code": "987",
    "region_code": "987",
    "postal_code": "98782"
  },
  {
    "name": "Takaroa",
    "code": "98749",
    "departement_code": "987",
    "region_code": "987",
    "postal_code": "98790"
  },
  {
    "name": "Taputapuatea",
    "code": "98750",
    "departement_code": "987",
    "region_code": "987",
    "postal_code": "98735"
  },
  {
    "name": "Tatakoto",
    "code": "98751",
    "departement_code": "987",
    "region_code": "987",
    "postal_code": "98783"
  },
  {
    "name": "Teva I Uta",
    "code": "98752",
    "departement_code": "987",
    "region_code": "987",
    "postal_code": "98726"
  },
  {
    "name": "Teva I Uta",
    "code": "98752",
    "departement_code": "987",
    "region_code": "987",
    "postal_code": "98727"
  },
  {
    "name": "Tubuai",
    "code": "98753",
    "departement_code": "987",
    "region_code": "987",
    "postal_code": "98754"
  },
  {
    "name": "Tumaraa",
    "code": "98754",
    "departement_code": "987",
    "region_code": "987",
    "postal_code": "98735"
  },
  {
    "name": "Tureia",
    "code": "98755",
    "departement_code": "987",
    "region_code": "987",
    "postal_code": "98784"
  },
  {
    "name": "Ua-Huka",
    "code": "98756",
    "departement_code": "987",
    "region_code": "987",
    "postal_code": "98744"
  },
  {
    "name": "Ua-Huka",
    "code": "98756",
    "departement_code": "987",
    "region_code": "987",
    "postal_code": "98747"
  },
  {
    "name": "Ua-Pou",
    "code": "98757",
    "departement_code": "987",
    "region_code": "987",
    "postal_code": "98745"
  },
  {
    "name": "Ua-Pou",
    "code": "98757",
    "departement_code": "987",
    "region_code": "987",
    "postal_code": "98746"
  },
  {
    "name": "Uturoa",
    "code": "98758",
    "departement_code": "987",
    "region_code": "987",
    "postal_code": "98735"
  }
]