[
  {
    "name": "Ableiges",
    "code": "95002",
    "epci_code": "200035970",
    "departement_code": "95",
    "region_code": "11",
    "postal_code": "95450"
  },
  {
    "name": "Aincourt",
    "code": "95008",
    "epci_code": "249500513",
    "departement_code": "95",
    "region_code": "11",
    "postal_code": "95510"
  },
  {
    "name": "Ambleville",
    "code": "95011",
    "epci_code": "249500513",
    "departement_code": "95",
    "region_code": "11",
    "postal_code": "95420"
  },
  {
    "name": "Ambleville",
    "code": "95011",
    "epci_code": "249500513",
    "departement_code": "95",
    "region_code": "11",
    "postal_code": "95710"
  },
  {
    "name": "Amenucourt",
    "code": "95012",
    "epci_code": "249500513",
    "departement_code": "95",
    "region_code": "11",
    "postal_code": "95510"
  },
  {
    "name": "Andilly",
    "code": "95014",
    "epci_code": "200056380",
    "departement_code": "95",
    "region_code": "11",
    "postal_code": "95580"
  },
  {
    "name": "Argenteuil",
    "code": "95018",
    "epci_code": "200054781",
    "departement_code": "95",
    "region_code": "11",
    "postal_code": "95100"
  },
  {
    "name": "Arnouville",
    "code": "95019",
    "epci_code": "200055655",
    "departement_code": "95",
    "region_code": "11",
    "postal_code": "95400"
  },
  {
    "name": "Arronville",
    "code": "95023",
    "epci_code": "249500430",
    "departement_code": "95",
    "region_code": "11",
    "postal_code": "95810"
  },
  {
    "name": "Arthies",
    "code": "95024",
    "epci_code": "249500513",
    "departement_code": "95",
    "region_code": "11",
    "postal_code": "95420"
  },
  {
    "name": "Asnières-sur-Oise",
    "code": "95026",
    "epci_code": "200073013",
    "departement_code": "95",
    "region_code": "11",
    "postal_code": "95270"
  },
  {
    "name": "Attainville",
    "code": "95028",
    "epci_code": "200056380",
    "departement_code": "95",
    "region_code": "11",
    "postal_code": "95570"
  },
  {
    "name": "Auvers-sur-Oise",
    "code": "95039",
    "epci_code": "249500430",
    "departement_code": "95",
    "region_code": "11",
    "postal_code": "95430"
  },
  {
    "name": "Avernes",
    "code": "95040",
    "epci_code": "200035970",
    "departement_code": "95",
    "region_code": "11",
    "postal_code": "95450"
  },
  {
    "name": "Baillet-en-France",
    "code": "95042",
    "epci_code": "200073013",
    "departement_code": "95",
    "region_code": "11",
    "postal_code": "95560"
  },
  {
    "name": "Banthelu",
    "code": "95046",
    "epci_code": "249500513",
    "departement_code": "95",
    "region_code": "11",
    "postal_code": "95420"
  },
  {
    "name": "Beauchamp",
    "code": "95051",
    "epci_code": "200058485",
    "departement_code": "95",
    "region_code": "11",
    "postal_code": "95250"
  },
  {
    "name": "Beaumont-sur-Oise",
    "code": "95052",
    "epci_code": "249500489",
    "departement_code": "95",
    "region_code": "11",
    "postal_code": "95260"
  },
  {
    "name": "Le Bellay-en-Vexin",
    "code": "95054",
    "epci_code": "200035970",
    "departement_code": "95",
    "region_code": "11",
    "postal_code": "95750"
  },
  {
    "name": "Bellefontaine",
    "code": "95055",
    "epci_code": "200073013",
    "departement_code": "95",
    "region_code": "11",
    "postal_code": "95270"
  },
  {
    "name": "Belloy-en-France",
    "code": "95056",
    "epci_code": "200073013",
    "departement_code": "95",
    "region_code": "11",
    "postal_code": "95270"
  },
  {
    "name": "Bernes-sur-Oise",
    "code": "95058",
    "epci_code": "249500489",
    "departement_code": "95",
    "region_code": "11",
    "postal_code": "95340"
  },
  {
    "name": "Berville",
    "code": "95059",
    "epci_code": "200035970",
    "departement_code": "95",
    "region_code": "11",
    "postal_code": "95810"
  },
  {
    "name": "Bessancourt",
    "code": "95060",
    "epci_code": "200058485",
    "departement_code": "95",
    "region_code": "11",
    "postal_code": "95550"
  },
  {
    "name": "Béthemont-la-Forêt",
    "code": "95061",
    "epci_code": "249500455",
    "departement_code": "95",
    "region_code": "11",
    "postal_code": "95840"
  },
  {
    "name": "Bezons",
    "code": "95063",
    "epci_code": "200058519",
    "departement_code": "95",
    "region_code": "11",
    "postal_code": "95870"
  },
  {
    "name": "Boisemont",
    "code": "95074",
    "epci_code": "249500109",
    "departement_code": "95",
    "region_code": "11",
    "postal_code": "95000"
  },
  {
    "name": "Boissy-l’Aillerie",
    "code": "95078",
    "epci_code": "200035970",
    "departement_code": "95",
    "region_code": "11",
    "postal_code": "95650"
  },
  {
    "name": "Bonneuil-en-France",
    "code": "95088",
    "epci_code": "200055655",
    "departement_code": "95",
    "region_code": "11",
    "postal_code": "95500"
  },
  {
    "name": "Bouffémont",
    "code": "95091",
    "epci_code": "200056380",
    "departement_code": "95",
    "region_code": "11",
    "postal_code": "95570"
  },
  {
    "name": "Bouqueval",
    "code": "95094",
    "epci_code": "200055655",
    "departement_code": "95",
    "region_code": "11",
    "postal_code": "95720"
  },
  {
    "name": "Bray-et-Lû",
    "code": "95101",
    "epci_code": "249500513",
    "departement_code": "95",
    "region_code": "11",
    "postal_code": "95710"
  },
  {
    "name": "Bréançon",
    "code": "95102",
    "epci_code": "200035970",
    "departement_code": "95",
    "region_code": "11",
    "postal_code": "95640"
  },
  {
    "name": "Brignancourt",
    "code": "95110",
    "epci_code": "200035970",
    "departement_code": "95",
    "region_code": "11",
    "postal_code": "95640"
  },
  {
    "name": "Bruyères-sur-Oise",
    "code": "95116",
    "epci_code": "249500489",
    "departement_code": "95",
    "region_code": "11",
    "postal_code": "95820"
  },
  {
    "name": "Buhy",
    "code": "95119",
    "epci_code": "249500513",
    "departement_code": "95",
    "region_code": "11",
    "postal_code": "95770"
  },
  {
    "name": "Butry-sur-Oise",
    "code": "95120",
    "epci_code": "249500430",
    "departement_code": "95",
    "region_code": "11",
    "postal_code": "95430"
  },
  {
    "name": "Cergy",
    "code": "95127",
    "epci_code": "249500109",
    "departement_code": "95",
    "region_code": "11",
    "postal_code": "95000"
  },
  {
    "name": "Cergy",
    "code": "95127",
    "epci_code": "249500109",
    "departement_code": "95",
    "region_code": "11",
    "postal_code": "95800"
  },
  {
    "name": "Champagne-sur-Oise",
    "code": "95134",
    "epci_code": "249500489",
    "departement_code": "95",
    "region_code": "11",
    "postal_code": "95660"
  },
  {
    "name": "La Chapelle-en-Vexin",
    "code": "95139",
    "epci_code": "249500513",
    "departement_code": "95",
    "region_code": "11",
    "postal_code": "95420"
  },
  {
    "name": "Charmont",
    "code": "95141",
    "epci_code": "249500513",
    "departement_code": "95",
    "region_code": "11",
    "postal_code": "95420"
  },
  {
    "name": "Chars",
    "code": "95142",
    "epci_code": "200035970",
    "departement_code": "95",
    "region_code": "11",
    "postal_code": "95750"
  },
  {
    "name": "Châtenay-en-France",
    "code": "95144",
    "epci_code": "200073013",
    "departement_code": "95",
    "region_code": "11",
    "postal_code": "95190"
  },
  {
    "name": "Chaumontel",
    "code": "95149",
    "epci_code": "200073013",
    "departement_code": "95",
    "region_code": "11",
    "postal_code": "95270"
  },
  {
    "name": "Chaussy",
    "code": "95150",
    "epci_code": "249500513",
    "departement_code": "95",
    "region_code": "11",
    "postal_code": "95710"
  },
  {
    "name": "Chauvry",
    "code": "95151",
    "epci_code": "249500455",
    "departement_code": "95",
    "region_code": "11",
    "postal_code": "95560"
  },
  {
    "name": "Chennevières-lès-Louvres",
    "code": "95154",
    "epci_code": "200055655",
    "departement_code": "95",
    "region_code": "11",
    "postal_code": "95380"
  },
  {
    "name": "Chérence",
    "code": "95157",
    "epci_code": "249500513",
    "departement_code": "95",
    "region_code": "11",
    "postal_code": "95510"
  },
  {
    "name": "Cléry-en-Vexin",
    "code": "95166",
    "epci_code": "200035970",
    "departement_code": "95",
    "region_code": "11",
    "postal_code": "95420"
  },
  {
    "name": "Commeny",
    "code": "95169",
    "epci_code": "200035970",
    "departement_code": "95",
    "region_code": "11",
    "postal_code": "95450"
  },
  {
    "name": "Condécourt",
    "code": "95170",
    "epci_code": "200035970",
    "departement_code": "95",
    "region_code": "11",
    "postal_code": "95450"
  },
  {
    "name": "Cormeilles-en-Parisis",
    "code": "95176",
    "epci_code": "200058485",
    "departement_code": "95",
    "region_code": "11",
    "postal_code": "95240"
  },
  {
    "name": "Cormeilles-en-Vexin",
    "code": "95177",
    "epci_code": "200035970",
    "departement_code": "95",
    "region_code": "11",
    "postal_code": "95830"
  },
  {
    "name": "Courcelles-sur-Viosne",
    "code": "95181",
    "epci_code": "200035970",
    "departement_code": "95",
    "region_code": "11",
    "postal_code": "95650"
  },
  {
    "name": "Courdimanche",
    "code": "95183",
    "epci_code": "249500109",
    "departement_code": "95",
    "region_code": "11",
    "postal_code": "95800"
  },
  {
    "name": "Deuil-la-Barre",
    "code": "95197",
    "epci_code": "200056380",
    "departement_code": "95",
    "region_code": "11",
    "postal_code": "95170"
  },
  {
    "name": "Domont",
    "code": "95199",
    "epci_code": "200056380",
    "departement_code": "95",
    "region_code": "11",
    "postal_code": "95330"
  },
  {
    "name": "Eaubonne",
    "code": "95203",
    "epci_code": "200058485",
    "departement_code": "95",
    "region_code": "11",
    "postal_code": "95600"
  },
  {
    "name": "Écouen",
    "code": "95205",
    "epci_code": "200055655",
    "departement_code": "95",
    "region_code": "11",
    "postal_code": "95440"
  },
  {
    "name": "Enghien-les-Bains",
    "code": "95210",
    "epci_code": "200056380",
    "departement_code": "95",
    "region_code": "11",
    "postal_code": "95880"
  },
  {
    "name": "Ennery",
    "code": "95211",
    "epci_code": "249500430",
    "departement_code": "95",
    "region_code": "11",
    "postal_code": "95300"
  },
  {
    "name": "Épiais-lès-Louvres",
    "code": "95212",
    "epci_code": "200055655",
    "departement_code": "95",
    "region_code": "11",
    "postal_code": "95380"
  },
  {
    "name": "Épiais-Rhus",
    "code": "95213",
    "epci_code": "249500430",
    "departement_code": "95",
    "region_code": "11",
    "postal_code": "95810"
  },
  {
    "name": "Épinay-Champlâtreux",
    "code": "95214",
    "epci_code": "200073013",
    "departement_code": "95",
    "region_code": "11",
    "postal_code": "95270"
  },
  {
    "name": "Éragny",
    "code": "95218",
    "epci_code": "249500109",
    "departement_code": "95",
    "region_code": "11",
    "postal_code": "95610"
  },
  {
    "name": "Ermont",
    "code": "95219",
    "epci_code": "200058485",
    "departement_code": "95",
    "region_code": "11",
    "postal_code": "95120"
  },
  {
    "name": "Ézanville",
    "code": "95229",
    "epci_code": "200056380",
    "departement_code": "95",
    "region_code": "11",
    "postal_code": "95460"
  },
  {
    "name": "Fontenay-en-Parisis",
    "code": "95241",
    "epci_code": "200055655",
    "departement_code": "95",
    "region_code": "11",
    "postal_code": "95190"
  },
  {
    "name": "Fosses",
    "code": "95250",
    "epci_code": "200055655",
    "departement_code": "95",
    "region_code": "11",
    "postal_code": "95470"
  },
  {
    "name": "Franconville",
    "code": "95252",
    "epci_code": "200058485",
    "departement_code": "95",
    "region_code": "11",
    "postal_code": "95130"
  },
  {
    "name": "Frémainville",
    "code": "95253",
    "epci_code": "200035970",
    "departement_code": "95",
    "region_code": "11",
    "postal_code": "95450"
  },
  {
    "name": "Frémécourt",
    "code": "95254",
    "epci_code": "200035970",
    "departement_code": "95",
    "region_code": "11",
    "postal_code": "95830"
  },
  {
    "name": "Frépillon",
    "code": "95256",
    "epci_code": "200058485",
    "departement_code": "95",
    "region_code": "11",
    "postal_code": "95740"
  },
  {
    "name": "La Frette-sur-Seine",
    "code": "95257",
    "epci_code": "200058485",
    "departement_code": "95",
    "region_code": "11",
    "postal_code": "95530"
  },
  {
    "name": "Frouville",
    "code": "95258",
    "epci_code": "249500430",
    "departement_code": "95",
    "region_code": "11",
    "postal_code": "95690"
  },
  {
    "name": "Garges-lès-Gonesse",
    "code": "95268",
    "epci_code": "200055655",
    "departement_code": "95",
    "region_code": "11",
    "postal_code": "95140"
  },
  {
    "name": "Genainville",
    "code": "95270",
    "epci_code": "249500513",
    "departement_code": "95",
    "region_code": "11",
    "postal_code": "95420"
  },
  {
    "name": "Génicourt",
    "code": "95271",
    "epci_code": "249500430",
    "departement_code": "95",
    "region_code": "11",
    "postal_code": "95650"
  },
  {
    "name": "Gonesse",
    "code": "95277",
    "epci_code": "200055655",
    "departement_code": "95",
    "region_code": "11",
    "postal_code": "95500"
  },
  {
    "name": "Goussainville",
    "code": "95280",
    "epci_code": "200055655",
    "departement_code": "95",
    "region_code": "11",
    "postal_code": "95190"
  },
  {
    "name": "Grisy-les-Plâtres",
    "code": "95287",
    "epci_code": "200035970",
    "departement_code": "95",
    "region_code": "11",
    "postal_code": "95810"
  },
  {
    "name": "Groslay",
    "code": "95288",
    "epci_code": "200056380",
    "departement_code": "95",
    "region_code": "11",
    "postal_code": "95410"
  },
  {
    "name": "Guiry-en-Vexin",
    "code": "95295",
    "epci_code": "200035970",
    "departement_code": "95",
    "region_code": "11",
    "postal_code": "95450"
  },
  {
    "name": "Haravilliers",
    "code": "95298",
    "epci_code": "200035970",
    "departement_code": "95",
    "region_code": "11",
    "postal_code": "95640"
  },
  {
    "name": "Haute-Isle",
    "code": "95301",
    "epci_code": "249500513",
    "departement_code": "95",
    "region_code": "11",
    "postal_code": "95780"
  },
  {
    "name": "Le Heaulme",
    "code": "95303",
    "epci_code": "200035970",
    "departement_code": "95",
    "region_code": "11",
    "postal_code": "95640"
  },
  {
    "name": "Hédouville",
    "code": "95304",
    "epci_code": "249500430",
    "departement_code": "95",
    "region_code": "11",
    "postal_code": "95690"
  },
  {
    "name": "Herblay-sur-Seine",
    "code": "95306",
    "epci_code": "200058485",
    "departement_code": "95",
    "region_code": "11",
    "postal_code": "95220"
  },
  {
    "name": "Hérouville-en-Vexin",
    "code": "95308",
    "epci_code": "249500430",
    "departement_code": "95",
    "region_code": "11",
    "postal_code": "95300"
  },
  {
    "name": "Hodent",
    "code": "95309",
    "epci_code": "249500513",
    "departement_code": "95",
    "region_code": "11",
    "postal_code": "95420"
  },
  {
    "name": "L’Isle-Adam",
    "code": "95313",
    "epci_code": "249500455",
    "departement_code": "95",
    "region_code": "11",
    "postal_code": "95290"
  },
  {
    "name": "Jagny-sous-Bois",
    "code": "95316",
    "epci_code": "200073013",
    "departement_code": "95",
    "region_code": "11",
    "postal_code": "95850"
  },
  {
    "name": "Jouy-le-Moutier",
    "code": "95323",
    "epci_code": "249500109",
    "departement_code": "95",
    "region_code": "11",
    "postal_code": "95280"
  },
  {
    "name": "Labbeville",
    "code": "95328",
    "epci_code": "249500430",
    "departement_code": "95",
    "region_code": "11",
    "postal_code": "95690"
  },
  {
    "name": "Lassy",
    "code": "95331",
    "epci_code": "200073013",
    "departement_code": "95",
    "region_code": "11",
    "postal_code": "95270"
  },
  {
    "name": "Livilliers",
    "code": "95341",
    "epci_code": "249500430",
    "departement_code": "95",
    "region_code": "11",
    "postal_code": "95300"
  },
  {
    "name": "Longuesse",
    "code": "95348",
    "epci_code": "200035970",
    "departement_code": "95",
    "region_code": "11",
    "postal_code": "95450"
  },
  {
    "name": "Louvres",
    "code": "95351",
    "epci_code": "200055655",
    "departement_code": "95",
    "region_code": "11",
    "postal_code": "95380"
  },
  {
    "name": "Luzarches",
    "code": "95352",
    "epci_code": "200073013",
    "departement_code": "95",
    "region_code": "11",
    "postal_code": "95270"
  },
  {
    "name": "Maffliers",
    "code": "95353",
    "epci_code": "200073013",
    "departement_code": "95",
    "region_code": "11",
    "postal_code": "95560"
  },
  {
    "name": "Magny-en-Vexin",
    "code": "95355",
    "epci_code": "249500513",
    "departement_code": "95",
    "region_code": "11",
    "postal_code": "95420"
  },
  {
    "name": "Mareil-en-France",
    "code": "95365",
    "epci_code": "200073013",
    "departement_code": "95",
    "region_code": "11",
    "postal_code": "95850"
  },
  {
    "name": "Margency",
    "code": "95369",
    "epci_code": "200056380",
    "departement_code": "95",
    "region_code": "11",
    "postal_code": "95580"
  },
  {
    "name": "Marines",
    "code": "95370",
    "epci_code": "200035970",
    "departement_code": "95",
    "region_code": "11",
    "postal_code": "95640"
  },
  {
    "name": "Marly-la-Ville",
    "code": "95371",
    "epci_code": "200055655",
    "departement_code": "95",
    "region_code": "11",
    "postal_code": "95670"
  },
  {
    "name": "Maudétour-en-Vexin",
    "code": "95379",
    "epci_code": "249500513",
    "departement_code": "95",
    "region_code": "11",
    "postal_code": "95420"
  },
  {
    "name": "Menouville",
    "code": "95387",
    "epci_code": "249500430",
    "departement_code": "95",
    "region_code": "11",
    "postal_code": "95810"
  },
  {
    "name": "Menucourt",
    "code": "95388",
    "epci_code": "249500109",
    "departement_code": "95",
    "region_code": "11",
    "postal_code": "95180"
  },
  {
    "name": "Mériel",
    "code": "95392",
    "epci_code": "249500455",
    "departement_code": "95",
    "region_code": "11",
    "postal_code": "95630"
  },
  {
    "name": "Méry-sur-Oise",
    "code": "95394",
    "epci_code": "249500455",
    "departement_code": "95",
    "region_code": "11",
    "postal_code": "95540"
  },
  {
    "name": "Le Mesnil-Aubry",
    "code": "95395",
    "epci_code": "200055655",
    "departement_code": "95",
    "region_code": "11",
    "postal_code": "95720"
  },
  {
    "name": "Moisselles",
    "code": "95409",
    "epci_code": "200056380",
    "departement_code": "95",
    "region_code": "11",
    "postal_code": "95570"
  },
  {
    "name": "Montgeroult",
    "code": "95422",
    "epci_code": "200035970",
    "departement_code": "95",
    "region_code": "11",
    "postal_code": "95650"
  },
  {
    "name": "Montigny-lès-Cormeilles",
    "code": "95424",
    "epci_code": "200058485",
    "departement_code": "95",
    "region_code": "11",
    "postal_code": "95370"
  },
  {
    "name": "Montlignon",
    "code": "95426",
    "epci_code": "200056380",
    "departement_code": "95",
    "region_code": "11",
    "postal_code": "95680"
  },
  {
    "name": "Montmagny",
    "code": "95427",
    "epci_code": "200056380",
    "departement_code": "95",
    "region_code": "11",
    "postal_code": "95360"
  },
  {
    "name": "Montmorency",
    "code": "95428",
    "epci_code": "200056380",
    "departement_code": "95",
    "region_code": "11",
    "postal_code": "95160"
  },
  {
    "name": "Montreuil-sur-Epte",
    "code": "95429",
    "epci_code": "249500513",
    "departement_code": "95",
    "region_code": "11",
    "postal_code": "95770"
  },
  {
    "name": "Montsoult",
    "code": "95430",
    "epci_code": "200073013",
    "departement_code": "95",
    "region_code": "11",
    "postal_code": "95560"
  },
  {
    "name": "Mours",
    "code": "95436",
    "epci_code": "249500489",
    "departement_code": "95",
    "region_code": "11",
    "postal_code": "95260"
  },
  {
    "name": "Moussy",
    "code": "95438",
    "epci_code": "200035970",
    "departement_code": "95",
    "region_code": "11",
    "postal_code": "95640"
  },
  {
    "name": "Nerville-la-Forêt",
    "code": "95445",
    "epci_code": "249500455",
    "departement_code": "95",
    "region_code": "11",
    "postal_code": "95590"
  },
  {
    "name": "Nesles-la-Vallée",
    "code": "95446",
    "epci_code": "249500430",
    "departement_code": "95",
    "region_code": "11",
    "postal_code": "95690"
  },
  {
    "name": "Neuilly-en-Vexin",
    "code": "95447",
    "epci_code": "200035970",
    "departement_code": "95",
    "region_code": "11",
    "postal_code": "95640"
  },
  {
    "name": "Neuville-sur-Oise",
    "code": "95450",
    "epci_code": "249500109",
    "departement_code": "95",
    "region_code": "11",
    "postal_code": "95000"
  },
  {
    "name": "Nointel",
    "code": "95452",
    "epci_code": "249500489",
    "departement_code": "95",
    "region_code": "11",
    "postal_code": "95590"
  },
  {
    "name": "Noisy-sur-Oise",
    "code": "95456",
    "epci_code": "249500489",
    "departement_code": "95",
    "region_code": "11",
    "postal_code": "95270"
  },
  {
    "name": "Nucourt",
    "code": "95459",
    "epci_code": "200035970",
    "departement_code": "95",
    "region_code": "11",
    "postal_code": "95420"
  },
  {
    "name": "Omerville",
    "code": "95462",
    "epci_code": "249500513",
    "departement_code": "95",
    "region_code": "11",
    "postal_code": "95420"
  },
  {
    "name": "Osny",
    "code": "95476",
    "epci_code": "249500109",
    "departement_code": "95",
    "region_code": "11",
    "postal_code": "95520"
  },
  {
    "name": "Parmain",
    "code": "95480",
    "epci_code": "249500455",
    "departement_code": "95",
    "region_code": "11",
    "postal_code": "95620"
  },
  {
    "name": "Le Perchay",
    "code": "95483",
    "epci_code": "200035970",
    "departement_code": "95",
    "region_code": "11",
    "postal_code": "95450"
  },
  {
    "name": "Persan",
    "code": "95487",
    "epci_code": "249500489",
    "departement_code": "95",
    "region_code": "11",
    "postal_code": "95340"
  },
  {
    "name": "Pierrelaye",
    "code": "95488",
    "epci_code": "200058485",
    "departement_code": "95",
    "region_code": "11",
    "postal_code": "95220"
  },
  {
    "name": "Pierrelaye",
    "code": "95488",
    "epci_code": "200058485",
    "departement_code": "95",
    "region_code": "11",
    "postal_code": "95480"
  },
  {
    "name": "Piscop",
    "code": "95489",
    "epci_code": "200056380",
    "departement_code": "95",
    "region_code": "11",
    "postal_code": "95350"
  },
  {
    "name": "Le Plessis-Bouchard",
    "code": "95491",
    "epci_code": "200058485",
    "departement_code": "95",
    "region_code": "11",
    "postal_code": "95130"
  },
  {
    "name": "Le Plessis-Gassot",
    "code": "95492",
    "epci_code": "200055655",
    "departement_code": "95",
    "region_code": "11",
    "postal_code": "95720"
  },
  {
    "name": "Le Plessis-Luzarches",
    "code": "95493",
    "epci_code": "200073013",
    "departement_code": "95",
    "region_code": "11",
    "postal_code": "95270"
  },
  {
    "name": "Pontoise",
    "code": "95500",
    "epci_code": "249500109",
    "departement_code": "95",
    "region_code": "11",
    "postal_code": "95000"
  },
  {
    "name": "Pontoise",
    "code": "95500",
    "epci_code": "249500109",
    "departement_code": "95",
    "region_code": "11",
    "postal_code": "95300"
  },
  {
    "name": "Presles",
    "code": "95504",
    "epci_code": "249500455",
    "departement_code": "95",
    "region_code": "11",
    "postal_code": "95590"
  },
  {
    "name": "Puiseux-en-France",
    "code": "95509",
    "epci_code": "200055655",
    "departement_code": "95",
    "region_code": "11",
    "postal_code": "95380"
  },
  {
    "name": "Puiseux-Pontoise",
    "code": "95510",
    "epci_code": "249500109",
    "departement_code": "95",
    "region_code": "11",
    "postal_code": "95650"
  },
  {
    "name": "La Roche-Guyon",
    "code": "95523",
    "epci_code": "249500513",
    "departement_code": "95",
    "region_code": "11",
    "postal_code": "95780"
  },
  {
    "name": "Roissy-en-France",
    "code": "95527",
    "epci_code": "200055655",
    "departement_code": "95",
    "region_code": "11",
    "postal_code": "95700"
  },
  {
    "name": "Ronquerolles",
    "code": "95529",
    "epci_code": "249500489",
    "departement_code": "95",
    "region_code": "11",
    "postal_code": "95340"
  },
  {
    "name": "Sagy",
    "code": "95535",
    "epci_code": "200035970",
    "departement_code": "95",
    "region_code": "11",
    "postal_code": "95450"
  },
  {
    "name": "Saint-Brice-sous-Forêt",
    "code": "95539",
    "epci_code": "200056380",
    "departement_code": "95",
    "region_code": "11",
    "postal_code": "95350"
  },
  {
    "name": "Saint-Clair-sur-Epte",
    "code": "95541",
    "epci_code": "249500513",
    "departement_code": "95",
    "region_code": "11",
    "postal_code": "95770"
  },
  {
    "name": "Saint-Cyr-en-Arthies",
    "code": "95543",
    "epci_code": "249500513",
    "departement_code": "95",
    "region_code": "11",
    "postal_code": "95510"
  },
  {
    "name": "Saint-Gervais",
    "code": "95554",
    "epci_code": "249500513",
    "departement_code": "95",
    "region_code": "11",
    "postal_code": "95420"
  },
  {
    "name": "Saint-Gratien",
    "code": "95555",
    "epci_code": "200056380",
    "departement_code": "95",
    "region_code": "11",
    "postal_code": "95210"
  },
  {
    "name": "Saint-Leu-la-Forêt",
    "code": "95563",
    "epci_code": "200058485",
    "departement_code": "95",
    "region_code": "11",
    "postal_code": "95320"
  },
  {
    "name": "Saint-Martin-du-Tertre",
    "code": "95566",
    "epci_code": "200073013",
    "departement_code": "95",
    "region_code": "11",
    "postal_code": "95270"
  },
  {
    "name": "Saint-Ouen-l’Aumône",
    "code": "95572",
    "epci_code": "249500109",
    "departement_code": "95",
    "region_code": "11",
    "postal_code": "95310"
  },
  {
    "name": "Saint-Prix",
    "code": "95574",
    "epci_code": "200056380",
    "departement_code": "95",
    "region_code": "11",
    "postal_code": "95390"
  },
  {
    "name": "Saint-Witz",
    "code": "95580",
    "epci_code": "200055655",
    "departement_code": "95",
    "region_code": "11",
    "postal_code": "95470"
  },
  {
    "name": "Sannois",
    "code": "95582",
    "epci_code": "200058485",
    "departement_code": "95",
    "region_code": "11",
    "postal_code": "95110"
  },
  {
    "name": "Santeuil",
    "code": "95584",
    "epci_code": "200035970",
    "departement_code": "95",
    "region_code": "11",
    "postal_code": "95640"
  },
  {
    "name": "Sarcelles",
    "code": "95585",
    "epci_code": "200055655",
    "departement_code": "95",
    "region_code": "11",
    "postal_code": "95200"
  },
  {
    "name": "Seraincourt",
    "code": "95592",
    "epci_code": "200035970",
    "departement_code": "95",
    "region_code": "11",
    "postal_code": "95450"
  },
  {
    "name": "Seugy",
    "code": "95594",
    "epci_code": "200073013",
    "departement_code": "95",
    "region_code": "11",
    "postal_code": "95270"
  },
  {
    "name": "Soisy-sous-Montmorency",
    "code": "95598",
    "epci_code": "200056380",
    "departement_code": "95",
    "region_code": "11",
    "postal_code": "95230"
  },
  {
    "name": "Survilliers",
    "code": "95604",
    "epci_code": "200055655",
    "departement_code": "95",
    "region_code": "11",
    "postal_code": "95470"
  },
  {
    "name": "Taverny",
    "code": "95607",
    "epci_code": "200058485",
    "departement_code": "95",
    "region_code": "11",
    "postal_code": "95150"
  },
  {
    "name": "Théméricourt",
    "code": "95610",
    "epci_code": "200035970",
    "departement_code": "95",
    "region_code": "11",
    "postal_code": "95450"
  },
  {
    "name": "Theuville",
    "code": "95611",
    "epci_code": "200035970",
    "departement_code": "95",
    "region_code": "11",
    "postal_code": "95810"
  },
  {
    "name": "Le Thillay",
    "code": "95612",
    "epci_code": "200055655",
    "departement_code": "95",
    "region_code": "11",
    "postal_code": "95500"
  },
  {
    "name": "Us",
    "code": "95625",
    "epci_code": "200035970",
    "departement_code": "95",
    "region_code": "11",
    "postal_code": "95450"
  },
  {
    "name": "Vallangoujard",
    "code": "95627",
    "epci_code": "249500430",
    "departement_code": "95",
    "region_code": "11",
    "postal_code": "95810"
  },
  {
    "name": "Valmondois",
    "code": "95628",
    "epci_code": "249500430",
    "departement_code": "95",
    "region_code": "11",
    "postal_code": "95760"
  },
  {
    "name": "Vaudherland",
    "code": "95633",
    "epci_code": "200055655",
    "departement_code": "95",
    "region_code": "11",
    "postal_code": "95500"
  },
  {
    "name": "Vauréal",
    "code": "95637",
    "epci_code": "249500109",
    "departement_code": "95",
    "region_code": "11",
    "postal_code": "95490"
  },
  {
    "name": "Vémars",
    "code": "95641",
    "epci_code": "200055655",
    "departement_code": "95",
    "region_code": "11",
    "postal_code": "95470"
  },
  {
    "name": "Vétheuil",
    "code": "95651",
    "epci_code": "249500513",
    "departement_code": "95",
    "region_code": "11",
    "postal_code": "95510"
  },
  {
    "name": "Viarmes",
    "code": "95652",
    "epci_code": "200073013",
    "departement_code": "95",
    "region_code": "11",
    "postal_code": "95270"
  },
  {
    "name": "Vienne-en-Arthies",
    "code": "95656",
    "epci_code": "249500513",
    "departement_code": "95",
    "region_code": "11",
    "postal_code": "95510"
  },
  {
    "name": "Vigny",
    "code": "95658",
    "epci_code": "200035970",
    "departement_code": "95",
    "region_code": "11",
    "postal_code": "95450"
  },
  {
    "name": "Villaines-sous-Bois",
    "code": "95660",
    "epci_code": "200073013",
    "departement_code": "95",
    "region_code": "11",
    "postal_code": "95570"
  },
  {
    "name": "Villeron",
    "code": "95675",
    "epci_code": "200055655",
    "departement_code": "95",
    "region_code": "11",
    "postal_code": "95380"
  },
  {
    "name": "Villers-en-Arthies",
    "code": "95676",
    "epci_code": "249500513",
    "departement_code": "95",
    "region_code": "11",
    "postal_code": "95510"
  },
  {
    "name": "Villiers-Adam",
    "code": "95678",
    "epci_code": "249500455",
    "departement_code": "95",
    "region_code": "11",
    "postal_code": "95840"
  },
  {
    "name": "Villiers-le-Bel",
    "code": "95680",
    "epci_code": "200055655",
    "departement_code": "95",
    "region_code": "11",
    "postal_code": "95400"
  },
  {
    "name": "Villiers-le-Sec",
    "code": "95682",
    "epci_code": "200073013",
    "departement_code": "95",
    "region_code": "11",
    "postal_code": "95720"
  },
  {
    "name": "Wy-dit-Joli-Village",
    "code": "95690",
    "epci_code": "249500513",
    "departement_code": "95",
    "region_code": "11",
    "postal_code": "95420"
  }
]