[
  {
    "name": "Ageville",
    "code": "52001",
    "epci_code": "200068658",
    "departement_code": "52",
    "region_code": "44",
    "postal_code": "52340"
  },
  {
    "name": "Aigremont",
    "code": "52002",
    "epci_code": "200070332",
    "departement_code": "52",
    "region_code": "44",
    "postal_code": "52400"
  },
  {
    "name": "Aillianville",
    "code": "52003",
    "epci_code": "200069664",
    "departement_code": "52",
    "region_code": "44",
    "postal_code": "52700"
  },
  {
    "name": "Aingoulaincourt",
    "code": "52004",
    "epci_code": "200044253",
    "departement_code": "52",
    "region_code": "44",
    "postal_code": "52230"
  },
  {
    "name": "Aizanville",
    "code": "52005",
    "epci_code": "245200597",
    "departement_code": "52",
    "region_code": "44",
    "postal_code": "52120"
  },
  {
    "name": "Allichamps",
    "code": "52006",
    "epci_code": "200068666",
    "departement_code": "52",
    "region_code": "44",
    "postal_code": "52130"
  },
  {
    "name": "Ambonville",
    "code": "52007",
    "epci_code": "200044253",
    "departement_code": "52",
    "region_code": "44",
    "postal_code": "52110"
  },
  {
    "name": "Andelot-Blancheville",
    "code": "52008",
    "epci_code": "200069664",
    "departement_code": "52",
    "region_code": "44",
    "postal_code": "52700"
  },
  {
    "name": "Andilly-en-Bassigny",
    "code": "52009",
    "epci_code": "200072999",
    "departement_code": "52",
    "region_code": "44",
    "postal_code": "52360"
  },
  {
    "name": "Annéville-la-Prairie",
    "code": "52011",
    "epci_code": "200068658",
    "departement_code": "52",
    "region_code": "44",
    "postal_code": "52310"
  },
  {
    "name": "Annonville",
    "code": "52012",
    "epci_code": "200044253",
    "departement_code": "52",
    "region_code": "44",
    "postal_code": "52230"
  },
  {
    "name": "Anrosey",
    "code": "52013",
    "epci_code": "200070332",
    "departement_code": "52",
    "region_code": "44",
    "postal_code": "52500"
  },
  {
    "name": "Aprey",
    "code": "52014",
    "epci_code": "200027308",
    "departement_code": "52",
    "region_code": "44",
    "postal_code": "52250"
  },
  {
    "name": "Arbigny-sous-Varennes",
    "code": "52015",
    "epci_code": "200070332",
    "departement_code": "52",
    "region_code": "44",
    "postal_code": "52500"
  },
  {
    "name": "Arbot",
    "code": "52016",
    "epci_code": "200027308",
    "departement_code": "52",
    "region_code": "44",
    "postal_code": "52160"
  },
  {
    "name": "Arc-en-Barrois",
    "code": "52017",
    "epci_code": "245200597",
    "departement_code": "52",
    "region_code": "44",
    "postal_code": "52210"
  },
  {
    "name": "Arnancourt",
    "code": "52019",
    "epci_code": "200044253",
    "departement_code": "52",
    "region_code": "44",
    "postal_code": "52110"
  },
  {
    "name": "Attancourt",
    "code": "52021",
    "epci_code": "200068666",
    "departement_code": "52",
    "region_code": "44",
    "postal_code": "52130"
  },
  {
    "name": "Aubepierre-sur-Aube",
    "code": "52022",
    "epci_code": "245200597",
    "departement_code": "52",
    "region_code": "44",
    "postal_code": "52210"
  },
  {
    "name": "Auberive",
    "code": "52023",
    "epci_code": "200027308",
    "departement_code": "52",
    "region_code": "44",
    "postal_code": "52160"
  },
  {
    "name": "Audeloncourt",
    "code": "52025",
    "epci_code": "200069664",
    "departement_code": "52",
    "region_code": "44",
    "postal_code": "52240"
  },
  {
    "name": "Aujeurres",
    "code": "52027",
    "epci_code": "200027308",
    "departement_code": "52",
    "region_code": "44",
    "postal_code": "52190"
  },
  {
    "name": "Aulnoy-sur-Aube",
    "code": "52028",
    "epci_code": "200027308",
    "departement_code": "52",
    "region_code": "44",
    "postal_code": "52160"
  },
  {
    "name": "Autigny-le-Grand",
    "code": "52029",
    "epci_code": "200044253",
    "departement_code": "52",
    "region_code": "44",
    "postal_code": "52300"
  },
  {
    "name": "Autigny-le-Petit",
    "code": "52030",
    "epci_code": "200044253",
    "departement_code": "52",
    "region_code": "44",
    "postal_code": "52300"
  },
  {
    "name": "Autreville-sur-la-Renne",
    "code": "52031",
    "epci_code": "245200597",
    "departement_code": "52",
    "region_code": "44",
    "postal_code": "52120"
  },
  {
    "name": "Autreville-sur-la-Renne",
    "code": "52031",
    "epci_code": "245200597",
    "departement_code": "52",
    "region_code": "44",
    "postal_code": "52330"
  },
  {
    "name": "Avrecourt",
    "code": "52033",
    "epci_code": "200072999",
    "departement_code": "52",
    "region_code": "44",
    "postal_code": "52140"
  },
  {
    "name": "Bailly-aux-Forges",
    "code": "52034",
    "epci_code": "200068666",
    "departement_code": "52",
    "region_code": "44",
    "postal_code": "52130"
  },
  {
    "name": "Baissey",
    "code": "52035",
    "epci_code": "200027308",
    "departement_code": "52",
    "region_code": "44",
    "postal_code": "52250"
  },
  {
    "name": "Bannes",
    "code": "52037",
    "epci_code": "200072999",
    "departement_code": "52",
    "region_code": "44",
    "postal_code": "52360"
  },
  {
    "name": "Bassoncourt",
    "code": "52038",
    "epci_code": "200069664",
    "departement_code": "52",
    "region_code": "44",
    "postal_code": "52240"
  },
  {
    "name": "Baudrecourt",
    "code": "52039",
    "epci_code": "200044253",
    "departement_code": "52",
    "region_code": "44",
    "postal_code": "52110"
  },
  {
    "name": "Bay-sur-Aube",
    "code": "52040",
    "epci_code": "200027308",
    "departement_code": "52",
    "region_code": "44",
    "postal_code": "52160"
  },
  {
    "name": "Beauchemin",
    "code": "52042",
    "epci_code": "200072999",
    "departement_code": "52",
    "region_code": "44",
    "postal_code": "52260"
  },
  {
    "name": "Belmont",
    "code": "52043",
    "epci_code": "200070332",
    "departement_code": "52",
    "region_code": "44",
    "postal_code": "52500"
  },
  {
    "name": "Roches-Bettaincourt",
    "code": "52044",
    "epci_code": "200069664",
    "departement_code": "52",
    "region_code": "44",
    "postal_code": "52270"
  },
  {
    "name": "Bettancourt-la-Ferrée",
    "code": "52045",
    "epci_code": "200068666",
    "departement_code": "52",
    "region_code": "44",
    "postal_code": "52100"
  },
  {
    "name": "Beurville",
    "code": "52047",
    "epci_code": "200044253",
    "departement_code": "52",
    "region_code": "44",
    "postal_code": "52110"
  },
  {
    "name": "Biesles",
    "code": "52050",
    "epci_code": "200068658",
    "departement_code": "52",
    "region_code": "44",
    "postal_code": "52340"
  },
  {
    "name": "Bize",
    "code": "52051",
    "epci_code": "200070332",
    "departement_code": "52",
    "region_code": "44",
    "postal_code": "52500"
  },
  {
    "name": "Blaisy",
    "code": "52053",
    "epci_code": "200068658",
    "departement_code": "52",
    "region_code": "44",
    "postal_code": "52330"
  },
  {
    "name": "Blécourt",
    "code": "52055",
    "epci_code": "200044253",
    "departement_code": "52",
    "region_code": "44",
    "postal_code": "52300"
  },
  {
    "name": "Blessonville",
    "code": "52056",
    "epci_code": "245200597",
    "departement_code": "52",
    "region_code": "44",
    "postal_code": "52120"
  },
  {
    "name": "Blumeray",
    "code": "52057",
    "epci_code": "200044253",
    "departement_code": "52",
    "region_code": "44",
    "postal_code": "52110"
  },
  {
    "name": "Bologne",
    "code": "52058",
    "epci_code": "200068658",
    "departement_code": "52",
    "region_code": "44",
    "postal_code": "52310"
  },
  {
    "name": "Bonnecourt",
    "code": "52059",
    "epci_code": "200072999",
    "departement_code": "52",
    "region_code": "44",
    "postal_code": "52360"
  },
  {
    "name": "Bourbonne-les-Bains",
    "code": "52060",
    "epci_code": "200070332",
    "departement_code": "52",
    "region_code": "44",
    "postal_code": "52400"
  },
  {
    "name": "Bourdons-sur-Rognon",
    "code": "52061",
    "epci_code": "200069664",
    "departement_code": "52",
    "region_code": "44",
    "postal_code": "52700"
  },
  {
    "name": "Bourg",
    "code": "52062",
    "epci_code": "200072999",
    "departement_code": "52",
    "region_code": "44",
    "postal_code": "52200"
  },
  {
    "name": "Bourg-Sainte-Marie",
    "code": "52063",
    "epci_code": "200069664",
    "departement_code": "52",
    "region_code": "44",
    "postal_code": "52150"
  },
  {
    "name": "Bourmont-entre-Meuse-et-Mouzon",
    "code": "52064",
    "epci_code": "200069664",
    "departement_code": "52",
    "region_code": "44",
    "postal_code": "52150"
  },
  {
    "name": "Bouzancourt",
    "code": "52065",
    "epci_code": "200044253",
    "departement_code": "52",
    "region_code": "44",
    "postal_code": "52110"
  },
  {
    "name": "Brachay",
    "code": "52066",
    "epci_code": "200044253",
    "departement_code": "52",
    "region_code": "44",
    "postal_code": "52110"
  },
  {
    "name": "Brainville-sur-Meuse",
    "code": "52067",
    "epci_code": "200069664",
    "departement_code": "52",
    "region_code": "44",
    "postal_code": "52150"
  },
  {
    "name": "Braux-le-Châtel",
    "code": "52069",
    "epci_code": "245200597",
    "departement_code": "52",
    "region_code": "44",
    "postal_code": "52120"
  },
  {
    "name": "Brennes",
    "code": "52070",
    "epci_code": "200027308",
    "departement_code": "52",
    "region_code": "44",
    "postal_code": "52200"
  },
  {
    "name": "Brethenay",
    "code": "52072",
    "epci_code": "200068658",
    "departement_code": "52",
    "region_code": "44",
    "postal_code": "52000"
  },
  {
    "name": "Breuvannes-en-Bassigny",
    "code": "52074",
    "epci_code": "200069664",
    "departement_code": "52",
    "region_code": "44",
    "postal_code": "52240"
  },
  {
    "name": "Briaucourt",
    "code": "52075",
    "epci_code": "200068658",
    "departement_code": "52",
    "region_code": "44",
    "postal_code": "52700"
  },
  {
    "name": "Bricon",
    "code": "52076",
    "epci_code": "245200597",
    "departement_code": "52",
    "region_code": "44",
    "postal_code": "52120"
  },
  {
    "name": "Brousseval",
    "code": "52079",
    "epci_code": "200068666",
    "departement_code": "52",
    "region_code": "44",
    "postal_code": "52130"
  },
  {
    "name": "Bugnières",
    "code": "52082",
    "epci_code": "245200597",
    "departement_code": "52",
    "region_code": "44",
    "postal_code": "52210"
  },
  {
    "name": "Champsevraine",
    "code": "52083",
    "epci_code": "200070332",
    "departement_code": "52",
    "region_code": "44",
    "postal_code": "52500"
  },
  {
    "name": "Busson",
    "code": "52084",
    "epci_code": "200044253",
    "departement_code": "52",
    "region_code": "44",
    "postal_code": "52700"
  },
  {
    "name": "Buxières-lès-Clefmont",
    "code": "52085",
    "epci_code": "200072999",
    "departement_code": "52",
    "region_code": "44",
    "postal_code": "52240"
  },
  {
    "name": "Buxières-lès-Villiers",
    "code": "52087",
    "epci_code": "200068658",
    "departement_code": "52",
    "region_code": "44",
    "postal_code": "52000"
  },
  {
    "name": "Ceffonds",
    "code": "52088",
    "epci_code": "200068666",
    "departement_code": "52",
    "region_code": "44",
    "postal_code": "52220"
  },
  {
    "name": "Celles-en-Bassigny",
    "code": "52089",
    "epci_code": "200072999",
    "departement_code": "52",
    "region_code": "44",
    "postal_code": "52360"
  },
  {
    "name": "Celsoy",
    "code": "52090",
    "epci_code": "200070332",
    "departement_code": "52",
    "region_code": "44",
    "postal_code": "52600"
  },
  {
    "name": "Cerisières",
    "code": "52091",
    "epci_code": "200068658",
    "departement_code": "52",
    "region_code": "44",
    "postal_code": "52320"
  },
  {
    "name": "Chalancey",
    "code": "52092",
    "epci_code": "200027308",
    "departement_code": "52",
    "region_code": "44",
    "postal_code": "52160"
  },
  {
    "name": "Chalindrey",
    "code": "52093",
    "epci_code": "200070332",
    "departement_code": "52",
    "region_code": "44",
    "postal_code": "52600"
  },
  {
    "name": "Vals-des-Tilles",
    "code": "52094",
    "epci_code": "200027308",
    "departement_code": "52",
    "region_code": "44",
    "postal_code": "52160"
  },
  {
    "name": "Chalvraines",
    "code": "52095",
    "epci_code": "200069664",
    "departement_code": "52",
    "region_code": "44",
    "postal_code": "52700"
  },
  {
    "name": "Chambroncourt",
    "code": "52097",
    "epci_code": "200044253",
    "departement_code": "52",
    "region_code": "44",
    "postal_code": "52700"
  },
  {
    "name": "Chamouilley",
    "code": "52099",
    "epci_code": "200068666",
    "departement_code": "52",
    "region_code": "44",
    "postal_code": "52410"
  },
  {
    "name": "Champigneulles-en-Bassigny",
    "code": "52101",
    "epci_code": "200069664",
    "departement_code": "52",
    "region_code": "44",
    "postal_code": "52150"
  },
  {
    "name": "Champigny-lès-Langres",
    "code": "52102",
    "epci_code": "200072999",
    "departement_code": "52",
    "region_code": "44",
    "postal_code": "52200"
  },
  {
    "name": "Champigny-sous-Varennes",
    "code": "52103",
    "epci_code": "200070332",
    "departement_code": "52",
    "region_code": "44",
    "postal_code": "52400"
  },
  {
    "name": "Chancenay",
    "code": "52104",
    "epci_code": "200068666",
    "departement_code": "52",
    "region_code": "44",
    "postal_code": "52100"
  },
  {
    "name": "Changey",
    "code": "52105",
    "epci_code": "200072999",
    "departement_code": "52",
    "region_code": "44",
    "postal_code": "52360"
  },
  {
    "name": "Chanoy",
    "code": "52106",
    "epci_code": "200072999",
    "departement_code": "52",
    "region_code": "44",
    "postal_code": "52260"
  },
  {
    "name": "Chantraines",
    "code": "52107",
    "epci_code": "200069664",
    "departement_code": "52",
    "region_code": "44",
    "postal_code": "52700"
  },
  {
    "name": "Charmes",
    "code": "52108",
    "epci_code": "200072999",
    "departement_code": "52",
    "region_code": "44",
    "postal_code": "52360"
  },
  {
    "name": "Charmes-en-l’Angle",
    "code": "52109",
    "epci_code": "200044253",
    "departement_code": "52",
    "region_code": "44",
    "postal_code": "52110"
  },
  {
    "name": "Charmes-la-Grande",
    "code": "52110",
    "epci_code": "200044253",
    "departement_code": "52",
    "region_code": "44",
    "postal_code": "52110"
  },
  {
    "name": "Chassigny",
    "code": "52113",
    "epci_code": "200027308",
    "departement_code": "52",
    "region_code": "44",
    "postal_code": "52190"
  },
  {
    "name": "Châteauvillain",
    "code": "52114",
    "epci_code": "245200597",
    "departement_code": "52",
    "region_code": "44",
    "postal_code": "52120"
  },
  {
    "name": "Chatenay-Mâcheron",
    "code": "52115",
    "epci_code": "200072999",
    "departement_code": "52",
    "region_code": "44",
    "postal_code": "52200"
  },
  {
    "name": "Chatenay-Vaudin",
    "code": "52116",
    "epci_code": "200072999",
    "departement_code": "52",
    "region_code": "44",
    "postal_code": "52360"
  },
  {
    "name": "Chatonrupt-Sommermont",
    "code": "52118",
    "epci_code": "200044253",
    "departement_code": "52",
    "region_code": "44",
    "postal_code": "52300"
  },
  {
    "name": "Chaudenay",
    "code": "52119",
    "epci_code": "200070332",
    "departement_code": "52",
    "region_code": "44",
    "postal_code": "52600"
  },
  {
    "name": "Chauffourt",
    "code": "52120",
    "epci_code": "200072999",
    "departement_code": "52",
    "region_code": "44",
    "postal_code": "52140"
  },
  {
    "name": "Chaumont",
    "code": "52121",
    "epci_code": "200068658",
    "departement_code": "52",
    "region_code": "44",
    "postal_code": "52000"
  },
  {
    "name": "Chaumont-la-Ville",
    "code": "52122",
    "epci_code": "200069664",
    "departement_code": "52",
    "region_code": "44",
    "postal_code": "52150"
  },
  {
    "name": "Chevillon",
    "code": "52123",
    "epci_code": "200068666",
    "departement_code": "52",
    "region_code": "44",
    "postal_code": "52170"
  },
  {
    "name": "Chézeaux",
    "code": "52124",
    "epci_code": "200070332",
    "departement_code": "52",
    "region_code": "44",
    "postal_code": "52400"
  },
  {
    "name": "Chamarandes-Choignes",
    "code": "52125",
    "epci_code": "200068658",
    "departement_code": "52",
    "region_code": "44",
    "postal_code": "52000"
  },
  {
    "name": "Choilley-Dardenay",
    "code": "52126",
    "epci_code": "200027308",
    "departement_code": "52",
    "region_code": "44",
    "postal_code": "52190"
  },
  {
    "name": "Choiseul",
    "code": "52127",
    "epci_code": "200072999",
    "departement_code": "52",
    "region_code": "44",
    "postal_code": "52240"
  },
  {
    "name": "Cirey-lès-Mareilles",
    "code": "52128",
    "epci_code": "200069664",
    "departement_code": "52",
    "region_code": "44",
    "postal_code": "52700"
  },
  {
    "name": "Cirey-sur-Blaise",
    "code": "52129",
    "epci_code": "200044253",
    "departement_code": "52",
    "region_code": "44",
    "postal_code": "52110"
  },
  {
    "name": "Cirfontaines-en-Azois",
    "code": "52130",
    "epci_code": "245200597",
    "departement_code": "52",
    "region_code": "44",
    "postal_code": "52370"
  },
  {
    "name": "Cirfontaines-en-Ornois",
    "code": "52131",
    "epci_code": "200044253",
    "departement_code": "52",
    "region_code": "44",
    "postal_code": "52230"
  },
  {
    "name": "Clefmont",
    "code": "52132",
    "epci_code": "200072999",
    "departement_code": "52",
    "region_code": "44",
    "postal_code": "52240"
  },
  {
    "name": "Clinchamp",
    "code": "52133",
    "epci_code": "200069664",
    "departement_code": "52",
    "region_code": "44",
    "postal_code": "52700"
  },
  {
    "name": "Cohons",
    "code": "52134",
    "epci_code": "200027308",
    "departement_code": "52",
    "region_code": "44",
    "postal_code": "52600"
  },
  {
    "name": "Coiffy-le-Bas",
    "code": "52135",
    "epci_code": "200070332",
    "departement_code": "52",
    "region_code": "44",
    "postal_code": "52400"
  },
  {
    "name": "Coiffy-le-Haut",
    "code": "52136",
    "epci_code": "200070332",
    "departement_code": "52",
    "region_code": "44",
    "postal_code": "52400"
  },
  {
    "name": "Colmier-le-Bas",
    "code": "52137",
    "epci_code": "200027308",
    "departement_code": "52",
    "region_code": "44",
    "postal_code": "52160"
  },
  {
    "name": "Colmier-le-Haut",
    "code": "52138",
    "epci_code": "200027308",
    "departement_code": "52",
    "region_code": "44",
    "postal_code": "52160"
  },
  {
    "name": "Colombey les Deux Églises",
    "code": "52140",
    "epci_code": "200068658",
    "departement_code": "52",
    "region_code": "44",
    "postal_code": "52330"
  },
  {
    "name": "Condes",
    "code": "52141",
    "epci_code": "200068658",
    "departement_code": "52",
    "region_code": "44",
    "postal_code": "52000"
  },
  {
    "name": "Consigny",
    "code": "52142",
    "epci_code": "200069664",
    "departement_code": "52",
    "region_code": "44",
    "postal_code": "52700"
  },
  {
    "name": "Coublanc",
    "code": "52145",
    "epci_code": "200027308",
    "departement_code": "52",
    "region_code": "44",
    "postal_code": "52500"
  },
  {
    "name": "Coupray",
    "code": "52146",
    "epci_code": "245200597",
    "departement_code": "52",
    "region_code": "44",
    "postal_code": "52210"
  },
  {
    "name": "Courcelles-en-Montagne",
    "code": "52147",
    "epci_code": "200072999",
    "departement_code": "52",
    "region_code": "44",
    "postal_code": "52200"
  },
  {
    "name": "Courcelles-sur-Blaise",
    "code": "52149",
    "epci_code": "200044253",
    "departement_code": "52",
    "region_code": "44",
    "postal_code": "52110"
  },
  {
    "name": "Cour-l’Évêque",
    "code": "52151",
    "epci_code": "245200597",
    "departement_code": "52",
    "region_code": "44",
    "postal_code": "52210"
  },
  {
    "name": "Culmont",
    "code": "52155",
    "epci_code": "200070332",
    "departement_code": "52",
    "region_code": "44",
    "postal_code": "52600"
  },
  {
    "name": "Curel",
    "code": "52156",
    "epci_code": "200068666",
    "departement_code": "52",
    "region_code": "44",
    "postal_code": "52300"
  },
  {
    "name": "Curmont",
    "code": "52157",
    "epci_code": "200068658",
    "departement_code": "52",
    "region_code": "44",
    "postal_code": "52330"
  },
  {
    "name": "Cusey",
    "code": "52158",
    "epci_code": "200027308",
    "departement_code": "52",
    "region_code": "44",
    "postal_code": "52190"
  },
  {
    "name": "Cuves",
    "code": "52159",
    "epci_code": "200068658",
    "departement_code": "52",
    "region_code": "44",
    "postal_code": "52240"
  },
  {
    "name": "Daillancourt",
    "code": "52160",
    "epci_code": "200068658",
    "departement_code": "52",
    "region_code": "44",
    "postal_code": "52110"
  },
  {
    "name": "Daillecourt",
    "code": "52161",
    "epci_code": "200072999",
    "departement_code": "52",
    "region_code": "44",
    "postal_code": "52240"
  },
  {
    "name": "Dammartin-sur-Meuse",
    "code": "52162",
    "epci_code": "200072999",
    "departement_code": "52",
    "region_code": "44",
    "postal_code": "52140"
  },
  {
    "name": "Dampierre",
    "code": "52163",
    "epci_code": "200072999",
    "departement_code": "52",
    "region_code": "44",
    "postal_code": "52360"
  },
  {
    "name": "Damrémont",
    "code": "52164",
    "epci_code": "200070332",
    "departement_code": "52",
    "region_code": "44",
    "postal_code": "52400"
  },
  {
    "name": "Dancevoir",
    "code": "52165",
    "epci_code": "245200597",
    "departement_code": "52",
    "region_code": "44",
    "postal_code": "52210"
  },
  {
    "name": "Darmannes",
    "code": "52167",
    "epci_code": "200069664",
    "departement_code": "52",
    "region_code": "44",
    "postal_code": "52700"
  },
  {
    "name": "Dinteville",
    "code": "52168",
    "epci_code": "245200597",
    "departement_code": "52",
    "region_code": "44",
    "postal_code": "52120"
  },
  {
    "name": "Domblain",
    "code": "52169",
    "epci_code": "200068666",
    "departement_code": "52",
    "region_code": "44",
    "postal_code": "52130"
  },
  {
    "name": "Dommarien",
    "code": "52170",
    "epci_code": "200027308",
    "departement_code": "52",
    "region_code": "44",
    "postal_code": "52190"
  },
  {
    "name": "Dommartin-le-Franc",
    "code": "52171",
    "epci_code": "200068666",
    "departement_code": "52",
    "region_code": "44",
    "postal_code": "52110"
  },
  {
    "name": "Dommartin-le-Saint-Père",
    "code": "52172",
    "epci_code": "200044253",
    "departement_code": "52",
    "region_code": "44",
    "postal_code": "52110"
  },
  {
    "name": "Domremy-Landéville",
    "code": "52173",
    "epci_code": "200069664",
    "departement_code": "52",
    "region_code": "44",
    "postal_code": "52270"
  },
  {
    "name": "Doncourt-sur-Meuse",
    "code": "52174",
    "epci_code": "200069664",
    "departement_code": "52",
    "region_code": "44",
    "postal_code": "52150"
  },
  {
    "name": "Donjeux",
    "code": "52175",
    "epci_code": "200044253",
    "departement_code": "52",
    "region_code": "44",
    "postal_code": "52300"
  },
  {
    "name": "Doulaincourt-Saucourt",
    "code": "52177",
    "epci_code": "200069664",
    "departement_code": "52",
    "region_code": "44",
    "postal_code": "52270"
  },
  {
    "name": "Doulevant-le-Château",
    "code": "52178",
    "epci_code": "200044253",
    "departement_code": "52",
    "region_code": "44",
    "postal_code": "52110"
  },
  {
    "name": "Doulevant-le-Petit",
    "code": "52179",
    "epci_code": "200068666",
    "departement_code": "52",
    "region_code": "44",
    "postal_code": "52130"
  },
  {
    "name": "Échenay",
    "code": "52181",
    "epci_code": "200044253",
    "departement_code": "52",
    "region_code": "44",
    "postal_code": "52230"
  },
  {
    "name": "Éclaron-Braucourt-Sainte-Livière",
    "code": "52182",
    "epci_code": "200068666",
    "departement_code": "52",
    "region_code": "44",
    "postal_code": "52290"
  },
  {
    "name": "Ecot-la-Combe",
    "code": "52183",
    "epci_code": "200069664",
    "departement_code": "52",
    "region_code": "44",
    "postal_code": "52700"
  },
  {
    "name": "Effincourt",
    "code": "52184",
    "epci_code": "200044253",
    "departement_code": "52",
    "region_code": "44",
    "postal_code": "52300"
  },
  {
    "name": "Enfonvelle",
    "code": "52185",
    "epci_code": "200070332",
    "departement_code": "52",
    "region_code": "44",
    "postal_code": "52400"
  },
  {
    "name": "Épizon",
    "code": "52187",
    "epci_code": "200044253",
    "departement_code": "52",
    "region_code": "44",
    "postal_code": "52230"
  },
  {
    "name": "Épizon",
    "code": "52187",
    "epci_code": "200044253",
    "departement_code": "52",
    "region_code": "44",
    "postal_code": "52270"
  },
  {
    "name": "Le Val-d’Esnoms",
    "code": "52189",
    "epci_code": "200027308",
    "departement_code": "52",
    "region_code": "44",
    "postal_code": "52190"
  },
  {
    "name": "Esnouveaux",
    "code": "52190",
    "epci_code": "200068658",
    "departement_code": "52",
    "region_code": "44",
    "postal_code": "52340"
  },
  {
    "name": "Euffigneix",
    "code": "52193",
    "epci_code": "200068658",
    "departement_code": "52",
    "region_code": "44",
    "postal_code": "52000"
  },
  {
    "name": "Eurville-Bienville",
    "code": "52194",
    "epci_code": "200068666",
    "departement_code": "52",
    "region_code": "44",
    "postal_code": "52410"
  },
  {
    "name": "Farincourt",
    "code": "52195",
    "epci_code": "200070332",
    "departement_code": "52",
    "region_code": "44",
    "postal_code": "52500"
  },
  {
    "name": "Faverolles",
    "code": "52196",
    "epci_code": "200072999",
    "departement_code": "52",
    "region_code": "44",
    "postal_code": "52260"
  },
  {
    "name": "Fayl-Billot",
    "code": "52197",
    "epci_code": "200070332",
    "departement_code": "52",
    "region_code": "44",
    "postal_code": "52500"
  },
  {
    "name": "Fays",
    "code": "52198",
    "epci_code": "200068666",
    "departement_code": "52",
    "region_code": "44",
    "postal_code": "52130"
  },
  {
    "name": "Ferrière-et-Lafolie",
    "code": "52199",
    "epci_code": "200044253",
    "departement_code": "52",
    "region_code": "44",
    "postal_code": "52300"
  },
  {
    "name": "Flagey",
    "code": "52200",
    "epci_code": "200027308",
    "departement_code": "52",
    "region_code": "44",
    "postal_code": "52250"
  },
  {
    "name": "Flammerécourt",
    "code": "52201",
    "epci_code": "200044253",
    "departement_code": "52",
    "region_code": "44",
    "postal_code": "52110"
  },
  {
    "name": "Fontaines-sur-Marne",
    "code": "52203",
    "epci_code": "200068666",
    "departement_code": "52",
    "region_code": "44",
    "postal_code": "52170"
  },
  {
    "name": "Forcey",
    "code": "52204",
    "epci_code": "200068658",
    "departement_code": "52",
    "region_code": "44",
    "postal_code": "52700"
  },
  {
    "name": "Foulain",
    "code": "52205",
    "epci_code": "200068658",
    "departement_code": "52",
    "region_code": "44",
    "postal_code": "52000"
  },
  {
    "name": "Foulain",
    "code": "52205",
    "epci_code": "200068658",
    "departement_code": "52",
    "region_code": "44",
    "postal_code": "52800"
  },
  {
    "name": "Frampas",
    "code": "52206",
    "epci_code": "200068666",
    "departement_code": "52",
    "region_code": "44",
    "postal_code": "52220"
  },
  {
    "name": "Frécourt",
    "code": "52207",
    "epci_code": "200072999",
    "departement_code": "52",
    "region_code": "44",
    "postal_code": "52360"
  },
  {
    "name": "Fresnes-sur-Apance",
    "code": "52208",
    "epci_code": "200070332",
    "departement_code": "52",
    "region_code": "44",
    "postal_code": "52400"
  },
  {
    "name": "Froncles",
    "code": "52211",
    "epci_code": "200068658",
    "departement_code": "52",
    "region_code": "44",
    "postal_code": "52320"
  },
  {
    "name": "Fronville",
    "code": "52212",
    "epci_code": "200044253",
    "departement_code": "52",
    "region_code": "44",
    "postal_code": "52300"
  },
  {
    "name": "Genevrières",
    "code": "52213",
    "epci_code": "200070332",
    "departement_code": "52",
    "region_code": "44",
    "postal_code": "52500"
  },
  {
    "name": "La Genevroye",
    "code": "52214",
    "epci_code": "200068658",
    "departement_code": "52",
    "region_code": "44",
    "postal_code": "52320"
  },
  {
    "name": "Germaines",
    "code": "52216",
    "epci_code": "200027308",
    "departement_code": "52",
    "region_code": "44",
    "postal_code": "52160"
  },
  {
    "name": "Germainvilliers",
    "code": "52217",
    "epci_code": "200069664",
    "departement_code": "52",
    "region_code": "44",
    "postal_code": "52150"
  },
  {
    "name": "Germay",
    "code": "52218",
    "epci_code": "200044253",
    "departement_code": "52",
    "region_code": "44",
    "postal_code": "52230"
  },
  {
    "name": "Germisay",
    "code": "52219",
    "epci_code": "200044253",
    "departement_code": "52",
    "region_code": "44",
    "postal_code": "52230"
  },
  {
    "name": "Giey-sur-Aujon",
    "code": "52220",
    "epci_code": "245200597",
    "departement_code": "52",
    "region_code": "44",
    "postal_code": "52210"
  },
  {
    "name": "Gillancourt",
    "code": "52221",
    "epci_code": "200068658",
    "departement_code": "52",
    "region_code": "44",
    "postal_code": "52330"
  },
  {
    "name": "Gillaumé",
    "code": "52222",
    "epci_code": "200044253",
    "departement_code": "52",
    "region_code": "44",
    "postal_code": "52230"
  },
  {
    "name": "Gilley",
    "code": "52223",
    "epci_code": "200070332",
    "departement_code": "52",
    "region_code": "44",
    "postal_code": "52500"
  },
  {
    "name": "Graffigny-Chemin",
    "code": "52227",
    "epci_code": "200069664",
    "departement_code": "52",
    "region_code": "44",
    "postal_code": "52150"
  },
  {
    "name": "Grandchamp",
    "code": "52228",
    "epci_code": "200027308",
    "departement_code": "52",
    "region_code": "44",
    "postal_code": "52600"
  },
  {
    "name": "Grenant",
    "code": "52229",
    "epci_code": "200070332",
    "departement_code": "52",
    "region_code": "44",
    "postal_code": "52500"
  },
  {
    "name": "Gudmont-Villiers",
    "code": "52230",
    "epci_code": "200044253",
    "departement_code": "52",
    "region_code": "44",
    "postal_code": "52320"
  },
  {
    "name": "Guindrecourt-aux-Ormes",
    "code": "52231",
    "epci_code": "200044253",
    "departement_code": "52",
    "region_code": "44",
    "postal_code": "52300"
  },
  {
    "name": "Guindrecourt-sur-Blaise",
    "code": "52232",
    "epci_code": "200068658",
    "departement_code": "52",
    "region_code": "44",
    "postal_code": "52330"
  },
  {
    "name": "Guyonvelle",
    "code": "52233",
    "epci_code": "200070332",
    "departement_code": "52",
    "region_code": "44",
    "postal_code": "52400"
  },
  {
    "name": "Hâcourt",
    "code": "52234",
    "epci_code": "200069664",
    "departement_code": "52",
    "region_code": "44",
    "postal_code": "52150"
  },
  {
    "name": "Hallignicourt",
    "code": "52235",
    "epci_code": "200068666",
    "departement_code": "52",
    "region_code": "44",
    "postal_code": "52100"
  },
  {
    "name": "Harréville-les-Chanteurs",
    "code": "52237",
    "epci_code": "200069664",
    "departement_code": "52",
    "region_code": "44",
    "postal_code": "52150"
  },
  {
    "name": "Heuilley-le-Grand",
    "code": "52240",
    "epci_code": "200070332",
    "departement_code": "52",
    "region_code": "44",
    "postal_code": "52600"
  },
  {
    "name": "Haute-Amance",
    "code": "52242",
    "epci_code": "200070332",
    "departement_code": "52",
    "region_code": "44",
    "postal_code": "52600"
  },
  {
    "name": "Huilliécourt",
    "code": "52243",
    "epci_code": "200069664",
    "departement_code": "52",
    "region_code": "44",
    "postal_code": "52150"
  },
  {
    "name": "Humbécourt",
    "code": "52244",
    "epci_code": "200068666",
    "departement_code": "52",
    "region_code": "44",
    "postal_code": "52290"
  },
  {
    "name": "Humberville",
    "code": "52245",
    "epci_code": "200069664",
    "departement_code": "52",
    "region_code": "44",
    "postal_code": "52700"
  },
  {
    "name": "Humes-Jorquenay",
    "code": "52246",
    "epci_code": "200072999",
    "departement_code": "52",
    "region_code": "44",
    "postal_code": "52200"
  },
  {
    "name": "Illoud",
    "code": "52247",
    "epci_code": "200069664",
    "departement_code": "52",
    "region_code": "44",
    "postal_code": "52150"
  },
  {
    "name": "Is-en-Bassigny",
    "code": "52248",
    "epci_code": "200072999",
    "departement_code": "52",
    "region_code": "44",
    "postal_code": "52140"
  },
  {
    "name": "Isômes",
    "code": "52249",
    "epci_code": "200027308",
    "departement_code": "52",
    "region_code": "44",
    "postal_code": "52190"
  },
  {
    "name": "Joinville",
    "code": "52250",
    "epci_code": "200044253",
    "departement_code": "52",
    "region_code": "44",
    "postal_code": "52300"
  },
  {
    "name": "Jonchery",
    "code": "52251",
    "epci_code": "200068658",
    "departement_code": "52",
    "region_code": "44",
    "postal_code": "52000"
  },
  {
    "name": "Juzennecourt",
    "code": "52253",
    "epci_code": "200068658",
    "departement_code": "52",
    "region_code": "44",
    "postal_code": "52330"
  },
  {
    "name": "Lachapelle-en-Blaisy",
    "code": "52254",
    "epci_code": "200068658",
    "departement_code": "52",
    "region_code": "44",
    "postal_code": "52330"
  },
  {
    "name": "Lafauche",
    "code": "52256",
    "epci_code": "200069664",
    "departement_code": "52",
    "region_code": "44",
    "postal_code": "52700"
  },
  {
    "name": "Laferté-sur-Amance",
    "code": "52257",
    "epci_code": "200070332",
    "departement_code": "52",
    "region_code": "44",
    "postal_code": "52500"
  },
  {
    "name": "Laferté-sur-Aube",
    "code": "52258",
    "epci_code": "245200597",
    "departement_code": "52",
    "region_code": "44",
    "postal_code": "52120"
  },
  {
    "name": "Lamancine",
    "code": "52260",
    "epci_code": "200068658",
    "departement_code": "52",
    "region_code": "44",
    "postal_code": "52310"
  },
  {
    "name": "Laneuvelle",
    "code": "52264",
    "epci_code": "200070332",
    "departement_code": "52",
    "region_code": "44",
    "postal_code": "52400"
  },
  {
    "name": "Bayard-sur-Marne",
    "code": "52265",
    "epci_code": "200068666",
    "departement_code": "52",
    "region_code": "44",
    "postal_code": "52170"
  },
  {
    "name": "Laneuville-à-Rémy",
    "code": "52266",
    "epci_code": "200068666",
    "departement_code": "52",
    "region_code": "44",
    "postal_code": "52220"
  },
  {
    "name": "Laneuville-au-Pont",
    "code": "52267",
    "epci_code": "200068666",
    "departement_code": "52",
    "region_code": "44",
    "postal_code": "52100"
  },
  {
    "name": "Langres",
    "code": "52269",
    "epci_code": "200072999",
    "departement_code": "52",
    "region_code": "44",
    "postal_code": "52200"
  },
  {
    "name": "Lanques-sur-Rognon",
    "code": "52271",
    "epci_code": "200068658",
    "departement_code": "52",
    "region_code": "44",
    "postal_code": "52800"
  },
  {
    "name": "Lanty-sur-Aube",
    "code": "52272",
    "epci_code": "245200597",
    "departement_code": "52",
    "region_code": "44",
    "postal_code": "52120"
  },
  {
    "name": "Larivière-Arnoncourt",
    "code": "52273",
    "epci_code": "200070332",
    "departement_code": "52",
    "region_code": "44",
    "postal_code": "52400"
  },
  {
    "name": "Latrecey-Ormoy-sur-Aube",
    "code": "52274",
    "epci_code": "245200597",
    "departement_code": "52",
    "region_code": "44",
    "postal_code": "52120"
  },
  {
    "name": "Lavernoy",
    "code": "52275",
    "epci_code": "200072999",
    "departement_code": "52",
    "region_code": "44",
    "postal_code": "52140"
  },
  {
    "name": "Laville-aux-Bois",
    "code": "52276",
    "epci_code": "200068658",
    "departement_code": "52",
    "region_code": "44",
    "postal_code": "52000"
  },
  {
    "name": "Lavilleneuve",
    "code": "52277",
    "epci_code": "200072999",
    "departement_code": "52",
    "region_code": "44",
    "postal_code": "52140"
  },
  {
    "name": "Lavilleneuve-au-Roi",
    "code": "52278",
    "epci_code": "245200597",
    "departement_code": "52",
    "region_code": "44",
    "postal_code": "52330"
  },
  {
    "name": "Lecey",
    "code": "52280",
    "epci_code": "200072999",
    "departement_code": "52",
    "region_code": "44",
    "postal_code": "52360"
  },
  {
    "name": "Leffonds",
    "code": "52282",
    "epci_code": "245200597",
    "departement_code": "52",
    "region_code": "44",
    "postal_code": "52210"
  },
  {
    "name": "Leschères-sur-le-Blaiseron",
    "code": "52284",
    "epci_code": "200044253",
    "departement_code": "52",
    "region_code": "44",
    "postal_code": "52110"
  },
  {
    "name": "Leuchey",
    "code": "52285",
    "epci_code": "200027308",
    "departement_code": "52",
    "region_code": "44",
    "postal_code": "52190"
  },
  {
    "name": "Leurville",
    "code": "52286",
    "epci_code": "200069664",
    "departement_code": "52",
    "region_code": "44",
    "postal_code": "52700"
  },
  {
    "name": "Levécourt",
    "code": "52287",
    "epci_code": "200069664",
    "departement_code": "52",
    "region_code": "44",
    "postal_code": "52150"
  },
  {
    "name": "Lezéville",
    "code": "52288",
    "epci_code": "200044253",
    "departement_code": "52",
    "region_code": "44",
    "postal_code": "52230"
  },
  {
    "name": "Liffol-le-Petit",
    "code": "52289",
    "epci_code": "200068559",
    "departement_code": "52",
    "region_code": "44",
    "postal_code": "52700"
  },
  {
    "name": "Les Loges",
    "code": "52290",
    "epci_code": "200070332",
    "departement_code": "52",
    "region_code": "44",
    "postal_code": "52500"
  },
  {
    "name": "Longchamp",
    "code": "52291",
    "epci_code": "200069664",
    "departement_code": "52",
    "region_code": "44",
    "postal_code": "52240"
  },
  {
    "name": "Longeau-Percey",
    "code": "52292",
    "epci_code": "200027308",
    "departement_code": "52",
    "region_code": "44",
    "postal_code": "52250"
  },
  {
    "name": "Louvemont",
    "code": "52294",
    "epci_code": "200068666",
    "departement_code": "52",
    "region_code": "44",
    "postal_code": "52130"
  },
  {
    "name": "Louvières",
    "code": "52295",
    "epci_code": "200068658",
    "departement_code": "52",
    "region_code": "44",
    "postal_code": "52800"
  },
  {
    "name": "Luzy-sur-Marne",
    "code": "52297",
    "epci_code": "200068658",
    "departement_code": "52",
    "region_code": "44",
    "postal_code": "52000"
  },
  {
    "name": "Maâtz",
    "code": "52298",
    "epci_code": "200027308",
    "departement_code": "52",
    "region_code": "44",
    "postal_code": "52500"
  },
  {
    "name": "Magneux",
    "code": "52300",
    "epci_code": "200068666",
    "departement_code": "52",
    "region_code": "44",
    "postal_code": "52130"
  },
  {
    "name": "Maisoncelles",
    "code": "52301",
    "epci_code": "200069664",
    "departement_code": "52",
    "region_code": "44",
    "postal_code": "52240"
  },
  {
    "name": "Maizières",
    "code": "52302",
    "epci_code": "200068666",
    "departement_code": "52",
    "region_code": "44",
    "postal_code": "52300"
  },
  {
    "name": "Maizières-sur-Amance",
    "code": "52303",
    "epci_code": "200070332",
    "departement_code": "52",
    "region_code": "44",
    "postal_code": "52500"
  },
  {
    "name": "Malaincourt-sur-Meuse",
    "code": "52304",
    "epci_code": "200069664",
    "departement_code": "52",
    "region_code": "44",
    "postal_code": "52150"
  },
  {
    "name": "Mandres-la-Côte",
    "code": "52305",
    "epci_code": "200068658",
    "departement_code": "52",
    "region_code": "44",
    "postal_code": "52800"
  },
  {
    "name": "Manois",
    "code": "52306",
    "epci_code": "200069664",
    "departement_code": "52",
    "region_code": "44",
    "postal_code": "52700"
  },
  {
    "name": "Marac",
    "code": "52307",
    "epci_code": "200072999",
    "departement_code": "52",
    "region_code": "44",
    "postal_code": "52260"
  },
  {
    "name": "Maranville",
    "code": "52308",
    "epci_code": "245200597",
    "departement_code": "52",
    "region_code": "44",
    "postal_code": "52370"
  },
  {
    "name": "Marbéville",
    "code": "52310",
    "epci_code": "200068658",
    "departement_code": "52",
    "region_code": "44",
    "postal_code": "52320"
  },
  {
    "name": "Marcilly-en-Bassigny",
    "code": "52311",
    "epci_code": "200072999",
    "departement_code": "52",
    "region_code": "44",
    "postal_code": "52360"
  },
  {
    "name": "Mardor",
    "code": "52312",
    "epci_code": "200072999",
    "departement_code": "52",
    "region_code": "44",
    "postal_code": "52200"
  },
  {
    "name": "Mareilles",
    "code": "52313",
    "epci_code": "200069664",
    "departement_code": "52",
    "region_code": "44",
    "postal_code": "52700"
  },
  {
    "name": "Marnay-sur-Marne",
    "code": "52315",
    "epci_code": "200068658",
    "departement_code": "52",
    "region_code": "44",
    "postal_code": "52800"
  },
  {
    "name": "Mathons",
    "code": "52316",
    "epci_code": "200044253",
    "departement_code": "52",
    "region_code": "44",
    "postal_code": "52300"
  },
  {
    "name": "Melay",
    "code": "52318",
    "epci_code": "200070332",
    "departement_code": "52",
    "region_code": "44",
    "postal_code": "52400"
  },
  {
    "name": "Mennouveaux",
    "code": "52319",
    "epci_code": "200069664",
    "departement_code": "52",
    "region_code": "44",
    "postal_code": "52240"
  },
  {
    "name": "Merrey",
    "code": "52320",
    "epci_code": "200069664",
    "departement_code": "52",
    "region_code": "44",
    "postal_code": "52240"
  },
  {
    "name": "Mertrud",
    "code": "52321",
    "epci_code": "200044253",
    "departement_code": "52",
    "region_code": "44",
    "postal_code": "52110"
  },
  {
    "name": "Meures",
    "code": "52322",
    "epci_code": "200068658",
    "departement_code": "52",
    "region_code": "44",
    "postal_code": "52310"
  },
  {
    "name": "Millières",
    "code": "52325",
    "epci_code": "200069664",
    "departement_code": "52",
    "region_code": "44",
    "postal_code": "52240"
  },
  {
    "name": "Mirbel",
    "code": "52326",
    "epci_code": "200068658",
    "departement_code": "52",
    "region_code": "44",
    "postal_code": "52320"
  },
  {
    "name": "Moëslains",
    "code": "52327",
    "epci_code": "200068666",
    "departement_code": "52",
    "region_code": "44",
    "postal_code": "52100"
  },
  {
    "name": "Montcharvot",
    "code": "52328",
    "epci_code": "200070332",
    "departement_code": "52",
    "region_code": "44",
    "postal_code": "52400"
  },
  {
    "name": "Montheries",
    "code": "52330",
    "epci_code": "245200597",
    "departement_code": "52",
    "region_code": "44",
    "postal_code": "52330"
  },
  {
    "name": "La Porte du Der",
    "code": "52331",
    "epci_code": "200068666",
    "departement_code": "52",
    "region_code": "44",
    "postal_code": "52220"
  },
  {
    "name": "Val-de-Meuse",
    "code": "52332",
    "epci_code": "200072999",
    "departement_code": "52",
    "region_code": "44",
    "postal_code": "52140"
  },
  {
    "name": "Val-de-Meuse",
    "code": "52332",
    "epci_code": "200072999",
    "departement_code": "52",
    "region_code": "44",
    "postal_code": "52240"
  },
  {
    "name": "Montot-sur-Rognon",
    "code": "52335",
    "epci_code": "200069664",
    "departement_code": "52",
    "region_code": "44",
    "postal_code": "52700"
  },
  {
    "name": "Montreuil-sur-Blaise",
    "code": "52336",
    "epci_code": "200068666",
    "departement_code": "52",
    "region_code": "44",
    "postal_code": "52130"
  },
  {
    "name": "Montreuil-sur-Thonnance",
    "code": "52337",
    "epci_code": "200044253",
    "departement_code": "52",
    "region_code": "44",
    "postal_code": "52230"
  },
  {
    "name": "Morancourt",
    "code": "52341",
    "epci_code": "200068666",
    "departement_code": "52",
    "region_code": "44",
    "postal_code": "52110"
  },
  {
    "name": "Morionvilliers",
    "code": "52342",
    "epci_code": "200044253",
    "departement_code": "52",
    "region_code": "44",
    "postal_code": "52700"
  },
  {
    "name": "Mouilleron",
    "code": "52344",
    "epci_code": "200027308",
    "departement_code": "52",
    "region_code": "44",
    "postal_code": "52160"
  },
  {
    "name": "Mussey-sur-Marne",
    "code": "52346",
    "epci_code": "200044253",
    "departement_code": "52",
    "region_code": "44",
    "postal_code": "52300"
  },
  {
    "name": "Narcy",
    "code": "52347",
    "epci_code": "200068666",
    "departement_code": "52",
    "region_code": "44",
    "postal_code": "52170"
  },
  {
    "name": "Neuilly-l’Évêque",
    "code": "52348",
    "epci_code": "200072999",
    "departement_code": "52",
    "region_code": "44",
    "postal_code": "52360"
  },
  {
    "name": "Neuilly-sur-Suize",
    "code": "52349",
    "epci_code": "200068658",
    "departement_code": "52",
    "region_code": "44",
    "postal_code": "52000"
  },
  {
    "name": "Neuvelle-lès-Voisey",
    "code": "52350",
    "epci_code": "200070332",
    "departement_code": "52",
    "region_code": "44",
    "postal_code": "52400"
  },
  {
    "name": "Ninville",
    "code": "52352",
    "epci_code": "200068658",
    "departement_code": "52",
    "region_code": "44",
    "postal_code": "52800"
  },
  {
    "name": "Nogent",
    "code": "52353",
    "epci_code": "200068658",
    "departement_code": "52",
    "region_code": "44",
    "postal_code": "52800"
  },
  {
    "name": "Noidant-Chatenoy",
    "code": "52354",
    "epci_code": "200070332",
    "departement_code": "52",
    "region_code": "44",
    "postal_code": "52600"
  },
  {
    "name": "Noidant-le-Rocheux",
    "code": "52355",
    "epci_code": "200072999",
    "departement_code": "52",
    "region_code": "44",
    "postal_code": "52200"
  },
  {
    "name": "Nomécourt",
    "code": "52356",
    "epci_code": "200044253",
    "departement_code": "52",
    "region_code": "44",
    "postal_code": "52300"
  },
  {
    "name": "Noncourt-sur-le-Rongeant",
    "code": "52357",
    "epci_code": "200044253",
    "departement_code": "52",
    "region_code": "44",
    "postal_code": "52230"
  },
  {
    "name": "Noyers",
    "code": "52358",
    "epci_code": "200072999",
    "departement_code": "52",
    "region_code": "44",
    "postal_code": "52240"
  },
  {
    "name": "Nully",
    "code": "52359",
    "epci_code": "200044253",
    "departement_code": "52",
    "region_code": "44",
    "postal_code": "52110"
  },
  {
    "name": "Occey",
    "code": "52360",
    "epci_code": "200027308",
    "departement_code": "52",
    "region_code": "44",
    "postal_code": "52190"
  },
  {
    "name": "Orbigny-au-Mont",
    "code": "52362",
    "epci_code": "200072999",
    "departement_code": "52",
    "region_code": "44",
    "postal_code": "52360"
  },
  {
    "name": "Orbigny-au-Val",
    "code": "52363",
    "epci_code": "200072999",
    "departement_code": "52",
    "region_code": "44",
    "postal_code": "52360"
  },
  {
    "name": "Orcevaux",
    "code": "52364",
    "epci_code": "200027308",
    "departement_code": "52",
    "region_code": "44",
    "postal_code": "52250"
  },
  {
    "name": "Orges",
    "code": "52365",
    "epci_code": "245200597",
    "departement_code": "52",
    "region_code": "44",
    "postal_code": "52120"
  },
  {
    "name": "Ormancey",
    "code": "52366",
    "epci_code": "200072999",
    "departement_code": "52",
    "region_code": "44",
    "postal_code": "52200"
  },
  {
    "name": "Ormoy-lès-Sexfontaines",
    "code": "52367",
    "epci_code": "200068658",
    "departement_code": "52",
    "region_code": "44",
    "postal_code": "52310"
  },
  {
    "name": "Orquevaux",
    "code": "52369",
    "epci_code": "200069664",
    "departement_code": "52",
    "region_code": "44",
    "postal_code": "52700"
  },
  {
    "name": "Osne-le-Val",
    "code": "52370",
    "epci_code": "200068666",
    "departement_code": "52",
    "region_code": "44",
    "postal_code": "52300"
  },
  {
    "name": "Oudincourt",
    "code": "52371",
    "epci_code": "200068658",
    "departement_code": "52",
    "region_code": "44",
    "postal_code": "52310"
  },
  {
    "name": "Outremécourt",
    "code": "52372",
    "epci_code": "200069664",
    "departement_code": "52",
    "region_code": "44",
    "postal_code": "52150"
  },
  {
    "name": "Ozières",
    "code": "52373",
    "epci_code": "200069664",
    "departement_code": "52",
    "region_code": "44",
    "postal_code": "52700"
  },
  {
    "name": "Le Pailly",
    "code": "52374",
    "epci_code": "200070332",
    "departement_code": "52",
    "region_code": "44",
    "postal_code": "52600"
  },
  {
    "name": "Palaiseul",
    "code": "52375",
    "epci_code": "200070332",
    "departement_code": "52",
    "region_code": "44",
    "postal_code": "52600"
  },
  {
    "name": "Pansey",
    "code": "52376",
    "epci_code": "200044253",
    "departement_code": "52",
    "region_code": "44",
    "postal_code": "52230"
  },
  {
    "name": "Parnoy-en-Bassigny",
    "code": "52377",
    "epci_code": "200070332",
    "departement_code": "52",
    "region_code": "44",
    "postal_code": "52400"
  },
  {
    "name": "Paroy-sur-Saulx",
    "code": "52378",
    "epci_code": "200044253",
    "departement_code": "52",
    "region_code": "44",
    "postal_code": "52300"
  },
  {
    "name": "Peigney",
    "code": "52380",
    "epci_code": "200072999",
    "departement_code": "52",
    "region_code": "44",
    "postal_code": "52200"
  },
  {
    "name": "Perrancey-les-Vieux-Moulins",
    "code": "52383",
    "epci_code": "200072999",
    "departement_code": "52",
    "region_code": "44",
    "postal_code": "52200"
  },
  {
    "name": "Perrogney-les-Fontaines",
    "code": "52384",
    "epci_code": "200027308",
    "departement_code": "52",
    "region_code": "44",
    "postal_code": "52160"
  },
  {
    "name": "Perrusse",
    "code": "52385",
    "epci_code": "200072999",
    "departement_code": "52",
    "region_code": "44",
    "postal_code": "52240"
  },
  {
    "name": "Perthes",
    "code": "52386",
    "epci_code": "200068666",
    "departement_code": "52",
    "region_code": "44",
    "postal_code": "52100"
  },
  {
    "name": "Pierremont-sur-Amance",
    "code": "52388",
    "epci_code": "200070332",
    "departement_code": "52",
    "region_code": "44",
    "postal_code": "52500"
  },
  {
    "name": "Pisseloup",
    "code": "52390",
    "epci_code": "200070332",
    "departement_code": "52",
    "region_code": "44",
    "postal_code": "52500"
  },
  {
    "name": "Planrupt",
    "code": "52391",
    "epci_code": "200068666",
    "departement_code": "52",
    "region_code": "44",
    "postal_code": "52220"
  },
  {
    "name": "Plesnoy",
    "code": "52392",
    "epci_code": "200072999",
    "departement_code": "52",
    "region_code": "44",
    "postal_code": "52360"
  },
  {
    "name": "Poinsenot",
    "code": "52393",
    "epci_code": "200027308",
    "departement_code": "52",
    "region_code": "44",
    "postal_code": "52160"
  },
  {
    "name": "Poinson-lès-Fayl",
    "code": "52394",
    "epci_code": "200070332",
    "departement_code": "52",
    "region_code": "44",
    "postal_code": "52500"
  },
  {
    "name": "Poinson-lès-Grancey",
    "code": "52395",
    "epci_code": "200027308",
    "departement_code": "52",
    "region_code": "44",
    "postal_code": "52160"
  },
  {
    "name": "Poinson-lès-Nogent",
    "code": "52396",
    "epci_code": "200068658",
    "departement_code": "52",
    "region_code": "44",
    "postal_code": "52800"
  },
  {
    "name": "Poiseul",
    "code": "52397",
    "epci_code": "200072999",
    "departement_code": "52",
    "region_code": "44",
    "postal_code": "52360"
  },
  {
    "name": "Poissons",
    "code": "52398",
    "epci_code": "200044253",
    "departement_code": "52",
    "region_code": "44",
    "postal_code": "52230"
  },
  {
    "name": "Pont-la-Ville",
    "code": "52399",
    "epci_code": "245200597",
    "departement_code": "52",
    "region_code": "44",
    "postal_code": "52120"
  },
  {
    "name": "Le Châtelet-sur-Meuse",
    "code": "52400",
    "epci_code": "200070332",
    "departement_code": "52",
    "region_code": "44",
    "postal_code": "52400"
  },
  {
    "name": "Poulangy",
    "code": "52401",
    "epci_code": "200068658",
    "departement_code": "52",
    "region_code": "44",
    "postal_code": "52800"
  },
  {
    "name": "Praslay",
    "code": "52403",
    "epci_code": "200027308",
    "departement_code": "52",
    "region_code": "44",
    "postal_code": "52160"
  },
  {
    "name": "Le Montsaugeonnais",
    "code": "52405",
    "epci_code": "200027308",
    "departement_code": "52",
    "region_code": "44",
    "postal_code": "52190"
  },
  {
    "name": "Pressigny",
    "code": "52406",
    "epci_code": "200070332",
    "departement_code": "52",
    "region_code": "44",
    "postal_code": "52500"
  },
  {
    "name": "Prez-sous-Lafauche",
    "code": "52407",
    "epci_code": "200069664",
    "departement_code": "52",
    "region_code": "44",
    "postal_code": "52700"
  },
  {
    "name": "Rives Dervoises",
    "code": "52411",
    "epci_code": "200068666",
    "departement_code": "52",
    "region_code": "44",
    "postal_code": "52220"
  },
  {
    "name": "Rachecourt-Suzémont",
    "code": "52413",
    "epci_code": "200068666",
    "departement_code": "52",
    "region_code": "44",
    "postal_code": "52130"
  },
  {
    "name": "Rachecourt-sur-Marne",
    "code": "52414",
    "epci_code": "200068666",
    "departement_code": "52",
    "region_code": "44",
    "postal_code": "52170"
  },
  {
    "name": "Rançonnières",
    "code": "52415",
    "epci_code": "200072999",
    "departement_code": "52",
    "region_code": "44",
    "postal_code": "52140"
  },
  {
    "name": "Rangecourt",
    "code": "52416",
    "epci_code": "200072999",
    "departement_code": "52",
    "region_code": "44",
    "postal_code": "52140"
  },
  {
    "name": "Rennepont",
    "code": "52419",
    "epci_code": "200068658",
    "departement_code": "52",
    "region_code": "44",
    "postal_code": "52370"
  },
  {
    "name": "Reynel",
    "code": "52420",
    "epci_code": "200069664",
    "departement_code": "52",
    "region_code": "44",
    "postal_code": "52700"
  },
  {
    "name": "Riaucourt",
    "code": "52421",
    "epci_code": "200068658",
    "departement_code": "52",
    "region_code": "44",
    "postal_code": "52000"
  },
  {
    "name": "Richebourg",
    "code": "52422",
    "epci_code": "245200597",
    "departement_code": "52",
    "region_code": "44",
    "postal_code": "52120"
  },
  {
    "name": "Rimaucourt",
    "code": "52423",
    "epci_code": "200069664",
    "departement_code": "52",
    "region_code": "44",
    "postal_code": "52700"
  },
  {
    "name": "Rivières-le-Bois",
    "code": "52424",
    "epci_code": "200070332",
    "departement_code": "52",
    "region_code": "44",
    "postal_code": "52600"
  },
  {
    "name": "Rivière-les-Fosses",
    "code": "52425",
    "epci_code": "200027308",
    "departement_code": "52",
    "region_code": "44",
    "postal_code": "52190"
  },
  {
    "name": "Rizaucourt-Buchey",
    "code": "52426",
    "epci_code": "200068658",
    "departement_code": "52",
    "region_code": "44",
    "postal_code": "52330"
  },
  {
    "name": "Rochefort-sur-la-Côte",
    "code": "52428",
    "epci_code": "200068658",
    "departement_code": "52",
    "region_code": "44",
    "postal_code": "52700"
  },
  {
    "name": "Roches-sur-Marne",
    "code": "52429",
    "epci_code": "200068666",
    "departement_code": "52",
    "region_code": "44",
    "postal_code": "52410"
  },
  {
    "name": "Rochetaillée",
    "code": "52431",
    "epci_code": "200027308",
    "departement_code": "52",
    "region_code": "44",
    "postal_code": "52210"
  },
  {
    "name": "Rolampont",
    "code": "52432",
    "epci_code": "200072999",
    "departement_code": "52",
    "region_code": "44",
    "postal_code": "52260"
  },
  {
    "name": "Romain-sur-Meuse",
    "code": "52433",
    "epci_code": "200069664",
    "departement_code": "52",
    "region_code": "44",
    "postal_code": "52150"
  },
  {
    "name": "Rouécourt",
    "code": "52436",
    "epci_code": "200068658",
    "departement_code": "52",
    "region_code": "44",
    "postal_code": "52320"
  },
  {
    "name": "Rouelles",
    "code": "52437",
    "epci_code": "200027308",
    "departement_code": "52",
    "region_code": "44",
    "postal_code": "52160"
  },
  {
    "name": "Rougeux",
    "code": "52438",
    "epci_code": "200070332",
    "departement_code": "52",
    "region_code": "44",
    "postal_code": "52500"
  },
  {
    "name": "Rouvres-sur-Aube",
    "code": "52439",
    "epci_code": "200027308",
    "departement_code": "52",
    "region_code": "44",
    "postal_code": "52160"
  },
  {
    "name": "Rouvroy-sur-Marne",
    "code": "52440",
    "epci_code": "200044253",
    "departement_code": "52",
    "region_code": "44",
    "postal_code": "52300"
  },
  {
    "name": "Rupt",
    "code": "52442",
    "epci_code": "200044253",
    "departement_code": "52",
    "region_code": "44",
    "postal_code": "52300"
  },
  {
    "name": "Sailly",
    "code": "52443",
    "epci_code": "200044253",
    "departement_code": "52",
    "region_code": "44",
    "postal_code": "52230"
  },
  {
    "name": "Saint-Blin",
    "code": "52444",
    "epci_code": "200069664",
    "departement_code": "52",
    "region_code": "44",
    "postal_code": "52700"
  },
  {
    "name": "Saint-Broingt-le-Bois",
    "code": "52445",
    "epci_code": "200070332",
    "departement_code": "52",
    "region_code": "44",
    "postal_code": "52190"
  },
  {
    "name": "Saint-Broingt-les-Fosses",
    "code": "52446",
    "epci_code": "200027308",
    "departement_code": "52",
    "region_code": "44",
    "postal_code": "52190"
  },
  {
    "name": "Saint-Ciergues",
    "code": "52447",
    "epci_code": "200072999",
    "departement_code": "52",
    "region_code": "44",
    "postal_code": "52200"
  },
  {
    "name": "Saint-Dizier",
    "code": "52448",
    "epci_code": "200068666",
    "departement_code": "52",
    "region_code": "44",
    "postal_code": "52100"
  },
  {
    "name": "Saints-Geosmes",
    "code": "52449",
    "epci_code": "200072999",
    "departement_code": "52",
    "region_code": "44",
    "postal_code": "52200"
  },
  {
    "name": "Saint-Loup-sur-Aujon",
    "code": "52450",
    "epci_code": "200027308",
    "departement_code": "52",
    "region_code": "44",
    "postal_code": "52210"
  },
  {
    "name": "Saint-Martin-lès-Langres",
    "code": "52452",
    "epci_code": "200072999",
    "departement_code": "52",
    "region_code": "44",
    "postal_code": "52200"
  },
  {
    "name": "Saint-Maurice",
    "code": "52453",
    "epci_code": "200072999",
    "departement_code": "52",
    "region_code": "44",
    "postal_code": "52200"
  },
  {
    "name": "Saint-Thiébault",
    "code": "52455",
    "epci_code": "200069664",
    "departement_code": "52",
    "region_code": "44",
    "postal_code": "52150"
  },
  {
    "name": "Saint-Urbain-Maconcourt",
    "code": "52456",
    "epci_code": "200044253",
    "departement_code": "52",
    "region_code": "44",
    "postal_code": "52300"
  },
  {
    "name": "Saint-Vallier-sur-Marne",
    "code": "52457",
    "epci_code": "200070332",
    "departement_code": "52",
    "region_code": "44",
    "postal_code": "52200"
  },
  {
    "name": "Sarcey",
    "code": "52459",
    "epci_code": "200068658",
    "departement_code": "52",
    "region_code": "44",
    "postal_code": "52800"
  },
  {
    "name": "Sarrey",
    "code": "52461",
    "epci_code": "200072999",
    "departement_code": "52",
    "region_code": "44",
    "postal_code": "52140"
  },
  {
    "name": "Saudron",
    "code": "52463",
    "epci_code": "200044253",
    "departement_code": "52",
    "region_code": "44",
    "postal_code": "52230"
  },
  {
    "name": "Saulles",
    "code": "52464",
    "epci_code": "200070332",
    "departement_code": "52",
    "region_code": "44",
    "postal_code": "52500"
  },
  {
    "name": "Saulxures",
    "code": "52465",
    "epci_code": "200072999",
    "departement_code": "52",
    "region_code": "44",
    "postal_code": "52140"
  },
  {
    "name": "Savigny",
    "code": "52467",
    "epci_code": "200070332",
    "departement_code": "52",
    "region_code": "44",
    "postal_code": "52500"
  },
  {
    "name": "Semilly",
    "code": "52468",
    "epci_code": "200069664",
    "departement_code": "52",
    "region_code": "44",
    "postal_code": "52700"
  },
  {
    "name": "Semoutiers-Montsaon",
    "code": "52469",
    "epci_code": "200068658",
    "departement_code": "52",
    "region_code": "44",
    "postal_code": "52000"
  },
  {
    "name": "Serqueux",
    "code": "52470",
    "epci_code": "200070332",
    "departement_code": "52",
    "region_code": "44",
    "postal_code": "52400"
  },
  {
    "name": "Sexfontaines",
    "code": "52472",
    "epci_code": "200068658",
    "departement_code": "52",
    "region_code": "44",
    "postal_code": "52330"
  },
  {
    "name": "Signéville",
    "code": "52473",
    "epci_code": "200069664",
    "departement_code": "52",
    "region_code": "44",
    "postal_code": "52700"
  },
  {
    "name": "Silvarouvres",
    "code": "52474",
    "epci_code": "245200597",
    "departement_code": "52",
    "region_code": "44",
    "postal_code": "52120"
  },
  {
    "name": "Sommancourt",
    "code": "52475",
    "epci_code": "200068666",
    "departement_code": "52",
    "region_code": "44",
    "postal_code": "52130"
  },
  {
    "name": "Sommerécourt",
    "code": "52476",
    "epci_code": "200069664",
    "departement_code": "52",
    "region_code": "44",
    "postal_code": "52150"
  },
  {
    "name": "Sommevoire",
    "code": "52479",
    "epci_code": "200068666",
    "departement_code": "52",
    "region_code": "44",
    "postal_code": "52220"
  },
  {
    "name": "Soncourt-sur-Marne",
    "code": "52480",
    "epci_code": "200068658",
    "departement_code": "52",
    "region_code": "44",
    "postal_code": "52320"
  },
  {
    "name": "Soulaucourt-sur-Mouzon",
    "code": "52482",
    "epci_code": "200069664",
    "departement_code": "52",
    "region_code": "44",
    "postal_code": "52150"
  },
  {
    "name": "Soyers",
    "code": "52483",
    "epci_code": "200070332",
    "departement_code": "52",
    "region_code": "44",
    "postal_code": "52400"
  },
  {
    "name": "Suzannecourt",
    "code": "52484",
    "epci_code": "200044253",
    "departement_code": "52",
    "region_code": "44",
    "postal_code": "52300"
  },
  {
    "name": "Ternat",
    "code": "52486",
    "epci_code": "200027308",
    "departement_code": "52",
    "region_code": "44",
    "postal_code": "52210"
  },
  {
    "name": "Thilleux",
    "code": "52487",
    "epci_code": "200068666",
    "departement_code": "52",
    "region_code": "44",
    "postal_code": "52220"
  },
  {
    "name": "Thivet",
    "code": "52488",
    "epci_code": "200068658",
    "departement_code": "52",
    "region_code": "44",
    "postal_code": "52800"
  },
  {
    "name": "Thol-lès-Millières",
    "code": "52489",
    "epci_code": "200069664",
    "departement_code": "52",
    "region_code": "44",
    "postal_code": "52240"
  },
  {
    "name": "Thonnance-lès-Joinville",
    "code": "52490",
    "epci_code": "200044253",
    "departement_code": "52",
    "region_code": "44",
    "postal_code": "52300"
  },
  {
    "name": "Thonnance-les-Moulins",
    "code": "52491",
    "epci_code": "200044253",
    "departement_code": "52",
    "region_code": "44",
    "postal_code": "52230"
  },
  {
    "name": "Torcenay",
    "code": "52492",
    "epci_code": "200070332",
    "departement_code": "52",
    "region_code": "44",
    "postal_code": "52600"
  },
  {
    "name": "Tornay",
    "code": "52493",
    "epci_code": "200070332",
    "departement_code": "52",
    "region_code": "44",
    "postal_code": "52500"
  },
  {
    "name": "Treix",
    "code": "52494",
    "epci_code": "200068658",
    "departement_code": "52",
    "region_code": "44",
    "postal_code": "52000"
  },
  {
    "name": "Trémilly",
    "code": "52495",
    "epci_code": "200044253",
    "departement_code": "52",
    "region_code": "44",
    "postal_code": "52110"
  },
  {
    "name": "Troisfontaines-la-Ville",
    "code": "52497",
    "epci_code": "200068666",
    "departement_code": "52",
    "region_code": "44",
    "postal_code": "52130"
  },
  {
    "name": "Vaillant",
    "code": "52499",
    "epci_code": "200027308",
    "departement_code": "52",
    "region_code": "44",
    "postal_code": "52160"
  },
  {
    "name": "Valcourt",
    "code": "52500",
    "epci_code": "200068666",
    "departement_code": "52",
    "region_code": "44",
    "postal_code": "52100"
  },
  {
    "name": "Valleret",
    "code": "52502",
    "epci_code": "200068666",
    "departement_code": "52",
    "region_code": "44",
    "postal_code": "52130"
  },
  {
    "name": "Valleroy",
    "code": "52503",
    "epci_code": "200070332",
    "departement_code": "52",
    "region_code": "44",
    "postal_code": "52500"
  },
  {
    "name": "Varennes-sur-Amance",
    "code": "52504",
    "epci_code": "200070332",
    "departement_code": "52",
    "region_code": "44",
    "postal_code": "52400"
  },
  {
    "name": "Vaudrecourt",
    "code": "52505",
    "epci_code": "200069664",
    "departement_code": "52",
    "region_code": "44",
    "postal_code": "52150"
  },
  {
    "name": "Vaudrémont",
    "code": "52506",
    "epci_code": "245200597",
    "departement_code": "52",
    "region_code": "44",
    "postal_code": "52330"
  },
  {
    "name": "Vauxbons",
    "code": "52507",
    "epci_code": "200027308",
    "departement_code": "52",
    "region_code": "44",
    "postal_code": "52200"
  },
  {
    "name": "Vaux-sur-Blaise",
    "code": "52510",
    "epci_code": "200068666",
    "departement_code": "52",
    "region_code": "44",
    "postal_code": "52130"
  },
  {
    "name": "Vaux-sur-Saint-Urbain",
    "code": "52511",
    "epci_code": "200044253",
    "departement_code": "52",
    "region_code": "44",
    "postal_code": "52300"
  },
  {
    "name": "Vecqueville",
    "code": "52512",
    "epci_code": "200044253",
    "departement_code": "52",
    "region_code": "44",
    "postal_code": "52300"
  },
  {
    "name": "Velles",
    "code": "52513",
    "epci_code": "200070332",
    "departement_code": "52",
    "region_code": "44",
    "postal_code": "52500"
  },
  {
    "name": "Verbiesles",
    "code": "52514",
    "epci_code": "200068658",
    "departement_code": "52",
    "region_code": "44",
    "postal_code": "52000"
  },
  {
    "name": "Verseilles-le-Bas",
    "code": "52515",
    "epci_code": "200027308",
    "departement_code": "52",
    "region_code": "44",
    "postal_code": "52250"
  },
  {
    "name": "Verseilles-le-Haut",
    "code": "52516",
    "epci_code": "200027308",
    "departement_code": "52",
    "region_code": "44",
    "postal_code": "52250"
  },
  {
    "name": "Vesaignes-sous-Lafauche",
    "code": "52517",
    "epci_code": "200069664",
    "departement_code": "52",
    "region_code": "44",
    "postal_code": "52700"
  },
  {
    "name": "Vesaignes-sur-Marne",
    "code": "52518",
    "epci_code": "200068658",
    "departement_code": "52",
    "region_code": "44",
    "postal_code": "52800"
  },
  {
    "name": "Vesvres-sous-Chalancey",
    "code": "52519",
    "epci_code": "200027308",
    "departement_code": "52",
    "region_code": "44",
    "postal_code": "52190"
  },
  {
    "name": "Vicq",
    "code": "52520",
    "epci_code": "200070332",
    "departement_code": "52",
    "region_code": "44",
    "postal_code": "52400"
  },
  {
    "name": "Viéville",
    "code": "52522",
    "epci_code": "200068658",
    "departement_code": "52",
    "region_code": "44",
    "postal_code": "52310"
  },
  {
    "name": "Vignes-la-Côte",
    "code": "52523",
    "epci_code": "200069664",
    "departement_code": "52",
    "region_code": "44",
    "postal_code": "52700"
  },
  {
    "name": "Vignory",
    "code": "52524",
    "epci_code": "200068658",
    "departement_code": "52",
    "region_code": "44",
    "postal_code": "52320"
  },
  {
    "name": "Villars-en-Azois",
    "code": "52525",
    "epci_code": "245200597",
    "departement_code": "52",
    "region_code": "44",
    "postal_code": "52120"
  },
  {
    "name": "Villars-Santenoge",
    "code": "52526",
    "epci_code": "200027308",
    "departement_code": "52",
    "region_code": "44",
    "postal_code": "52160"
  },
  {
    "name": "Ville-en-Blaisois",
    "code": "52528",
    "epci_code": "200068666",
    "departement_code": "52",
    "region_code": "44",
    "postal_code": "52130"
  },
  {
    "name": "Villegusien-le-Lac",
    "code": "52529",
    "epci_code": "200027308",
    "departement_code": "52",
    "region_code": "44",
    "postal_code": "52190"
  },
  {
    "name": "Villegusien-le-Lac",
    "code": "52529",
    "epci_code": "200027308",
    "departement_code": "52",
    "region_code": "44",
    "postal_code": "52600"
  },
  {
    "name": "Villiers-en-Lieu",
    "code": "52534",
    "epci_code": "200068666",
    "departement_code": "52",
    "region_code": "44",
    "postal_code": "52100"
  },
  {
    "name": "Villiers-le-Sec",
    "code": "52535",
    "epci_code": "200068658",
    "departement_code": "52",
    "region_code": "44",
    "postal_code": "52000"
  },
  {
    "name": "Villiers-lès-Aprey",
    "code": "52536",
    "epci_code": "200027308",
    "departement_code": "52",
    "region_code": "44",
    "postal_code": "52190"
  },
  {
    "name": "Villiers-sur-Suize",
    "code": "52538",
    "epci_code": "245200597",
    "departement_code": "52",
    "region_code": "44",
    "postal_code": "52210"
  },
  {
    "name": "Violot",
    "code": "52539",
    "epci_code": "200070332",
    "departement_code": "52",
    "region_code": "44",
    "postal_code": "52600"
  },
  {
    "name": "Vitry-en-Montagne",
    "code": "52540",
    "epci_code": "200027308",
    "departement_code": "52",
    "region_code": "44",
    "postal_code": "52160"
  },
  {
    "name": "Vitry-lès-Nogent",
    "code": "52541",
    "epci_code": "200068658",
    "departement_code": "52",
    "region_code": "44",
    "postal_code": "52800"
  },
  {
    "name": "Vivey",
    "code": "52542",
    "epci_code": "200027308",
    "departement_code": "52",
    "region_code": "44",
    "postal_code": "52160"
  },
  {
    "name": "Voillecomte",
    "code": "52543",
    "epci_code": "200068666",
    "departement_code": "52",
    "region_code": "44",
    "postal_code": "52130"
  },
  {
    "name": "Voisey",
    "code": "52544",
    "epci_code": "200070332",
    "departement_code": "52",
    "region_code": "44",
    "postal_code": "52400"
  },
  {
    "name": "Voisines",
    "code": "52545",
    "epci_code": "200072999",
    "departement_code": "52",
    "region_code": "44",
    "postal_code": "52200"
  },
  {
    "name": "Voncourt",
    "code": "52546",
    "epci_code": "200070332",
    "departement_code": "52",
    "region_code": "44",
    "postal_code": "52500"
  },
  {
    "name": "Vouécourt",
    "code": "52547",
    "epci_code": "200068658",
    "departement_code": "52",
    "region_code": "44",
    "postal_code": "52320"
  },
  {
    "name": "Vraincourt",
    "code": "52548",
    "epci_code": "200068658",
    "departement_code": "52",
    "region_code": "44",
    "postal_code": "52310"
  },
  {
    "name": "Vroncourt-la-Côte",
    "code": "52549",
    "epci_code": "200069664",
    "departement_code": "52",
    "region_code": "44",
    "postal_code": "52240"
  },
  {
    "name": "Wassy",
    "code": "52550",
    "epci_code": "200068666",
    "departement_code": "52",
    "region_code": "44",
    "postal_code": "52130"
  }
]