[
  {
    "name": "Abbeville",
    "code": "80001",
    "epci_code": "200070993",
    "departement_code": "80",
    "region_code": "32",
    "postal_code": "80100"
  },
  {
    "name": "Ablaincourt-Pressoir",
    "code": "80002",
    "epci_code": "200070928",
    "departement_code": "80",
    "region_code": "32",
    "postal_code": "80320"
  },
  {
    "name": "Acheux-en-Amiénois",
    "code": "80003",
    "epci_code": "248000747",
    "departement_code": "80",
    "region_code": "32",
    "postal_code": "80560"
  },
  {
    "name": "Acheux-en-Vimeu",
    "code": "80004",
    "epci_code": "200070944",
    "departement_code": "80",
    "region_code": "32",
    "postal_code": "80210"
  },
  {
    "name": "Agenville",
    "code": "80005",
    "epci_code": "200070951",
    "departement_code": "80",
    "region_code": "32",
    "postal_code": "80370"
  },
  {
    "name": "Agenvillers",
    "code": "80006",
    "epci_code": "200070936",
    "departement_code": "80",
    "region_code": "32",
    "postal_code": "80150"
  },
  {
    "name": "Aigneville",
    "code": "80008",
    "epci_code": "200070944",
    "departement_code": "80",
    "region_code": "32",
    "postal_code": "80210"
  },
  {
    "name": "Ailly-le-Haut-Clocher",
    "code": "80009",
    "epci_code": "200070936",
    "departement_code": "80",
    "region_code": "32",
    "postal_code": "80690"
  },
  {
    "name": "Ailly-sur-Noye",
    "code": "80010",
    "epci_code": "200070969",
    "departement_code": "80",
    "region_code": "32",
    "postal_code": "80250"
  },
  {
    "name": "Ailly-sur-Somme",
    "code": "80011",
    "epci_code": "200071223",
    "departement_code": "80",
    "region_code": "32",
    "postal_code": "80470"
  },
  {
    "name": "Airaines",
    "code": "80013",
    "epci_code": "200071181",
    "departement_code": "80",
    "region_code": "32",
    "postal_code": "80270"
  },
  {
    "name": "Aizecourt-le-Bas",
    "code": "80014",
    "epci_code": "200037059",
    "departement_code": "80",
    "region_code": "32",
    "postal_code": "80240"
  },
  {
    "name": "Aizecourt-le-Haut",
    "code": "80015",
    "epci_code": "200037059",
    "departement_code": "80",
    "region_code": "32",
    "postal_code": "80200"
  },
  {
    "name": "Albert",
    "code": "80016",
    "epci_code": "248000747",
    "departement_code": "80",
    "region_code": "32",
    "postal_code": "80300"
  },
  {
    "name": "Allaines",
    "code": "80017",
    "epci_code": "200037059",
    "departement_code": "80",
    "region_code": "32",
    "postal_code": "80200"
  },
  {
    "name": "Allenay",
    "code": "80018",
    "epci_code": "247600588",
    "departement_code": "80",
    "region_code": "32",
    "postal_code": "80130"
  },
  {
    "name": "Allery",
    "code": "80019",
    "epci_code": "200071181",
    "departement_code": "80",
    "region_code": "32",
    "postal_code": "80270"
  },
  {
    "name": "Allonville",
    "code": "80020",
    "epci_code": "248000531",
    "departement_code": "80",
    "region_code": "32",
    "postal_code": "80260"
  },
  {
    "name": "Amiens",
    "code": "80021",
    "epci_code": "248000531",
    "departement_code": "80",
    "region_code": "32",
    "postal_code": "80000"
  },
  {
    "name": "Amiens",
    "code": "80021",
    "epci_code": "248000531",
    "departement_code": "80",
    "region_code": "32",
    "postal_code": "80080"
  },
  {
    "name": "Amiens",
    "code": "80021",
    "epci_code": "248000531",
    "departement_code": "80",
    "region_code": "32",
    "postal_code": "80090"
  },
  {
    "name": "Andainville",
    "code": "80022",
    "epci_code": "200071181",
    "departement_code": "80",
    "region_code": "32",
    "postal_code": "80140"
  },
  {
    "name": "Andechy",
    "code": "80023",
    "epci_code": "200070977",
    "departement_code": "80",
    "region_code": "32",
    "postal_code": "80700"
  },
  {
    "name": "Argœuves",
    "code": "80024",
    "epci_code": "200071223",
    "departement_code": "80",
    "region_code": "32",
    "postal_code": "80470"
  },
  {
    "name": "Argoules",
    "code": "80025",
    "epci_code": "200070936",
    "departement_code": "80",
    "region_code": "32",
    "postal_code": "80120"
  },
  {
    "name": "Arguel",
    "code": "80026",
    "epci_code": "200071181",
    "departement_code": "80",
    "region_code": "32",
    "postal_code": "80140"
  },
  {
    "name": "Armancourt",
    "code": "80027",
    "epci_code": "200070977",
    "departement_code": "80",
    "region_code": "32",
    "postal_code": "80700"
  },
  {
    "name": "Arquèves",
    "code": "80028",
    "epci_code": "248000747",
    "departement_code": "80",
    "region_code": "32",
    "postal_code": "80560"
  },
  {
    "name": "Arrest",
    "code": "80029",
    "epci_code": "200070993",
    "departement_code": "80",
    "region_code": "32",
    "postal_code": "80820"
  },
  {
    "name": "Arry",
    "code": "80030",
    "epci_code": "200070936",
    "departement_code": "80",
    "region_code": "32",
    "postal_code": "80120"
  },
  {
    "name": "Arvillers",
    "code": "80031",
    "epci_code": "200070969",
    "departement_code": "80",
    "region_code": "32",
    "postal_code": "80910"
  },
  {
    "name": "Assainvillers",
    "code": "80032",
    "epci_code": "200070977",
    "departement_code": "80",
    "region_code": "32",
    "postal_code": "80500"
  },
  {
    "name": "Assevillers",
    "code": "80033",
    "epci_code": "200070928",
    "departement_code": "80",
    "region_code": "32",
    "postal_code": "80200"
  },
  {
    "name": "Athies",
    "code": "80034",
    "epci_code": "200070985",
    "departement_code": "80",
    "region_code": "32",
    "postal_code": "80200"
  },
  {
    "name": "Aubercourt",
    "code": "80035",
    "epci_code": "200070969",
    "departement_code": "80",
    "region_code": "32",
    "postal_code": "80110"
  },
  {
    "name": "Aubigny",
    "code": "80036",
    "epci_code": "248000499",
    "departement_code": "80",
    "region_code": "32",
    "postal_code": "80800"
  },
  {
    "name": "Aubvillers",
    "code": "80037",
    "epci_code": "200070969",
    "departement_code": "80",
    "region_code": "32",
    "postal_code": "80110"
  },
  {
    "name": "Auchonvillers",
    "code": "80038",
    "epci_code": "248000747",
    "departement_code": "80",
    "region_code": "32",
    "postal_code": "80560"
  },
  {
    "name": "Ault",
    "code": "80039",
    "epci_code": "247600588",
    "departement_code": "80",
    "region_code": "32",
    "postal_code": "80460"
  },
  {
    "name": "Aumâtre",
    "code": "80040",
    "epci_code": "200071181",
    "departement_code": "80",
    "region_code": "32",
    "postal_code": "80140"
  },
  {
    "name": "Aumont",
    "code": "80041",
    "epci_code": "200071181",
    "departement_code": "80",
    "region_code": "32",
    "postal_code": "80640"
  },
  {
    "name": "Autheux",
    "code": "80042",
    "epci_code": "200070951",
    "departement_code": "80",
    "region_code": "32",
    "postal_code": "80600"
  },
  {
    "name": "Authie",
    "code": "80043",
    "epci_code": "248000747",
    "departement_code": "80",
    "region_code": "32",
    "postal_code": "80560"
  },
  {
    "name": "Authieule",
    "code": "80044",
    "epci_code": "200070951",
    "departement_code": "80",
    "region_code": "32",
    "postal_code": "80600"
  },
  {
    "name": "Authuille",
    "code": "80045",
    "epci_code": "248000747",
    "departement_code": "80",
    "region_code": "32",
    "postal_code": "80300"
  },
  {
    "name": "Avelesges",
    "code": "80046",
    "epci_code": "200071181",
    "departement_code": "80",
    "region_code": "32",
    "postal_code": "80270"
  },
  {
    "name": "Aveluy",
    "code": "80047",
    "epci_code": "248000747",
    "departement_code": "80",
    "region_code": "32",
    "postal_code": "80300"
  },
  {
    "name": "Avesnes-Chaussoy",
    "code": "80048",
    "epci_code": "200071181",
    "departement_code": "80",
    "region_code": "32",
    "postal_code": "80140"
  },
  {
    "name": "Ayencourt",
    "code": "80049",
    "epci_code": "200070977",
    "departement_code": "80",
    "region_code": "32",
    "postal_code": "80500"
  },
  {
    "name": "Bacouel-sur-Selle",
    "code": "80050",
    "epci_code": "200071181",
    "departement_code": "80",
    "region_code": "32",
    "postal_code": "80480"
  },
  {
    "name": "Bailleul",
    "code": "80051",
    "epci_code": "200070993",
    "departement_code": "80",
    "region_code": "32",
    "postal_code": "80490"
  },
  {
    "name": "Baizieux",
    "code": "80052",
    "epci_code": "248000499",
    "departement_code": "80",
    "region_code": "32",
    "postal_code": "80300"
  },
  {
    "name": "Balâtre",
    "code": "80053",
    "epci_code": "200070977",
    "departement_code": "80",
    "region_code": "32",
    "postal_code": "80700"
  },
  {
    "name": "Barleux",
    "code": "80054",
    "epci_code": "200037059",
    "departement_code": "80",
    "region_code": "32",
    "postal_code": "80200"
  },
  {
    "name": "Barly",
    "code": "80055",
    "epci_code": "200070951",
    "departement_code": "80",
    "region_code": "32",
    "postal_code": "80600"
  },
  {
    "name": "Bavelincourt",
    "code": "80056",
    "epci_code": "200070951",
    "departement_code": "80",
    "region_code": "32",
    "postal_code": "80260"
  },
  {
    "name": "Bayencourt",
    "code": "80057",
    "epci_code": "248000747",
    "departement_code": "80",
    "region_code": "32",
    "postal_code": "80560"
  },
  {
    "name": "Bayonvillers",
    "code": "80058",
    "epci_code": "200070928",
    "departement_code": "80",
    "region_code": "32",
    "postal_code": "80170"
  },
  {
    "name": "Bazentin",
    "code": "80059",
    "epci_code": "248000747",
    "departement_code": "80",
    "region_code": "32",
    "postal_code": "80300"
  },
  {
    "name": "Béalcourt",
    "code": "80060",
    "epci_code": "200070951",
    "departement_code": "80",
    "region_code": "32",
    "postal_code": "80370"
  },
  {
    "name": "Beaucamps-le-Jeune",
    "code": "80061",
    "epci_code": "200071181",
    "departement_code": "80",
    "region_code": "32",
    "postal_code": "80430"
  },
  {
    "name": "Beaucamps-le-Vieux",
    "code": "80062",
    "epci_code": "200071181",
    "departement_code": "80",
    "region_code": "32",
    "postal_code": "80430"
  },
  {
    "name": "Beauchamps",
    "code": "80063",
    "epci_code": "247600588",
    "departement_code": "80",
    "region_code": "32",
    "postal_code": "80770"
  },
  {
    "name": "Beaucourt-en-Santerre",
    "code": "80064",
    "epci_code": "200070969",
    "departement_code": "80",
    "region_code": "32",
    "postal_code": "80110"
  },
  {
    "name": "Beaucourt-sur-l’Ancre",
    "code": "80065",
    "epci_code": "248000747",
    "departement_code": "80",
    "region_code": "32",
    "postal_code": "80300"
  },
  {
    "name": "Beaucourt-sur-l’Hallue",
    "code": "80066",
    "epci_code": "200070951",
    "departement_code": "80",
    "region_code": "32",
    "postal_code": "80260"
  },
  {
    "name": "Beaufort-en-Santerre",
    "code": "80067",
    "epci_code": "200070928",
    "departement_code": "80",
    "region_code": "32",
    "postal_code": "80170"
  },
  {
    "name": "Beaumetz",
    "code": "80068",
    "epci_code": "200070951",
    "departement_code": "80",
    "region_code": "32",
    "postal_code": "80370"
  },
  {
    "name": "Beaumont-Hamel",
    "code": "80069",
    "epci_code": "248000747",
    "departement_code": "80",
    "region_code": "32",
    "postal_code": "80300"
  },
  {
    "name": "Beauquesne",
    "code": "80070",
    "epci_code": "200070951",
    "departement_code": "80",
    "region_code": "32",
    "postal_code": "80600"
  },
  {
    "name": "Beauval",
    "code": "80071",
    "epci_code": "200070951",
    "departement_code": "80",
    "region_code": "32",
    "postal_code": "80630"
  },
  {
    "name": "Bécordel-Bécourt",
    "code": "80073",
    "epci_code": "248000747",
    "departement_code": "80",
    "region_code": "32",
    "postal_code": "80300"
  },
  {
    "name": "Becquigny",
    "code": "80074",
    "epci_code": "200070977",
    "departement_code": "80",
    "region_code": "32",
    "postal_code": "80500"
  },
  {
    "name": "Béhen",
    "code": "80076",
    "epci_code": "200070944",
    "departement_code": "80",
    "region_code": "32",
    "postal_code": "80870"
  },
  {
    "name": "Béhencourt",
    "code": "80077",
    "epci_code": "200070951",
    "departement_code": "80",
    "region_code": "32",
    "postal_code": "80260"
  },
  {
    "name": "Bellancourt",
    "code": "80078",
    "epci_code": "200070993",
    "departement_code": "80",
    "region_code": "32",
    "postal_code": "80132"
  },
  {
    "name": "Belleuse",
    "code": "80079",
    "epci_code": "200071181",
    "departement_code": "80",
    "region_code": "32",
    "postal_code": "80160"
  },
  {
    "name": "Belloy-en-Santerre",
    "code": "80080",
    "epci_code": "200070928",
    "departement_code": "80",
    "region_code": "32",
    "postal_code": "80200"
  },
  {
    "name": "Belloy-Saint-Léonard",
    "code": "80081",
    "epci_code": "200071181",
    "departement_code": "80",
    "region_code": "32",
    "postal_code": "80270"
  },
  {
    "name": "Belloy-sur-Somme",
    "code": "80082",
    "epci_code": "200071223",
    "departement_code": "80",
    "region_code": "32",
    "postal_code": "80310"
  },
  {
    "name": "Bergicourt",
    "code": "80083",
    "epci_code": "200071181",
    "departement_code": "80",
    "region_code": "32",
    "postal_code": "80290"
  },
  {
    "name": "Bermesnil",
    "code": "80084",
    "epci_code": "200071181",
    "departement_code": "80",
    "region_code": "32",
    "postal_code": "80140"
  },
  {
    "name": "Bernâtre",
    "code": "80085",
    "epci_code": "200070951",
    "departement_code": "80",
    "region_code": "32",
    "postal_code": "80370"
  },
  {
    "name": "Bernaville",
    "code": "80086",
    "epci_code": "200070951",
    "departement_code": "80",
    "region_code": "32",
    "postal_code": "80370"
  },
  {
    "name": "Bernay-en-Ponthieu",
    "code": "80087",
    "epci_code": "200070936",
    "departement_code": "80",
    "region_code": "32",
    "postal_code": "80120"
  },
  {
    "name": "Bernes",
    "code": "80088",
    "epci_code": "200037059",
    "departement_code": "80",
    "region_code": "32",
    "postal_code": "80240"
  },
  {
    "name": "Berneuil",
    "code": "80089",
    "epci_code": "200070951",
    "departement_code": "80",
    "region_code": "32",
    "postal_code": "80620"
  },
  {
    "name": "Berny-en-Santerre",
    "code": "80090",
    "epci_code": "200070928",
    "departement_code": "80",
    "region_code": "32",
    "postal_code": "80200"
  },
  {
    "name": "Bertangles",
    "code": "80092",
    "epci_code": "248000531",
    "departement_code": "80",
    "region_code": "32",
    "postal_code": "80260"
  },
  {
    "name": "Berteaucourt-les-Dames",
    "code": "80093",
    "epci_code": "200071223",
    "departement_code": "80",
    "region_code": "32",
    "postal_code": "80850"
  },
  {
    "name": "Berteaucourt-lès-Thennes",
    "code": "80094",
    "epci_code": "200070969",
    "departement_code": "80",
    "region_code": "32",
    "postal_code": "80110"
  },
  {
    "name": "Bertrancourt",
    "code": "80095",
    "epci_code": "248000747",
    "departement_code": "80",
    "region_code": "32",
    "postal_code": "80560"
  },
  {
    "name": "Béthencourt-sur-Mer",
    "code": "80096",
    "epci_code": "200070944",
    "departement_code": "80",
    "region_code": "32",
    "postal_code": "80130"
  },
  {
    "name": "Béthencourt-sur-Somme",
    "code": "80097",
    "epci_code": "200070985",
    "departement_code": "80",
    "region_code": "32",
    "postal_code": "80190"
  },
  {
    "name": "Bettembos",
    "code": "80098",
    "epci_code": "200071181",
    "departement_code": "80",
    "region_code": "32",
    "postal_code": "80290"
  },
  {
    "name": "Bettencourt-Rivière",
    "code": "80099",
    "epci_code": "200070993",
    "departement_code": "80",
    "region_code": "32",
    "postal_code": "80270"
  },
  {
    "name": "Bettencourt-Saint-Ouen",
    "code": "80100",
    "epci_code": "200071223",
    "departement_code": "80",
    "region_code": "32",
    "postal_code": "80610"
  },
  {
    "name": "Beuvraignes",
    "code": "80101",
    "epci_code": "200070977",
    "departement_code": "80",
    "region_code": "32",
    "postal_code": "80700"
  },
  {
    "name": "Biaches",
    "code": "80102",
    "epci_code": "200037059",
    "departement_code": "80",
    "region_code": "32",
    "postal_code": "80200"
  },
  {
    "name": "Biarre",
    "code": "80103",
    "epci_code": "200070977",
    "departement_code": "80",
    "region_code": "32",
    "postal_code": "80190"
  },
  {
    "name": "Biencourt",
    "code": "80104",
    "epci_code": "200069722",
    "departement_code": "80",
    "region_code": "32",
    "postal_code": "80140"
  },
  {
    "name": "Billancourt",
    "code": "80105",
    "epci_code": "200070985",
    "departement_code": "80",
    "region_code": "32",
    "postal_code": "80190"
  },
  {
    "name": "Blangy-sous-Poix",
    "code": "80106",
    "epci_code": "200071181",
    "departement_code": "80",
    "region_code": "32",
    "postal_code": "80290"
  },
  {
    "name": "Blangy-Tronville",
    "code": "80107",
    "epci_code": "248000531",
    "departement_code": "80",
    "region_code": "32",
    "postal_code": "80440"
  },
  {
    "name": "Boisbergues",
    "code": "80108",
    "epci_code": "200070951",
    "departement_code": "80",
    "region_code": "32",
    "postal_code": "80600"
  },
  {
    "name": "Le Boisle",
    "code": "80109",
    "epci_code": "200070936",
    "departement_code": "80",
    "region_code": "32",
    "postal_code": "80150"
  },
  {
    "name": "Boismont",
    "code": "80110",
    "epci_code": "200070993",
    "departement_code": "80",
    "region_code": "32",
    "postal_code": "80230"
  },
  {
    "name": "Bonnay",
    "code": "80112",
    "epci_code": "248000499",
    "departement_code": "80",
    "region_code": "32",
    "postal_code": "80800"
  },
  {
    "name": "Bonneville",
    "code": "80113",
    "epci_code": "200070951",
    "departement_code": "80",
    "region_code": "32",
    "postal_code": "80670"
  },
  {
    "name": "Bosquel",
    "code": "80114",
    "epci_code": "200071181",
    "departement_code": "80",
    "region_code": "32",
    "postal_code": "80160"
  },
  {
    "name": "Bouchavesnes-Bergen",
    "code": "80115",
    "epci_code": "200037059",
    "departement_code": "80",
    "region_code": "32",
    "postal_code": "80200"
  },
  {
    "name": "Bouchoir",
    "code": "80116",
    "epci_code": "200070928",
    "departement_code": "80",
    "region_code": "32",
    "postal_code": "80910"
  },
  {
    "name": "Bouchon",
    "code": "80117",
    "epci_code": "200071223",
    "departement_code": "80",
    "region_code": "32",
    "postal_code": "80830"
  },
  {
    "name": "Boufflers",
    "code": "80118",
    "epci_code": "200070936",
    "departement_code": "80",
    "region_code": "32",
    "postal_code": "80150"
  },
  {
    "name": "Bougainville",
    "code": "80119",
    "epci_code": "200071181",
    "departement_code": "80",
    "region_code": "32",
    "postal_code": "80540"
  },
  {
    "name": "Bouillancourt-en-Séry",
    "code": "80120",
    "epci_code": "200069722",
    "departement_code": "80",
    "region_code": "32",
    "postal_code": "80220"
  },
  {
    "name": "Bouillancourt-la-Bataille",
    "code": "80121",
    "epci_code": "200070977",
    "departement_code": "80",
    "region_code": "32",
    "postal_code": "80500"
  },
  {
    "name": "Bouquemaison",
    "code": "80122",
    "epci_code": "200070951",
    "departement_code": "80",
    "region_code": "32",
    "postal_code": "80600"
  },
  {
    "name": "Bourdon",
    "code": "80123",
    "epci_code": "200071223",
    "departement_code": "80",
    "region_code": "32",
    "postal_code": "80310"
  },
  {
    "name": "Bourseville",
    "code": "80124",
    "epci_code": "200070944",
    "departement_code": "80",
    "region_code": "32",
    "postal_code": "80130"
  },
  {
    "name": "Boussicourt",
    "code": "80125",
    "epci_code": "200070977",
    "departement_code": "80",
    "region_code": "32",
    "postal_code": "80500"
  },
  {
    "name": "Bouttencourt",
    "code": "80126",
    "epci_code": "200069722",
    "departement_code": "80",
    "region_code": "32",
    "postal_code": "80220"
  },
  {
    "name": "Bouvaincourt-sur-Bresle",
    "code": "80127",
    "epci_code": "247600588",
    "departement_code": "80",
    "region_code": "32",
    "postal_code": "80220"
  },
  {
    "name": "Bouvincourt-en-Vermandois",
    "code": "80128",
    "epci_code": "200037059",
    "departement_code": "80",
    "region_code": "32",
    "postal_code": "80200"
  },
  {
    "name": "Bouzincourt",
    "code": "80129",
    "epci_code": "248000747",
    "departement_code": "80",
    "region_code": "32",
    "postal_code": "80300"
  },
  {
    "name": "Bovelles",
    "code": "80130",
    "epci_code": "248000531",
    "departement_code": "80",
    "region_code": "32",
    "postal_code": "80540"
  },
  {
    "name": "Boves",
    "code": "80131",
    "epci_code": "248000531",
    "departement_code": "80",
    "region_code": "32",
    "postal_code": "80440"
  },
  {
    "name": "Braches",
    "code": "80132",
    "epci_code": "200070969",
    "departement_code": "80",
    "region_code": "32",
    "postal_code": "80110"
  },
  {
    "name": "Brailly-Cornehotte",
    "code": "80133",
    "epci_code": "200070936",
    "departement_code": "80",
    "region_code": "32",
    "postal_code": "80150"
  },
  {
    "name": "Brassy",
    "code": "80134",
    "epci_code": "200071181",
    "departement_code": "80",
    "region_code": "32",
    "postal_code": "80160"
  },
  {
    "name": "Bray-lès-Mareuil",
    "code": "80135",
    "epci_code": "200070993",
    "departement_code": "80",
    "region_code": "32",
    "postal_code": "80580"
  },
  {
    "name": "Bray-sur-Somme",
    "code": "80136",
    "epci_code": "248000747",
    "departement_code": "80",
    "region_code": "32",
    "postal_code": "80340"
  },
  {
    "name": "Breilly",
    "code": "80137",
    "epci_code": "200071223",
    "departement_code": "80",
    "region_code": "32",
    "postal_code": "80470"
  },
  {
    "name": "Bresle",
    "code": "80138",
    "epci_code": "248000499",
    "departement_code": "80",
    "region_code": "32",
    "postal_code": "80300"
  },
  {
    "name": "Breuil",
    "code": "80139",
    "epci_code": "200070985",
    "departement_code": "80",
    "region_code": "32",
    "postal_code": "80400"
  },
  {
    "name": "Brévillers",
    "code": "80140",
    "epci_code": "200070951",
    "departement_code": "80",
    "region_code": "32",
    "postal_code": "80600"
  },
  {
    "name": "Brie",
    "code": "80141",
    "epci_code": "200037059",
    "departement_code": "80",
    "region_code": "32",
    "postal_code": "80200"
  },
  {
    "name": "Briquemesnil-Floxicourt",
    "code": "80142",
    "epci_code": "200071181",
    "departement_code": "80",
    "region_code": "32",
    "postal_code": "80540"
  },
  {
    "name": "Brocourt",
    "code": "80143",
    "epci_code": "200071181",
    "departement_code": "80",
    "region_code": "32",
    "postal_code": "80430"
  },
  {
    "name": "Brouchy",
    "code": "80144",
    "epci_code": "200070985",
    "departement_code": "80",
    "region_code": "32",
    "postal_code": "80400"
  },
  {
    "name": "Brucamps",
    "code": "80145",
    "epci_code": "200070936",
    "departement_code": "80",
    "region_code": "32",
    "postal_code": "80690"
  },
  {
    "name": "Brutelles",
    "code": "80146",
    "epci_code": "200070993",
    "departement_code": "80",
    "region_code": "32",
    "postal_code": "80230"
  },
  {
    "name": "Buigny-l’Abbé",
    "code": "80147",
    "epci_code": "200070936",
    "departement_code": "80",
    "region_code": "32",
    "postal_code": "80132"
  },
  {
    "name": "Buigny-lès-Gamaches",
    "code": "80148",
    "epci_code": "247600588",
    "departement_code": "80",
    "region_code": "32",
    "postal_code": "80220"
  },
  {
    "name": "Buigny-Saint-Maclou",
    "code": "80149",
    "epci_code": "200070936",
    "departement_code": "80",
    "region_code": "32",
    "postal_code": "80132"
  },
  {
    "name": "Buire-Courcelles",
    "code": "80150",
    "epci_code": "200037059",
    "departement_code": "80",
    "region_code": "32",
    "postal_code": "80200"
  },
  {
    "name": "Buire-sur-l’Ancre",
    "code": "80151",
    "epci_code": "248000747",
    "departement_code": "80",
    "region_code": "32",
    "postal_code": "80300"
  },
  {
    "name": "Bus-la-Mésière",
    "code": "80152",
    "epci_code": "200070977",
    "departement_code": "80",
    "region_code": "32",
    "postal_code": "80700"
  },
  {
    "name": "Bus-lès-Artois",
    "code": "80153",
    "epci_code": "248000747",
    "departement_code": "80",
    "region_code": "32",
    "postal_code": "80560"
  },
  {
    "name": "Bussu",
    "code": "80154",
    "epci_code": "200037059",
    "departement_code": "80",
    "region_code": "32",
    "postal_code": "80200"
  },
  {
    "name": "Bussus-lès-Yaucourt",
    "code": "80155",
    "epci_code": "200070936",
    "departement_code": "80",
    "region_code": "32",
    "postal_code": "80135"
  },
  {
    "name": "Bussy-lès-Daours",
    "code": "80156",
    "epci_code": "248000499",
    "departement_code": "80",
    "region_code": "32",
    "postal_code": "80800"
  },
  {
    "name": "Bussy-lès-Poix",
    "code": "80157",
    "epci_code": "200071181",
    "departement_code": "80",
    "region_code": "32",
    "postal_code": "80290"
  },
  {
    "name": "Buverchy",
    "code": "80158",
    "epci_code": "200070985",
    "departement_code": "80",
    "region_code": "32",
    "postal_code": "80400"
  },
  {
    "name": "Cachy",
    "code": "80159",
    "epci_code": "248000499",
    "departement_code": "80",
    "region_code": "32",
    "postal_code": "80800"
  },
  {
    "name": "Cagny",
    "code": "80160",
    "epci_code": "248000531",
    "departement_code": "80",
    "region_code": "32",
    "postal_code": "80330"
  },
  {
    "name": "Cahon",
    "code": "80161",
    "epci_code": "200070944",
    "departement_code": "80",
    "region_code": "32",
    "postal_code": "80132"
  },
  {
    "name": "Caix",
    "code": "80162",
    "epci_code": "200070928",
    "departement_code": "80",
    "region_code": "32",
    "postal_code": "80170"
  },
  {
    "name": "Cambron",
    "code": "80163",
    "epci_code": "200070993",
    "departement_code": "80",
    "region_code": "32",
    "postal_code": "80132"
  },
  {
    "name": "Camon",
    "code": "80164",
    "epci_code": "248000531",
    "departement_code": "80",
    "region_code": "32",
    "postal_code": "80450"
  },
  {
    "name": "Camps-en-Amiénois",
    "code": "80165",
    "epci_code": "200071181",
    "departement_code": "80",
    "region_code": "32",
    "postal_code": "80540"
  },
  {
    "name": "Canaples",
    "code": "80166",
    "epci_code": "200071223",
    "departement_code": "80",
    "region_code": "32",
    "postal_code": "80670"
  },
  {
    "name": "Canchy",
    "code": "80167",
    "epci_code": "200070936",
    "departement_code": "80",
    "region_code": "32",
    "postal_code": "80150"
  },
  {
    "name": "Candas",
    "code": "80168",
    "epci_code": "200070951",
    "departement_code": "80",
    "region_code": "32",
    "postal_code": "80750"
  },
  {
    "name": "Cannessières",
    "code": "80169",
    "epci_code": "200071181",
    "departement_code": "80",
    "region_code": "32",
    "postal_code": "80140"
  },
  {
    "name": "Cantigny",
    "code": "80170",
    "epci_code": "200070977",
    "departement_code": "80",
    "region_code": "32",
    "postal_code": "80500"
  },
  {
    "name": "Caours",
    "code": "80171",
    "epci_code": "200070993",
    "departement_code": "80",
    "region_code": "32",
    "postal_code": "80132"
  },
  {
    "name": "Cappy",
    "code": "80172",
    "epci_code": "248000747",
    "departement_code": "80",
    "region_code": "32",
    "postal_code": "80340"
  },
  {
    "name": "Cardonnette",
    "code": "80173",
    "epci_code": "248000531",
    "departement_code": "80",
    "region_code": "32",
    "postal_code": "80260"
  },
  {
    "name": "Le Cardonnois",
    "code": "80174",
    "epci_code": "200070977",
    "departement_code": "80",
    "region_code": "32",
    "postal_code": "80500"
  },
  {
    "name": "Carrépuis",
    "code": "80176",
    "epci_code": "200070977",
    "departement_code": "80",
    "region_code": "32",
    "postal_code": "80700"
  },
  {
    "name": "Cartigny",
    "code": "80177",
    "epci_code": "200037059",
    "departement_code": "80",
    "region_code": "32",
    "postal_code": "80200"
  },
  {
    "name": "Caulières",
    "code": "80179",
    "epci_code": "200071181",
    "departement_code": "80",
    "region_code": "32",
    "postal_code": "80290"
  },
  {
    "name": "Cavillon",
    "code": "80180",
    "epci_code": "200071223",
    "departement_code": "80",
    "region_code": "32",
    "postal_code": "80310"
  },
  {
    "name": "Cayeux-en-Santerre",
    "code": "80181",
    "epci_code": "200070969",
    "departement_code": "80",
    "region_code": "32",
    "postal_code": "80800"
  },
  {
    "name": "Cayeux-sur-Mer",
    "code": "80182",
    "epci_code": "200070993",
    "departement_code": "80",
    "region_code": "32",
    "postal_code": "80410"
  },
  {
    "name": "Cerisy-Buleux",
    "code": "80183",
    "epci_code": "200071181",
    "departement_code": "80",
    "region_code": "32",
    "postal_code": "80140"
  },
  {
    "name": "Cerisy",
    "code": "80184",
    "epci_code": "248000499",
    "departement_code": "80",
    "region_code": "32",
    "postal_code": "80800"
  },
  {
    "name": "Champien",
    "code": "80185",
    "epci_code": "200070977",
    "departement_code": "80",
    "region_code": "32",
    "postal_code": "80700"
  },
  {
    "name": "Chaulnes",
    "code": "80186",
    "epci_code": "200070928",
    "departement_code": "80",
    "region_code": "32",
    "postal_code": "80320"
  },
  {
    "name": "La Chaussée-Tirancourt",
    "code": "80187",
    "epci_code": "200071223",
    "departement_code": "80",
    "region_code": "32",
    "postal_code": "80310"
  },
  {
    "name": "Chaussoy-Epagny",
    "code": "80188",
    "epci_code": "200070969",
    "departement_code": "80",
    "region_code": "32",
    "postal_code": "80250"
  },
  {
    "name": "La Chavatte",
    "code": "80189",
    "epci_code": "200070928",
    "departement_code": "80",
    "region_code": "32",
    "postal_code": "80700"
  },
  {
    "name": "Chépy",
    "code": "80190",
    "epci_code": "200070944",
    "departement_code": "80",
    "region_code": "32",
    "postal_code": "80210"
  },
  {
    "name": "Chilly",
    "code": "80191",
    "epci_code": "200070928",
    "departement_code": "80",
    "region_code": "32",
    "postal_code": "80170"
  },
  {
    "name": "Chipilly",
    "code": "80192",
    "epci_code": "248000499",
    "departement_code": "80",
    "region_code": "32",
    "postal_code": "80800"
  },
  {
    "name": "Chirmont",
    "code": "80193",
    "epci_code": "200070969",
    "departement_code": "80",
    "region_code": "32",
    "postal_code": "80250"
  },
  {
    "name": "Chuignes",
    "code": "80194",
    "epci_code": "200070928",
    "departement_code": "80",
    "region_code": "32",
    "postal_code": "80340"
  },
  {
    "name": "Chuignolles",
    "code": "80195",
    "epci_code": "248000747",
    "departement_code": "80",
    "region_code": "32",
    "postal_code": "80340"
  },
  {
    "name": "Citerne",
    "code": "80196",
    "epci_code": "200070993",
    "departement_code": "80",
    "region_code": "32",
    "postal_code": "80490"
  },
  {
    "name": "Cizancourt",
    "code": "80197",
    "epci_code": "200070985",
    "departement_code": "80",
    "region_code": "32",
    "postal_code": "80200"
  },
  {
    "name": "Clairy-Saulchoix",
    "code": "80198",
    "epci_code": "248000531",
    "departement_code": "80",
    "region_code": "32",
    "postal_code": "80540"
  },
  {
    "name": "Cléry-sur-Somme",
    "code": "80199",
    "epci_code": "200037059",
    "departement_code": "80",
    "region_code": "32",
    "postal_code": "80200"
  },
  {
    "name": "Cocquerel",
    "code": "80200",
    "epci_code": "200070936",
    "departement_code": "80",
    "region_code": "32",
    "postal_code": "80510"
  },
  {
    "name": "Coigneux",
    "code": "80201",
    "epci_code": "248000747",
    "departement_code": "80",
    "region_code": "32",
    "postal_code": "80560"
  },
  {
    "name": "Coisy",
    "code": "80202",
    "epci_code": "200070951",
    "departement_code": "80",
    "region_code": "32",
    "postal_code": "80260"
  },
  {
    "name": "Colincamps",
    "code": "80203",
    "epci_code": "248000747",
    "departement_code": "80",
    "region_code": "32",
    "postal_code": "80560"
  },
  {
    "name": "Combles",
    "code": "80204",
    "epci_code": "200037059",
    "departement_code": "80",
    "region_code": "32",
    "postal_code": "80360"
  },
  {
    "name": "Condé-Folie",
    "code": "80205",
    "epci_code": "200070993",
    "departement_code": "80",
    "region_code": "32",
    "postal_code": "80890"
  },
  {
    "name": "Contalmaison",
    "code": "80206",
    "epci_code": "248000747",
    "departement_code": "80",
    "region_code": "32",
    "postal_code": "80300"
  },
  {
    "name": "Contay",
    "code": "80207",
    "epci_code": "200070951",
    "departement_code": "80",
    "region_code": "32",
    "postal_code": "80560"
  },
  {
    "name": "Conteville",
    "code": "80208",
    "epci_code": "200070951",
    "departement_code": "80",
    "region_code": "32",
    "postal_code": "80370"
  },
  {
    "name": "Contre",
    "code": "80210",
    "epci_code": "200071181",
    "departement_code": "80",
    "region_code": "32",
    "postal_code": "80160"
  },
  {
    "name": "Conty",
    "code": "80211",
    "epci_code": "200071181",
    "departement_code": "80",
    "region_code": "32",
    "postal_code": "80160"
  },
  {
    "name": "Corbie",
    "code": "80212",
    "epci_code": "248000499",
    "departement_code": "80",
    "region_code": "32",
    "postal_code": "80800"
  },
  {
    "name": "Cottenchy",
    "code": "80213",
    "epci_code": "200070969",
    "departement_code": "80",
    "region_code": "32",
    "postal_code": "80440"
  },
  {
    "name": "Coullemelle",
    "code": "80214",
    "epci_code": "200070969",
    "departement_code": "80",
    "region_code": "32",
    "postal_code": "80250"
  },
  {
    "name": "Coulonvillers",
    "code": "80215",
    "epci_code": "200070936",
    "departement_code": "80",
    "region_code": "32",
    "postal_code": "80135"
  },
  {
    "name": "Courcelette",
    "code": "80216",
    "epci_code": "248000747",
    "departement_code": "80",
    "region_code": "32",
    "postal_code": "80300"
  },
  {
    "name": "Courcelles-au-Bois",
    "code": "80217",
    "epci_code": "248000747",
    "departement_code": "80",
    "region_code": "32",
    "postal_code": "80560"
  },
  {
    "name": "Courcelles-sous-Moyencourt",
    "code": "80218",
    "epci_code": "200071181",
    "departement_code": "80",
    "region_code": "32",
    "postal_code": "80290"
  },
  {
    "name": "Courcelles-sous-Thoix",
    "code": "80219",
    "epci_code": "200071181",
    "departement_code": "80",
    "region_code": "32",
    "postal_code": "80160"
  },
  {
    "name": "Courtemanche",
    "code": "80220",
    "epci_code": "200070977",
    "departement_code": "80",
    "region_code": "32",
    "postal_code": "80500"
  },
  {
    "name": "Cramont",
    "code": "80221",
    "epci_code": "200070936",
    "departement_code": "80",
    "region_code": "32",
    "postal_code": "80370"
  },
  {
    "name": "Crécy-en-Ponthieu",
    "code": "80222",
    "epci_code": "200070936",
    "departement_code": "80",
    "region_code": "32",
    "postal_code": "80150"
  },
  {
    "name": "Crémery",
    "code": "80223",
    "epci_code": "200070977",
    "departement_code": "80",
    "region_code": "32",
    "postal_code": "80700"
  },
  {
    "name": "Cressy-Omencourt",
    "code": "80224",
    "epci_code": "200070977",
    "departement_code": "80",
    "region_code": "32",
    "postal_code": "80190"
  },
  {
    "name": "Creuse",
    "code": "80225",
    "epci_code": "248000531",
    "departement_code": "80",
    "region_code": "32",
    "postal_code": "80480"
  },
  {
    "name": "Croix-Moligneaux",
    "code": "80226",
    "epci_code": "200070985",
    "departement_code": "80",
    "region_code": "32",
    "postal_code": "80400"
  },
  {
    "name": "Croixrault",
    "code": "80227",
    "epci_code": "200071181",
    "departement_code": "80",
    "region_code": "32",
    "postal_code": "80290"
  },
  {
    "name": "Le Crotoy",
    "code": "80228",
    "epci_code": "200070936",
    "departement_code": "80",
    "region_code": "32",
    "postal_code": "80550"
  },
  {
    "name": "Crouy-Saint-Pierre",
    "code": "80229",
    "epci_code": "200071223",
    "departement_code": "80",
    "region_code": "32",
    "postal_code": "80310"
  },
  {
    "name": "Curchy",
    "code": "80230",
    "epci_code": "200070985",
    "departement_code": "80",
    "region_code": "32",
    "postal_code": "80190"
  },
  {
    "name": "Curlu",
    "code": "80231",
    "epci_code": "248000747",
    "departement_code": "80",
    "region_code": "32",
    "postal_code": "80360"
  },
  {
    "name": "Damery",
    "code": "80232",
    "epci_code": "200070977",
    "departement_code": "80",
    "region_code": "32",
    "postal_code": "80700"
  },
  {
    "name": "Dancourt-Popincourt",
    "code": "80233",
    "epci_code": "200070977",
    "departement_code": "80",
    "region_code": "32",
    "postal_code": "80700"
  },
  {
    "name": "Daours",
    "code": "80234",
    "epci_code": "248000499",
    "departement_code": "80",
    "region_code": "32",
    "postal_code": "80800"
  },
  {
    "name": "Dargnies",
    "code": "80235",
    "epci_code": "247600588",
    "departement_code": "80",
    "region_code": "32",
    "postal_code": "80570"
  },
  {
    "name": "Davenescourt",
    "code": "80236",
    "epci_code": "200070977",
    "departement_code": "80",
    "region_code": "32",
    "postal_code": "80500"
  },
  {
    "name": "Démuin",
    "code": "80237",
    "epci_code": "200070969",
    "departement_code": "80",
    "region_code": "32",
    "postal_code": "80110"
  },
  {
    "name": "Dernancourt",
    "code": "80238",
    "epci_code": "248000747",
    "departement_code": "80",
    "region_code": "32",
    "postal_code": "80300"
  },
  {
    "name": "Devise",
    "code": "80239",
    "epci_code": "200037059",
    "departement_code": "80",
    "region_code": "32",
    "postal_code": "80200"
  },
  {
    "name": "Doingt",
    "code": "80240",
    "epci_code": "200037059",
    "departement_code": "80",
    "region_code": "32",
    "postal_code": "80200"
  },
  {
    "name": "Domart-en-Ponthieu",
    "code": "80241",
    "epci_code": "200071223",
    "departement_code": "80",
    "region_code": "32",
    "postal_code": "80620"
  },
  {
    "name": "Domart-sur-la-Luce",
    "code": "80242",
    "epci_code": "200070969",
    "departement_code": "80",
    "region_code": "32",
    "postal_code": "80110"
  },
  {
    "name": "Domesmont",
    "code": "80243",
    "epci_code": "200070951",
    "departement_code": "80",
    "region_code": "32",
    "postal_code": "80370"
  },
  {
    "name": "Dominois",
    "code": "80244",
    "epci_code": "200070936",
    "departement_code": "80",
    "region_code": "32",
    "postal_code": "80120"
  },
  {
    "name": "Domléger-Longvillers",
    "code": "80245",
    "epci_code": "200070951",
    "departement_code": "80",
    "region_code": "32",
    "postal_code": "80370"
  },
  {
    "name": "Dommartin",
    "code": "80246",
    "epci_code": "200070969",
    "departement_code": "80",
    "region_code": "32",
    "postal_code": "80440"
  },
  {
    "name": "Dompierre-Becquincourt",
    "code": "80247",
    "epci_code": "200070928",
    "departement_code": "80",
    "region_code": "32",
    "postal_code": "80980"
  },
  {
    "name": "Dompierre-sur-Authie",
    "code": "80248",
    "epci_code": "200070936",
    "departement_code": "80",
    "region_code": "32",
    "postal_code": "80150"
  },
  {
    "name": "Domqueur",
    "code": "80249",
    "epci_code": "200070936",
    "departement_code": "80",
    "region_code": "32",
    "postal_code": "80620"
  },
  {
    "name": "Domvast",
    "code": "80250",
    "epci_code": "200070936",
    "departement_code": "80",
    "region_code": "32",
    "postal_code": "80150"
  },
  {
    "name": "Doudelainville",
    "code": "80251",
    "epci_code": "200070993",
    "departement_code": "80",
    "region_code": "32",
    "postal_code": "80140"
  },
  {
    "name": "Douilly",
    "code": "80252",
    "epci_code": "200070985",
    "departement_code": "80",
    "region_code": "32",
    "postal_code": "80400"
  },
  {
    "name": "Doullens",
    "code": "80253",
    "epci_code": "200070951",
    "departement_code": "80",
    "region_code": "32",
    "postal_code": "80600"
  },
  {
    "name": "Dreuil-lès-Amiens",
    "code": "80256",
    "epci_code": "248000531",
    "departement_code": "80",
    "region_code": "32",
    "postal_code": "80470"
  },
  {
    "name": "Driencourt",
    "code": "80258",
    "epci_code": "200037059",
    "departement_code": "80",
    "region_code": "32",
    "postal_code": "80240"
  },
  {
    "name": "Dromesnil",
    "code": "80259",
    "epci_code": "200071181",
    "departement_code": "80",
    "region_code": "32",
    "postal_code": "80640"
  },
  {
    "name": "Drucat",
    "code": "80260",
    "epci_code": "200070993",
    "departement_code": "80",
    "region_code": "32",
    "postal_code": "80132"
  },
  {
    "name": "Dury",
    "code": "80261",
    "epci_code": "248000531",
    "departement_code": "80",
    "region_code": "32",
    "postal_code": "80480"
  },
  {
    "name": "Eaucourt-sur-Somme",
    "code": "80262",
    "epci_code": "200070993",
    "departement_code": "80",
    "region_code": "32",
    "postal_code": "80580"
  },
  {
    "name": "L’Échelle-Saint-Aurin",
    "code": "80263",
    "epci_code": "200070977",
    "departement_code": "80",
    "region_code": "32",
    "postal_code": "80700"
  },
  {
    "name": "Éclusier-Vaux",
    "code": "80264",
    "epci_code": "248000747",
    "departement_code": "80",
    "region_code": "32",
    "postal_code": "80340"
  },
  {
    "name": "Embreville",
    "code": "80265",
    "epci_code": "247600588",
    "departement_code": "80",
    "region_code": "32",
    "postal_code": "80570"
  },
  {
    "name": "Englebelmer",
    "code": "80266",
    "epci_code": "248000747",
    "departement_code": "80",
    "region_code": "32",
    "postal_code": "80300"
  },
  {
    "name": "Ennemain",
    "code": "80267",
    "epci_code": "200070985",
    "departement_code": "80",
    "region_code": "32",
    "postal_code": "80200"
  },
  {
    "name": "Épagne-Épagnette",
    "code": "80268",
    "epci_code": "200070993",
    "departement_code": "80",
    "region_code": "32",
    "postal_code": "80580"
  },
  {
    "name": "Épaumesnil",
    "code": "80269",
    "epci_code": "200071181",
    "departement_code": "80",
    "region_code": "32",
    "postal_code": "80140"
  },
  {
    "name": "Épécamps",
    "code": "80270",
    "epci_code": "200070951",
    "departement_code": "80",
    "region_code": "32",
    "postal_code": "80370"
  },
  {
    "name": "Épehy",
    "code": "80271",
    "epci_code": "200037059",
    "departement_code": "80",
    "region_code": "32",
    "postal_code": "80740"
  },
  {
    "name": "Épénancourt",
    "code": "80272",
    "epci_code": "200070985",
    "departement_code": "80",
    "region_code": "32",
    "postal_code": "80190"
  },
  {
    "name": "Éplessier",
    "code": "80273",
    "epci_code": "200071181",
    "departement_code": "80",
    "region_code": "32",
    "postal_code": "80290"
  },
  {
    "name": "Eppeville",
    "code": "80274",
    "epci_code": "200070985",
    "departement_code": "80",
    "region_code": "32",
    "postal_code": "80400"
  },
  {
    "name": "Équancourt",
    "code": "80275",
    "epci_code": "200037059",
    "departement_code": "80",
    "region_code": "32",
    "postal_code": "80360"
  },
  {
    "name": "Équennes-Éramecourt",
    "code": "80276",
    "epci_code": "200071181",
    "departement_code": "80",
    "region_code": "32",
    "postal_code": "80290"
  },
  {
    "name": "Erches",
    "code": "80278",
    "epci_code": "200070977",
    "departement_code": "80",
    "region_code": "32",
    "postal_code": "80500"
  },
  {
    "name": "Ercheu",
    "code": "80279",
    "epci_code": "200070977",
    "departement_code": "80",
    "region_code": "32",
    "postal_code": "80400"
  },
  {
    "name": "Ercourt",
    "code": "80280",
    "epci_code": "200070944",
    "departement_code": "80",
    "region_code": "32",
    "postal_code": "80210"
  },
  {
    "name": "Ergnies",
    "code": "80281",
    "epci_code": "200070936",
    "departement_code": "80",
    "region_code": "32",
    "postal_code": "80690"
  },
  {
    "name": "Érondelle",
    "code": "80282",
    "epci_code": "200070993",
    "departement_code": "80",
    "region_code": "32",
    "postal_code": "80580"
  },
  {
    "name": "Esclainvillers",
    "code": "80283",
    "epci_code": "200070969",
    "departement_code": "80",
    "region_code": "32",
    "postal_code": "80250"
  },
  {
    "name": "Esmery-Hallon",
    "code": "80284",
    "epci_code": "200070985",
    "departement_code": "80",
    "region_code": "32",
    "postal_code": "80400"
  },
  {
    "name": "Essertaux",
    "code": "80285",
    "epci_code": "200071181",
    "departement_code": "80",
    "region_code": "32",
    "postal_code": "80160"
  },
  {
    "name": "Estrébœuf",
    "code": "80287",
    "epci_code": "200070993",
    "departement_code": "80",
    "region_code": "32",
    "postal_code": "80230"
  },
  {
    "name": "Estrées-Deniécourt",
    "code": "80288",
    "epci_code": "200070928",
    "departement_code": "80",
    "region_code": "32",
    "postal_code": "80200"
  },
  {
    "name": "Estrées-lès-Crécy",
    "code": "80290",
    "epci_code": "200070936",
    "departement_code": "80",
    "region_code": "32",
    "postal_code": "80150"
  },
  {
    "name": "Estrées-sur-Noye",
    "code": "80291",
    "epci_code": "248000531",
    "departement_code": "80",
    "region_code": "32",
    "postal_code": "80250"
  },
  {
    "name": "Étalon",
    "code": "80292",
    "epci_code": "200070977",
    "departement_code": "80",
    "region_code": "32",
    "postal_code": "80190"
  },
  {
    "name": "Ételfay",
    "code": "80293",
    "epci_code": "200070977",
    "departement_code": "80",
    "region_code": "32",
    "postal_code": "80500"
  },
  {
    "name": "Éterpigny",
    "code": "80294",
    "epci_code": "200037059",
    "departement_code": "80",
    "region_code": "32",
    "postal_code": "80200"
  },
  {
    "name": "Étinehem-Méricourt",
    "code": "80295",
    "epci_code": "248000747",
    "departement_code": "80",
    "region_code": "32",
    "postal_code": "80340"
  },
  {
    "name": "L’Étoile",
    "code": "80296",
    "epci_code": "200071223",
    "departement_code": "80",
    "region_code": "32",
    "postal_code": "80830"
  },
  {
    "name": "Étréjust",
    "code": "80297",
    "epci_code": "200071181",
    "departement_code": "80",
    "region_code": "32",
    "postal_code": "80140"
  },
  {
    "name": "Étricourt-Manancourt",
    "code": "80298",
    "epci_code": "200037059",
    "departement_code": "80",
    "region_code": "32",
    "postal_code": "80360"
  },
  {
    "name": "La Faloise",
    "code": "80299",
    "epci_code": "200070969",
    "departement_code": "80",
    "region_code": "32",
    "postal_code": "80250"
  },
  {
    "name": "Falvy",
    "code": "80300",
    "epci_code": "200070985",
    "departement_code": "80",
    "region_code": "32",
    "postal_code": "80190"
  },
  {
    "name": "Famechon",
    "code": "80301",
    "epci_code": "200071181",
    "departement_code": "80",
    "region_code": "32",
    "postal_code": "80290"
  },
  {
    "name": "Faverolles",
    "code": "80302",
    "epci_code": "200070977",
    "departement_code": "80",
    "region_code": "32",
    "postal_code": "80500"
  },
  {
    "name": "Favières",
    "code": "80303",
    "epci_code": "200070936",
    "departement_code": "80",
    "region_code": "32",
    "postal_code": "80120"
  },
  {
    "name": "Fay",
    "code": "80304",
    "epci_code": "200070928",
    "departement_code": "80",
    "region_code": "32",
    "postal_code": "80200"
  },
  {
    "name": "Ferrières",
    "code": "80305",
    "epci_code": "248000531",
    "departement_code": "80",
    "region_code": "32",
    "postal_code": "80470"
  },
  {
    "name": "Fescamps",
    "code": "80306",
    "epci_code": "200070977",
    "departement_code": "80",
    "region_code": "32",
    "postal_code": "80500"
  },
  {
    "name": "Feuillères",
    "code": "80307",
    "epci_code": "200037059",
    "departement_code": "80",
    "region_code": "32",
    "postal_code": "80200"
  },
  {
    "name": "Feuquières-en-Vimeu",
    "code": "80308",
    "epci_code": "200070944",
    "departement_code": "80",
    "region_code": "32",
    "postal_code": "80210"
  },
  {
    "name": "Fienvillers",
    "code": "80310",
    "epci_code": "200070951",
    "departement_code": "80",
    "region_code": "32",
    "postal_code": "80750"
  },
  {
    "name": "Fignières",
    "code": "80311",
    "epci_code": "200070977",
    "departement_code": "80",
    "region_code": "32",
    "postal_code": "80500"
  },
  {
    "name": "Fins",
    "code": "80312",
    "epci_code": "200037059",
    "departement_code": "80",
    "region_code": "32",
    "postal_code": "80360"
  },
  {
    "name": "Flaucourt",
    "code": "80313",
    "epci_code": "200037059",
    "departement_code": "80",
    "region_code": "32",
    "postal_code": "80200"
  },
  {
    "name": "Flers",
    "code": "80314",
    "epci_code": "200037059",
    "departement_code": "80",
    "region_code": "32",
    "postal_code": "80360"
  },
  {
    "name": "Flers-sur-Noye",
    "code": "80315",
    "epci_code": "200070969",
    "departement_code": "80",
    "region_code": "32",
    "postal_code": "80160"
  },
  {
    "name": "Flesselles",
    "code": "80316",
    "epci_code": "200070951",
    "departement_code": "80",
    "region_code": "32",
    "postal_code": "80260"
  },
  {
    "name": "Fleury",
    "code": "80317",
    "epci_code": "200071181",
    "departement_code": "80",
    "region_code": "32",
    "postal_code": "80160"
  },
  {
    "name": "Flixecourt",
    "code": "80318",
    "epci_code": "200071223",
    "departement_code": "80",
    "region_code": "32",
    "postal_code": "80420"
  },
  {
    "name": "Fluy",
    "code": "80319",
    "epci_code": "200071181",
    "departement_code": "80",
    "region_code": "32",
    "postal_code": "80540"
  },
  {
    "name": "Folies",
    "code": "80320",
    "epci_code": "200070928",
    "departement_code": "80",
    "region_code": "32",
    "postal_code": "80170"
  },
  {
    "name": "Folleville",
    "code": "80321",
    "epci_code": "200070969",
    "departement_code": "80",
    "region_code": "32",
    "postal_code": "80250"
  },
  {
    "name": "Fonches-Fonchette",
    "code": "80322",
    "epci_code": "200070977",
    "departement_code": "80",
    "region_code": "32",
    "postal_code": "80700"
  },
  {
    "name": "Fontaine-le-Sec",
    "code": "80324",
    "epci_code": "200071181",
    "departement_code": "80",
    "region_code": "32",
    "postal_code": "80140"
  },
  {
    "name": "Fontaine-lès-Cappy",
    "code": "80325",
    "epci_code": "200070928",
    "departement_code": "80",
    "region_code": "32",
    "postal_code": "80340"
  },
  {
    "name": "Fontaine-sous-Montdidier",
    "code": "80326",
    "epci_code": "200070977",
    "departement_code": "80",
    "region_code": "32",
    "postal_code": "80500"
  },
  {
    "name": "Fontaine-sur-Maye",
    "code": "80327",
    "epci_code": "200070936",
    "departement_code": "80",
    "region_code": "32",
    "postal_code": "80150"
  },
  {
    "name": "Fontaine-sur-Somme",
    "code": "80328",
    "epci_code": "200070993",
    "departement_code": "80",
    "region_code": "32",
    "postal_code": "80510"
  },
  {
    "name": "Forceville",
    "code": "80329",
    "epci_code": "248000747",
    "departement_code": "80",
    "region_code": "32",
    "postal_code": "80560"
  },
  {
    "name": "Forceville-en-Vimeu",
    "code": "80330",
    "epci_code": "200071181",
    "departement_code": "80",
    "region_code": "32",
    "postal_code": "80140"
  },
  {
    "name": "Forest-l’Abbaye",
    "code": "80331",
    "epci_code": "200070936",
    "departement_code": "80",
    "region_code": "32",
    "postal_code": "80150"
  },
  {
    "name": "Forest-Montiers",
    "code": "80332",
    "epci_code": "200070936",
    "departement_code": "80",
    "region_code": "32",
    "postal_code": "80120"
  },
  {
    "name": "Fort-Mahon-Plage",
    "code": "80333",
    "epci_code": "200070936",
    "departement_code": "80",
    "region_code": "32",
    "postal_code": "80120"
  },
  {
    "name": "Fossemanant",
    "code": "80334",
    "epci_code": "200071181",
    "departement_code": "80",
    "region_code": "32",
    "postal_code": "80160"
  },
  {
    "name": "Foucaucourt-en-Santerre",
    "code": "80335",
    "epci_code": "200070928",
    "departement_code": "80",
    "region_code": "32",
    "postal_code": "80340"
  },
  {
    "name": "Foucaucourt-Hors-Nesle",
    "code": "80336",
    "epci_code": "200071181",
    "departement_code": "80",
    "region_code": "32",
    "postal_code": "80140"
  },
  {
    "name": "Fouencamps",
    "code": "80337",
    "epci_code": "200070969",
    "departement_code": "80",
    "region_code": "32",
    "postal_code": "80440"
  },
  {
    "name": "Fouilloy",
    "code": "80338",
    "epci_code": "248000499",
    "departement_code": "80",
    "region_code": "32",
    "postal_code": "80800"
  },
  {
    "name": "Fouquescourt",
    "code": "80339",
    "epci_code": "200070928",
    "departement_code": "80",
    "region_code": "32",
    "postal_code": "80170"
  },
  {
    "name": "Fourcigny",
    "code": "80340",
    "epci_code": "200071181",
    "departement_code": "80",
    "region_code": "32",
    "postal_code": "80290"
  },
  {
    "name": "Fourdrinoy",
    "code": "80341",
    "epci_code": "200071223",
    "departement_code": "80",
    "region_code": "32",
    "postal_code": "80310"
  },
  {
    "name": "Framerville-Rainecourt",
    "code": "80342",
    "epci_code": "200070928",
    "departement_code": "80",
    "region_code": "32",
    "postal_code": "80131"
  },
  {
    "name": "Framicourt",
    "code": "80343",
    "epci_code": "200071181",
    "departement_code": "80",
    "region_code": "32",
    "postal_code": "80140"
  },
  {
    "name": "Francières",
    "code": "80344",
    "epci_code": "200070936",
    "departement_code": "80",
    "region_code": "32",
    "postal_code": "80690"
  },
  {
    "name": "Franleu",
    "code": "80345",
    "epci_code": "200070993",
    "departement_code": "80",
    "region_code": "32",
    "postal_code": "80210"
  },
  {
    "name": "Franqueville",
    "code": "80346",
    "epci_code": "200071223",
    "departement_code": "80",
    "region_code": "32",
    "postal_code": "80620"
  },
  {
    "name": "Fransart",
    "code": "80347",
    "epci_code": "200070928",
    "departement_code": "80",
    "region_code": "32",
    "postal_code": "80700"
  },
  {
    "name": "Fransu",
    "code": "80348",
    "epci_code": "200071223",
    "departement_code": "80",
    "region_code": "32",
    "postal_code": "80620"
  },
  {
    "name": "Fransures",
    "code": "80349",
    "epci_code": "200070969",
    "departement_code": "80",
    "region_code": "32",
    "postal_code": "80160"
  },
  {
    "name": "Franvillers",
    "code": "80350",
    "epci_code": "248000499",
    "departement_code": "80",
    "region_code": "32",
    "postal_code": "80800"
  },
  {
    "name": "Fréchencourt",
    "code": "80351",
    "epci_code": "200070951",
    "departement_code": "80",
    "region_code": "32",
    "postal_code": "80260"
  },
  {
    "name": "Frémontiers",
    "code": "80352",
    "epci_code": "200071181",
    "departement_code": "80",
    "region_code": "32",
    "postal_code": "80160"
  },
  {
    "name": "Fresnes-Mazancourt",
    "code": "80353",
    "epci_code": "200070928",
    "departement_code": "80",
    "region_code": "32",
    "postal_code": "80320"
  },
  {
    "name": "Fresnes-Tilloloy",
    "code": "80354",
    "epci_code": "200071181",
    "departement_code": "80",
    "region_code": "32",
    "postal_code": "80140"
  },
  {
    "name": "Fresneville",
    "code": "80355",
    "epci_code": "200071181",
    "departement_code": "80",
    "region_code": "32",
    "postal_code": "80140"
  },
  {
    "name": "Fresnoy-Andainville",
    "code": "80356",
    "epci_code": "200071181",
    "departement_code": "80",
    "region_code": "32",
    "postal_code": "80140"
  },
  {
    "name": "Fresnoy-au-Val",
    "code": "80357",
    "epci_code": "200071181",
    "departement_code": "80",
    "region_code": "32",
    "postal_code": "80290"
  },
  {
    "name": "Fresnoy-en-Chaussée",
    "code": "80358",
    "epci_code": "200070969",
    "departement_code": "80",
    "region_code": "32",
    "postal_code": "80110"
  },
  {
    "name": "Fresnoy-lès-Roye",
    "code": "80359",
    "epci_code": "200070977",
    "departement_code": "80",
    "region_code": "32",
    "postal_code": "80700"
  },
  {
    "name": "Fressenneville",
    "code": "80360",
    "epci_code": "200070944",
    "departement_code": "80",
    "region_code": "32",
    "postal_code": "80390"
  },
  {
    "name": "Frettecuisse",
    "code": "80361",
    "epci_code": "200071181",
    "departement_code": "80",
    "region_code": "32",
    "postal_code": "80140"
  },
  {
    "name": "Frettemeule",
    "code": "80362",
    "epci_code": "200069722",
    "departement_code": "80",
    "region_code": "32",
    "postal_code": "80220"
  },
  {
    "name": "Friaucourt",
    "code": "80364",
    "epci_code": "247600588",
    "departement_code": "80",
    "region_code": "32",
    "postal_code": "80460"
  },
  {
    "name": "Fricamps",
    "code": "80365",
    "epci_code": "200071181",
    "departement_code": "80",
    "region_code": "32",
    "postal_code": "80290"
  },
  {
    "name": "Fricourt",
    "code": "80366",
    "epci_code": "248000747",
    "departement_code": "80",
    "region_code": "32",
    "postal_code": "80300"
  },
  {
    "name": "Frise",
    "code": "80367",
    "epci_code": "248000747",
    "departement_code": "80",
    "region_code": "32",
    "postal_code": "80340"
  },
  {
    "name": "Friville-Escarbotin",
    "code": "80368",
    "epci_code": "200070944",
    "departement_code": "80",
    "region_code": "32",
    "postal_code": "80130"
  },
  {
    "name": "Frohen-sur-Authie",
    "code": "80369",
    "epci_code": "200070951",
    "departement_code": "80",
    "region_code": "32",
    "postal_code": "80370"
  },
  {
    "name": "Froyelles",
    "code": "80371",
    "epci_code": "200070936",
    "departement_code": "80",
    "region_code": "32",
    "postal_code": "80150"
  },
  {
    "name": "Frucourt",
    "code": "80372",
    "epci_code": "200070993",
    "departement_code": "80",
    "region_code": "32",
    "postal_code": "80490"
  },
  {
    "name": "Gamaches",
    "code": "80373",
    "epci_code": "247600588",
    "departement_code": "80",
    "region_code": "32",
    "postal_code": "80220"
  },
  {
    "name": "Gapennes",
    "code": "80374",
    "epci_code": "200070936",
    "departement_code": "80",
    "region_code": "32",
    "postal_code": "80150"
  },
  {
    "name": "Gauville",
    "code": "80375",
    "epci_code": "200071181",
    "departement_code": "80",
    "region_code": "32",
    "postal_code": "80290"
  },
  {
    "name": "Gentelles",
    "code": "80376",
    "epci_code": "248000499",
    "departement_code": "80",
    "region_code": "32",
    "postal_code": "80800"
  },
  {
    "name": "Gézaincourt",
    "code": "80377",
    "epci_code": "200070951",
    "departement_code": "80",
    "region_code": "32",
    "postal_code": "80600"
  },
  {
    "name": "Ginchy",
    "code": "80378",
    "epci_code": "200037059",
    "departement_code": "80",
    "region_code": "32",
    "postal_code": "80360"
  },
  {
    "name": "Glisy",
    "code": "80379",
    "epci_code": "248000531",
    "departement_code": "80",
    "region_code": "32",
    "postal_code": "80440"
  },
  {
    "name": "Gorenflos",
    "code": "80380",
    "epci_code": "200070936",
    "departement_code": "80",
    "region_code": "32",
    "postal_code": "80690"
  },
  {
    "name": "Gorges",
    "code": "80381",
    "epci_code": "200070951",
    "departement_code": "80",
    "region_code": "32",
    "postal_code": "80370"
  },
  {
    "name": "Goyencourt",
    "code": "80383",
    "epci_code": "200070977",
    "departement_code": "80",
    "region_code": "32",
    "postal_code": "80700"
  },
  {
    "name": "Grandcourt",
    "code": "80384",
    "epci_code": "248000747",
    "departement_code": "80",
    "region_code": "32",
    "postal_code": "80300"
  },
  {
    "name": "Grand-Laviers",
    "code": "80385",
    "epci_code": "200070993",
    "departement_code": "80",
    "region_code": "32",
    "postal_code": "80132"
  },
  {
    "name": "Gratibus",
    "code": "80386",
    "epci_code": "200070977",
    "departement_code": "80",
    "region_code": "32",
    "postal_code": "80500"
  },
  {
    "name": "Grattepanche",
    "code": "80387",
    "epci_code": "248000531",
    "departement_code": "80",
    "region_code": "32",
    "postal_code": "80680"
  },
  {
    "name": "Grébault-Mesnil",
    "code": "80388",
    "epci_code": "200070944",
    "departement_code": "80",
    "region_code": "32",
    "postal_code": "80140"
  },
  {
    "name": "Grivesnes",
    "code": "80390",
    "epci_code": "200070969",
    "departement_code": "80",
    "region_code": "32",
    "postal_code": "80250"
  },
  {
    "name": "Grivillers",
    "code": "80391",
    "epci_code": "200070977",
    "departement_code": "80",
    "region_code": "32",
    "postal_code": "80700"
  },
  {
    "name": "Grouches-Luchuel",
    "code": "80392",
    "epci_code": "200070951",
    "departement_code": "80",
    "region_code": "32",
    "postal_code": "80600"
  },
  {
    "name": "Gruny",
    "code": "80393",
    "epci_code": "200070977",
    "departement_code": "80",
    "region_code": "32",
    "postal_code": "80700"
  },
  {
    "name": "Guerbigny",
    "code": "80395",
    "epci_code": "200070977",
    "departement_code": "80",
    "region_code": "32",
    "postal_code": "80500"
  },
  {
    "name": "Gueschart",
    "code": "80396",
    "epci_code": "200070936",
    "departement_code": "80",
    "region_code": "32",
    "postal_code": "80150"
  },
  {
    "name": "Gueudecourt",
    "code": "80397",
    "epci_code": "200037059",
    "departement_code": "80",
    "region_code": "32",
    "postal_code": "80360"
  },
  {
    "name": "Guignemicourt",
    "code": "80399",
    "epci_code": "248000531",
    "departement_code": "80",
    "region_code": "32",
    "postal_code": "80540"
  },
  {
    "name": "Guillaucourt",
    "code": "80400",
    "epci_code": "200070928",
    "departement_code": "80",
    "region_code": "32",
    "postal_code": "80170"
  },
  {
    "name": "Guillemont",
    "code": "80401",
    "epci_code": "200037059",
    "departement_code": "80",
    "region_code": "32",
    "postal_code": "80360"
  },
  {
    "name": "Guizancourt",
    "code": "80402",
    "epci_code": "200071181",
    "departement_code": "80",
    "region_code": "32",
    "postal_code": "80290"
  },
  {
    "name": "Guyencourt-sur-Noye",
    "code": "80403",
    "epci_code": "200070969",
    "departement_code": "80",
    "region_code": "32",
    "postal_code": "80250"
  },
  {
    "name": "Guyencourt-Saulcourt",
    "code": "80404",
    "epci_code": "200037059",
    "departement_code": "80",
    "region_code": "32",
    "postal_code": "80240"
  },
  {
    "name": "Hailles",
    "code": "80405",
    "epci_code": "200070969",
    "departement_code": "80",
    "region_code": "32",
    "postal_code": "80440"
  },
  {
    "name": "Hallencourt",
    "code": "80406",
    "epci_code": "200070993",
    "departement_code": "80",
    "region_code": "32",
    "postal_code": "80490"
  },
  {
    "name": "Hallivillers",
    "code": "80407",
    "epci_code": "200070969",
    "departement_code": "80",
    "region_code": "32",
    "postal_code": "80250"
  },
  {
    "name": "Halloy-lès-Pernois",
    "code": "80408",
    "epci_code": "200071223",
    "departement_code": "80",
    "region_code": "32",
    "postal_code": "80670"
  },
  {
    "name": "Hallu",
    "code": "80409",
    "epci_code": "200070928",
    "departement_code": "80",
    "region_code": "32",
    "postal_code": "80320"
  },
  {
    "name": "Ham",
    "code": "80410",
    "epci_code": "200070985",
    "departement_code": "80",
    "region_code": "32",
    "postal_code": "80400"
  },
  {
    "name": "Le Hamel",
    "code": "80411",
    "epci_code": "248000499",
    "departement_code": "80",
    "region_code": "32",
    "postal_code": "80800"
  },
  {
    "name": "Hamelet",
    "code": "80412",
    "epci_code": "248000499",
    "departement_code": "80",
    "region_code": "32",
    "postal_code": "80800"
  },
  {
    "name": "Hancourt",
    "code": "80413",
    "epci_code": "200037059",
    "departement_code": "80",
    "region_code": "32",
    "postal_code": "80240"
  },
  {
    "name": "Hangard",
    "code": "80414",
    "epci_code": "200070969",
    "departement_code": "80",
    "region_code": "32",
    "postal_code": "80110"
  },
  {
    "name": "Hangest-en-Santerre",
    "code": "80415",
    "epci_code": "200070969",
    "departement_code": "80",
    "region_code": "32",
    "postal_code": "80134"
  },
  {
    "name": "Hangest-sur-Somme",
    "code": "80416",
    "epci_code": "200071223",
    "departement_code": "80",
    "region_code": "32",
    "postal_code": "80310"
  },
  {
    "name": "Harbonnières",
    "code": "80417",
    "epci_code": "200070928",
    "departement_code": "80",
    "region_code": "32",
    "postal_code": "80131"
  },
  {
    "name": "Hardecourt-aux-Bois",
    "code": "80418",
    "epci_code": "200037059",
    "departement_code": "80",
    "region_code": "32",
    "postal_code": "80360"
  },
  {
    "name": "Harponville",
    "code": "80420",
    "epci_code": "248000747",
    "departement_code": "80",
    "region_code": "32",
    "postal_code": "80560"
  },
  {
    "name": "Hattencourt",
    "code": "80421",
    "epci_code": "200070977",
    "departement_code": "80",
    "region_code": "32",
    "postal_code": "80700"
  },
  {
    "name": "Hautvillers-Ouville",
    "code": "80422",
    "epci_code": "200070936",
    "departement_code": "80",
    "region_code": "32",
    "postal_code": "80132"
  },
  {
    "name": "Havernas",
    "code": "80423",
    "epci_code": "200071223",
    "departement_code": "80",
    "region_code": "32",
    "postal_code": "80670"
  },
  {
    "name": "Hébécourt",
    "code": "80424",
    "epci_code": "248000531",
    "departement_code": "80",
    "region_code": "32",
    "postal_code": "80680"
  },
  {
    "name": "Hédauville",
    "code": "80425",
    "epci_code": "248000747",
    "departement_code": "80",
    "region_code": "32",
    "postal_code": "80560"
  },
  {
    "name": "Heilly",
    "code": "80426",
    "epci_code": "248000499",
    "departement_code": "80",
    "region_code": "32",
    "postal_code": "80800"
  },
  {
    "name": "Hem-Hardinval",
    "code": "80427",
    "epci_code": "200070951",
    "departement_code": "80",
    "region_code": "32",
    "postal_code": "80600"
  },
  {
    "name": "Hem-Monacu",
    "code": "80428",
    "epci_code": "200037059",
    "departement_code": "80",
    "region_code": "32",
    "postal_code": "80360"
  },
  {
    "name": "Hénencourt",
    "code": "80429",
    "epci_code": "248000499",
    "departement_code": "80",
    "region_code": "32",
    "postal_code": "80300"
  },
  {
    "name": "Herbécourt",
    "code": "80430",
    "epci_code": "200037059",
    "departement_code": "80",
    "region_code": "32",
    "postal_code": "80200"
  },
  {
    "name": "Hérissart",
    "code": "80431",
    "epci_code": "248000747",
    "departement_code": "80",
    "region_code": "32",
    "postal_code": "80260"
  },
  {
    "name": "Herleville",
    "code": "80432",
    "epci_code": "200070928",
    "departement_code": "80",
    "region_code": "32",
    "postal_code": "80340"
  },
  {
    "name": "Herly",
    "code": "80433",
    "epci_code": "200070977",
    "departement_code": "80",
    "region_code": "32",
    "postal_code": "80190"
  },
  {
    "name": "Hervilly",
    "code": "80434",
    "epci_code": "200037059",
    "departement_code": "80",
    "region_code": "32",
    "postal_code": "80240"
  },
  {
    "name": "Hesbécourt",
    "code": "80435",
    "epci_code": "200037059",
    "departement_code": "80",
    "region_code": "32",
    "postal_code": "80240"
  },
  {
    "name": "Hescamps",
    "code": "80436",
    "epci_code": "200071181",
    "departement_code": "80",
    "region_code": "32",
    "postal_code": "80290"
  },
  {
    "name": "Heucourt-Croquoison",
    "code": "80437",
    "epci_code": "200071181",
    "departement_code": "80",
    "region_code": "32",
    "postal_code": "80270"
  },
  {
    "name": "Heudicourt",
    "code": "80438",
    "epci_code": "200037059",
    "departement_code": "80",
    "region_code": "32",
    "postal_code": "80122"
  },
  {
    "name": "Heuzecourt",
    "code": "80439",
    "epci_code": "200070951",
    "departement_code": "80",
    "region_code": "32",
    "postal_code": "80370"
  },
  {
    "name": "Hiermont",
    "code": "80440",
    "epci_code": "200070951",
    "departement_code": "80",
    "region_code": "32",
    "postal_code": "80370"
  },
  {
    "name": "Hombleux",
    "code": "80442",
    "epci_code": "200070985",
    "departement_code": "80",
    "region_code": "32",
    "postal_code": "80400"
  },
  {
    "name": "Hornoy-le-Bourg",
    "code": "80443",
    "epci_code": "200071181",
    "departement_code": "80",
    "region_code": "32",
    "postal_code": "80640"
  },
  {
    "name": "Huchenneville",
    "code": "80444",
    "epci_code": "200070944",
    "departement_code": "80",
    "region_code": "32",
    "postal_code": "80132"
  },
  {
    "name": "Humbercourt",
    "code": "80445",
    "epci_code": "200070951",
    "departement_code": "80",
    "region_code": "32",
    "postal_code": "80600"
  },
  {
    "name": "Huppy",
    "code": "80446",
    "epci_code": "200070993",
    "departement_code": "80",
    "region_code": "32",
    "postal_code": "80140"
  },
  {
    "name": "Ignaucourt",
    "code": "80449",
    "epci_code": "200070969",
    "departement_code": "80",
    "region_code": "32",
    "postal_code": "80800"
  },
  {
    "name": "Inval-Boiron",
    "code": "80450",
    "epci_code": "200071181",
    "departement_code": "80",
    "region_code": "32",
    "postal_code": "80430"
  },
  {
    "name": "Irles",
    "code": "80451",
    "epci_code": "248000747",
    "departement_code": "80",
    "region_code": "32",
    "postal_code": "80300"
  },
  {
    "name": "Jumel",
    "code": "80452",
    "epci_code": "200070969",
    "departement_code": "80",
    "region_code": "32",
    "postal_code": "80250"
  },
  {
    "name": "Laboissière-en-Santerre",
    "code": "80453",
    "epci_code": "200070977",
    "departement_code": "80",
    "region_code": "32",
    "postal_code": "80500"
  },
  {
    "name": "Lachapelle",
    "code": "80455",
    "epci_code": "200071181",
    "departement_code": "80",
    "region_code": "32",
    "postal_code": "80290"
  },
  {
    "name": "Lafresguimont-Saint-Martin",
    "code": "80456",
    "epci_code": "200071181",
    "departement_code": "80",
    "region_code": "32",
    "postal_code": "80430"
  },
  {
    "name": "Lahoussoye",
    "code": "80458",
    "epci_code": "248000499",
    "departement_code": "80",
    "region_code": "32",
    "postal_code": "80800"
  },
  {
    "name": "Laleu",
    "code": "80459",
    "epci_code": "200071181",
    "departement_code": "80",
    "region_code": "32",
    "postal_code": "80270"
  },
  {
    "name": "Lamaronde",
    "code": "80460",
    "epci_code": "200071181",
    "departement_code": "80",
    "region_code": "32",
    "postal_code": "80290"
  },
  {
    "name": "Lamotte-Brebière",
    "code": "80461",
    "epci_code": "248000499",
    "departement_code": "80",
    "region_code": "32",
    "postal_code": "80450"
  },
  {
    "name": "Lamotte-Buleux",
    "code": "80462",
    "epci_code": "200070936",
    "departement_code": "80",
    "region_code": "32",
    "postal_code": "80150"
  },
  {
    "name": "Lamotte-Warfusée",
    "code": "80463",
    "epci_code": "248000499",
    "departement_code": "80",
    "region_code": "32",
    "postal_code": "80800"
  },
  {
    "name": "Lanchères",
    "code": "80464",
    "epci_code": "200070993",
    "departement_code": "80",
    "region_code": "32",
    "postal_code": "80230"
  },
  {
    "name": "Languevoisin-Quiquery",
    "code": "80465",
    "epci_code": "200070985",
    "departement_code": "80",
    "region_code": "32",
    "postal_code": "80190"
  },
  {
    "name": "Lanches-Saint-Hilaire",
    "code": "80466",
    "epci_code": "200071223",
    "departement_code": "80",
    "region_code": "32",
    "postal_code": "80620"
  },
  {
    "name": "Laucourt",
    "code": "80467",
    "epci_code": "200070977",
    "departement_code": "80",
    "region_code": "32",
    "postal_code": "80700"
  },
  {
    "name": "Laviéville",
    "code": "80468",
    "epci_code": "248000747",
    "departement_code": "80",
    "region_code": "32",
    "postal_code": "80300"
  },
  {
    "name": "Lawarde-Mauger-l’Hortoy",
    "code": "80469",
    "epci_code": "200070969",
    "departement_code": "80",
    "region_code": "32",
    "postal_code": "80250"
  },
  {
    "name": "Léalvillers",
    "code": "80470",
    "epci_code": "248000747",
    "departement_code": "80",
    "region_code": "32",
    "postal_code": "80560"
  },
  {
    "name": "Lesbœufs",
    "code": "80472",
    "epci_code": "200037059",
    "departement_code": "80",
    "region_code": "32",
    "postal_code": "80360"
  },
  {
    "name": "Liancourt-Fosse",
    "code": "80473",
    "epci_code": "200070977",
    "departement_code": "80",
    "region_code": "32",
    "postal_code": "80700"
  },
  {
    "name": "Licourt",
    "code": "80474",
    "epci_code": "200070985",
    "departement_code": "80",
    "region_code": "32",
    "postal_code": "80320"
  },
  {
    "name": "Liéramont",
    "code": "80475",
    "epci_code": "200037059",
    "departement_code": "80",
    "region_code": "32",
    "postal_code": "80240"
  },
  {
    "name": "Liercourt",
    "code": "80476",
    "epci_code": "200070993",
    "departement_code": "80",
    "region_code": "32",
    "postal_code": "80580"
  },
  {
    "name": "Ligescourt",
    "code": "80477",
    "epci_code": "200070936",
    "departement_code": "80",
    "region_code": "32",
    "postal_code": "80150"
  },
  {
    "name": "Lignières",
    "code": "80478",
    "epci_code": "200070977",
    "departement_code": "80",
    "region_code": "32",
    "postal_code": "80500"
  },
  {
    "name": "Lignières-Châtelain",
    "code": "80479",
    "epci_code": "200071181",
    "departement_code": "80",
    "region_code": "32",
    "postal_code": "80290"
  },
  {
    "name": "Lignières-en-Vimeu",
    "code": "80480",
    "epci_code": "200071181",
    "departement_code": "80",
    "region_code": "32",
    "postal_code": "80140"
  },
  {
    "name": "Lihons",
    "code": "80481",
    "epci_code": "200070928",
    "departement_code": "80",
    "region_code": "32",
    "postal_code": "80320"
  },
  {
    "name": "Limeux",
    "code": "80482",
    "epci_code": "200070993",
    "departement_code": "80",
    "region_code": "32",
    "postal_code": "80490"
  },
  {
    "name": "Liomer",
    "code": "80484",
    "epci_code": "200071181",
    "departement_code": "80",
    "region_code": "32",
    "postal_code": "80430"
  },
  {
    "name": "Ô-de-Selle",
    "code": "80485",
    "epci_code": "200071181",
    "departement_code": "80",
    "region_code": "32",
    "postal_code": "80160"
  },
  {
    "name": "Long",
    "code": "80486",
    "epci_code": "200070936",
    "departement_code": "80",
    "region_code": "32",
    "postal_code": "80510"
  },
  {
    "name": "Longavesnes",
    "code": "80487",
    "epci_code": "200037059",
    "departement_code": "80",
    "region_code": "32",
    "postal_code": "80240"
  },
  {
    "name": "Longpré-les-Corps-Saints",
    "code": "80488",
    "epci_code": "200070993",
    "departement_code": "80",
    "region_code": "32",
    "postal_code": "80510"
  },
  {
    "name": "Longueau",
    "code": "80489",
    "epci_code": "248000531",
    "departement_code": "80",
    "region_code": "32",
    "postal_code": "80330"
  },
  {
    "name": "Longueval",
    "code": "80490",
    "epci_code": "200037059",
    "departement_code": "80",
    "region_code": "32",
    "postal_code": "80360"
  },
  {
    "name": "Longuevillette",
    "code": "80491",
    "epci_code": "200070951",
    "departement_code": "80",
    "region_code": "32",
    "postal_code": "80600"
  },
  {
    "name": "Louvencourt",
    "code": "80493",
    "epci_code": "248000747",
    "departement_code": "80",
    "region_code": "32",
    "postal_code": "80560"
  },
  {
    "name": "Louvrechy",
    "code": "80494",
    "epci_code": "200070969",
    "departement_code": "80",
    "region_code": "32",
    "postal_code": "80250"
  },
  {
    "name": "Lucheux",
    "code": "80495",
    "epci_code": "200070951",
    "departement_code": "80",
    "region_code": "32",
    "postal_code": "80600"
  },
  {
    "name": "Machiel",
    "code": "80496",
    "epci_code": "200070936",
    "departement_code": "80",
    "region_code": "32",
    "postal_code": "80150"
  },
  {
    "name": "Machy",
    "code": "80497",
    "epci_code": "200070936",
    "departement_code": "80",
    "region_code": "32",
    "postal_code": "80150"
  },
  {
    "name": "Mailly-Maillet",
    "code": "80498",
    "epci_code": "248000747",
    "departement_code": "80",
    "region_code": "32",
    "postal_code": "80560"
  },
  {
    "name": "Mailly-Raineval",
    "code": "80499",
    "epci_code": "200070969",
    "departement_code": "80",
    "region_code": "32",
    "postal_code": "80110"
  },
  {
    "name": "Maisnières",
    "code": "80500",
    "epci_code": "200069722",
    "departement_code": "80",
    "region_code": "32",
    "postal_code": "80220"
  },
  {
    "name": "Maison-Ponthieu",
    "code": "80501",
    "epci_code": "200070936",
    "departement_code": "80",
    "region_code": "32",
    "postal_code": "80150"
  },
  {
    "name": "Maison-Roland",
    "code": "80502",
    "epci_code": "200070936",
    "departement_code": "80",
    "region_code": "32",
    "postal_code": "80135"
  },
  {
    "name": "Maizicourt",
    "code": "80503",
    "epci_code": "200070951",
    "departement_code": "80",
    "region_code": "32",
    "postal_code": "80370"
  },
  {
    "name": "Malpart",
    "code": "80504",
    "epci_code": "200070977",
    "departement_code": "80",
    "region_code": "32",
    "postal_code": "80250"
  },
  {
    "name": "Carnoy-Mametz",
    "code": "80505",
    "epci_code": "248000747",
    "departement_code": "80",
    "region_code": "32",
    "postal_code": "80300"
  },
  {
    "name": "Marcelcave",
    "code": "80507",
    "epci_code": "248000499",
    "departement_code": "80",
    "region_code": "32",
    "postal_code": "80800"
  },
  {
    "name": "Marché-Allouarde",
    "code": "80508",
    "epci_code": "200070977",
    "departement_code": "80",
    "region_code": "32",
    "postal_code": "80700"
  },
  {
    "name": "Marchélepot-Misery",
    "code": "80509",
    "epci_code": "200070928",
    "departement_code": "80",
    "region_code": "32",
    "postal_code": "80200"
  },
  {
    "name": "Marestmontiers",
    "code": "80511",
    "epci_code": "200070977",
    "departement_code": "80",
    "region_code": "32",
    "postal_code": "80500"
  },
  {
    "name": "Mareuil-Caubert",
    "code": "80512",
    "epci_code": "200070993",
    "departement_code": "80",
    "region_code": "32",
    "postal_code": "80132"
  },
  {
    "name": "Maricourt",
    "code": "80513",
    "epci_code": "248000747",
    "departement_code": "80",
    "region_code": "32",
    "postal_code": "80360"
  },
  {
    "name": "Marieux",
    "code": "80514",
    "epci_code": "248000747",
    "departement_code": "80",
    "region_code": "32",
    "postal_code": "80560"
  },
  {
    "name": "Marlers",
    "code": "80515",
    "epci_code": "200071181",
    "departement_code": "80",
    "region_code": "32",
    "postal_code": "80290"
  },
  {
    "name": "Marquaix",
    "code": "80516",
    "epci_code": "200037059",
    "departement_code": "80",
    "region_code": "32",
    "postal_code": "80240"
  },
  {
    "name": "Marquivillers",
    "code": "80517",
    "epci_code": "200070977",
    "departement_code": "80",
    "region_code": "32",
    "postal_code": "80700"
  },
  {
    "name": "Martainneville",
    "code": "80518",
    "epci_code": "200069722",
    "departement_code": "80",
    "region_code": "32",
    "postal_code": "80140"
  },
  {
    "name": "Matigny",
    "code": "80519",
    "epci_code": "200070985",
    "departement_code": "80",
    "region_code": "32",
    "postal_code": "80400"
  },
  {
    "name": "Maucourt",
    "code": "80520",
    "epci_code": "200070928",
    "departement_code": "80",
    "region_code": "32",
    "postal_code": "80170"
  },
  {
    "name": "Maurepas",
    "code": "80521",
    "epci_code": "200037059",
    "departement_code": "80",
    "region_code": "32",
    "postal_code": "80360"
  },
  {
    "name": "Le Mazis",
    "code": "80522",
    "epci_code": "200071181",
    "departement_code": "80",
    "region_code": "32",
    "postal_code": "80430"
  },
  {
    "name": "Méaulte",
    "code": "80523",
    "epci_code": "248000747",
    "departement_code": "80",
    "region_code": "32",
    "postal_code": "80300"
  },
  {
    "name": "Méharicourt",
    "code": "80524",
    "epci_code": "200070928",
    "departement_code": "80",
    "region_code": "32",
    "postal_code": "80170"
  },
  {
    "name": "Meigneux",
    "code": "80525",
    "epci_code": "200071181",
    "departement_code": "80",
    "region_code": "32",
    "postal_code": "80290"
  },
  {
    "name": "Le Meillard",
    "code": "80526",
    "epci_code": "200070951",
    "departement_code": "80",
    "region_code": "32",
    "postal_code": "80370"
  },
  {
    "name": "Méneslies",
    "code": "80527",
    "epci_code": "200070944",
    "departement_code": "80",
    "region_code": "32",
    "postal_code": "80520"
  },
  {
    "name": "Méréaucourt",
    "code": "80528",
    "epci_code": "200071181",
    "departement_code": "80",
    "region_code": "32",
    "postal_code": "80290"
  },
  {
    "name": "Mérélessart",
    "code": "80529",
    "epci_code": "200070993",
    "departement_code": "80",
    "region_code": "32",
    "postal_code": "80490"
  },
  {
    "name": "Méricourt-l’Abbé",
    "code": "80530",
    "epci_code": "248000499",
    "departement_code": "80",
    "region_code": "32",
    "postal_code": "80800"
  },
  {
    "name": "Méricourt-en-Vimeu",
    "code": "80531",
    "epci_code": "200071181",
    "departement_code": "80",
    "region_code": "32",
    "postal_code": "80640"
  },
  {
    "name": "Mers-les-Bains",
    "code": "80533",
    "epci_code": "247600588",
    "departement_code": "80",
    "region_code": "32",
    "postal_code": "80350"
  },
  {
    "name": "Le Mesge",
    "code": "80535",
    "epci_code": "200071223",
    "departement_code": "80",
    "region_code": "32",
    "postal_code": "80310"
  },
  {
    "name": "Mesnil-Bruntel",
    "code": "80536",
    "epci_code": "200037059",
    "departement_code": "80",
    "region_code": "32",
    "postal_code": "80200"
  },
  {
    "name": "Mesnil-Domqueur",
    "code": "80537",
    "epci_code": "200070936",
    "departement_code": "80",
    "region_code": "32",
    "postal_code": "80620"
  },
  {
    "name": "Mesnil-en-Arrouaise",
    "code": "80538",
    "epci_code": "200037059",
    "departement_code": "80",
    "region_code": "32",
    "postal_code": "80360"
  },
  {
    "name": "Mesnil-Martinsart",
    "code": "80540",
    "epci_code": "248000747",
    "departement_code": "80",
    "region_code": "32",
    "postal_code": "80300"
  },
  {
    "name": "Mesnil-Saint-Georges",
    "code": "80541",
    "epci_code": "200070977",
    "departement_code": "80",
    "region_code": "32",
    "postal_code": "80500"
  },
  {
    "name": "Mesnil-Saint-Nicaise",
    "code": "80542",
    "epci_code": "200070985",
    "departement_code": "80",
    "region_code": "32",
    "postal_code": "80190"
  },
  {
    "name": "Métigny",
    "code": "80543",
    "epci_code": "200071181",
    "departement_code": "80",
    "region_code": "32",
    "postal_code": "80270"
  },
  {
    "name": "Mézerolles",
    "code": "80544",
    "epci_code": "200070951",
    "departement_code": "80",
    "region_code": "32",
    "postal_code": "80600"
  },
  {
    "name": "Mézières-en-Santerre",
    "code": "80545",
    "epci_code": "200070969",
    "departement_code": "80",
    "region_code": "32",
    "postal_code": "80110"
  },
  {
    "name": "Miannay",
    "code": "80546",
    "epci_code": "200070944",
    "departement_code": "80",
    "region_code": "32",
    "postal_code": "80132"
  },
  {
    "name": "Millencourt",
    "code": "80547",
    "epci_code": "248000747",
    "departement_code": "80",
    "region_code": "32",
    "postal_code": "80300"
  },
  {
    "name": "Millencourt-en-Ponthieu",
    "code": "80548",
    "epci_code": "200070936",
    "departement_code": "80",
    "region_code": "32",
    "postal_code": "80135"
  },
  {
    "name": "Miraumont",
    "code": "80549",
    "epci_code": "248000747",
    "departement_code": "80",
    "region_code": "32",
    "postal_code": "80300"
  },
  {
    "name": "Mirvaux",
    "code": "80550",
    "epci_code": "200070951",
    "departement_code": "80",
    "region_code": "32",
    "postal_code": "80260"
  },
  {
    "name": "Moislains",
    "code": "80552",
    "epci_code": "200037059",
    "departement_code": "80",
    "region_code": "32",
    "postal_code": "80200"
  },
  {
    "name": "Molliens-au-Bois",
    "code": "80553",
    "epci_code": "200070951",
    "departement_code": "80",
    "region_code": "32",
    "postal_code": "80260"
  },
  {
    "name": "Molliens-Dreuil",
    "code": "80554",
    "epci_code": "200071181",
    "departement_code": "80",
    "region_code": "32",
    "postal_code": "80540"
  },
  {
    "name": "Monchy-Lagache",
    "code": "80555",
    "epci_code": "200070985",
    "departement_code": "80",
    "region_code": "32",
    "postal_code": "80200"
  },
  {
    "name": "Mons-Boubert",
    "code": "80556",
    "epci_code": "200070993",
    "departement_code": "80",
    "region_code": "32",
    "postal_code": "80210"
  },
  {
    "name": "Estrées-Mons",
    "code": "80557",
    "epci_code": "200037059",
    "departement_code": "80",
    "region_code": "32",
    "postal_code": "80200"
  },
  {
    "name": "Monsures",
    "code": "80558",
    "epci_code": "200071181",
    "departement_code": "80",
    "region_code": "32",
    "postal_code": "80160"
  },
  {
    "name": "Montagne-Fayel",
    "code": "80559",
    "epci_code": "200071181",
    "departement_code": "80",
    "region_code": "32",
    "postal_code": "80540"
  },
  {
    "name": "Montauban-de-Picardie",
    "code": "80560",
    "epci_code": "248000747",
    "departement_code": "80",
    "region_code": "32",
    "postal_code": "80300"
  },
  {
    "name": "Montdidier",
    "code": "80561",
    "epci_code": "200070977",
    "departement_code": "80",
    "region_code": "32",
    "postal_code": "80500"
  },
  {
    "name": "Montigny-sur-l’Hallue",
    "code": "80562",
    "epci_code": "200070951",
    "departement_code": "80",
    "region_code": "32",
    "postal_code": "80260"
  },
  {
    "name": "Montigny-les-Jongleurs",
    "code": "80563",
    "epci_code": "200070951",
    "departement_code": "80",
    "region_code": "32",
    "postal_code": "80370"
  },
  {
    "name": "Montonvillers",
    "code": "80565",
    "epci_code": "200070951",
    "departement_code": "80",
    "region_code": "32",
    "postal_code": "80260"
  },
  {
    "name": "Fieffes-Montrelet",
    "code": "80566",
    "epci_code": "200070951",
    "departement_code": "80",
    "region_code": "32",
    "postal_code": "80670"
  },
  {
    "name": "Morchain",
    "code": "80568",
    "epci_code": "200070985",
    "departement_code": "80",
    "region_code": "32",
    "postal_code": "80190"
  },
  {
    "name": "Morcourt",
    "code": "80569",
    "epci_code": "248000499",
    "departement_code": "80",
    "region_code": "32",
    "postal_code": "80340"
  },
  {
    "name": "Moreuil",
    "code": "80570",
    "epci_code": "200070969",
    "departement_code": "80",
    "region_code": "32",
    "postal_code": "80110"
  },
  {
    "name": "Morisel",
    "code": "80571",
    "epci_code": "200070969",
    "departement_code": "80",
    "region_code": "32",
    "postal_code": "80110"
  },
  {
    "name": "Morlancourt",
    "code": "80572",
    "epci_code": "248000747",
    "departement_code": "80",
    "region_code": "32",
    "postal_code": "80300"
  },
  {
    "name": "Morvillers-Saint-Saturnin",
    "code": "80573",
    "epci_code": "200071181",
    "departement_code": "80",
    "region_code": "32",
    "postal_code": "80290"
  },
  {
    "name": "Mouflers",
    "code": "80574",
    "epci_code": "200070936",
    "departement_code": "80",
    "region_code": "32",
    "postal_code": "80690"
  },
  {
    "name": "Mouflières",
    "code": "80575",
    "epci_code": "200071181",
    "departement_code": "80",
    "region_code": "32",
    "postal_code": "80140"
  },
  {
    "name": "Moyencourt",
    "code": "80576",
    "epci_code": "200070985",
    "departement_code": "80",
    "region_code": "32",
    "postal_code": "80400"
  },
  {
    "name": "Moyencourt-lès-Poix",
    "code": "80577",
    "epci_code": "200071181",
    "departement_code": "80",
    "region_code": "32",
    "postal_code": "80290"
  },
  {
    "name": "Moyenneville",
    "code": "80578",
    "epci_code": "200070944",
    "departement_code": "80",
    "region_code": "32",
    "postal_code": "80870"
  },
  {
    "name": "Muille-Villette",
    "code": "80579",
    "epci_code": "200070985",
    "departement_code": "80",
    "region_code": "32",
    "postal_code": "80400"
  },
  {
    "name": "Nampont",
    "code": "80580",
    "epci_code": "200070936",
    "departement_code": "80",
    "region_code": "32",
    "postal_code": "80120"
  },
  {
    "name": "Namps-Maisnil",
    "code": "80582",
    "epci_code": "200071181",
    "departement_code": "80",
    "region_code": "32",
    "postal_code": "80290"
  },
  {
    "name": "Nampty",
    "code": "80583",
    "epci_code": "200071181",
    "departement_code": "80",
    "region_code": "32",
    "postal_code": "80160"
  },
  {
    "name": "Naours",
    "code": "80584",
    "epci_code": "200070951",
    "departement_code": "80",
    "region_code": "32",
    "postal_code": "80260"
  },
  {
    "name": "Nesle",
    "code": "80585",
    "epci_code": "200070985",
    "departement_code": "80",
    "region_code": "32",
    "postal_code": "80190"
  },
  {
    "name": "Nesle-l’Hôpital",
    "code": "80586",
    "epci_code": "200071181",
    "departement_code": "80",
    "region_code": "32",
    "postal_code": "80140"
  },
  {
    "name": "Neslette",
    "code": "80587",
    "epci_code": "200071181",
    "departement_code": "80",
    "region_code": "32",
    "postal_code": "80140"
  },
  {
    "name": "Neufmoulin",
    "code": "80588",
    "epci_code": "200070993",
    "departement_code": "80",
    "region_code": "32",
    "postal_code": "80132"
  },
  {
    "name": "Neuilly-le-Dien",
    "code": "80589",
    "epci_code": "200070936",
    "departement_code": "80",
    "region_code": "32",
    "postal_code": "80150"
  },
  {
    "name": "Neuilly-l’Hôpital",
    "code": "80590",
    "epci_code": "200070936",
    "departement_code": "80",
    "region_code": "32",
    "postal_code": "80132"
  },
  {
    "name": "Neuville-au-Bois",
    "code": "80591",
    "epci_code": "200071181",
    "departement_code": "80",
    "region_code": "32",
    "postal_code": "80140"
  },
  {
    "name": "Neuville-Coppegueule",
    "code": "80592",
    "epci_code": "200071181",
    "departement_code": "80",
    "region_code": "32",
    "postal_code": "80430"
  },
  {
    "name": "La Neuville-lès-Bray",
    "code": "80593",
    "epci_code": "248000747",
    "departement_code": "80",
    "region_code": "32",
    "postal_code": "80340"
  },
  {
    "name": "La Neuville-Sire-Bernard",
    "code": "80595",
    "epci_code": "200070969",
    "departement_code": "80",
    "region_code": "32",
    "postal_code": "80110"
  },
  {
    "name": "Neuvillette",
    "code": "80596",
    "epci_code": "200070951",
    "departement_code": "80",
    "region_code": "32",
    "postal_code": "80600"
  },
  {
    "name": "Nibas",
    "code": "80597",
    "epci_code": "200070944",
    "departement_code": "80",
    "region_code": "32",
    "postal_code": "80390"
  },
  {
    "name": "Nouvion",
    "code": "80598",
    "epci_code": "200070936",
    "departement_code": "80",
    "region_code": "32",
    "postal_code": "80860"
  },
  {
    "name": "Noyelles-en-Chaussée",
    "code": "80599",
    "epci_code": "200070936",
    "departement_code": "80",
    "region_code": "32",
    "postal_code": "80150"
  },
  {
    "name": "Noyelles-sur-Mer",
    "code": "80600",
    "epci_code": "200070936",
    "departement_code": "80",
    "region_code": "32",
    "postal_code": "80860"
  },
  {
    "name": "Nurlu",
    "code": "80601",
    "epci_code": "200037059",
    "departement_code": "80",
    "region_code": "32",
    "postal_code": "80240"
  },
  {
    "name": "Occoches",
    "code": "80602",
    "epci_code": "200070951",
    "departement_code": "80",
    "region_code": "32",
    "postal_code": "80600"
  },
  {
    "name": "Ochancourt",
    "code": "80603",
    "epci_code": "200070944",
    "departement_code": "80",
    "region_code": "32",
    "postal_code": "80210"
  },
  {
    "name": "Offignies",
    "code": "80604",
    "epci_code": "200071181",
    "departement_code": "80",
    "region_code": "32",
    "postal_code": "80290"
  },
  {
    "name": "Offoy",
    "code": "80605",
    "epci_code": "200070985",
    "departement_code": "80",
    "region_code": "32",
    "postal_code": "80400"
  },
  {
    "name": "Oisemont",
    "code": "80606",
    "epci_code": "200071181",
    "departement_code": "80",
    "region_code": "32",
    "postal_code": "80140"
  },
  {
    "name": "Oissy",
    "code": "80607",
    "epci_code": "200071181",
    "departement_code": "80",
    "region_code": "32",
    "postal_code": "80540"
  },
  {
    "name": "Oneux",
    "code": "80609",
    "epci_code": "200070936",
    "departement_code": "80",
    "region_code": "32",
    "postal_code": "80135"
  },
  {
    "name": "Oresmaux",
    "code": "80611",
    "epci_code": "200071181",
    "departement_code": "80",
    "region_code": "32",
    "postal_code": "80160"
  },
  {
    "name": "Oust-Marest",
    "code": "80613",
    "epci_code": "247600588",
    "departement_code": "80",
    "region_code": "32",
    "postal_code": "80460"
  },
  {
    "name": "Outrebois",
    "code": "80614",
    "epci_code": "200070951",
    "departement_code": "80",
    "region_code": "32",
    "postal_code": "80600"
  },
  {
    "name": "Ovillers-la-Boisselle",
    "code": "80615",
    "epci_code": "248000747",
    "departement_code": "80",
    "region_code": "32",
    "postal_code": "80300"
  },
  {
    "name": "Pargny",
    "code": "80616",
    "epci_code": "200070985",
    "departement_code": "80",
    "region_code": "32",
    "postal_code": "80190"
  },
  {
    "name": "Parvillers-le-Quesnoy",
    "code": "80617",
    "epci_code": "200070928",
    "departement_code": "80",
    "region_code": "32",
    "postal_code": "80700"
  },
  {
    "name": "Pendé",
    "code": "80618",
    "epci_code": "200070993",
    "departement_code": "80",
    "region_code": "32",
    "postal_code": "80230"
  },
  {
    "name": "Pernois",
    "code": "80619",
    "epci_code": "200071223",
    "departement_code": "80",
    "region_code": "32",
    "postal_code": "80670"
  },
  {
    "name": "Péronne",
    "code": "80620",
    "epci_code": "200037059",
    "departement_code": "80",
    "region_code": "32",
    "postal_code": "80200"
  },
  {
    "name": "Hypercourt",
    "code": "80621",
    "epci_code": "200070928",
    "departement_code": "80",
    "region_code": "32",
    "postal_code": "80320"
  },
  {
    "name": "Picquigny",
    "code": "80622",
    "epci_code": "200071223",
    "departement_code": "80",
    "region_code": "32",
    "postal_code": "80310"
  },
  {
    "name": "Piennes-Onvillers",
    "code": "80623",
    "epci_code": "200070977",
    "departement_code": "80",
    "region_code": "32",
    "postal_code": "80500"
  },
  {
    "name": "Pierregot",
    "code": "80624",
    "epci_code": "200070951",
    "departement_code": "80",
    "region_code": "32",
    "postal_code": "80260"
  },
  {
    "name": "Trois-Rivières",
    "code": "80625",
    "epci_code": "200070977",
    "departement_code": "80",
    "region_code": "32",
    "postal_code": "80500"
  },
  {
    "name": "Pissy",
    "code": "80626",
    "epci_code": "248000531",
    "departement_code": "80",
    "region_code": "32",
    "postal_code": "80540"
  },
  {
    "name": "Plachy-Buyon",
    "code": "80627",
    "epci_code": "200071181",
    "departement_code": "80",
    "region_code": "32",
    "postal_code": "80160"
  },
  {
    "name": "Le Plessier-Rozainvillers",
    "code": "80628",
    "epci_code": "200070969",
    "departement_code": "80",
    "region_code": "32",
    "postal_code": "80110"
  },
  {
    "name": "Pœuilly",
    "code": "80629",
    "epci_code": "200037059",
    "departement_code": "80",
    "region_code": "32",
    "postal_code": "80240"
  },
  {
    "name": "Poix-de-Picardie",
    "code": "80630",
    "epci_code": "200071181",
    "departement_code": "80",
    "region_code": "32",
    "postal_code": "80290"
  },
  {
    "name": "Ponches-Estruval",
    "code": "80631",
    "epci_code": "200070936",
    "departement_code": "80",
    "region_code": "32",
    "postal_code": "80150"
  },
  {
    "name": "Pont-de-Metz",
    "code": "80632",
    "epci_code": "248000531",
    "departement_code": "80",
    "region_code": "32",
    "postal_code": "80480"
  },
  {
    "name": "Ponthoile",
    "code": "80633",
    "epci_code": "200070936",
    "departement_code": "80",
    "region_code": "32",
    "postal_code": "80860"
  },
  {
    "name": "Pont-Noyelles",
    "code": "80634",
    "epci_code": "248000499",
    "departement_code": "80",
    "region_code": "32",
    "postal_code": "80115"
  },
  {
    "name": "Pont-Remy",
    "code": "80635",
    "epci_code": "200070936",
    "departement_code": "80",
    "region_code": "32",
    "postal_code": "80580"
  },
  {
    "name": "Port-le-Grand",
    "code": "80637",
    "epci_code": "200070936",
    "departement_code": "80",
    "region_code": "32",
    "postal_code": "80132"
  },
  {
    "name": "Potte",
    "code": "80638",
    "epci_code": "200070985",
    "departement_code": "80",
    "region_code": "32",
    "postal_code": "80190"
  },
  {
    "name": "Poulainville",
    "code": "80639",
    "epci_code": "248000531",
    "departement_code": "80",
    "region_code": "32",
    "postal_code": "80260"
  },
  {
    "name": "Pozières",
    "code": "80640",
    "epci_code": "248000747",
    "departement_code": "80",
    "region_code": "32",
    "postal_code": "80300"
  },
  {
    "name": "Prouville",
    "code": "80642",
    "epci_code": "200070951",
    "departement_code": "80",
    "region_code": "32",
    "postal_code": "80370"
  },
  {
    "name": "Prouzel",
    "code": "80643",
    "epci_code": "200071181",
    "departement_code": "80",
    "region_code": "32",
    "postal_code": "80160"
  },
  {
    "name": "Proyart",
    "code": "80644",
    "epci_code": "200070928",
    "departement_code": "80",
    "region_code": "32",
    "postal_code": "80340"
  },
  {
    "name": "Puchevillers",
    "code": "80645",
    "epci_code": "248000747",
    "departement_code": "80",
    "region_code": "32",
    "postal_code": "80560"
  },
  {
    "name": "Punchy",
    "code": "80646",
    "epci_code": "200070928",
    "departement_code": "80",
    "region_code": "32",
    "postal_code": "80320"
  },
  {
    "name": "Puzeaux",
    "code": "80647",
    "epci_code": "200070928",
    "departement_code": "80",
    "region_code": "32",
    "postal_code": "80320"
  },
  {
    "name": "Pys",
    "code": "80648",
    "epci_code": "248000747",
    "departement_code": "80",
    "region_code": "32",
    "postal_code": "80300"
  },
  {
    "name": "Quend",
    "code": "80649",
    "epci_code": "200070936",
    "departement_code": "80",
    "region_code": "32",
    "postal_code": "80120"
  },
  {
    "name": "Querrieu",
    "code": "80650",
    "epci_code": "248000531",
    "departement_code": "80",
    "region_code": "32",
    "postal_code": "80115"
  },
  {
    "name": "Le Quesne",
    "code": "80651",
    "epci_code": "200071181",
    "departement_code": "80",
    "region_code": "32",
    "postal_code": "80430"
  },
  {
    "name": "Le Quesnel",
    "code": "80652",
    "epci_code": "200070969",
    "departement_code": "80",
    "region_code": "32",
    "postal_code": "80118"
  },
  {
    "name": "Quesnoy-le-Montant",
    "code": "80654",
    "epci_code": "200070944",
    "departement_code": "80",
    "region_code": "32",
    "postal_code": "80132"
  },
  {
    "name": "Quesnoy-sur-Airaines",
    "code": "80655",
    "epci_code": "200071181",
    "departement_code": "80",
    "region_code": "32",
    "postal_code": "80270"
  },
  {
    "name": "Quevauvillers",
    "code": "80656",
    "epci_code": "200071181",
    "departement_code": "80",
    "region_code": "32",
    "postal_code": "80710"
  },
  {
    "name": "Quiry-le-Sec",
    "code": "80657",
    "epci_code": "200070969",
    "departement_code": "80",
    "region_code": "32",
    "postal_code": "80250"
  },
  {
    "name": "Quivières",
    "code": "80658",
    "epci_code": "200070985",
    "departement_code": "80",
    "region_code": "32",
    "postal_code": "80400"
  },
  {
    "name": "Raincheval",
    "code": "80659",
    "epci_code": "248000747",
    "departement_code": "80",
    "region_code": "32",
    "postal_code": "80600"
  },
  {
    "name": "Rainneville",
    "code": "80661",
    "epci_code": "200070951",
    "departement_code": "80",
    "region_code": "32",
    "postal_code": "80260"
  },
  {
    "name": "Ramburelles",
    "code": "80662",
    "epci_code": "200069722",
    "departement_code": "80",
    "region_code": "32",
    "postal_code": "80140"
  },
  {
    "name": "Rambures",
    "code": "80663",
    "epci_code": "200071181",
    "departement_code": "80",
    "region_code": "32",
    "postal_code": "80140"
  },
  {
    "name": "Rancourt",
    "code": "80664",
    "epci_code": "200037059",
    "departement_code": "80",
    "region_code": "32",
    "postal_code": "80360"
  },
  {
    "name": "Regnière-Écluse",
    "code": "80665",
    "epci_code": "200070936",
    "departement_code": "80",
    "region_code": "32",
    "postal_code": "80120"
  },
  {
    "name": "Remaisnil",
    "code": "80666",
    "epci_code": "200070951",
    "departement_code": "80",
    "region_code": "32",
    "postal_code": "80600"
  },
  {
    "name": "Remaugies",
    "code": "80667",
    "epci_code": "200070977",
    "departement_code": "80",
    "region_code": "32",
    "postal_code": "80500"
  },
  {
    "name": "Remiencourt",
    "code": "80668",
    "epci_code": "248000531",
    "departement_code": "80",
    "region_code": "32",
    "postal_code": "80250"
  },
  {
    "name": "Rethonvillers",
    "code": "80669",
    "epci_code": "200070985",
    "departement_code": "80",
    "region_code": "32",
    "postal_code": "80700"
  },
  {
    "name": "Revelles",
    "code": "80670",
    "epci_code": "248000531",
    "departement_code": "80",
    "region_code": "32",
    "postal_code": "80540"
  },
  {
    "name": "Ribeaucourt",
    "code": "80671",
    "epci_code": "200071223",
    "departement_code": "80",
    "region_code": "32",
    "postal_code": "80620"
  },
  {
    "name": "Ribemont-sur-Ancre",
    "code": "80672",
    "epci_code": "248000499",
    "departement_code": "80",
    "region_code": "32",
    "postal_code": "80800"
  },
  {
    "name": "Riencourt",
    "code": "80673",
    "epci_code": "200071181",
    "departement_code": "80",
    "region_code": "32",
    "postal_code": "80310"
  },
  {
    "name": "Rivery",
    "code": "80674",
    "epci_code": "248000531",
    "departement_code": "80",
    "region_code": "32",
    "postal_code": "80136"
  },
  {
    "name": "Rogy",
    "code": "80675",
    "epci_code": "200070969",
    "departement_code": "80",
    "region_code": "32",
    "postal_code": "80160"
  },
  {
    "name": "Roiglise",
    "code": "80676",
    "epci_code": "200070977",
    "departement_code": "80",
    "region_code": "32",
    "postal_code": "80700"
  },
  {
    "name": "Roisel",
    "code": "80677",
    "epci_code": "200037059",
    "departement_code": "80",
    "region_code": "32",
    "postal_code": "80240"
  },
  {
    "name": "Rollot",
    "code": "80678",
    "epci_code": "200070977",
    "departement_code": "80",
    "region_code": "32",
    "postal_code": "80500"
  },
  {
    "name": "Ronssoy",
    "code": "80679",
    "epci_code": "200037059",
    "departement_code": "80",
    "region_code": "32",
    "postal_code": "80740"
  },
  {
    "name": "Rosières-en-Santerre",
    "code": "80680",
    "epci_code": "200070928",
    "departement_code": "80",
    "region_code": "32",
    "postal_code": "80170"
  },
  {
    "name": "Rouvrel",
    "code": "80681",
    "epci_code": "200070969",
    "departement_code": "80",
    "region_code": "32",
    "postal_code": "80250"
  },
  {
    "name": "Rouvroy-en-Santerre",
    "code": "80682",
    "epci_code": "200070928",
    "departement_code": "80",
    "region_code": "32",
    "postal_code": "80170"
  },
  {
    "name": "Rouy-le-Grand",
    "code": "80683",
    "epci_code": "200070985",
    "departement_code": "80",
    "region_code": "32",
    "postal_code": "80190"
  },
  {
    "name": "Rouy-le-Petit",
    "code": "80684",
    "epci_code": "200070985",
    "departement_code": "80",
    "region_code": "32",
    "postal_code": "80190"
  },
  {
    "name": "Roye",
    "code": "80685",
    "epci_code": "200070977",
    "departement_code": "80",
    "region_code": "32",
    "postal_code": "80700"
  },
  {
    "name": "Rubempré",
    "code": "80686",
    "epci_code": "200070951",
    "departement_code": "80",
    "region_code": "32",
    "postal_code": "80260"
  },
  {
    "name": "Rubescourt",
    "code": "80687",
    "epci_code": "200070977",
    "departement_code": "80",
    "region_code": "32",
    "postal_code": "80500"
  },
  {
    "name": "Rue",
    "code": "80688",
    "epci_code": "200070936",
    "departement_code": "80",
    "region_code": "32",
    "postal_code": "80120"
  },
  {
    "name": "Rumigny",
    "code": "80690",
    "epci_code": "248000531",
    "departement_code": "80",
    "region_code": "32",
    "postal_code": "80680"
  },
  {
    "name": "Saigneville",
    "code": "80691",
    "epci_code": "200070993",
    "departement_code": "80",
    "region_code": "32",
    "postal_code": "80230"
  },
  {
    "name": "Sailly-Flibeaucourt",
    "code": "80692",
    "epci_code": "200070936",
    "departement_code": "80",
    "region_code": "32",
    "postal_code": "80970"
  },
  {
    "name": "Sailly-Laurette",
    "code": "80693",
    "epci_code": "248000499",
    "departement_code": "80",
    "region_code": "32",
    "postal_code": "80800"
  },
  {
    "name": "Sailly-le-Sec",
    "code": "80694",
    "epci_code": "248000499",
    "departement_code": "80",
    "region_code": "32",
    "postal_code": "80800"
  },
  {
    "name": "Sailly-Saillisel",
    "code": "80695",
    "epci_code": "200037059",
    "departement_code": "80",
    "region_code": "32",
    "postal_code": "80360"
  },
  {
    "name": "Sains-en-Amiénois",
    "code": "80696",
    "epci_code": "248000531",
    "departement_code": "80",
    "region_code": "32",
    "postal_code": "80680"
  },
  {
    "name": "Saint-Acheul",
    "code": "80697",
    "epci_code": "200070951",
    "departement_code": "80",
    "region_code": "32",
    "postal_code": "80370"
  },
  {
    "name": "Saint-Aubin-Montenoy",
    "code": "80698",
    "epci_code": "200071181",
    "departement_code": "80",
    "region_code": "32",
    "postal_code": "80540"
  },
  {
    "name": "Saint-Aubin-Rivière",
    "code": "80699",
    "epci_code": "200071181",
    "departement_code": "80",
    "region_code": "32",
    "postal_code": "80430"
  },
  {
    "name": "Saint-Blimont",
    "code": "80700",
    "epci_code": "200070993",
    "departement_code": "80",
    "region_code": "32",
    "postal_code": "80960"
  },
  {
    "name": "Saint-Christ-Briost",
    "code": "80701",
    "epci_code": "200070985",
    "departement_code": "80",
    "region_code": "32",
    "postal_code": "80200"
  },
  {
    "name": "Saint-Fuscien",
    "code": "80702",
    "epci_code": "248000531",
    "departement_code": "80",
    "region_code": "32",
    "postal_code": "80680"
  },
  {
    "name": "Saint-Germain-sur-Bresle",
    "code": "80703",
    "epci_code": "200071181",
    "departement_code": "80",
    "region_code": "32",
    "postal_code": "80430"
  },
  {
    "name": "Saint-Gratien",
    "code": "80704",
    "epci_code": "200070951",
    "departement_code": "80",
    "region_code": "32",
    "postal_code": "80260"
  },
  {
    "name": "Saint-Léger-lès-Authie",
    "code": "80705",
    "epci_code": "248000747",
    "departement_code": "80",
    "region_code": "32",
    "postal_code": "80560"
  },
  {
    "name": "Saint-Léger-lès-Domart",
    "code": "80706",
    "epci_code": "200071223",
    "departement_code": "80",
    "region_code": "32",
    "postal_code": "80780"
  },
  {
    "name": "Saint-Léger-sur-Bresle",
    "code": "80707",
    "epci_code": "200071181",
    "departement_code": "80",
    "region_code": "32",
    "postal_code": "80140"
  },
  {
    "name": "Saint-Mard",
    "code": "80708",
    "epci_code": "200070977",
    "departement_code": "80",
    "region_code": "32",
    "postal_code": "80700"
  },
  {
    "name": "Saint-Maulvis",
    "code": "80709",
    "epci_code": "200071181",
    "departement_code": "80",
    "region_code": "32",
    "postal_code": "80140"
  },
  {
    "name": "Saint-Maxent",
    "code": "80710",
    "epci_code": "200069722",
    "departement_code": "80",
    "region_code": "32",
    "postal_code": "80140"
  },
  {
    "name": "Saint-Ouen",
    "code": "80711",
    "epci_code": "200071223",
    "departement_code": "80",
    "region_code": "32",
    "postal_code": "80610"
  },
  {
    "name": "Saint-Quentin-en-Tourmont",
    "code": "80713",
    "epci_code": "200070936",
    "departement_code": "80",
    "region_code": "32",
    "postal_code": "80120"
  },
  {
    "name": "Saint-Quentin-la-Motte-Croix-au-Bailly",
    "code": "80714",
    "epci_code": "247600588",
    "departement_code": "80",
    "region_code": "32",
    "postal_code": "80880"
  },
  {
    "name": "Saint-Riquier",
    "code": "80716",
    "epci_code": "200070936",
    "departement_code": "80",
    "region_code": "32",
    "postal_code": "80135"
  },
  {
    "name": "Saint-Sauflieu",
    "code": "80717",
    "epci_code": "248000531",
    "departement_code": "80",
    "region_code": "32",
    "postal_code": "80160"
  },
  {
    "name": "Saint-Sauveur",
    "code": "80718",
    "epci_code": "200071223",
    "departement_code": "80",
    "region_code": "32",
    "postal_code": "80470"
  },
  {
    "name": "Sainte-Segrée",
    "code": "80719",
    "epci_code": "200071181",
    "departement_code": "80",
    "region_code": "32",
    "postal_code": "80290"
  },
  {
    "name": "Saint-Valery-sur-Somme",
    "code": "80721",
    "epci_code": "200070993",
    "departement_code": "80",
    "region_code": "32",
    "postal_code": "80230"
  },
  {
    "name": "Saint-Vaast-en-Chaussée",
    "code": "80722",
    "epci_code": "248000531",
    "departement_code": "80",
    "region_code": "32",
    "postal_code": "80310"
  },
  {
    "name": "Saisseval",
    "code": "80723",
    "epci_code": "200071223",
    "departement_code": "80",
    "region_code": "32",
    "postal_code": "80540"
  },
  {
    "name": "Saleux",
    "code": "80724",
    "epci_code": "248000531",
    "departement_code": "80",
    "region_code": "32",
    "postal_code": "80480"
  },
  {
    "name": "Salouël",
    "code": "80725",
    "epci_code": "248000531",
    "departement_code": "80",
    "region_code": "32",
    "postal_code": "80480"
  },
  {
    "name": "Sancourt",
    "code": "80726",
    "epci_code": "200070985",
    "departement_code": "80",
    "region_code": "32",
    "postal_code": "80400"
  },
  {
    "name": "Saulchoy-sous-Poix",
    "code": "80728",
    "epci_code": "200071181",
    "departement_code": "80",
    "region_code": "32",
    "postal_code": "80290"
  },
  {
    "name": "Sauvillers-Mongival",
    "code": "80729",
    "epci_code": "200070969",
    "departement_code": "80",
    "region_code": "32",
    "postal_code": "80110"
  },
  {
    "name": "Saveuse",
    "code": "80730",
    "epci_code": "248000531",
    "departement_code": "80",
    "region_code": "32",
    "postal_code": "80470"
  },
  {
    "name": "Senarpont",
    "code": "80732",
    "epci_code": "200071181",
    "departement_code": "80",
    "region_code": "32",
    "postal_code": "80140"
  },
  {
    "name": "Senlis-le-Sec",
    "code": "80733",
    "epci_code": "248000747",
    "departement_code": "80",
    "region_code": "32",
    "postal_code": "80300"
  },
  {
    "name": "Sentelie",
    "code": "80734",
    "epci_code": "200071181",
    "departement_code": "80",
    "region_code": "32",
    "postal_code": "80160"
  },
  {
    "name": "Seux",
    "code": "80735",
    "epci_code": "248000531",
    "departement_code": "80",
    "region_code": "32",
    "postal_code": "80540"
  },
  {
    "name": "Sorel-en-Vimeu",
    "code": "80736",
    "epci_code": "200070993",
    "departement_code": "80",
    "region_code": "32",
    "postal_code": "80490"
  },
  {
    "name": "Sorel",
    "code": "80737",
    "epci_code": "200037059",
    "departement_code": "80",
    "region_code": "32",
    "postal_code": "80240"
  },
  {
    "name": "Soues",
    "code": "80738",
    "epci_code": "200071223",
    "departement_code": "80",
    "region_code": "32",
    "postal_code": "80310"
  },
  {
    "name": "Sourdon",
    "code": "80740",
    "epci_code": "200070969",
    "departement_code": "80",
    "region_code": "32",
    "postal_code": "80250"
  },
  {
    "name": "Soyécourt",
    "code": "80741",
    "epci_code": "200070928",
    "departement_code": "80",
    "region_code": "32",
    "postal_code": "80200"
  },
  {
    "name": "Surcamps",
    "code": "80742",
    "epci_code": "200071223",
    "departement_code": "80",
    "region_code": "32",
    "postal_code": "80620"
  },
  {
    "name": "Suzanne",
    "code": "80743",
    "epci_code": "248000747",
    "departement_code": "80",
    "region_code": "32",
    "postal_code": "80340"
  },
  {
    "name": "Tailly",
    "code": "80744",
    "epci_code": "200071181",
    "departement_code": "80",
    "region_code": "32",
    "postal_code": "80270"
  },
  {
    "name": "Talmas",
    "code": "80746",
    "epci_code": "200070951",
    "departement_code": "80",
    "region_code": "32",
    "postal_code": "80260"
  },
  {
    "name": "Templeux-la-Fosse",
    "code": "80747",
    "epci_code": "200037059",
    "departement_code": "80",
    "region_code": "32",
    "postal_code": "80240"
  },
  {
    "name": "Templeux-le-Guérard",
    "code": "80748",
    "epci_code": "200037059",
    "departement_code": "80",
    "region_code": "32",
    "postal_code": "80240"
  },
  {
    "name": "Terramesnil",
    "code": "80749",
    "epci_code": "200070951",
    "departement_code": "80",
    "region_code": "32",
    "postal_code": "80600"
  },
  {
    "name": "Tertry",
    "code": "80750",
    "epci_code": "200070985",
    "departement_code": "80",
    "region_code": "32",
    "postal_code": "80200"
  },
  {
    "name": "Thennes",
    "code": "80751",
    "epci_code": "200070969",
    "departement_code": "80",
    "region_code": "32",
    "postal_code": "80110"
  },
  {
    "name": "Thézy-Glimont",
    "code": "80752",
    "epci_code": "248000531",
    "departement_code": "80",
    "region_code": "32",
    "postal_code": "80440"
  },
  {
    "name": "Thiepval",
    "code": "80753",
    "epci_code": "248000747",
    "departement_code": "80",
    "region_code": "32",
    "postal_code": "80300"
  },
  {
    "name": "Thieulloy-l’Abbaye",
    "code": "80754",
    "epci_code": "200071181",
    "departement_code": "80",
    "region_code": "32",
    "postal_code": "80640"
  },
  {
    "name": "Thieulloy-la-Ville",
    "code": "80755",
    "epci_code": "200071181",
    "departement_code": "80",
    "region_code": "32",
    "postal_code": "80290"
  },
  {
    "name": "Thièvres",
    "code": "80756",
    "epci_code": "248000747",
    "departement_code": "80",
    "region_code": "32",
    "postal_code": "80560"
  },
  {
    "name": "Thoix",
    "code": "80757",
    "epci_code": "200071181",
    "departement_code": "80",
    "region_code": "32",
    "postal_code": "80160"
  },
  {
    "name": "Thory",
    "code": "80758",
    "epci_code": "200070969",
    "departement_code": "80",
    "region_code": "32",
    "postal_code": "80250"
  },
  {
    "name": "Tilloloy",
    "code": "80759",
    "epci_code": "200070977",
    "departement_code": "80",
    "region_code": "32",
    "postal_code": "80700"
  },
  {
    "name": "Tilloy-Floriville",
    "code": "80760",
    "epci_code": "200069722",
    "departement_code": "80",
    "region_code": "32",
    "postal_code": "80220"
  },
  {
    "name": "Tincourt-Boucly",
    "code": "80762",
    "epci_code": "200037059",
    "departement_code": "80",
    "region_code": "32",
    "postal_code": "80240"
  },
  {
    "name": "Le Titre",
    "code": "80763",
    "epci_code": "200070936",
    "departement_code": "80",
    "region_code": "32",
    "postal_code": "80132"
  },
  {
    "name": "Tœufles",
    "code": "80764",
    "epci_code": "200070944",
    "departement_code": "80",
    "region_code": "32",
    "postal_code": "80870"
  },
  {
    "name": "Tours-en-Vimeu",
    "code": "80765",
    "epci_code": "200070944",
    "departement_code": "80",
    "region_code": "32",
    "postal_code": "80210"
  },
  {
    "name": "Toutencourt",
    "code": "80766",
    "epci_code": "248000747",
    "departement_code": "80",
    "region_code": "32",
    "postal_code": "80560"
  },
  {
    "name": "Le Translay",
    "code": "80767",
    "epci_code": "200071181",
    "departement_code": "80",
    "region_code": "32",
    "postal_code": "80140"
  },
  {
    "name": "Treux",
    "code": "80769",
    "epci_code": "248000499",
    "departement_code": "80",
    "region_code": "32",
    "postal_code": "80300"
  },
  {
    "name": "Tully",
    "code": "80770",
    "epci_code": "200070944",
    "departement_code": "80",
    "region_code": "32",
    "postal_code": "80130"
  },
  {
    "name": "Ugny-l’Équipée",
    "code": "80771",
    "epci_code": "200070985",
    "departement_code": "80",
    "region_code": "32",
    "postal_code": "80400"
  },
  {
    "name": "Vadencourt",
    "code": "80773",
    "epci_code": "200070951",
    "departement_code": "80",
    "region_code": "32",
    "postal_code": "80560"
  },
  {
    "name": "Vaire-sous-Corbie",
    "code": "80774",
    "epci_code": "248000499",
    "departement_code": "80",
    "region_code": "32",
    "postal_code": "80800"
  },
  {
    "name": "Valines",
    "code": "80775",
    "epci_code": "200070944",
    "departement_code": "80",
    "region_code": "32",
    "postal_code": "80210"
  },
  {
    "name": "Varennes",
    "code": "80776",
    "epci_code": "248000747",
    "departement_code": "80",
    "region_code": "32",
    "postal_code": "80560"
  },
  {
    "name": "Vauchelles-lès-Authie",
    "code": "80777",
    "epci_code": "248000747",
    "departement_code": "80",
    "region_code": "32",
    "postal_code": "80560"
  },
  {
    "name": "Vauchelles-lès-Domart",
    "code": "80778",
    "epci_code": "200071223",
    "departement_code": "80",
    "region_code": "32",
    "postal_code": "80620"
  },
  {
    "name": "Vauchelles-les-Quesnoy",
    "code": "80779",
    "epci_code": "200070993",
    "departement_code": "80",
    "region_code": "32",
    "postal_code": "80132"
  },
  {
    "name": "Vaudricourt",
    "code": "80780",
    "epci_code": "200070993",
    "departement_code": "80",
    "region_code": "32",
    "postal_code": "80230"
  },
  {
    "name": "Vauvillers",
    "code": "80781",
    "epci_code": "200070928",
    "departement_code": "80",
    "region_code": "32",
    "postal_code": "80131"
  },
  {
    "name": "Vaux-en-Amiénois",
    "code": "80782",
    "epci_code": "248000531",
    "departement_code": "80",
    "region_code": "32",
    "postal_code": "80260"
  },
  {
    "name": "Vaux-Marquenneville",
    "code": "80783",
    "epci_code": "200070993",
    "departement_code": "80",
    "region_code": "32",
    "postal_code": "80140"
  },
  {
    "name": "Vaux-sur-Somme",
    "code": "80784",
    "epci_code": "248000499",
    "departement_code": "80",
    "region_code": "32",
    "postal_code": "80800"
  },
  {
    "name": "Vecquemont",
    "code": "80785",
    "epci_code": "248000499",
    "departement_code": "80",
    "region_code": "32",
    "postal_code": "80800"
  },
  {
    "name": "Velennes",
    "code": "80786",
    "epci_code": "200071181",
    "departement_code": "80",
    "region_code": "32",
    "postal_code": "80160"
  },
  {
    "name": "Vercourt",
    "code": "80787",
    "epci_code": "200070936",
    "departement_code": "80",
    "region_code": "32",
    "postal_code": "80120"
  },
  {
    "name": "Vergies",
    "code": "80788",
    "epci_code": "200071181",
    "departement_code": "80",
    "region_code": "32",
    "postal_code": "80270"
  },
  {
    "name": "Vermandovillers",
    "code": "80789",
    "epci_code": "200070928",
    "departement_code": "80",
    "region_code": "32",
    "postal_code": "80320"
  },
  {
    "name": "Verpillières",
    "code": "80790",
    "epci_code": "200070977",
    "departement_code": "80",
    "region_code": "32",
    "postal_code": "80700"
  },
  {
    "name": "Vers-sur-Selle",
    "code": "80791",
    "epci_code": "248000531",
    "departement_code": "80",
    "region_code": "32",
    "postal_code": "80480"
  },
  {
    "name": "La Vicogne",
    "code": "80792",
    "epci_code": "200070951",
    "departement_code": "80",
    "region_code": "32",
    "postal_code": "80260"
  },
  {
    "name": "Vignacourt",
    "code": "80793",
    "epci_code": "200071223",
    "departement_code": "80",
    "region_code": "32",
    "postal_code": "80650"
  },
  {
    "name": "Villecourt",
    "code": "80794",
    "epci_code": "200070985",
    "departement_code": "80",
    "region_code": "32",
    "postal_code": "80190"
  },
  {
    "name": "Ville-le-Marclet",
    "code": "80795",
    "epci_code": "200071223",
    "departement_code": "80",
    "region_code": "32",
    "postal_code": "80420"
  },
  {
    "name": "Villeroy",
    "code": "80796",
    "epci_code": "200071181",
    "departement_code": "80",
    "region_code": "32",
    "postal_code": "80140"
  },
  {
    "name": "Villers-aux-Érables",
    "code": "80797",
    "epci_code": "200070969",
    "departement_code": "80",
    "region_code": "32",
    "postal_code": "80110"
  },
  {
    "name": "Villers-Bocage",
    "code": "80798",
    "epci_code": "200070951",
    "departement_code": "80",
    "region_code": "32",
    "postal_code": "80260"
  },
  {
    "name": "Villers-Bretonneux",
    "code": "80799",
    "epci_code": "248000499",
    "departement_code": "80",
    "region_code": "32",
    "postal_code": "80800"
  },
  {
    "name": "Villers-Campsart",
    "code": "80800",
    "epci_code": "200071181",
    "departement_code": "80",
    "region_code": "32",
    "postal_code": "80140"
  },
  {
    "name": "Villers-Carbonnel",
    "code": "80801",
    "epci_code": "200037059",
    "departement_code": "80",
    "region_code": "32",
    "postal_code": "80200"
  },
  {
    "name": "Villers-Faucon",
    "code": "80802",
    "epci_code": "200037059",
    "departement_code": "80",
    "region_code": "32",
    "postal_code": "80240"
  },
  {
    "name": "Villers-lès-Roye",
    "code": "80803",
    "epci_code": "200070977",
    "departement_code": "80",
    "region_code": "32",
    "postal_code": "80700"
  },
  {
    "name": "Villers-sous-Ailly",
    "code": "80804",
    "epci_code": "200070936",
    "departement_code": "80",
    "region_code": "32",
    "postal_code": "80690"
  },
  {
    "name": "Villers-Tournelle",
    "code": "80805",
    "epci_code": "200070977",
    "departement_code": "80",
    "region_code": "32",
    "postal_code": "80500"
  },
  {
    "name": "Villers-sur-Authie",
    "code": "80806",
    "epci_code": "200070936",
    "departement_code": "80",
    "region_code": "32",
    "postal_code": "80120"
  },
  {
    "name": "Ville-sur-Ancre",
    "code": "80807",
    "epci_code": "248000747",
    "departement_code": "80",
    "region_code": "32",
    "postal_code": "80300"
  },
  {
    "name": "Vironchaux",
    "code": "80808",
    "epci_code": "200070936",
    "departement_code": "80",
    "region_code": "32",
    "postal_code": "80150"
  },
  {
    "name": "Vismes",
    "code": "80809",
    "epci_code": "200069722",
    "departement_code": "80",
    "region_code": "32",
    "postal_code": "80140"
  },
  {
    "name": "Vitz-sur-Authie",
    "code": "80810",
    "epci_code": "200069672",
    "departement_code": "80",
    "region_code": "32",
    "postal_code": "80150"
  },
  {
    "name": "Voyennes",
    "code": "80811",
    "epci_code": "200070985",
    "departement_code": "80",
    "region_code": "32",
    "postal_code": "80400"
  },
  {
    "name": "Vraignes-en-Vermandois",
    "code": "80812",
    "epci_code": "200037059",
    "departement_code": "80",
    "region_code": "32",
    "postal_code": "80240"
  },
  {
    "name": "Vraignes-lès-Hornoy",
    "code": "80813",
    "epci_code": "200071181",
    "departement_code": "80",
    "region_code": "32",
    "postal_code": "80640"
  },
  {
    "name": "Vrély",
    "code": "80814",
    "epci_code": "200070928",
    "departement_code": "80",
    "region_code": "32",
    "postal_code": "80170"
  },
  {
    "name": "Vron",
    "code": "80815",
    "epci_code": "200070936",
    "departement_code": "80",
    "region_code": "32",
    "postal_code": "80120"
  },
  {
    "name": "Wargnies",
    "code": "80819",
    "epci_code": "200070951",
    "departement_code": "80",
    "region_code": "32",
    "postal_code": "80670"
  },
  {
    "name": "Warloy-Baillon",
    "code": "80820",
    "epci_code": "248000499",
    "departement_code": "80",
    "region_code": "32",
    "postal_code": "80300"
  },
  {
    "name": "Warlus",
    "code": "80821",
    "epci_code": "200071181",
    "departement_code": "80",
    "region_code": "32",
    "postal_code": "80270"
  },
  {
    "name": "Warsy",
    "code": "80822",
    "epci_code": "200070977",
    "departement_code": "80",
    "region_code": "32",
    "postal_code": "80500"
  },
  {
    "name": "Warvillers",
    "code": "80823",
    "epci_code": "200070928",
    "departement_code": "80",
    "region_code": "32",
    "postal_code": "80170"
  },
  {
    "name": "Wiencourt-l’Équipée",
    "code": "80824",
    "epci_code": "200070928",
    "departement_code": "80",
    "region_code": "32",
    "postal_code": "80170"
  },
  {
    "name": "Wiry-au-Mont",
    "code": "80825",
    "epci_code": "200070993",
    "departement_code": "80",
    "region_code": "32",
    "postal_code": "80270"
  },
  {
    "name": "Woignarue",
    "code": "80826",
    "epci_code": "247600588",
    "departement_code": "80",
    "region_code": "32",
    "postal_code": "80460"
  },
  {
    "name": "Woincourt",
    "code": "80827",
    "epci_code": "200070944",
    "departement_code": "80",
    "region_code": "32",
    "postal_code": "80520"
  },
  {
    "name": "Woirel",
    "code": "80828",
    "epci_code": "200071181",
    "departement_code": "80",
    "region_code": "32",
    "postal_code": "80140"
  },
  {
    "name": "Y",
    "code": "80829",
    "epci_code": "200070985",
    "departement_code": "80",
    "region_code": "32",
    "postal_code": "80190"
  },
  {
    "name": "Yvrench",
    "code": "80832",
    "epci_code": "200070936",
    "departement_code": "80",
    "region_code": "32",
    "postal_code": "80150"
  },
  {
    "name": "Yvrencheux",
    "code": "80833",
    "epci_code": "200070936",
    "departement_code": "80",
    "region_code": "32",
    "postal_code": "80150"
  },
  {
    "name": "Yzengremer",
    "code": "80834",
    "epci_code": "200070944",
    "departement_code": "80",
    "region_code": "32",
    "postal_code": "80520"
  },
  {
    "name": "Yzeux",
    "code": "80835",
    "epci_code": "200071223",
    "departement_code": "80",
    "region_code": "32",
    "postal_code": "80310"
  },
  {
    "name": "Yonval",
    "code": "80836",
    "epci_code": "200070993",
    "departement_code": "80",
    "region_code": "32",
    "postal_code": "80132"
  }
]