[
  {
    "name": "Achères",
    "code": "18001",
    "epci_code": "200066330",
    "departement_code": "18",
    "region_code": "24",
    "postal_code": "18250"
  },
  {
    "name": "Ainay-le-Vieil",
    "code": "18002",
    "epci_code": "200049484",
    "departement_code": "18",
    "region_code": "24",
    "postal_code": "18200"
  },
  {
    "name": "Les Aix-d’Angillon",
    "code": "18003",
    "epci_code": "200066330",
    "departement_code": "18",
    "region_code": "24",
    "postal_code": "18220"
  },
  {
    "name": "Allogny",
    "code": "18004",
    "epci_code": "200066330",
    "departement_code": "18",
    "region_code": "24",
    "postal_code": "18110"
  },
  {
    "name": "Allouis",
    "code": "18005",
    "epci_code": "200066330",
    "departement_code": "18",
    "region_code": "24",
    "postal_code": "18500"
  },
  {
    "name": "Annoix",
    "code": "18006",
    "epci_code": "241800507",
    "departement_code": "18",
    "region_code": "24",
    "postal_code": "18340"
  },
  {
    "name": "Apremont-sur-Allier",
    "code": "18007",
    "epci_code": "200011781",
    "departement_code": "18",
    "region_code": "24",
    "postal_code": "18150"
  },
  {
    "name": "Arçay",
    "code": "18008",
    "epci_code": "241800507",
    "departement_code": "18",
    "region_code": "24",
    "postal_code": "18340"
  },
  {
    "name": "Arcomps",
    "code": "18009",
    "epci_code": "200049484",
    "departement_code": "18",
    "region_code": "24",
    "postal_code": "18200"
  },
  {
    "name": "Ardenais",
    "code": "18010",
    "epci_code": "200049484",
    "departement_code": "18",
    "region_code": "24",
    "postal_code": "18170"
  },
  {
    "name": "Argent-sur-Sauldre",
    "code": "18011",
    "epci_code": "200000933",
    "departement_code": "18",
    "region_code": "24",
    "postal_code": "18410"
  },
  {
    "name": "Argenvières",
    "code": "18012",
    "epci_code": "200032514",
    "departement_code": "18",
    "region_code": "24",
    "postal_code": "18140"
  },
  {
    "name": "Arpheuilles",
    "code": "18013",
    "epci_code": "200036135",
    "departement_code": "18",
    "region_code": "24",
    "postal_code": "18200"
  },
  {
    "name": "Assigny",
    "code": "18014",
    "epci_code": "200069227",
    "departement_code": "18",
    "region_code": "24",
    "postal_code": "18260"
  },
  {
    "name": "Aubigny-sur-Nère",
    "code": "18015",
    "epci_code": "200000933",
    "departement_code": "18",
    "region_code": "24",
    "postal_code": "18700"
  },
  {
    "name": "Aubinges",
    "code": "18016",
    "epci_code": "200066330",
    "departement_code": "18",
    "region_code": "24",
    "postal_code": "18220"
  },
  {
    "name": "Augy-sur-Aubois",
    "code": "18017",
    "epci_code": "241800432",
    "departement_code": "18",
    "region_code": "24",
    "postal_code": "18600"
  },
  {
    "name": "Avord",
    "code": "18018",
    "epci_code": "241800374",
    "departement_code": "18",
    "region_code": "24",
    "postal_code": "18520"
  },
  {
    "name": "Azy",
    "code": "18019",
    "epci_code": "200066330",
    "departement_code": "18",
    "region_code": "24",
    "postal_code": "18220"
  },
  {
    "name": "Bannay",
    "code": "18020",
    "epci_code": "200069227",
    "departement_code": "18",
    "region_code": "24",
    "postal_code": "18300"
  },
  {
    "name": "Bannegon",
    "code": "18021",
    "epci_code": "241800424",
    "departement_code": "18",
    "region_code": "24",
    "postal_code": "18210"
  },
  {
    "name": "Barlieu",
    "code": "18022",
    "epci_code": "200069227",
    "departement_code": "18",
    "region_code": "24",
    "postal_code": "18260"
  },
  {
    "name": "Baugy",
    "code": "18023",
    "epci_code": "241800374",
    "departement_code": "18",
    "region_code": "24",
    "postal_code": "18800"
  },
  {
    "name": "Beddes",
    "code": "18024",
    "epci_code": "200049484",
    "departement_code": "18",
    "region_code": "24",
    "postal_code": "18370"
  },
  {
    "name": "Beffes",
    "code": "18025",
    "epci_code": "200032514",
    "departement_code": "18",
    "region_code": "24",
    "postal_code": "18320"
  },
  {
    "name": "Belleville-sur-Loire",
    "code": "18026",
    "epci_code": "200069227",
    "departement_code": "18",
    "region_code": "24",
    "postal_code": "18240"
  },
  {
    "name": "Bengy-sur-Craon",
    "code": "18027",
    "epci_code": "200007177",
    "departement_code": "18",
    "region_code": "24",
    "postal_code": "18520"
  },
  {
    "name": "Berry-Bouy",
    "code": "18028",
    "epci_code": "241800507",
    "departement_code": "18",
    "region_code": "24",
    "postal_code": "18500"
  },
  {
    "name": "Bessais-le-Fromental",
    "code": "18029",
    "epci_code": "200036135",
    "departement_code": "18",
    "region_code": "24",
    "postal_code": "18210"
  },
  {
    "name": "Blancafort",
    "code": "18030",
    "epci_code": "200000933",
    "departement_code": "18",
    "region_code": "24",
    "postal_code": "18410"
  },
  {
    "name": "Blet",
    "code": "18031",
    "epci_code": "200007177",
    "departement_code": "18",
    "region_code": "24",
    "postal_code": "18350"
  },
  {
    "name": "Boulleret",
    "code": "18032",
    "epci_code": "200069227",
    "departement_code": "18",
    "region_code": "24",
    "postal_code": "18240"
  },
  {
    "name": "Bourges",
    "code": "18033",
    "epci_code": "241800507",
    "departement_code": "18",
    "region_code": "24",
    "postal_code": "18000"
  },
  {
    "name": "Bouzais",
    "code": "18034",
    "epci_code": "200036135",
    "departement_code": "18",
    "region_code": "24",
    "postal_code": "18200"
  },
  {
    "name": "Brécy",
    "code": "18035",
    "epci_code": "200066330",
    "departement_code": "18",
    "region_code": "24",
    "postal_code": "18220"
  },
  {
    "name": "Brinay",
    "code": "18036",
    "epci_code": "200070571",
    "departement_code": "18",
    "region_code": "24",
    "postal_code": "18120"
  },
  {
    "name": "Brinon-sur-Sauldre",
    "code": "18037",
    "epci_code": "200000933",
    "departement_code": "18",
    "region_code": "24",
    "postal_code": "18410"
  },
  {
    "name": "Bruère-Allichamps",
    "code": "18038",
    "epci_code": "200036135",
    "departement_code": "18",
    "region_code": "24",
    "postal_code": "18200"
  },
  {
    "name": "Bué",
    "code": "18039",
    "epci_code": "200069227",
    "departement_code": "18",
    "region_code": "24",
    "postal_code": "18300"
  },
  {
    "name": "Bussy",
    "code": "18040",
    "epci_code": "241800424",
    "departement_code": "18",
    "region_code": "24",
    "postal_code": "18130"
  },
  {
    "name": "La Celette",
    "code": "18041",
    "epci_code": "200049484",
    "departement_code": "18",
    "region_code": "24",
    "postal_code": "18360"
  },
  {
    "name": "La Celle",
    "code": "18042",
    "epci_code": "200036135",
    "departement_code": "18",
    "region_code": "24",
    "postal_code": "18200"
  },
  {
    "name": "La Celle-Condé",
    "code": "18043",
    "epci_code": "200027076",
    "departement_code": "18",
    "region_code": "24",
    "postal_code": "18160"
  },
  {
    "name": "Cerbois",
    "code": "18044",
    "epci_code": "200070571",
    "departement_code": "18",
    "region_code": "24",
    "postal_code": "18120"
  },
  {
    "name": "Chalivoy-Milon",
    "code": "18045",
    "epci_code": "241800424",
    "departement_code": "18",
    "region_code": "24",
    "postal_code": "18130"
  },
  {
    "name": "Chambon",
    "code": "18046",
    "epci_code": "200027076",
    "departement_code": "18",
    "region_code": "24",
    "postal_code": "18190"
  },
  {
    "name": "La Chapelle-d’Angillon",
    "code": "18047",
    "epci_code": "200000933",
    "departement_code": "18",
    "region_code": "24",
    "postal_code": "18380"
  },
  {
    "name": "La Chapelle-Hugon",
    "code": "18048",
    "epci_code": "200011781",
    "departement_code": "18",
    "region_code": "24",
    "postal_code": "18150"
  },
  {
    "name": "La Chapelle-Montlinard",
    "code": "18049",
    "epci_code": "200068088",
    "departement_code": "18",
    "region_code": "24",
    "postal_code": "18140"
  },
  {
    "name": "La Chapelle-Saint-Ursin",
    "code": "18050",
    "epci_code": "241800507",
    "departement_code": "18",
    "region_code": "24",
    "postal_code": "18570"
  },
  {
    "name": "La Chapelotte",
    "code": "18051",
    "epci_code": "200066330",
    "departement_code": "18",
    "region_code": "24",
    "postal_code": "18250"
  },
  {
    "name": "Charenton-du-Cher",
    "code": "18052",
    "epci_code": "200036135",
    "departement_code": "18",
    "region_code": "24",
    "postal_code": "18210"
  },
  {
    "name": "Charentonnay",
    "code": "18053",
    "epci_code": "200032514",
    "departement_code": "18",
    "region_code": "24",
    "postal_code": "18140"
  },
  {
    "name": "Charly",
    "code": "18054",
    "epci_code": "200007177",
    "departement_code": "18",
    "region_code": "24",
    "postal_code": "18350"
  },
  {
    "name": "Chârost",
    "code": "18055",
    "epci_code": "243600236",
    "departement_code": "18",
    "region_code": "24",
    "postal_code": "18290"
  },
  {
    "name": "Chassy",
    "code": "18056",
    "epci_code": "200007177",
    "departement_code": "18",
    "region_code": "24",
    "postal_code": "18800"
  },
  {
    "name": "Châteaumeillant",
    "code": "18057",
    "epci_code": "200049484",
    "departement_code": "18",
    "region_code": "24",
    "postal_code": "18370"
  },
  {
    "name": "Châteauneuf-sur-Cher",
    "code": "18058",
    "epci_code": "200027076",
    "departement_code": "18",
    "region_code": "24",
    "postal_code": "18190"
  },
  {
    "name": "Le Châtelet",
    "code": "18059",
    "epci_code": "200049484",
    "departement_code": "18",
    "region_code": "24",
    "postal_code": "18170"
  },
  {
    "name": "Chaumont",
    "code": "18060",
    "epci_code": "241800432",
    "departement_code": "18",
    "region_code": "24",
    "postal_code": "18350"
  },
  {
    "name": "Chaumoux-Marcilly",
    "code": "18061",
    "epci_code": "241800374",
    "departement_code": "18",
    "region_code": "24",
    "postal_code": "18140"
  },
  {
    "name": "Le Chautay",
    "code": "18062",
    "epci_code": "200011781",
    "departement_code": "18",
    "region_code": "24",
    "postal_code": "18150"
  },
  {
    "name": "Chavannes",
    "code": "18063",
    "epci_code": "200027076",
    "departement_code": "18",
    "region_code": "24",
    "postal_code": "18190"
  },
  {
    "name": "Chéry",
    "code": "18064",
    "epci_code": "200070571",
    "departement_code": "18",
    "region_code": "24",
    "postal_code": "18120"
  },
  {
    "name": "Chezal-Benoît",
    "code": "18065",
    "epci_code": "243600236",
    "departement_code": "18",
    "region_code": "24",
    "postal_code": "18160"
  },
  {
    "name": "Civray",
    "code": "18066",
    "epci_code": "241800457",
    "departement_code": "18",
    "region_code": "24",
    "postal_code": "18290"
  },
  {
    "name": "Clémont",
    "code": "18067",
    "epci_code": "200000933",
    "departement_code": "18",
    "region_code": "24",
    "postal_code": "18410"
  },
  {
    "name": "Cogny",
    "code": "18068",
    "epci_code": "241800424",
    "departement_code": "18",
    "region_code": "24",
    "postal_code": "18130"
  },
  {
    "name": "Colombiers",
    "code": "18069",
    "epci_code": "200036135",
    "departement_code": "18",
    "region_code": "24",
    "postal_code": "18200"
  },
  {
    "name": "Concressault",
    "code": "18070",
    "epci_code": "200069227",
    "departement_code": "18",
    "region_code": "24",
    "postal_code": "18260"
  },
  {
    "name": "Contres",
    "code": "18071",
    "epci_code": "241800424",
    "departement_code": "18",
    "region_code": "24",
    "postal_code": "18130"
  },
  {
    "name": "Cornusse",
    "code": "18072",
    "epci_code": "200007177",
    "departement_code": "18",
    "region_code": "24",
    "postal_code": "18350"
  },
  {
    "name": "Corquoy",
    "code": "18073",
    "epci_code": "200027076",
    "departement_code": "18",
    "region_code": "24",
    "postal_code": "18190"
  },
  {
    "name": "Corquoy",
    "code": "18073",
    "epci_code": "200027076",
    "departement_code": "18",
    "region_code": "24",
    "postal_code": "18340"
  },
  {
    "name": "Couargues",
    "code": "18074",
    "epci_code": "200069227",
    "departement_code": "18",
    "region_code": "24",
    "postal_code": "18300"
  },
  {
    "name": "Cours-les-Barres",
    "code": "18075",
    "epci_code": "200011781",
    "departement_code": "18",
    "region_code": "24",
    "postal_code": "18320"
  },
  {
    "name": "Coust",
    "code": "18076",
    "epci_code": "200036135",
    "departement_code": "18",
    "region_code": "24",
    "postal_code": "18210"
  },
  {
    "name": "Couy",
    "code": "18077",
    "epci_code": "200032514",
    "departement_code": "18",
    "region_code": "24",
    "postal_code": "18140"
  },
  {
    "name": "Crézançay-sur-Cher",
    "code": "18078",
    "epci_code": "200027076",
    "departement_code": "18",
    "region_code": "24",
    "postal_code": "18190"
  },
  {
    "name": "Crézancy-en-Sancerre",
    "code": "18079",
    "epci_code": "200069227",
    "departement_code": "18",
    "region_code": "24",
    "postal_code": "18300"
  },
  {
    "name": "Croisy",
    "code": "18080",
    "epci_code": "200007177",
    "departement_code": "18",
    "region_code": "24",
    "postal_code": "18350"
  },
  {
    "name": "Crosses",
    "code": "18081",
    "epci_code": "241800374",
    "departement_code": "18",
    "region_code": "24",
    "postal_code": "18340"
  },
  {
    "name": "Cuffy",
    "code": "18082",
    "epci_code": "200011781",
    "departement_code": "18",
    "region_code": "24",
    "postal_code": "18150"
  },
  {
    "name": "Culan",
    "code": "18083",
    "epci_code": "200049484",
    "departement_code": "18",
    "region_code": "24",
    "postal_code": "18270"
  },
  {
    "name": "Dampierre-en-Crot",
    "code": "18084",
    "epci_code": "200069227",
    "departement_code": "18",
    "region_code": "24",
    "postal_code": "18260"
  },
  {
    "name": "Dampierre-en-Graçay",
    "code": "18085",
    "epci_code": "200090561",
    "departement_code": "18",
    "region_code": "24",
    "postal_code": "18310"
  },
  {
    "name": "Drevant",
    "code": "18086",
    "epci_code": "200036135",
    "departement_code": "18",
    "region_code": "24",
    "postal_code": "18200"
  },
  {
    "name": "Dun-sur-Auron",
    "code": "18087",
    "epci_code": "241800424",
    "departement_code": "18",
    "region_code": "24",
    "postal_code": "18130"
  },
  {
    "name": "Ennordres",
    "code": "18088",
    "epci_code": "200000933",
    "departement_code": "18",
    "region_code": "24",
    "postal_code": "18380"
  },
  {
    "name": "Épineuil-le-Fleuriel",
    "code": "18089",
    "epci_code": "200049484",
    "departement_code": "18",
    "region_code": "24",
    "postal_code": "18360"
  },
  {
    "name": "Étréchy",
    "code": "18090",
    "epci_code": "241800374",
    "departement_code": "18",
    "region_code": "24",
    "postal_code": "18800"
  },
  {
    "name": "Farges-Allichamps",
    "code": "18091",
    "epci_code": "200036135",
    "departement_code": "18",
    "region_code": "24",
    "postal_code": "18200"
  },
  {
    "name": "Farges-en-Septaine",
    "code": "18092",
    "epci_code": "241800374",
    "departement_code": "18",
    "region_code": "24",
    "postal_code": "18800"
  },
  {
    "name": "Faverdines",
    "code": "18093",
    "epci_code": "200049484",
    "departement_code": "18",
    "region_code": "24",
    "postal_code": "18360"
  },
  {
    "name": "Feux",
    "code": "18094",
    "epci_code": "200069227",
    "departement_code": "18",
    "region_code": "24",
    "postal_code": "18300"
  },
  {
    "name": "Flavigny",
    "code": "18095",
    "epci_code": "200007177",
    "departement_code": "18",
    "region_code": "24",
    "postal_code": "18350"
  },
  {
    "name": "Foëcy",
    "code": "18096",
    "epci_code": "200090561",
    "departement_code": "18",
    "region_code": "24",
    "postal_code": "18500"
  },
  {
    "name": "Fussy",
    "code": "18097",
    "epci_code": "200066330",
    "departement_code": "18",
    "region_code": "24",
    "postal_code": "18110"
  },
  {
    "name": "Gardefort",
    "code": "18098",
    "epci_code": "200069227",
    "departement_code": "18",
    "region_code": "24",
    "postal_code": "18300"
  },
  {
    "name": "Garigny",
    "code": "18099",
    "epci_code": "200032514",
    "departement_code": "18",
    "region_code": "24",
    "postal_code": "18140"
  },
  {
    "name": "Genouilly",
    "code": "18100",
    "epci_code": "200090561",
    "departement_code": "18",
    "region_code": "24",
    "postal_code": "18310"
  },
  {
    "name": "Germigny-l’Exempt",
    "code": "18101",
    "epci_code": "200011781",
    "departement_code": "18",
    "region_code": "24",
    "postal_code": "18150"
  },
  {
    "name": "Givardon",
    "code": "18102",
    "epci_code": "241800432",
    "departement_code": "18",
    "region_code": "24",
    "postal_code": "18600"
  },
  {
    "name": "Graçay",
    "code": "18103",
    "epci_code": "200090561",
    "departement_code": "18",
    "region_code": "24",
    "postal_code": "18310"
  },
  {
    "name": "Groises",
    "code": "18104",
    "epci_code": "200032514",
    "departement_code": "18",
    "region_code": "24",
    "postal_code": "18140"
  },
  {
    "name": "Gron",
    "code": "18105",
    "epci_code": "241800374",
    "departement_code": "18",
    "region_code": "24",
    "postal_code": "18800"
  },
  {
    "name": "Grossouvre",
    "code": "18106",
    "epci_code": "241800432",
    "departement_code": "18",
    "region_code": "24",
    "postal_code": "18600"
  },
  {
    "name": "La Groutte",
    "code": "18107",
    "epci_code": "200036135",
    "departement_code": "18",
    "region_code": "24",
    "postal_code": "18200"
  },
  {
    "name": "La Guerche-sur-l’Aubois",
    "code": "18108",
    "epci_code": "200011781",
    "departement_code": "18",
    "region_code": "24",
    "postal_code": "18150"
  },
  {
    "name": "Henrichemont",
    "code": "18109",
    "epci_code": "200066330",
    "departement_code": "18",
    "region_code": "24",
    "postal_code": "18250"
  },
  {
    "name": "Herry",
    "code": "18110",
    "epci_code": "200032514",
    "departement_code": "18",
    "region_code": "24",
    "postal_code": "18140"
  },
  {
    "name": "Humbligny",
    "code": "18111",
    "epci_code": "200066330",
    "departement_code": "18",
    "region_code": "24",
    "postal_code": "18250"
  },
  {
    "name": "Ids-Saint-Roch",
    "code": "18112",
    "epci_code": "200049484",
    "departement_code": "18",
    "region_code": "24",
    "postal_code": "18170"
  },
  {
    "name": "Ignol",
    "code": "18113",
    "epci_code": "200007177",
    "departement_code": "18",
    "region_code": "24",
    "postal_code": "18350"
  },
  {
    "name": "Ineuil",
    "code": "18114",
    "epci_code": "200049484",
    "departement_code": "18",
    "region_code": "24",
    "postal_code": "18160"
  },
  {
    "name": "Ivoy-le-Pré",
    "code": "18115",
    "epci_code": "200000933",
    "departement_code": "18",
    "region_code": "24",
    "postal_code": "18380"
  },
  {
    "name": "Jalognes",
    "code": "18116",
    "epci_code": "200069227",
    "departement_code": "18",
    "region_code": "24",
    "postal_code": "18300"
  },
  {
    "name": "Jars",
    "code": "18117",
    "epci_code": "200069227",
    "departement_code": "18",
    "region_code": "24",
    "postal_code": "18260"
  },
  {
    "name": "Jouet-sur-l’Aubois",
    "code": "18118",
    "epci_code": "200011781",
    "departement_code": "18",
    "region_code": "24",
    "postal_code": "18320"
  },
  {
    "name": "Jussy-Champagne",
    "code": "18119",
    "epci_code": "241800374",
    "departement_code": "18",
    "region_code": "24",
    "postal_code": "18130"
  },
  {
    "name": "Jussy-le-Chaudrier",
    "code": "18120",
    "epci_code": "200032514",
    "departement_code": "18",
    "region_code": "24",
    "postal_code": "18140"
  },
  {
    "name": "Lantan",
    "code": "18121",
    "epci_code": "241800424",
    "departement_code": "18",
    "region_code": "24",
    "postal_code": "18130"
  },
  {
    "name": "Lapan",
    "code": "18122",
    "epci_code": "200027076",
    "departement_code": "18",
    "region_code": "24",
    "postal_code": "18340"
  },
  {
    "name": "Lazenay",
    "code": "18124",
    "epci_code": "200070571",
    "departement_code": "18",
    "region_code": "24",
    "postal_code": "18120"
  },
  {
    "name": "Léré",
    "code": "18125",
    "epci_code": "200069227",
    "departement_code": "18",
    "region_code": "24",
    "postal_code": "18240"
  },
  {
    "name": "Levet",
    "code": "18126",
    "epci_code": "200027076",
    "departement_code": "18",
    "region_code": "24",
    "postal_code": "18340"
  },
  {
    "name": "Lignières",
    "code": "18127",
    "epci_code": "200027076",
    "departement_code": "18",
    "region_code": "24",
    "postal_code": "18160"
  },
  {
    "name": "Limeux",
    "code": "18128",
    "epci_code": "200070571",
    "departement_code": "18",
    "region_code": "24",
    "postal_code": "18120"
  },
  {
    "name": "Lissay-Lochy",
    "code": "18129",
    "epci_code": "241800507",
    "departement_code": "18",
    "region_code": "24",
    "postal_code": "18340"
  },
  {
    "name": "Loye-sur-Arnon",
    "code": "18130",
    "epci_code": "200049484",
    "departement_code": "18",
    "region_code": "24",
    "postal_code": "18170"
  },
  {
    "name": "Lugny-Champagne",
    "code": "18132",
    "epci_code": "200032514",
    "departement_code": "18",
    "region_code": "24",
    "postal_code": "18140"
  },
  {
    "name": "Lunery",
    "code": "18133",
    "epci_code": "241800457",
    "departement_code": "18",
    "region_code": "24",
    "postal_code": "18400"
  },
  {
    "name": "Lury-sur-Arnon",
    "code": "18134",
    "epci_code": "200070571",
    "departement_code": "18",
    "region_code": "24",
    "postal_code": "18120"
  },
  {
    "name": "Maisonnais",
    "code": "18135",
    "epci_code": "200049484",
    "departement_code": "18",
    "region_code": "24",
    "postal_code": "18170"
  },
  {
    "name": "Marçais",
    "code": "18136",
    "epci_code": "200036135",
    "departement_code": "18",
    "region_code": "24",
    "postal_code": "18170"
  },
  {
    "name": "Mareuil-sur-Arnon",
    "code": "18137",
    "epci_code": "241800457",
    "departement_code": "18",
    "region_code": "24",
    "postal_code": "18290"
  },
  {
    "name": "Marmagne",
    "code": "18138",
    "epci_code": "241800507",
    "departement_code": "18",
    "region_code": "24",
    "postal_code": "18500"
  },
  {
    "name": "Marseilles-lès-Aubigny",
    "code": "18139",
    "epci_code": "200011781",
    "departement_code": "18",
    "region_code": "24",
    "postal_code": "18320"
  },
  {
    "name": "Massay",
    "code": "18140",
    "epci_code": "200090561",
    "departement_code": "18",
    "region_code": "24",
    "postal_code": "18120"
  },
  {
    "name": "Mehun-sur-Yèvre",
    "code": "18141",
    "epci_code": "241800507",
    "departement_code": "18",
    "region_code": "24",
    "postal_code": "18500"
  },
  {
    "name": "Meillant",
    "code": "18142",
    "epci_code": "200036135",
    "departement_code": "18",
    "region_code": "24",
    "postal_code": "18200"
  },
  {
    "name": "Menetou-Couture",
    "code": "18143",
    "epci_code": "200011781",
    "departement_code": "18",
    "region_code": "24",
    "postal_code": "18320"
  },
  {
    "name": "Menetou-Râtel",
    "code": "18144",
    "epci_code": "200069227",
    "departement_code": "18",
    "region_code": "24",
    "postal_code": "18300"
  },
  {
    "name": "Menetou-Salon",
    "code": "18145",
    "epci_code": "200066330",
    "departement_code": "18",
    "region_code": "24",
    "postal_code": "18510"
  },
  {
    "name": "Ménétréol-sous-Sancerre",
    "code": "18146",
    "epci_code": "200069227",
    "departement_code": "18",
    "region_code": "24",
    "postal_code": "18300"
  },
  {
    "name": "Ménétréol-sur-Sauldre",
    "code": "18147",
    "epci_code": "200000933",
    "departement_code": "18",
    "region_code": "24",
    "postal_code": "18700"
  },
  {
    "name": "Méreau",
    "code": "18148",
    "epci_code": "200070571",
    "departement_code": "18",
    "region_code": "24",
    "postal_code": "18120"
  },
  {
    "name": "Méry-ès-Bois",
    "code": "18149",
    "epci_code": "200000933",
    "departement_code": "18",
    "region_code": "24",
    "postal_code": "18380"
  },
  {
    "name": "Méry-sur-Cher",
    "code": "18150",
    "epci_code": "200090561",
    "departement_code": "18",
    "region_code": "24",
    "postal_code": "18100"
  },
  {
    "name": "Montigny",
    "code": "18151",
    "epci_code": "200066330",
    "departement_code": "18",
    "region_code": "24",
    "postal_code": "18250"
  },
  {
    "name": "Montlouis",
    "code": "18152",
    "epci_code": "200027076",
    "departement_code": "18",
    "region_code": "24",
    "postal_code": "18160"
  },
  {
    "name": "Morlac",
    "code": "18153",
    "epci_code": "200049484",
    "departement_code": "18",
    "region_code": "24",
    "postal_code": "18170"
  },
  {
    "name": "Mornay-Berry",
    "code": "18154",
    "epci_code": "200007177",
    "departement_code": "18",
    "region_code": "24",
    "postal_code": "18350"
  },
  {
    "name": "Mornay-sur-Allier",
    "code": "18155",
    "epci_code": "241800432",
    "departement_code": "18",
    "region_code": "24",
    "postal_code": "18600"
  },
  {
    "name": "Morogues",
    "code": "18156",
    "epci_code": "200066330",
    "departement_code": "18",
    "region_code": "24",
    "postal_code": "18220"
  },
  {
    "name": "Morthomiers",
    "code": "18157",
    "epci_code": "241800507",
    "departement_code": "18",
    "region_code": "24",
    "postal_code": "18570"
  },
  {
    "name": "Moulins-sur-Yèvre",
    "code": "18158",
    "epci_code": "200066330",
    "departement_code": "18",
    "region_code": "24",
    "postal_code": "18390"
  },
  {
    "name": "Nançay",
    "code": "18159",
    "epci_code": "200000933",
    "departement_code": "18",
    "region_code": "24",
    "postal_code": "18330"
  },
  {
    "name": "Nérondes",
    "code": "18160",
    "epci_code": "200007177",
    "departement_code": "18",
    "region_code": "24",
    "postal_code": "18350"
  },
  {
    "name": "Neuilly-en-Dun",
    "code": "18161",
    "epci_code": "241800432",
    "departement_code": "18",
    "region_code": "24",
    "postal_code": "18600"
  },
  {
    "name": "Neuilly-en-Sancerre",
    "code": "18162",
    "epci_code": "200066330",
    "departement_code": "18",
    "region_code": "24",
    "postal_code": "18250"
  },
  {
    "name": "Neuvy-Deux-Clochers",
    "code": "18163",
    "epci_code": "200066330",
    "departement_code": "18",
    "region_code": "24",
    "postal_code": "18250"
  },
  {
    "name": "Neuvy-le-Barrois",
    "code": "18164",
    "epci_code": "241800432",
    "departement_code": "18",
    "region_code": "24",
    "postal_code": "18600"
  },
  {
    "name": "Neuvy-sur-Barangeon",
    "code": "18165",
    "epci_code": "200090561",
    "departement_code": "18",
    "region_code": "24",
    "postal_code": "18330"
  },
  {
    "name": "Nohant-en-Goût",
    "code": "18166",
    "epci_code": "241800374",
    "departement_code": "18",
    "region_code": "24",
    "postal_code": "18390"
  },
  {
    "name": "Nohant-en-Graçay",
    "code": "18167",
    "epci_code": "200090561",
    "departement_code": "18",
    "region_code": "24",
    "postal_code": "18310"
  },
  {
    "name": "Le Noyer",
    "code": "18168",
    "epci_code": "200069227",
    "departement_code": "18",
    "region_code": "24",
    "postal_code": "18260"
  },
  {
    "name": "Nozières",
    "code": "18169",
    "epci_code": "200036135",
    "departement_code": "18",
    "region_code": "24",
    "postal_code": "18200"
  },
  {
    "name": "Oizon",
    "code": "18170",
    "epci_code": "200000933",
    "departement_code": "18",
    "region_code": "24",
    "postal_code": "18700"
  },
  {
    "name": "Orcenais",
    "code": "18171",
    "epci_code": "200036135",
    "departement_code": "18",
    "region_code": "24",
    "postal_code": "18200"
  },
  {
    "name": "Orval",
    "code": "18172",
    "epci_code": "200036135",
    "departement_code": "18",
    "region_code": "24",
    "postal_code": "18200"
  },
  {
    "name": "Osmery",
    "code": "18173",
    "epci_code": "241800424",
    "departement_code": "18",
    "region_code": "24",
    "postal_code": "18130"
  },
  {
    "name": "Osmery",
    "code": "18173",
    "epci_code": "241800424",
    "departement_code": "18",
    "region_code": "24",
    "postal_code": "18350"
  },
  {
    "name": "Osmoy",
    "code": "18174",
    "epci_code": "241800374",
    "departement_code": "18",
    "region_code": "24",
    "postal_code": "18390"
  },
  {
    "name": "Ourouer-les-Bourdelins",
    "code": "18175",
    "epci_code": "200007177",
    "departement_code": "18",
    "region_code": "24",
    "postal_code": "18350"
  },
  {
    "name": "Parassy",
    "code": "18176",
    "epci_code": "200066330",
    "departement_code": "18",
    "region_code": "24",
    "postal_code": "18220"
  },
  {
    "name": "Parnay",
    "code": "18177",
    "epci_code": "241800424",
    "departement_code": "18",
    "region_code": "24",
    "postal_code": "18130"
  },
  {
    "name": "La Perche",
    "code": "18178",
    "epci_code": "200049484",
    "departement_code": "18",
    "region_code": "24",
    "postal_code": "18200"
  },
  {
    "name": "Pigny",
    "code": "18179",
    "epci_code": "200066330",
    "departement_code": "18",
    "region_code": "24",
    "postal_code": "18110"
  },
  {
    "name": "Plaimpied-Givaudins",
    "code": "18180",
    "epci_code": "241800507",
    "departement_code": "18",
    "region_code": "24",
    "postal_code": "18340"
  },
  {
    "name": "Plou",
    "code": "18181",
    "epci_code": "241800457",
    "departement_code": "18",
    "region_code": "24",
    "postal_code": "18290"
  },
  {
    "name": "Poisieux",
    "code": "18182",
    "epci_code": "200070571",
    "departement_code": "18",
    "region_code": "24",
    "postal_code": "18290"
  },
  {
    "name": "Le Pondy",
    "code": "18183",
    "epci_code": "241800424",
    "departement_code": "18",
    "region_code": "24",
    "postal_code": "18210"
  },
  {
    "name": "Précy",
    "code": "18184",
    "epci_code": "200032514",
    "departement_code": "18",
    "region_code": "24",
    "postal_code": "18140"
  },
  {
    "name": "Presly",
    "code": "18185",
    "epci_code": "200000933",
    "departement_code": "18",
    "region_code": "24",
    "postal_code": "18380"
  },
  {
    "name": "Preuilly",
    "code": "18186",
    "epci_code": "200070571",
    "departement_code": "18",
    "region_code": "24",
    "postal_code": "18120"
  },
  {
    "name": "Préveranges",
    "code": "18187",
    "epci_code": "200049484",
    "departement_code": "18",
    "region_code": "24",
    "postal_code": "18370"
  },
  {
    "name": "Primelles",
    "code": "18188",
    "epci_code": "241800457",
    "departement_code": "18",
    "region_code": "24",
    "postal_code": "18400"
  },
  {
    "name": "Quantilly",
    "code": "18189",
    "epci_code": "200066330",
    "departement_code": "18",
    "region_code": "24",
    "postal_code": "18110"
  },
  {
    "name": "Quincy",
    "code": "18190",
    "epci_code": "200070571",
    "departement_code": "18",
    "region_code": "24",
    "postal_code": "18120"
  },
  {
    "name": "Raymond",
    "code": "18191",
    "epci_code": "241800424",
    "departement_code": "18",
    "region_code": "24",
    "postal_code": "18130"
  },
  {
    "name": "Reigny",
    "code": "18192",
    "epci_code": "200049484",
    "departement_code": "18",
    "region_code": "24",
    "postal_code": "18270"
  },
  {
    "name": "Rezay",
    "code": "18193",
    "epci_code": "200049484",
    "departement_code": "18",
    "region_code": "24",
    "postal_code": "18170"
  },
  {
    "name": "Rians",
    "code": "18194",
    "epci_code": "200066330",
    "departement_code": "18",
    "region_code": "24",
    "postal_code": "18220"
  },
  {
    "name": "Sagonne",
    "code": "18195",
    "epci_code": "241800432",
    "departement_code": "18",
    "region_code": "24",
    "postal_code": "18600"
  },
  {
    "name": "Saint-Aignan-des-Noyers",
    "code": "18196",
    "epci_code": "241800432",
    "departement_code": "18",
    "region_code": "24",
    "postal_code": "18600"
  },
  {
    "name": "Saint-Amand-Montrond",
    "code": "18197",
    "epci_code": "200036135",
    "departement_code": "18",
    "region_code": "24",
    "postal_code": "18200"
  },
  {
    "name": "Saint-Ambroix",
    "code": "18198",
    "epci_code": "243600236",
    "departement_code": "18",
    "region_code": "24",
    "postal_code": "18290"
  },
  {
    "name": "Saint-Baudel",
    "code": "18199",
    "epci_code": "200027076",
    "departement_code": "18",
    "region_code": "24",
    "postal_code": "18160"
  },
  {
    "name": "Saint-Bouize",
    "code": "18200",
    "epci_code": "200069227",
    "departement_code": "18",
    "region_code": "24",
    "postal_code": "18300"
  },
  {
    "name": "Saint-Caprais",
    "code": "18201",
    "epci_code": "241800457",
    "departement_code": "18",
    "region_code": "24",
    "postal_code": "18400"
  },
  {
    "name": "Saint-Céols",
    "code": "18202",
    "epci_code": "200066330",
    "departement_code": "18",
    "region_code": "24",
    "postal_code": "18220"
  },
  {
    "name": "Saint-Christophe-le-Chaudry",
    "code": "18203",
    "epci_code": "200049484",
    "departement_code": "18",
    "region_code": "24",
    "postal_code": "18270"
  },
  {
    "name": "Saint-Denis-de-Palin",
    "code": "18204",
    "epci_code": "241800424",
    "departement_code": "18",
    "region_code": "24",
    "postal_code": "18130"
  },
  {
    "name": "Saint-Doulchard",
    "code": "18205",
    "epci_code": "241800507",
    "departement_code": "18",
    "region_code": "24",
    "postal_code": "18230"
  },
  {
    "name": "Saint-Éloy-de-Gy",
    "code": "18206",
    "epci_code": "200066330",
    "departement_code": "18",
    "region_code": "24",
    "postal_code": "18110"
  },
  {
    "name": "Saint-Florent-sur-Cher",
    "code": "18207",
    "epci_code": "241800457",
    "departement_code": "18",
    "region_code": "24",
    "postal_code": "18400"
  },
  {
    "name": "Sainte-Gemme-en-Sancerrois",
    "code": "18208",
    "epci_code": "200069227",
    "departement_code": "18",
    "region_code": "24",
    "postal_code": "18240"
  },
  {
    "name": "Saint-Georges-de-Poisieux",
    "code": "18209",
    "epci_code": "200049484",
    "departement_code": "18",
    "region_code": "24",
    "postal_code": "18200"
  },
  {
    "name": "Saint-Georges-sur-la-Prée",
    "code": "18210",
    "epci_code": "200090561",
    "departement_code": "18",
    "region_code": "24",
    "postal_code": "18100"
  },
  {
    "name": "Saint-Georges-sur-Moulon",
    "code": "18211",
    "epci_code": "200066330",
    "departement_code": "18",
    "region_code": "24",
    "postal_code": "18110"
  },
  {
    "name": "Saint-Germain-des-Bois",
    "code": "18212",
    "epci_code": "241800424",
    "departement_code": "18",
    "region_code": "24",
    "postal_code": "18340"
  },
  {
    "name": "Saint-Germain-du-Puy",
    "code": "18213",
    "epci_code": "241800507",
    "departement_code": "18",
    "region_code": "24",
    "postal_code": "18390"
  },
  {
    "name": "Saint-Hilaire-de-Court",
    "code": "18214",
    "epci_code": "200090561",
    "departement_code": "18",
    "region_code": "24",
    "postal_code": "18100"
  },
  {
    "name": "Saint-Hilaire-de-Gondilly",
    "code": "18215",
    "epci_code": "200011781",
    "departement_code": "18",
    "region_code": "24",
    "postal_code": "18320"
  },
  {
    "name": "Saint-Hilaire-de-Gondilly",
    "code": "18215",
    "epci_code": "200011781",
    "departement_code": "18",
    "region_code": "24",
    "postal_code": "18350"
  },
  {
    "name": "Saint-Hilaire-en-Lignières",
    "code": "18216",
    "epci_code": "200049484",
    "departement_code": "18",
    "region_code": "24",
    "postal_code": "18160"
  },
  {
    "name": "Saint-Jeanvrin",
    "code": "18217",
    "epci_code": "200049484",
    "departement_code": "18",
    "region_code": "24",
    "postal_code": "18370"
  },
  {
    "name": "Saint-Just",
    "code": "18218",
    "epci_code": "241800507",
    "departement_code": "18",
    "region_code": "24",
    "postal_code": "18340"
  },
  {
    "name": "Saint-Laurent",
    "code": "18219",
    "epci_code": "200090561",
    "departement_code": "18",
    "region_code": "24",
    "postal_code": "18330"
  },
  {
    "name": "Saint-Léger-le-Petit",
    "code": "18220",
    "epci_code": "200032514",
    "departement_code": "18",
    "region_code": "24",
    "postal_code": "18140"
  },
  {
    "name": "Saint-Loup-des-Chaumes",
    "code": "18221",
    "epci_code": "200027076",
    "departement_code": "18",
    "region_code": "24",
    "postal_code": "18190"
  },
  {
    "name": "Saint-Martin-d’Auxigny",
    "code": "18223",
    "epci_code": "200066330",
    "departement_code": "18",
    "region_code": "24",
    "postal_code": "18110"
  },
  {
    "name": "Saint-Martin-des-Champs",
    "code": "18224",
    "epci_code": "200032514",
    "departement_code": "18",
    "region_code": "24",
    "postal_code": "18140"
  },
  {
    "name": "Saint-Maur",
    "code": "18225",
    "epci_code": "200049484",
    "departement_code": "18",
    "region_code": "24",
    "postal_code": "18270"
  },
  {
    "name": "Saint-Michel-de-Volangis",
    "code": "18226",
    "epci_code": "241800507",
    "departement_code": "18",
    "region_code": "24",
    "postal_code": "18390"
  },
  {
    "name": "Sainte-Montaine",
    "code": "18227",
    "epci_code": "200000933",
    "departement_code": "18",
    "region_code": "24",
    "postal_code": "18700"
  },
  {
    "name": "Saint-Outrille",
    "code": "18228",
    "epci_code": "200090561",
    "departement_code": "18",
    "region_code": "24",
    "postal_code": "18310"
  },
  {
    "name": "Saint-Palais",
    "code": "18229",
    "epci_code": "200066330",
    "departement_code": "18",
    "region_code": "24",
    "postal_code": "18110"
  },
  {
    "name": "Saint-Pierre-les-Bois",
    "code": "18230",
    "epci_code": "200049484",
    "departement_code": "18",
    "region_code": "24",
    "postal_code": "18170"
  },
  {
    "name": "Saint-Pierre-les-Étieux",
    "code": "18231",
    "epci_code": "200036135",
    "departement_code": "18",
    "region_code": "24",
    "postal_code": "18210"
  },
  {
    "name": "Saint-Priest-la-Marche",
    "code": "18232",
    "epci_code": "200049484",
    "departement_code": "18",
    "region_code": "24",
    "postal_code": "18370"
  },
  {
    "name": "Saint-Satur",
    "code": "18233",
    "epci_code": "200069227",
    "departement_code": "18",
    "region_code": "24",
    "postal_code": "18300"
  },
  {
    "name": "Saint-Saturnin",
    "code": "18234",
    "epci_code": "200049484",
    "departement_code": "18",
    "region_code": "24",
    "postal_code": "18370"
  },
  {
    "name": "Sainte-Solange",
    "code": "18235",
    "epci_code": "200066330",
    "departement_code": "18",
    "region_code": "24",
    "postal_code": "18220"
  },
  {
    "name": "Saint-Symphorien",
    "code": "18236",
    "epci_code": "200027076",
    "departement_code": "18",
    "region_code": "24",
    "postal_code": "18190"
  },
  {
    "name": "Sainte-Thorette",
    "code": "18237",
    "epci_code": "200070571",
    "departement_code": "18",
    "region_code": "24",
    "postal_code": "18500"
  },
  {
    "name": "Saint-Vitte",
    "code": "18238",
    "epci_code": "200049484",
    "departement_code": "18",
    "region_code": "24",
    "postal_code": "18360"
  },
  {
    "name": "Sancergues",
    "code": "18240",
    "epci_code": "200032514",
    "departement_code": "18",
    "region_code": "24",
    "postal_code": "18140"
  },
  {
    "name": "Sancerre",
    "code": "18241",
    "epci_code": "200069227",
    "departement_code": "18",
    "region_code": "24",
    "postal_code": "18300"
  },
  {
    "name": "Sancoins",
    "code": "18242",
    "epci_code": "241800432",
    "departement_code": "18",
    "region_code": "24",
    "postal_code": "18600"
  },
  {
    "name": "Santranges",
    "code": "18243",
    "epci_code": "200069227",
    "departement_code": "18",
    "region_code": "24",
    "postal_code": "18240"
  },
  {
    "name": "Saugy",
    "code": "18244",
    "epci_code": "241800457",
    "departement_code": "18",
    "region_code": "24",
    "postal_code": "18290"
  },
  {
    "name": "Saulzais-le-Potier",
    "code": "18245",
    "epci_code": "200049484",
    "departement_code": "18",
    "region_code": "24",
    "postal_code": "18360"
  },
  {
    "name": "Savigny-en-Sancerre",
    "code": "18246",
    "epci_code": "200069227",
    "departement_code": "18",
    "region_code": "24",
    "postal_code": "18240"
  },
  {
    "name": "Savigny-en-Septaine",
    "code": "18247",
    "epci_code": "241800374",
    "departement_code": "18",
    "region_code": "24",
    "postal_code": "18390"
  },
  {
    "name": "Senneçay",
    "code": "18248",
    "epci_code": "241800424",
    "departement_code": "18",
    "region_code": "24",
    "postal_code": "18340"
  },
  {
    "name": "Sens-Beaujeu",
    "code": "18249",
    "epci_code": "200069227",
    "departement_code": "18",
    "region_code": "24",
    "postal_code": "18300"
  },
  {
    "name": "Serruelles",
    "code": "18250",
    "epci_code": "200027076",
    "departement_code": "18",
    "region_code": "24",
    "postal_code": "18190"
  },
  {
    "name": "Sévry",
    "code": "18251",
    "epci_code": "200032514",
    "departement_code": "18",
    "region_code": "24",
    "postal_code": "18140"
  },
  {
    "name": "Sidiailles",
    "code": "18252",
    "epci_code": "200049484",
    "departement_code": "18",
    "region_code": "24",
    "postal_code": "18270"
  },
  {
    "name": "Soulangis",
    "code": "18253",
    "epci_code": "200066330",
    "departement_code": "18",
    "region_code": "24",
    "postal_code": "18220"
  },
  {
    "name": "Soye-en-Septaine",
    "code": "18254",
    "epci_code": "241800374",
    "departement_code": "18",
    "region_code": "24",
    "postal_code": "18340"
  },
  {
    "name": "Le Subdray",
    "code": "18255",
    "epci_code": "241800507",
    "departement_code": "18",
    "region_code": "24",
    "postal_code": "18570"
  },
  {
    "name": "Subligny",
    "code": "18256",
    "epci_code": "200069227",
    "departement_code": "18",
    "region_code": "24",
    "postal_code": "18260"
  },
  {
    "name": "Sury-près-Léré",
    "code": "18257",
    "epci_code": "200069227",
    "departement_code": "18",
    "region_code": "24",
    "postal_code": "18240"
  },
  {
    "name": "Sury-en-Vaux",
    "code": "18258",
    "epci_code": "200069227",
    "departement_code": "18",
    "region_code": "24",
    "postal_code": "18300"
  },
  {
    "name": "Sury-ès-Bois",
    "code": "18259",
    "epci_code": "200069227",
    "departement_code": "18",
    "region_code": "24",
    "postal_code": "18260"
  },
  {
    "name": "Tendron",
    "code": "18260",
    "epci_code": "200007177",
    "departement_code": "18",
    "region_code": "24",
    "postal_code": "18350"
  },
  {
    "name": "Thaumiers",
    "code": "18261",
    "epci_code": "241800424",
    "departement_code": "18",
    "region_code": "24",
    "postal_code": "18210"
  },
  {
    "name": "Thauvenay",
    "code": "18262",
    "epci_code": "200069227",
    "departement_code": "18",
    "region_code": "24",
    "postal_code": "18300"
  },
  {
    "name": "Thénioux",
    "code": "18263",
    "epci_code": "200090561",
    "departement_code": "18",
    "region_code": "24",
    "postal_code": "18100"
  },
  {
    "name": "Thou",
    "code": "18264",
    "epci_code": "200069227",
    "departement_code": "18",
    "region_code": "24",
    "postal_code": "18260"
  },
  {
    "name": "Torteron",
    "code": "18265",
    "epci_code": "200011781",
    "departement_code": "18",
    "region_code": "24",
    "postal_code": "18320"
  },
  {
    "name": "Touchay",
    "code": "18266",
    "epci_code": "200049484",
    "departement_code": "18",
    "region_code": "24",
    "postal_code": "18160"
  },
  {
    "name": "Trouy",
    "code": "18267",
    "epci_code": "241800507",
    "departement_code": "18",
    "region_code": "24",
    "postal_code": "18570"
  },
  {
    "name": "Uzay-le-Venon",
    "code": "18268",
    "epci_code": "200027076",
    "departement_code": "18",
    "region_code": "24",
    "postal_code": "18190"
  },
  {
    "name": "Vailly-sur-Sauldre",
    "code": "18269",
    "epci_code": "200069227",
    "departement_code": "18",
    "region_code": "24",
    "postal_code": "18260"
  },
  {
    "name": "Vallenay",
    "code": "18270",
    "epci_code": "200027076",
    "departement_code": "18",
    "region_code": "24",
    "postal_code": "18190"
  },
  {
    "name": "Vasselay",
    "code": "18271",
    "epci_code": "200066330",
    "departement_code": "18",
    "region_code": "24",
    "postal_code": "18110"
  },
  {
    "name": "Veaugues",
    "code": "18272",
    "epci_code": "200069227",
    "departement_code": "18",
    "region_code": "24",
    "postal_code": "18300"
  },
  {
    "name": "Venesmes",
    "code": "18273",
    "epci_code": "200027076",
    "departement_code": "18",
    "region_code": "24",
    "postal_code": "18190"
  },
  {
    "name": "Verdigny",
    "code": "18274",
    "epci_code": "200069227",
    "departement_code": "18",
    "region_code": "24",
    "postal_code": "18300"
  },
  {
    "name": "Vereaux",
    "code": "18275",
    "epci_code": "241800432",
    "departement_code": "18",
    "region_code": "24",
    "postal_code": "18600"
  },
  {
    "name": "Vernais",
    "code": "18276",
    "epci_code": "200036135",
    "departement_code": "18",
    "region_code": "24",
    "postal_code": "18210"
  },
  {
    "name": "Verneuil",
    "code": "18277",
    "epci_code": "241800424",
    "departement_code": "18",
    "region_code": "24",
    "postal_code": "18210"
  },
  {
    "name": "Vesdun",
    "code": "18278",
    "epci_code": "200049484",
    "departement_code": "18",
    "region_code": "24",
    "postal_code": "18360"
  },
  {
    "name": "Vierzon",
    "code": "18279",
    "epci_code": "200090561",
    "departement_code": "18",
    "region_code": "24",
    "postal_code": "18100"
  },
  {
    "name": "Vignoux-sous-les-Aix",
    "code": "18280",
    "epci_code": "200066330",
    "departement_code": "18",
    "region_code": "24",
    "postal_code": "18110"
  },
  {
    "name": "Vignoux-sur-Barangeon",
    "code": "18281",
    "epci_code": "200090561",
    "departement_code": "18",
    "region_code": "24",
    "postal_code": "18500"
  },
  {
    "name": "Villabon",
    "code": "18282",
    "epci_code": "241800374",
    "departement_code": "18",
    "region_code": "24",
    "postal_code": "18800"
  },
  {
    "name": "Villecelin",
    "code": "18283",
    "epci_code": "200027076",
    "departement_code": "18",
    "region_code": "24",
    "postal_code": "18160"
  },
  {
    "name": "Villegenon",
    "code": "18284",
    "epci_code": "200069227",
    "departement_code": "18",
    "region_code": "24",
    "postal_code": "18260"
  },
  {
    "name": "Villeneuve-sur-Cher",
    "code": "18285",
    "epci_code": "241800457",
    "departement_code": "18",
    "region_code": "24",
    "postal_code": "18400"
  },
  {
    "name": "Villequiers",
    "code": "18286",
    "epci_code": "241800374",
    "departement_code": "18",
    "region_code": "24",
    "postal_code": "18800"
  },
  {
    "name": "Vinon",
    "code": "18287",
    "epci_code": "200069227",
    "departement_code": "18",
    "region_code": "24",
    "postal_code": "18300"
  },
  {
    "name": "Vorly",
    "code": "18288",
    "epci_code": "241800507",
    "departement_code": "18",
    "region_code": "24",
    "postal_code": "18340"
  },
  {
    "name": "Vornay",
    "code": "18289",
    "epci_code": "241800374",
    "departement_code": "18",
    "region_code": "24",
    "postal_code": "18130"
  },
  {
    "name": "Vouzeron",
    "code": "18290",
    "epci_code": "200090561",
    "departement_code": "18",
    "region_code": "24",
    "postal_code": "18330"
  }
]