[
  {
    "name": "Abrest",
    "code": "03001",
    "epci_code": "200071363",
    "departement_code": "03",
    "region_code": "84",
    "postal_code": "03200"
  },
  {
    "name": "Agonges",
    "code": "03002",
    "epci_code": "200071496",
    "departement_code": "03",
    "region_code": "84",
    "postal_code": "03210"
  },
  {
    "name": "Ainay-le-Château",
    "code": "03003",
    "epci_code": "240300558",
    "departement_code": "03",
    "region_code": "84",
    "postal_code": "03360"
  },
  {
    "name": "Andelaroche",
    "code": "03004",
    "epci_code": "240300491",
    "departement_code": "03",
    "region_code": "84",
    "postal_code": "03120"
  },
  {
    "name": "Archignat",
    "code": "03005",
    "epci_code": "240300657",
    "departement_code": "03",
    "region_code": "84",
    "postal_code": "03380"
  },
  {
    "name": "Arfeuilles",
    "code": "03006",
    "epci_code": "200071363",
    "departement_code": "03",
    "region_code": "84",
    "postal_code": "03120"
  },
  {
    "name": "Arpheuilles-Saint-Priest",
    "code": "03007",
    "epci_code": "200071082",
    "departement_code": "03",
    "region_code": "84",
    "postal_code": "03420"
  },
  {
    "name": "Arronnes",
    "code": "03008",
    "epci_code": "200071363",
    "departement_code": "03",
    "region_code": "84",
    "postal_code": "03250"
  },
  {
    "name": "Aubigny",
    "code": "03009",
    "epci_code": "200071140",
    "departement_code": "03",
    "region_code": "84",
    "postal_code": "03460"
  },
  {
    "name": "Audes",
    "code": "03010",
    "epci_code": "240300566",
    "departement_code": "03",
    "region_code": "84",
    "postal_code": "03190"
  },
  {
    "name": "Aurouër",
    "code": "03011",
    "epci_code": "200071140",
    "departement_code": "03",
    "region_code": "84",
    "postal_code": "03460"
  },
  {
    "name": "Autry-Issards",
    "code": "03012",
    "epci_code": "200071496",
    "departement_code": "03",
    "region_code": "84",
    "postal_code": "03210"
  },
  {
    "name": "Avermes",
    "code": "03013",
    "epci_code": "200071140",
    "departement_code": "03",
    "region_code": "84",
    "postal_code": "03000"
  },
  {
    "name": "Avrilly",
    "code": "03014",
    "epci_code": "200071470",
    "departement_code": "03",
    "region_code": "84",
    "postal_code": "03130"
  },
  {
    "name": "Bagneux",
    "code": "03015",
    "epci_code": "200071140",
    "departement_code": "03",
    "region_code": "84",
    "postal_code": "03460"
  },
  {
    "name": "Barberier",
    "code": "03016",
    "epci_code": "200071389",
    "departement_code": "03",
    "region_code": "84",
    "postal_code": "03140"
  },
  {
    "name": "Barrais-Bussolles",
    "code": "03017",
    "epci_code": "240300491",
    "departement_code": "03",
    "region_code": "84",
    "postal_code": "03120"
  },
  {
    "name": "Bayet",
    "code": "03018",
    "epci_code": "200071389",
    "departement_code": "03",
    "region_code": "84",
    "postal_code": "03500"
  },
  {
    "name": "Beaulon",
    "code": "03019",
    "epci_code": "200071470",
    "departement_code": "03",
    "region_code": "84",
    "postal_code": "03230"
  },
  {
    "name": "Beaune-d’Allier",
    "code": "03020",
    "epci_code": "200071512",
    "departement_code": "03",
    "region_code": "84",
    "postal_code": "03390"
  },
  {
    "name": "Bègues",
    "code": "03021",
    "epci_code": "200071389",
    "departement_code": "03",
    "region_code": "84",
    "postal_code": "03800"
  },
  {
    "name": "Bellenaves",
    "code": "03022",
    "epci_code": "200071389",
    "departement_code": "03",
    "region_code": "84",
    "postal_code": "03330"
  },
  {
    "name": "Bellerive-sur-Allier",
    "code": "03023",
    "epci_code": "200071363",
    "departement_code": "03",
    "region_code": "84",
    "postal_code": "03700"
  },
  {
    "name": "Bert",
    "code": "03024",
    "epci_code": "240300491",
    "departement_code": "03",
    "region_code": "84",
    "postal_code": "03130"
  },
  {
    "name": "Bessay-sur-Allier",
    "code": "03025",
    "epci_code": "200071140",
    "departement_code": "03",
    "region_code": "84",
    "postal_code": "03340"
  },
  {
    "name": "Besson",
    "code": "03026",
    "epci_code": "200071140",
    "departement_code": "03",
    "region_code": "84",
    "postal_code": "03210"
  },
  {
    "name": "Bézenet",
    "code": "03027",
    "epci_code": "200071512",
    "departement_code": "03",
    "region_code": "84",
    "postal_code": "03170"
  },
  {
    "name": "Billezois",
    "code": "03028",
    "epci_code": "240300491",
    "departement_code": "03",
    "region_code": "84",
    "postal_code": "03120"
  },
  {
    "name": "Billy",
    "code": "03029",
    "epci_code": "200071363",
    "departement_code": "03",
    "region_code": "84",
    "postal_code": "03260"
  },
  {
    "name": "Biozat",
    "code": "03030",
    "epci_code": "200071389",
    "departement_code": "03",
    "region_code": "84",
    "postal_code": "03800"
  },
  {
    "name": "Bizeneuille",
    "code": "03031",
    "epci_code": "200071512",
    "departement_code": "03",
    "region_code": "84",
    "postal_code": "03170"
  },
  {
    "name": "Blomard",
    "code": "03032",
    "epci_code": "200071512",
    "departement_code": "03",
    "region_code": "84",
    "postal_code": "03390"
  },
  {
    "name": "Bost",
    "code": "03033",
    "epci_code": "200071363",
    "departement_code": "03",
    "region_code": "84",
    "postal_code": "03300"
  },
  {
    "name": "Boucé",
    "code": "03034",
    "epci_code": "200071470",
    "departement_code": "03",
    "region_code": "84",
    "postal_code": "03150"
  },
  {
    "name": "Le Bouchaud",
    "code": "03035",
    "epci_code": "200071470",
    "departement_code": "03",
    "region_code": "84",
    "postal_code": "03130"
  },
  {
    "name": "Bourbon-l’Archambault",
    "code": "03036",
    "epci_code": "200071496",
    "departement_code": "03",
    "region_code": "84",
    "postal_code": "03160"
  },
  {
    "name": "Braize",
    "code": "03037",
    "epci_code": "240300558",
    "departement_code": "03",
    "region_code": "84",
    "postal_code": "03360"
  },
  {
    "name": "Bransat",
    "code": "03038",
    "epci_code": "200071389",
    "departement_code": "03",
    "region_code": "84",
    "postal_code": "03500"
  },
  {
    "name": "Bresnay",
    "code": "03039",
    "epci_code": "200071140",
    "departement_code": "03",
    "region_code": "84",
    "postal_code": "03210"
  },
  {
    "name": "Bressolles",
    "code": "03040",
    "epci_code": "200071140",
    "departement_code": "03",
    "region_code": "84",
    "postal_code": "03000"
  },
  {
    "name": "Le Brethon",
    "code": "03041",
    "epci_code": "240300558",
    "departement_code": "03",
    "region_code": "84",
    "postal_code": "03350"
  },
  {
    "name": "Le Breuil",
    "code": "03042",
    "epci_code": "240300491",
    "departement_code": "03",
    "region_code": "84",
    "postal_code": "03120"
  },
  {
    "name": "Broût-Vernet",
    "code": "03043",
    "epci_code": "200071389",
    "departement_code": "03",
    "region_code": "84",
    "postal_code": "03110"
  },
  {
    "name": "Brugheas",
    "code": "03044",
    "epci_code": "200071363",
    "departement_code": "03",
    "region_code": "84",
    "postal_code": "03700"
  },
  {
    "name": "Busset",
    "code": "03045",
    "epci_code": "200071363",
    "departement_code": "03",
    "region_code": "84",
    "postal_code": "03270"
  },
  {
    "name": "Buxières-les-Mines",
    "code": "03046",
    "epci_code": "200071496",
    "departement_code": "03",
    "region_code": "84",
    "postal_code": "03440"
  },
  {
    "name": "La Celle",
    "code": "03047",
    "epci_code": "200071512",
    "departement_code": "03",
    "region_code": "84",
    "postal_code": "03600"
  },
  {
    "name": "Cérilly",
    "code": "03048",
    "epci_code": "240300558",
    "departement_code": "03",
    "region_code": "84",
    "postal_code": "03350"
  },
  {
    "name": "Cesset",
    "code": "03049",
    "epci_code": "200071389",
    "departement_code": "03",
    "region_code": "84",
    "postal_code": "03500"
  },
  {
    "name": "La Chabanne",
    "code": "03050",
    "epci_code": "200071363",
    "departement_code": "03",
    "region_code": "84",
    "postal_code": "03250"
  },
  {
    "name": "Chambérat",
    "code": "03051",
    "epci_code": "240300657",
    "departement_code": "03",
    "region_code": "84",
    "postal_code": "03370"
  },
  {
    "name": "Chamblet",
    "code": "03052",
    "epci_code": "200071512",
    "departement_code": "03",
    "region_code": "84",
    "postal_code": "03170"
  },
  {
    "name": "Chantelle",
    "code": "03053",
    "epci_code": "200071389",
    "departement_code": "03",
    "region_code": "84",
    "postal_code": "03140"
  },
  {
    "name": "Chapeau",
    "code": "03054",
    "epci_code": "200071140",
    "departement_code": "03",
    "region_code": "84",
    "postal_code": "03340"
  },
  {
    "name": "La Chapelaude",
    "code": "03055",
    "epci_code": "240300657",
    "departement_code": "03",
    "region_code": "84",
    "postal_code": "03380"
  },
  {
    "name": "La Chapelle",
    "code": "03056",
    "epci_code": "200071363",
    "departement_code": "03",
    "region_code": "84",
    "postal_code": "03300"
  },
  {
    "name": "La Chapelle-aux-Chasses",
    "code": "03057",
    "epci_code": "200071140",
    "departement_code": "03",
    "region_code": "84",
    "postal_code": "03230"
  },
  {
    "name": "Chappes",
    "code": "03058",
    "epci_code": "200071512",
    "departement_code": "03",
    "region_code": "84",
    "postal_code": "03390"
  },
  {
    "name": "Chareil-Cintrat",
    "code": "03059",
    "epci_code": "200071389",
    "departement_code": "03",
    "region_code": "84",
    "postal_code": "03140"
  },
  {
    "name": "Charmeil",
    "code": "03060",
    "epci_code": "200071363",
    "departement_code": "03",
    "region_code": "84",
    "postal_code": "03110"
  },
  {
    "name": "Charmes",
    "code": "03061",
    "epci_code": "200071389",
    "departement_code": "03",
    "region_code": "84",
    "postal_code": "03800"
  },
  {
    "name": "Charroux",
    "code": "03062",
    "epci_code": "200071389",
    "departement_code": "03",
    "region_code": "84",
    "postal_code": "03140"
  },
  {
    "name": "Chassenard",
    "code": "03063",
    "epci_code": "200071884",
    "departement_code": "03",
    "region_code": "84",
    "postal_code": "03510"
  },
  {
    "name": "Château-sur-Allier",
    "code": "03064",
    "epci_code": "200071140",
    "departement_code": "03",
    "region_code": "84",
    "postal_code": "03320"
  },
  {
    "name": "Châtel-de-Neuvre",
    "code": "03065",
    "epci_code": "200071496",
    "departement_code": "03",
    "region_code": "84",
    "postal_code": "03500"
  },
  {
    "name": "Châtel-Montagne",
    "code": "03066",
    "epci_code": "200071363",
    "departement_code": "03",
    "region_code": "84",
    "postal_code": "03250"
  },
  {
    "name": "Châtelperron",
    "code": "03067",
    "epci_code": "200071470",
    "departement_code": "03",
    "region_code": "84",
    "postal_code": "03220"
  },
  {
    "name": "Châtelus",
    "code": "03068",
    "epci_code": "200071363",
    "departement_code": "03",
    "region_code": "84",
    "postal_code": "03120"
  },
  {
    "name": "Châtillon",
    "code": "03069",
    "epci_code": "200071496",
    "departement_code": "03",
    "region_code": "84",
    "postal_code": "03210"
  },
  {
    "name": "Chavenon",
    "code": "03070",
    "epci_code": "200071512",
    "departement_code": "03",
    "region_code": "84",
    "postal_code": "03440"
  },
  {
    "name": "Chavroches",
    "code": "03071",
    "epci_code": "200071470",
    "departement_code": "03",
    "region_code": "84",
    "postal_code": "03220"
  },
  {
    "name": "Chazemais",
    "code": "03072",
    "epci_code": "240300657",
    "departement_code": "03",
    "region_code": "84",
    "postal_code": "03370"
  },
  {
    "name": "Chemilly",
    "code": "03073",
    "epci_code": "200071140",
    "departement_code": "03",
    "region_code": "84",
    "postal_code": "03210"
  },
  {
    "name": "Chevagnes",
    "code": "03074",
    "epci_code": "200071140",
    "departement_code": "03",
    "region_code": "84",
    "postal_code": "03230"
  },
  {
    "name": "Chezelle",
    "code": "03075",
    "epci_code": "200071389",
    "departement_code": "03",
    "region_code": "84",
    "postal_code": "03140"
  },
  {
    "name": "Chézy",
    "code": "03076",
    "epci_code": "200071140",
    "departement_code": "03",
    "region_code": "84",
    "postal_code": "03230"
  },
  {
    "name": "Chirat-l’Église",
    "code": "03077",
    "epci_code": "200071389",
    "departement_code": "03",
    "region_code": "84",
    "postal_code": "03330"
  },
  {
    "name": "Chouvigny",
    "code": "03078",
    "epci_code": "200071389",
    "departement_code": "03",
    "region_code": "84",
    "postal_code": "03450"
  },
  {
    "name": "Cindré",
    "code": "03079",
    "epci_code": "200071470",
    "departement_code": "03",
    "region_code": "84",
    "postal_code": "03220"
  },
  {
    "name": "Cognat-Lyonne",
    "code": "03080",
    "epci_code": "200071363",
    "departement_code": "03",
    "region_code": "84",
    "postal_code": "03110"
  },
  {
    "name": "Colombier",
    "code": "03081",
    "epci_code": "200071512",
    "departement_code": "03",
    "region_code": "84",
    "postal_code": "03600"
  },
  {
    "name": "Commentry",
    "code": "03082",
    "epci_code": "200071512",
    "departement_code": "03",
    "region_code": "84",
    "postal_code": "03600"
  },
  {
    "name": "Contigny",
    "code": "03083",
    "epci_code": "200071389",
    "departement_code": "03",
    "region_code": "84",
    "postal_code": "03500"
  },
  {
    "name": "Cosne-d’Allier",
    "code": "03084",
    "epci_code": "200071512",
    "departement_code": "03",
    "region_code": "84",
    "postal_code": "03430"
  },
  {
    "name": "Coulandon",
    "code": "03085",
    "epci_code": "200071140",
    "departement_code": "03",
    "region_code": "84",
    "postal_code": "03000"
  },
  {
    "name": "Coulanges",
    "code": "03086",
    "epci_code": "200071884",
    "departement_code": "03",
    "region_code": "84",
    "postal_code": "03470"
  },
  {
    "name": "Couleuvre",
    "code": "03087",
    "epci_code": "240300558",
    "departement_code": "03",
    "region_code": "84",
    "postal_code": "03320"
  },
  {
    "name": "Courçais",
    "code": "03088",
    "epci_code": "240300657",
    "departement_code": "03",
    "region_code": "84",
    "postal_code": "03370"
  },
  {
    "name": "Coutansouze",
    "code": "03089",
    "epci_code": "200071389",
    "departement_code": "03",
    "region_code": "84",
    "postal_code": "03330"
  },
  {
    "name": "Couzon",
    "code": "03090",
    "epci_code": "200071140",
    "departement_code": "03",
    "region_code": "84",
    "postal_code": "03160"
  },
  {
    "name": "Créchy",
    "code": "03091",
    "epci_code": "200071470",
    "departement_code": "03",
    "region_code": "84",
    "postal_code": "03150"
  },
  {
    "name": "Cressanges",
    "code": "03092",
    "epci_code": "200071496",
    "departement_code": "03",
    "region_code": "84",
    "postal_code": "03240"
  },
  {
    "name": "Creuzier-le-Neuf",
    "code": "03093",
    "epci_code": "200071363",
    "departement_code": "03",
    "region_code": "84",
    "postal_code": "03300"
  },
  {
    "name": "Creuzier-le-Vieux",
    "code": "03094",
    "epci_code": "200071363",
    "departement_code": "03",
    "region_code": "84",
    "postal_code": "03300"
  },
  {
    "name": "Cusset",
    "code": "03095",
    "epci_code": "200071363",
    "departement_code": "03",
    "region_code": "84",
    "postal_code": "03300"
  },
  {
    "name": "Deneuille-lès-Chantelle",
    "code": "03096",
    "epci_code": "200071389",
    "departement_code": "03",
    "region_code": "84",
    "postal_code": "03140"
  },
  {
    "name": "Deneuille-les-Mines",
    "code": "03097",
    "epci_code": "200071512",
    "departement_code": "03",
    "region_code": "84",
    "postal_code": "03170"
  },
  {
    "name": "Désertines",
    "code": "03098",
    "epci_code": "200071082",
    "departement_code": "03",
    "region_code": "84",
    "postal_code": "03630"
  },
  {
    "name": "Deux-Chaises",
    "code": "03099",
    "epci_code": "200071496",
    "departement_code": "03",
    "region_code": "84",
    "postal_code": "03240"
  },
  {
    "name": "Diou",
    "code": "03100",
    "epci_code": "200071470",
    "departement_code": "03",
    "region_code": "84",
    "postal_code": "03290"
  },
  {
    "name": "Domérat",
    "code": "03101",
    "epci_code": "200071082",
    "departement_code": "03",
    "region_code": "84",
    "postal_code": "03410"
  },
  {
    "name": "Dompierre-sur-Besbre",
    "code": "03102",
    "epci_code": "200071470",
    "departement_code": "03",
    "region_code": "84",
    "postal_code": "03290"
  },
  {
    "name": "Le Donjon",
    "code": "03103",
    "epci_code": "200071470",
    "departement_code": "03",
    "region_code": "84",
    "postal_code": "03130"
  },
  {
    "name": "Doyet",
    "code": "03104",
    "epci_code": "200071512",
    "departement_code": "03",
    "region_code": "84",
    "postal_code": "03170"
  },
  {
    "name": "Droiturier",
    "code": "03105",
    "epci_code": "240300491",
    "departement_code": "03",
    "region_code": "84",
    "postal_code": "03120"
  },
  {
    "name": "Durdat-Larequille",
    "code": "03106",
    "epci_code": "200071512",
    "departement_code": "03",
    "region_code": "84",
    "postal_code": "03310"
  },
  {
    "name": "Ébreuil",
    "code": "03107",
    "epci_code": "200071389",
    "departement_code": "03",
    "region_code": "84",
    "postal_code": "03450"
  },
  {
    "name": "Échassières",
    "code": "03108",
    "epci_code": "200071389",
    "departement_code": "03",
    "region_code": "84",
    "postal_code": "03330"
  },
  {
    "name": "Escurolles",
    "code": "03109",
    "epci_code": "200071389",
    "departement_code": "03",
    "region_code": "84",
    "postal_code": "03110"
  },
  {
    "name": "Espinasse-Vozelle",
    "code": "03110",
    "epci_code": "200071363",
    "departement_code": "03",
    "region_code": "84",
    "postal_code": "03110"
  },
  {
    "name": "Estivareilles",
    "code": "03111",
    "epci_code": "240300566",
    "departement_code": "03",
    "region_code": "84",
    "postal_code": "03190"
  },
  {
    "name": "Étroussat",
    "code": "03112",
    "epci_code": "200071389",
    "departement_code": "03",
    "region_code": "84",
    "postal_code": "03140"
  },
  {
    "name": "Ferrières-sur-Sichon",
    "code": "03113",
    "epci_code": "200071363",
    "departement_code": "03",
    "region_code": "84",
    "postal_code": "03250"
  },
  {
    "name": "La Ferté-Hauterive",
    "code": "03114",
    "epci_code": "200071389",
    "departement_code": "03",
    "region_code": "84",
    "postal_code": "03340"
  },
  {
    "name": "Fleuriel",
    "code": "03115",
    "epci_code": "200071389",
    "departement_code": "03",
    "region_code": "84",
    "postal_code": "03140"
  },
  {
    "name": "Fourilles",
    "code": "03116",
    "epci_code": "200071389",
    "departement_code": "03",
    "region_code": "84",
    "postal_code": "03140"
  },
  {
    "name": "Franchesse",
    "code": "03117",
    "epci_code": "200071496",
    "departement_code": "03",
    "region_code": "84",
    "postal_code": "03160"
  },
  {
    "name": "Gannat",
    "code": "03118",
    "epci_code": "200071389",
    "departement_code": "03",
    "region_code": "84",
    "postal_code": "03800"
  },
  {
    "name": "Gannay-sur-Loire",
    "code": "03119",
    "epci_code": "200071140",
    "departement_code": "03",
    "region_code": "84",
    "postal_code": "03230"
  },
  {
    "name": "Garnat-sur-Engièvre",
    "code": "03120",
    "epci_code": "200071140",
    "departement_code": "03",
    "region_code": "84",
    "postal_code": "03230"
  },
  {
    "name": "Gennetines",
    "code": "03121",
    "epci_code": "200071140",
    "departement_code": "03",
    "region_code": "84",
    "postal_code": "03400"
  },
  {
    "name": "Gipcy",
    "code": "03122",
    "epci_code": "200071496",
    "departement_code": "03",
    "region_code": "84",
    "postal_code": "03210"
  },
  {
    "name": "Gouise",
    "code": "03124",
    "epci_code": "200071140",
    "departement_code": "03",
    "region_code": "84",
    "postal_code": "03340"
  },
  {
    "name": "La Guillermie",
    "code": "03125",
    "epci_code": "200071363",
    "departement_code": "03",
    "region_code": "84",
    "postal_code": "03250"
  },
  {
    "name": "Hauterive",
    "code": "03126",
    "epci_code": "200071363",
    "departement_code": "03",
    "region_code": "84",
    "postal_code": "03270"
  },
  {
    "name": "Hérisson",
    "code": "03127",
    "epci_code": "240300558",
    "departement_code": "03",
    "region_code": "84",
    "postal_code": "03190"
  },
  {
    "name": "Huriel",
    "code": "03128",
    "epci_code": "240300657",
    "departement_code": "03",
    "region_code": "84",
    "postal_code": "03380"
  },
  {
    "name": "Hyds",
    "code": "03129",
    "epci_code": "200071512",
    "departement_code": "03",
    "region_code": "84",
    "postal_code": "03600"
  },
  {
    "name": "Isle-et-Bardais",
    "code": "03130",
    "epci_code": "240300558",
    "departement_code": "03",
    "region_code": "84",
    "postal_code": "03360"
  },
  {
    "name": "Isserpent",
    "code": "03131",
    "epci_code": "240300491",
    "departement_code": "03",
    "region_code": "84",
    "postal_code": "03120"
  },
  {
    "name": "Jaligny-sur-Besbre",
    "code": "03132",
    "epci_code": "200071470",
    "departement_code": "03",
    "region_code": "84",
    "postal_code": "03220"
  },
  {
    "name": "Jenzat",
    "code": "03133",
    "epci_code": "200071389",
    "departement_code": "03",
    "region_code": "84",
    "postal_code": "03800"
  },
  {
    "name": "Laféline",
    "code": "03134",
    "epci_code": "200071389",
    "departement_code": "03",
    "region_code": "84",
    "postal_code": "03500"
  },
  {
    "name": "Lalizolle",
    "code": "03135",
    "epci_code": "200071389",
    "departement_code": "03",
    "region_code": "84",
    "postal_code": "03450"
  },
  {
    "name": "Lamaids",
    "code": "03136",
    "epci_code": "200071082",
    "departement_code": "03",
    "region_code": "84",
    "postal_code": "03380"
  },
  {
    "name": "Langy",
    "code": "03137",
    "epci_code": "200071470",
    "departement_code": "03",
    "region_code": "84",
    "postal_code": "03150"
  },
  {
    "name": "Lapalisse",
    "code": "03138",
    "epci_code": "240300491",
    "departement_code": "03",
    "region_code": "84",
    "postal_code": "03120"
  },
  {
    "name": "Laprugne",
    "code": "03139",
    "epci_code": "200071363",
    "departement_code": "03",
    "region_code": "84",
    "postal_code": "03250"
  },
  {
    "name": "Lavault-Sainte-Anne",
    "code": "03140",
    "epci_code": "200071082",
    "departement_code": "03",
    "region_code": "84",
    "postal_code": "03100"
  },
  {
    "name": "Lavoine",
    "code": "03141",
    "epci_code": "200071363",
    "departement_code": "03",
    "region_code": "84",
    "postal_code": "03250"
  },
  {
    "name": "Lenax",
    "code": "03142",
    "epci_code": "200071470",
    "departement_code": "03",
    "region_code": "84",
    "postal_code": "03130"
  },
  {
    "name": "Lételon",
    "code": "03143",
    "epci_code": "240300558",
    "departement_code": "03",
    "region_code": "84",
    "postal_code": "03360"
  },
  {
    "name": "Liernolles",
    "code": "03144",
    "epci_code": "200071470",
    "departement_code": "03",
    "region_code": "84",
    "postal_code": "03130"
  },
  {
    "name": "Lignerolles",
    "code": "03145",
    "epci_code": "200071082",
    "departement_code": "03",
    "region_code": "84",
    "postal_code": "03410"
  },
  {
    "name": "Limoise",
    "code": "03146",
    "epci_code": "200071140",
    "departement_code": "03",
    "region_code": "84",
    "postal_code": "03320"
  },
  {
    "name": "Loddes",
    "code": "03147",
    "epci_code": "200071470",
    "departement_code": "03",
    "region_code": "84",
    "postal_code": "03130"
  },
  {
    "name": "Loriges",
    "code": "03148",
    "epci_code": "200071389",
    "departement_code": "03",
    "region_code": "84",
    "postal_code": "03500"
  },
  {
    "name": "Louchy-Montfand",
    "code": "03149",
    "epci_code": "200071389",
    "departement_code": "03",
    "region_code": "84",
    "postal_code": "03500"
  },
  {
    "name": "Louroux-Bourbonnais",
    "code": "03150",
    "epci_code": "200071496",
    "departement_code": "03",
    "region_code": "84",
    "postal_code": "03350"
  },
  {
    "name": "Louroux-de-Beaune",
    "code": "03151",
    "epci_code": "200071512",
    "departement_code": "03",
    "region_code": "84",
    "postal_code": "03600"
  },
  {
    "name": "Louroux-de-Bouble",
    "code": "03152",
    "epci_code": "200071389",
    "departement_code": "03",
    "region_code": "84",
    "postal_code": "03330"
  },
  {
    "name": "Luneau",
    "code": "03154",
    "epci_code": "200071470",
    "departement_code": "03",
    "region_code": "84",
    "postal_code": "03130"
  },
  {
    "name": "Lurcy-Lévis",
    "code": "03155",
    "epci_code": "200071140",
    "departement_code": "03",
    "region_code": "84",
    "postal_code": "03320"
  },
  {
    "name": "Lusigny",
    "code": "03156",
    "epci_code": "200071140",
    "departement_code": "03",
    "region_code": "84",
    "postal_code": "03230"
  },
  {
    "name": "Magnet",
    "code": "03157",
    "epci_code": "200071363",
    "departement_code": "03",
    "region_code": "84",
    "postal_code": "03260"
  },
  {
    "name": "Haut-Bocage",
    "code": "03158",
    "epci_code": "240300566",
    "departement_code": "03",
    "region_code": "84",
    "postal_code": "03190"
  },
  {
    "name": "Malicorne",
    "code": "03159",
    "epci_code": "200071512",
    "departement_code": "03",
    "region_code": "84",
    "postal_code": "03600"
  },
  {
    "name": "Marcenat",
    "code": "03160",
    "epci_code": "200071389",
    "departement_code": "03",
    "region_code": "84",
    "postal_code": "03260"
  },
  {
    "name": "Marcillat-en-Combraille",
    "code": "03161",
    "epci_code": "200071082",
    "departement_code": "03",
    "region_code": "84",
    "postal_code": "03420"
  },
  {
    "name": "Marigny",
    "code": "03162",
    "epci_code": "200071140",
    "departement_code": "03",
    "region_code": "84",
    "postal_code": "03210"
  },
  {
    "name": "Mariol",
    "code": "03163",
    "epci_code": "200071363",
    "departement_code": "03",
    "region_code": "84",
    "postal_code": "03270"
  },
  {
    "name": "Le Mayet-d’École",
    "code": "03164",
    "epci_code": "200071389",
    "departement_code": "03",
    "region_code": "84",
    "postal_code": "03800"
  },
  {
    "name": "Le Mayet-de-Montagne",
    "code": "03165",
    "epci_code": "200071363",
    "departement_code": "03",
    "region_code": "84",
    "postal_code": "03250"
  },
  {
    "name": "Mazerier",
    "code": "03166",
    "epci_code": "200071389",
    "departement_code": "03",
    "region_code": "84",
    "postal_code": "03800"
  },
  {
    "name": "Mazirat",
    "code": "03167",
    "epci_code": "200071082",
    "departement_code": "03",
    "region_code": "84",
    "postal_code": "03420"
  },
  {
    "name": "Meaulne-Vitray",
    "code": "03168",
    "epci_code": "240300558",
    "departement_code": "03",
    "region_code": "84",
    "postal_code": "03360"
  },
  {
    "name": "Meillard",
    "code": "03169",
    "epci_code": "200071496",
    "departement_code": "03",
    "region_code": "84",
    "postal_code": "03500"
  },
  {
    "name": "Meillers",
    "code": "03170",
    "epci_code": "200071496",
    "departement_code": "03",
    "region_code": "84",
    "postal_code": "03210"
  },
  {
    "name": "Mercy",
    "code": "03171",
    "epci_code": "200071470",
    "departement_code": "03",
    "region_code": "84",
    "postal_code": "03340"
  },
  {
    "name": "Mesples",
    "code": "03172",
    "epci_code": "240300657",
    "departement_code": "03",
    "region_code": "84",
    "postal_code": "03370"
  },
  {
    "name": "Molinet",
    "code": "03173",
    "epci_code": "200071884",
    "departement_code": "03",
    "region_code": "84",
    "postal_code": "03510"
  },
  {
    "name": "Molles",
    "code": "03174",
    "epci_code": "200071363",
    "departement_code": "03",
    "region_code": "84",
    "postal_code": "03300"
  },
  {
    "name": "Monestier",
    "code": "03175",
    "epci_code": "200071389",
    "departement_code": "03",
    "region_code": "84",
    "postal_code": "03140"
  },
  {
    "name": "Monétay-sur-Allier",
    "code": "03176",
    "epci_code": "200071389",
    "departement_code": "03",
    "region_code": "84",
    "postal_code": "03500"
  },
  {
    "name": "Monétay-sur-Loire",
    "code": "03177",
    "epci_code": "200071470",
    "departement_code": "03",
    "region_code": "84",
    "postal_code": "03470"
  },
  {
    "name": "Montaiguët-en-Forez",
    "code": "03178",
    "epci_code": "200071470",
    "departement_code": "03",
    "region_code": "84",
    "postal_code": "03130"
  },
  {
    "name": "Montaigu-le-Blin",
    "code": "03179",
    "epci_code": "200071470",
    "departement_code": "03",
    "region_code": "84",
    "postal_code": "03150"
  },
  {
    "name": "Montbeugny",
    "code": "03180",
    "epci_code": "200071140",
    "departement_code": "03",
    "region_code": "84",
    "postal_code": "03340"
  },
  {
    "name": "Montcombroux-les-Mines",
    "code": "03181",
    "epci_code": "200071470",
    "departement_code": "03",
    "region_code": "84",
    "postal_code": "03130"
  },
  {
    "name": "Monteignet-sur-l’Andelot",
    "code": "03182",
    "epci_code": "200071389",
    "departement_code": "03",
    "region_code": "84",
    "postal_code": "03800"
  },
  {
    "name": "Le Montet",
    "code": "03183",
    "epci_code": "200071496",
    "departement_code": "03",
    "region_code": "84",
    "postal_code": "03240"
  },
  {
    "name": "Montilly",
    "code": "03184",
    "epci_code": "200071140",
    "departement_code": "03",
    "region_code": "84",
    "postal_code": "03000"
  },
  {
    "name": "Montluçon",
    "code": "03185",
    "epci_code": "200071082",
    "departement_code": "03",
    "region_code": "84",
    "postal_code": "03100"
  },
  {
    "name": "Montmarault",
    "code": "03186",
    "epci_code": "200071512",
    "departement_code": "03",
    "region_code": "84",
    "postal_code": "03390"
  },
  {
    "name": "Montoldre",
    "code": "03187",
    "epci_code": "200071470",
    "departement_code": "03",
    "region_code": "84",
    "postal_code": "03150"
  },
  {
    "name": "Montord",
    "code": "03188",
    "epci_code": "200071389",
    "departement_code": "03",
    "region_code": "84",
    "postal_code": "03500"
  },
  {
    "name": "Montvicq",
    "code": "03189",
    "epci_code": "200071512",
    "departement_code": "03",
    "region_code": "84",
    "postal_code": "03170"
  },
  {
    "name": "Moulins",
    "code": "03190",
    "epci_code": "200071140",
    "departement_code": "03",
    "region_code": "84",
    "postal_code": "03000"
  },
  {
    "name": "Murat",
    "code": "03191",
    "epci_code": "200071512",
    "departement_code": "03",
    "region_code": "84",
    "postal_code": "03390"
  },
  {
    "name": "Nades",
    "code": "03192",
    "epci_code": "200071389",
    "departement_code": "03",
    "region_code": "84",
    "postal_code": "03450"
  },
  {
    "name": "Nassigny",
    "code": "03193",
    "epci_code": "240300566",
    "departement_code": "03",
    "region_code": "84",
    "postal_code": "03190"
  },
  {
    "name": "Naves",
    "code": "03194",
    "epci_code": "200071389",
    "departement_code": "03",
    "region_code": "84",
    "postal_code": "03330"
  },
  {
    "name": "Néris-les-Bains",
    "code": "03195",
    "epci_code": "200071512",
    "departement_code": "03",
    "region_code": "84",
    "postal_code": "03310"
  },
  {
    "name": "Neuilly-en-Donjon",
    "code": "03196",
    "epci_code": "200071470",
    "departement_code": "03",
    "region_code": "84",
    "postal_code": "03130"
  },
  {
    "name": "Neuilly-le-Réal",
    "code": "03197",
    "epci_code": "200071140",
    "departement_code": "03",
    "region_code": "84",
    "postal_code": "03340"
  },
  {
    "name": "Neure",
    "code": "03198",
    "epci_code": "200071140",
    "departement_code": "03",
    "region_code": "84",
    "postal_code": "03320"
  },
  {
    "name": "Neuvy",
    "code": "03200",
    "epci_code": "200071140",
    "departement_code": "03",
    "region_code": "84",
    "postal_code": "03000"
  },
  {
    "name": "Nizerolles",
    "code": "03201",
    "epci_code": "200071363",
    "departement_code": "03",
    "region_code": "84",
    "postal_code": "03250"
  },
  {
    "name": "Noyant-d’Allier",
    "code": "03202",
    "epci_code": "200071496",
    "departement_code": "03",
    "region_code": "84",
    "postal_code": "03210"
  },
  {
    "name": "Paray-le-Frésil",
    "code": "03203",
    "epci_code": "200071140",
    "departement_code": "03",
    "region_code": "84",
    "postal_code": "03230"
  },
  {
    "name": "Paray-sous-Briailles",
    "code": "03204",
    "epci_code": "200071389",
    "departement_code": "03",
    "region_code": "84",
    "postal_code": "03500"
  },
  {
    "name": "Périgny",
    "code": "03205",
    "epci_code": "240300491",
    "departement_code": "03",
    "region_code": "84",
    "postal_code": "03120"
  },
  {
    "name": "La Petite-Marche",
    "code": "03206",
    "epci_code": "200071082",
    "departement_code": "03",
    "region_code": "84",
    "postal_code": "03420"
  },
  {
    "name": "Pierrefitte-sur-Loire",
    "code": "03207",
    "epci_code": "200071470",
    "departement_code": "03",
    "region_code": "84",
    "postal_code": "03470"
  },
  {
    "name": "Le Pin",
    "code": "03208",
    "epci_code": "200071470",
    "departement_code": "03",
    "region_code": "84",
    "postal_code": "03130"
  },
  {
    "name": "Poëzat",
    "code": "03209",
    "epci_code": "200071389",
    "departement_code": "03",
    "region_code": "84",
    "postal_code": "03800"
  },
  {
    "name": "Pouzy-Mésangy",
    "code": "03210",
    "epci_code": "200071140",
    "departement_code": "03",
    "region_code": "84",
    "postal_code": "03320"
  },
  {
    "name": "Prémilhat",
    "code": "03211",
    "epci_code": "200071082",
    "departement_code": "03",
    "region_code": "84",
    "postal_code": "03410"
  },
  {
    "name": "Quinssaines",
    "code": "03212",
    "epci_code": "200071082",
    "departement_code": "03",
    "region_code": "84",
    "postal_code": "03380"
  },
  {
    "name": "Reugny",
    "code": "03213",
    "epci_code": "240300566",
    "departement_code": "03",
    "region_code": "84",
    "postal_code": "03190"
  },
  {
    "name": "Rocles",
    "code": "03214",
    "epci_code": "200071496",
    "departement_code": "03",
    "region_code": "84",
    "postal_code": "03240"
  },
  {
    "name": "Rongères",
    "code": "03215",
    "epci_code": "200071470",
    "departement_code": "03",
    "region_code": "84",
    "postal_code": "03150"
  },
  {
    "name": "Ronnet",
    "code": "03216",
    "epci_code": "200071082",
    "departement_code": "03",
    "region_code": "84",
    "postal_code": "03420"
  },
  {
    "name": "Saint-Angel",
    "code": "03217",
    "epci_code": "200071512",
    "departement_code": "03",
    "region_code": "84",
    "postal_code": "03170"
  },
  {
    "name": "Saint-Aubin-le-Monial",
    "code": "03218",
    "epci_code": "200071496",
    "departement_code": "03",
    "region_code": "84",
    "postal_code": "03160"
  },
  {
    "name": "Saint-Bonnet-de-Four",
    "code": "03219",
    "epci_code": "200071512",
    "departement_code": "03",
    "region_code": "84",
    "postal_code": "03390"
  },
  {
    "name": "Saint-Bonnet-de-Rochefort",
    "code": "03220",
    "epci_code": "200071389",
    "departement_code": "03",
    "region_code": "84",
    "postal_code": "03800"
  },
  {
    "name": "Saint-Bonnet-Tronçais",
    "code": "03221",
    "epci_code": "240300558",
    "departement_code": "03",
    "region_code": "84",
    "postal_code": "03360"
  },
  {
    "name": "Saint-Caprais",
    "code": "03222",
    "epci_code": "240300558",
    "departement_code": "03",
    "region_code": "84",
    "postal_code": "03190"
  },
  {
    "name": "Saint-Christophe-en-Bourbonnais",
    "code": "03223",
    "epci_code": "240300491",
    "departement_code": "03",
    "region_code": "84",
    "postal_code": "03120"
  },
  {
    "name": "Saint-Clément",
    "code": "03224",
    "epci_code": "200071363",
    "departement_code": "03",
    "region_code": "84",
    "postal_code": "03250"
  },
  {
    "name": "Saint-Désiré",
    "code": "03225",
    "epci_code": "240300657",
    "departement_code": "03",
    "region_code": "84",
    "postal_code": "03370"
  },
  {
    "name": "Saint-Didier-en-Donjon",
    "code": "03226",
    "epci_code": "200071470",
    "departement_code": "03",
    "region_code": "84",
    "postal_code": "03130"
  },
  {
    "name": "Saint-Didier-la-Forêt",
    "code": "03227",
    "epci_code": "200071389",
    "departement_code": "03",
    "region_code": "84",
    "postal_code": "03110"
  },
  {
    "name": "Saint-Éloy-d’Allier",
    "code": "03228",
    "epci_code": "240300657",
    "departement_code": "03",
    "region_code": "84",
    "postal_code": "03370"
  },
  {
    "name": "Saint-Ennemond",
    "code": "03229",
    "epci_code": "200071140",
    "departement_code": "03",
    "region_code": "84",
    "postal_code": "03400"
  },
  {
    "name": "Saint-Étienne-de-Vicq",
    "code": "03230",
    "epci_code": "240300491",
    "departement_code": "03",
    "region_code": "84",
    "postal_code": "03300"
  },
  {
    "name": "Saint-Fargeol",
    "code": "03231",
    "epci_code": "200071082",
    "departement_code": "03",
    "region_code": "84",
    "postal_code": "03420"
  },
  {
    "name": "Saint-Félix",
    "code": "03232",
    "epci_code": "200071470",
    "departement_code": "03",
    "region_code": "84",
    "postal_code": "03260"
  },
  {
    "name": "Saint-Genest",
    "code": "03233",
    "epci_code": "200071082",
    "departement_code": "03",
    "region_code": "84",
    "postal_code": "03310"
  },
  {
    "name": "Saint-Gérand-de-Vaux",
    "code": "03234",
    "epci_code": "200071470",
    "departement_code": "03",
    "region_code": "84",
    "postal_code": "03340"
  },
  {
    "name": "Saint-Gérand-le-Puy",
    "code": "03235",
    "epci_code": "200071470",
    "departement_code": "03",
    "region_code": "84",
    "postal_code": "03150"
  },
  {
    "name": "Saint-Germain-des-Fossés",
    "code": "03236",
    "epci_code": "200071363",
    "departement_code": "03",
    "region_code": "84",
    "postal_code": "03260"
  },
  {
    "name": "Saint-Germain-de-Salles",
    "code": "03237",
    "epci_code": "200071389",
    "departement_code": "03",
    "region_code": "84",
    "postal_code": "03140"
  },
  {
    "name": "Saint-Hilaire",
    "code": "03238",
    "epci_code": "200071496",
    "departement_code": "03",
    "region_code": "84",
    "postal_code": "03440"
  },
  {
    "name": "Saint-Léger-sur-Vouzance",
    "code": "03239",
    "epci_code": "200071470",
    "departement_code": "03",
    "region_code": "84",
    "postal_code": "03130"
  },
  {
    "name": "Saint-Léon",
    "code": "03240",
    "epci_code": "200071470",
    "departement_code": "03",
    "region_code": "84",
    "postal_code": "03220"
  },
  {
    "name": "Saint-Léopardin-d’Augy",
    "code": "03241",
    "epci_code": "200071140",
    "departement_code": "03",
    "region_code": "84",
    "postal_code": "03160"
  },
  {
    "name": "Saint-Loup",
    "code": "03242",
    "epci_code": "200071389",
    "departement_code": "03",
    "region_code": "84",
    "postal_code": "03150"
  },
  {
    "name": "Saint-Marcel-en-Murat",
    "code": "03243",
    "epci_code": "200071512",
    "departement_code": "03",
    "region_code": "84",
    "postal_code": "03390"
  },
  {
    "name": "Saint-Marcel-en-Marcillat",
    "code": "03244",
    "epci_code": "200071082",
    "departement_code": "03",
    "region_code": "84",
    "postal_code": "03420"
  },
  {
    "name": "Saint-Martin-des-Lais",
    "code": "03245",
    "epci_code": "200071140",
    "departement_code": "03",
    "region_code": "84",
    "postal_code": "03230"
  },
  {
    "name": "Saint-Martinien",
    "code": "03246",
    "epci_code": "240300657",
    "departement_code": "03",
    "region_code": "84",
    "postal_code": "03380"
  },
  {
    "name": "Saint-Menoux",
    "code": "03247",
    "epci_code": "200071496",
    "departement_code": "03",
    "region_code": "84",
    "postal_code": "03210"
  },
  {
    "name": "Saint-Nicolas-des-Biefs",
    "code": "03248",
    "epci_code": "200071363",
    "departement_code": "03",
    "region_code": "84",
    "postal_code": "03250"
  },
  {
    "name": "Saint-Palais",
    "code": "03249",
    "epci_code": "240300657",
    "departement_code": "03",
    "region_code": "84",
    "postal_code": "03370"
  },
  {
    "name": "Saint-Pierre-Laval",
    "code": "03250",
    "epci_code": "240300491",
    "departement_code": "03",
    "region_code": "84",
    "postal_code": "42620"
  },
  {
    "name": "Saint-Plaisir",
    "code": "03251",
    "epci_code": "200071496",
    "departement_code": "03",
    "region_code": "84",
    "postal_code": "03160"
  },
  {
    "name": "Saint-Pont",
    "code": "03252",
    "epci_code": "200071363",
    "departement_code": "03",
    "region_code": "84",
    "postal_code": "03110"
  },
  {
    "name": "Saint-Pourçain-sur-Besbre",
    "code": "03253",
    "epci_code": "200071470",
    "departement_code": "03",
    "region_code": "84",
    "postal_code": "03290"
  },
  {
    "name": "Saint-Pourçain-sur-Sioule",
    "code": "03254",
    "epci_code": "200071389",
    "departement_code": "03",
    "region_code": "84",
    "postal_code": "03500"
  },
  {
    "name": "Saint-Priest-d’Andelot",
    "code": "03255",
    "epci_code": "200071389",
    "departement_code": "03",
    "region_code": "84",
    "postal_code": "03800"
  },
  {
    "name": "Saint-Priest-en-Murat",
    "code": "03256",
    "epci_code": "200071512",
    "departement_code": "03",
    "region_code": "84",
    "postal_code": "03390"
  },
  {
    "name": "Saint-Prix",
    "code": "03257",
    "epci_code": "240300491",
    "departement_code": "03",
    "region_code": "84",
    "postal_code": "03120"
  },
  {
    "name": "Saint-Rémy-en-Rollat",
    "code": "03258",
    "epci_code": "200071363",
    "departement_code": "03",
    "region_code": "84",
    "postal_code": "03110"
  },
  {
    "name": "Saint-Sauvier",
    "code": "03259",
    "epci_code": "240300657",
    "departement_code": "03",
    "region_code": "84",
    "postal_code": "03370"
  },
  {
    "name": "Saint-Sornin",
    "code": "03260",
    "epci_code": "200071496",
    "departement_code": "03",
    "region_code": "84",
    "postal_code": "03240"
  },
  {
    "name": "Sainte-Thérence",
    "code": "03261",
    "epci_code": "200071082",
    "departement_code": "03",
    "region_code": "84",
    "postal_code": "03420"
  },
  {
    "name": "Saint-Victor",
    "code": "03262",
    "epci_code": "200071082",
    "departement_code": "03",
    "region_code": "84",
    "postal_code": "03410"
  },
  {
    "name": "Saint-Voir",
    "code": "03263",
    "epci_code": "200071470",
    "departement_code": "03",
    "region_code": "84",
    "postal_code": "03220"
  },
  {
    "name": "Saint-Yorre",
    "code": "03264",
    "epci_code": "200071363",
    "departement_code": "03",
    "region_code": "84",
    "postal_code": "03270"
  },
  {
    "name": "Saligny-sur-Roudon",
    "code": "03265",
    "epci_code": "200071470",
    "departement_code": "03",
    "region_code": "84",
    "postal_code": "03470"
  },
  {
    "name": "Sanssat",
    "code": "03266",
    "epci_code": "200071470",
    "departement_code": "03",
    "region_code": "84",
    "postal_code": "03150"
  },
  {
    "name": "Saulcet",
    "code": "03267",
    "epci_code": "200071389",
    "departement_code": "03",
    "region_code": "84",
    "postal_code": "03500"
  },
  {
    "name": "Saulzet",
    "code": "03268",
    "epci_code": "200071389",
    "departement_code": "03",
    "region_code": "84",
    "postal_code": "03800"
  },
  {
    "name": "Sauvagny",
    "code": "03269",
    "epci_code": "200071512",
    "departement_code": "03",
    "region_code": "84",
    "postal_code": "03430"
  },
  {
    "name": "Sazeret",
    "code": "03270",
    "epci_code": "200071512",
    "departement_code": "03",
    "region_code": "84",
    "postal_code": "03390"
  },
  {
    "name": "Serbannes",
    "code": "03271",
    "epci_code": "200071363",
    "departement_code": "03",
    "region_code": "84",
    "postal_code": "03700"
  },
  {
    "name": "Servilly",
    "code": "03272",
    "epci_code": "240300491",
    "departement_code": "03",
    "region_code": "84",
    "postal_code": "03120"
  },
  {
    "name": "Seuillet",
    "code": "03273",
    "epci_code": "200071363",
    "departement_code": "03",
    "region_code": "84",
    "postal_code": "03260"
  },
  {
    "name": "Sorbier",
    "code": "03274",
    "epci_code": "200071470",
    "departement_code": "03",
    "region_code": "84",
    "postal_code": "03220"
  },
  {
    "name": "Souvigny",
    "code": "03275",
    "epci_code": "200071140",
    "departement_code": "03",
    "region_code": "84",
    "postal_code": "03210"
  },
  {
    "name": "Sussat",
    "code": "03276",
    "epci_code": "200071389",
    "departement_code": "03",
    "region_code": "84",
    "postal_code": "03450"
  },
  {
    "name": "Target",
    "code": "03277",
    "epci_code": "200071389",
    "departement_code": "03",
    "region_code": "84",
    "postal_code": "03140"
  },
  {
    "name": "Taxat-Senat",
    "code": "03278",
    "epci_code": "200071389",
    "departement_code": "03",
    "region_code": "84",
    "postal_code": "03140"
  },
  {
    "name": "Teillet-Argenty",
    "code": "03279",
    "epci_code": "200071082",
    "departement_code": "03",
    "region_code": "84",
    "postal_code": "03410"
  },
  {
    "name": "Terjat",
    "code": "03280",
    "epci_code": "200071082",
    "departement_code": "03",
    "region_code": "84",
    "postal_code": "03420"
  },
  {
    "name": "Le Theil",
    "code": "03281",
    "epci_code": "200071389",
    "departement_code": "03",
    "region_code": "84",
    "postal_code": "03240"
  },
  {
    "name": "Theneuille",
    "code": "03282",
    "epci_code": "240300558",
    "departement_code": "03",
    "region_code": "84",
    "postal_code": "03350"
  },
  {
    "name": "Thiel-sur-Acolin",
    "code": "03283",
    "epci_code": "200071140",
    "departement_code": "03",
    "region_code": "84",
    "postal_code": "03230"
  },
  {
    "name": "Thionne",
    "code": "03284",
    "epci_code": "200071470",
    "departement_code": "03",
    "region_code": "84",
    "postal_code": "03220"
  },
  {
    "name": "Tortezais",
    "code": "03285",
    "epci_code": "200071512",
    "departement_code": "03",
    "region_code": "84",
    "postal_code": "03430"
  },
  {
    "name": "Toulon-sur-Allier",
    "code": "03286",
    "epci_code": "200071140",
    "departement_code": "03",
    "region_code": "84",
    "postal_code": "03400"
  },
  {
    "name": "Treban",
    "code": "03287",
    "epci_code": "200071496",
    "departement_code": "03",
    "region_code": "84",
    "postal_code": "03240"
  },
  {
    "name": "Treignat",
    "code": "03288",
    "epci_code": "240300657",
    "departement_code": "03",
    "region_code": "84",
    "postal_code": "03380"
  },
  {
    "name": "Treteau",
    "code": "03289",
    "epci_code": "200071470",
    "departement_code": "03",
    "region_code": "84",
    "postal_code": "03220"
  },
  {
    "name": "Trévol",
    "code": "03290",
    "epci_code": "200071140",
    "departement_code": "03",
    "region_code": "84",
    "postal_code": "03460"
  },
  {
    "name": "Trézelles",
    "code": "03291",
    "epci_code": "200071470",
    "departement_code": "03",
    "region_code": "84",
    "postal_code": "03220"
  },
  {
    "name": "Tronget",
    "code": "03292",
    "epci_code": "200071496",
    "departement_code": "03",
    "region_code": "84",
    "postal_code": "03240"
  },
  {
    "name": "Urçay",
    "code": "03293",
    "epci_code": "240300558",
    "departement_code": "03",
    "region_code": "84",
    "postal_code": "03360"
  },
  {
    "name": "Ussel-d’Allier",
    "code": "03294",
    "epci_code": "200071389",
    "departement_code": "03",
    "region_code": "84",
    "postal_code": "03140"
  },
  {
    "name": "Valignat",
    "code": "03295",
    "epci_code": "200071389",
    "departement_code": "03",
    "region_code": "84",
    "postal_code": "03330"
  },
  {
    "name": "Valigny",
    "code": "03296",
    "epci_code": "240300558",
    "departement_code": "03",
    "region_code": "84",
    "postal_code": "03360"
  },
  {
    "name": "Vallon-en-Sully",
    "code": "03297",
    "epci_code": "240300566",
    "departement_code": "03",
    "region_code": "84",
    "postal_code": "03190"
  },
  {
    "name": "Varennes-sur-Allier",
    "code": "03298",
    "epci_code": "200071470",
    "departement_code": "03",
    "region_code": "84",
    "postal_code": "03150"
  },
  {
    "name": "Varennes-sur-Tèche",
    "code": "03299",
    "epci_code": "200071470",
    "departement_code": "03",
    "region_code": "84",
    "postal_code": "03220"
  },
  {
    "name": "Vaumas",
    "code": "03300",
    "epci_code": "200071470",
    "departement_code": "03",
    "region_code": "84",
    "postal_code": "03220"
  },
  {
    "name": "Vaux",
    "code": "03301",
    "epci_code": "240300566",
    "departement_code": "03",
    "region_code": "84",
    "postal_code": "03190"
  },
  {
    "name": "Veauce",
    "code": "03302",
    "epci_code": "200071389",
    "departement_code": "03",
    "region_code": "84",
    "postal_code": "03450"
  },
  {
    "name": "Venas",
    "code": "03303",
    "epci_code": "200071512",
    "departement_code": "03",
    "region_code": "84",
    "postal_code": "03190"
  },
  {
    "name": "Vendat",
    "code": "03304",
    "epci_code": "200071363",
    "departement_code": "03",
    "region_code": "84",
    "postal_code": "03110"
  },
  {
    "name": "Verneix",
    "code": "03305",
    "epci_code": "200071512",
    "departement_code": "03",
    "region_code": "84",
    "postal_code": "03190"
  },
  {
    "name": "Le Vernet",
    "code": "03306",
    "epci_code": "200071363",
    "departement_code": "03",
    "region_code": "84",
    "postal_code": "03200"
  },
  {
    "name": "Verneuil-en-Bourbonnais",
    "code": "03307",
    "epci_code": "200071389",
    "departement_code": "03",
    "region_code": "84",
    "postal_code": "03500"
  },
  {
    "name": "Vernusse",
    "code": "03308",
    "epci_code": "200071512",
    "departement_code": "03",
    "region_code": "84",
    "postal_code": "03390"
  },
  {
    "name": "Le Veurdre",
    "code": "03309",
    "epci_code": "200071140",
    "departement_code": "03",
    "region_code": "84",
    "postal_code": "03320"
  },
  {
    "name": "Vichy",
    "code": "03310",
    "epci_code": "200071363",
    "departement_code": "03",
    "region_code": "84",
    "postal_code": "03200"
  },
  {
    "name": "Vicq",
    "code": "03311",
    "epci_code": "200071389",
    "departement_code": "03",
    "region_code": "84",
    "postal_code": "03450"
  },
  {
    "name": "Vieure",
    "code": "03312",
    "epci_code": "200071496",
    "departement_code": "03",
    "region_code": "84",
    "postal_code": "03430"
  },
  {
    "name": "Le Vilhain",
    "code": "03313",
    "epci_code": "240300558",
    "departement_code": "03",
    "region_code": "84",
    "postal_code": "03350"
  },
  {
    "name": "Villebret",
    "code": "03314",
    "epci_code": "200071082",
    "departement_code": "03",
    "region_code": "84",
    "postal_code": "03310"
  },
  {
    "name": "Villefranche-d’Allier",
    "code": "03315",
    "epci_code": "200071512",
    "departement_code": "03",
    "region_code": "84",
    "postal_code": "03430"
  },
  {
    "name": "Villeneuve-sur-Allier",
    "code": "03316",
    "epci_code": "200071140",
    "departement_code": "03",
    "region_code": "84",
    "postal_code": "03460"
  },
  {
    "name": "Viplaix",
    "code": "03317",
    "epci_code": "240300657",
    "departement_code": "03",
    "region_code": "84",
    "postal_code": "03370"
  },
  {
    "name": "Voussac",
    "code": "03319",
    "epci_code": "200071512",
    "departement_code": "03",
    "region_code": "84",
    "postal_code": "03140"
  },
  {
    "name": "Ygrande",
    "code": "03320",
    "epci_code": "200071496",
    "departement_code": "03",
    "region_code": "84",
    "postal_code": "03160"
  },
  {
    "name": "Yzeure",
    "code": "03321",
    "epci_code": "200071140",
    "departement_code": "03",
    "region_code": "84",
    "postal_code": "03400"
  }
]