[
  {
    "name": "Aigurande",
    "code": "36001",
    "epci_code": "200007052",
    "departement_code": "36",
    "region_code": "24",
    "postal_code": "36140"
  },
  {
    "name": "Aize",
    "code": "36002",
    "epci_code": "200068880",
    "departement_code": "36",
    "region_code": "24",
    "postal_code": "36150"
  },
  {
    "name": "Ambrault",
    "code": "36003",
    "epci_code": "200068880",
    "departement_code": "36",
    "region_code": "24",
    "postal_code": "36120"
  },
  {
    "name": "Anjouin",
    "code": "36004",
    "epci_code": "243600202",
    "departement_code": "36",
    "region_code": "24",
    "postal_code": "36210"
  },
  {
    "name": "Ardentes",
    "code": "36005",
    "epci_code": "243600327",
    "departement_code": "36",
    "region_code": "24",
    "postal_code": "36120"
  },
  {
    "name": "Argenton-sur-Creuse",
    "code": "36006",
    "epci_code": "200068872",
    "departement_code": "36",
    "region_code": "24",
    "postal_code": "36200"
  },
  {
    "name": "Argy",
    "code": "36007",
    "epci_code": "243600301",
    "departement_code": "36",
    "region_code": "24",
    "postal_code": "36500"
  },
  {
    "name": "Arpheuilles",
    "code": "36008",
    "epci_code": "200035848",
    "departement_code": "36",
    "region_code": "24",
    "postal_code": "36700"
  },
  {
    "name": "Arthon",
    "code": "36009",
    "epci_code": "243600327",
    "departement_code": "36",
    "region_code": "24",
    "postal_code": "36330"
  },
  {
    "name": "Azay-le-Ferron",
    "code": "36010",
    "epci_code": "243600343",
    "departement_code": "36",
    "region_code": "24",
    "postal_code": "36290"
  },
  {
    "name": "Bagneux",
    "code": "36011",
    "epci_code": "243600202",
    "departement_code": "36",
    "region_code": "24",
    "postal_code": "36210"
  },
  {
    "name": "Baraize",
    "code": "36012",
    "epci_code": "200068872",
    "departement_code": "36",
    "region_code": "24",
    "postal_code": "36270"
  },
  {
    "name": "Baudres",
    "code": "36013",
    "epci_code": "243600293",
    "departement_code": "36",
    "region_code": "24",
    "postal_code": "36110"
  },
  {
    "name": "Bazaiges",
    "code": "36014",
    "epci_code": "200068872",
    "departement_code": "36",
    "region_code": "24",
    "postal_code": "36270"
  },
  {
    "name": "Beaulieu",
    "code": "36015",
    "epci_code": "200035137",
    "departement_code": "36",
    "region_code": "24",
    "postal_code": "36310"
  },
  {
    "name": "Bélâbre",
    "code": "36016",
    "epci_code": "200035137",
    "departement_code": "36",
    "region_code": "24",
    "postal_code": "36370"
  },
  {
    "name": "La Berthenoux",
    "code": "36017",
    "epci_code": "243600350",
    "departement_code": "36",
    "region_code": "24",
    "postal_code": "36400"
  },
  {
    "name": "Le Blanc",
    "code": "36018",
    "epci_code": "243600319",
    "departement_code": "36",
    "region_code": "24",
    "postal_code": "36300"
  },
  {
    "name": "Bommiers",
    "code": "36019",
    "epci_code": "200068880",
    "departement_code": "36",
    "region_code": "24",
    "postal_code": "36120"
  },
  {
    "name": "Bonneuil",
    "code": "36020",
    "epci_code": "200035137",
    "departement_code": "36",
    "region_code": "24",
    "postal_code": "36310"
  },
  {
    "name": "Les Bordes",
    "code": "36021",
    "epci_code": "243600236",
    "departement_code": "36",
    "region_code": "24",
    "postal_code": "36100"
  },
  {
    "name": "Bouesse",
    "code": "36022",
    "epci_code": "200068872",
    "departement_code": "36",
    "region_code": "24",
    "postal_code": "36200"
  },
  {
    "name": "Bouges-le-Château",
    "code": "36023",
    "epci_code": "243600293",
    "departement_code": "36",
    "region_code": "24",
    "postal_code": "36110"
  },
  {
    "name": "Bretagne",
    "code": "36024",
    "epci_code": "243600293",
    "departement_code": "36",
    "region_code": "24",
    "postal_code": "36110"
  },
  {
    "name": "Briantes",
    "code": "36025",
    "epci_code": "243600350",
    "departement_code": "36",
    "region_code": "24",
    "postal_code": "36400"
  },
  {
    "name": "Brion",
    "code": "36026",
    "epci_code": "243600293",
    "departement_code": "36",
    "region_code": "24",
    "postal_code": "36110"
  },
  {
    "name": "Brives",
    "code": "36027",
    "epci_code": "200068880",
    "departement_code": "36",
    "region_code": "24",
    "postal_code": "36100"
  },
  {
    "name": "La Buxerette",
    "code": "36028",
    "epci_code": "200007052",
    "departement_code": "36",
    "region_code": "24",
    "postal_code": "36140"
  },
  {
    "name": "Buxeuil",
    "code": "36029",
    "epci_code": "200068880",
    "departement_code": "36",
    "region_code": "24",
    "postal_code": "36150"
  },
  {
    "name": "Buxières-d’Aillac",
    "code": "36030",
    "epci_code": "200018521",
    "departement_code": "36",
    "region_code": "24",
    "postal_code": "36230"
  },
  {
    "name": "Buzançais",
    "code": "36031",
    "epci_code": "243600301",
    "departement_code": "36",
    "region_code": "24",
    "postal_code": "36500"
  },
  {
    "name": "Ceaulmont",
    "code": "36032",
    "epci_code": "200068872",
    "departement_code": "36",
    "region_code": "24",
    "postal_code": "36200"
  },
  {
    "name": "Celon",
    "code": "36033",
    "epci_code": "200068872",
    "departement_code": "36",
    "region_code": "24",
    "postal_code": "36200"
  },
  {
    "name": "Chabris",
    "code": "36034",
    "epci_code": "243600202",
    "departement_code": "36",
    "region_code": "24",
    "postal_code": "36210"
  },
  {
    "name": "Chaillac",
    "code": "36035",
    "epci_code": "200035137",
    "departement_code": "36",
    "region_code": "24",
    "postal_code": "36310"
  },
  {
    "name": "Chalais",
    "code": "36036",
    "epci_code": "200035137",
    "departement_code": "36",
    "region_code": "24",
    "postal_code": "36370"
  },
  {
    "name": "La Champenoise",
    "code": "36037",
    "epci_code": "200068880",
    "departement_code": "36",
    "region_code": "24",
    "postal_code": "36100"
  },
  {
    "name": "Champillet",
    "code": "36038",
    "epci_code": "243600350",
    "departement_code": "36",
    "region_code": "24",
    "postal_code": "36160"
  },
  {
    "name": "La Chapelle-Orthemale",
    "code": "36040",
    "epci_code": "243600301",
    "departement_code": "36",
    "region_code": "24",
    "postal_code": "36500"
  },
  {
    "name": "La Chapelle-Saint-Laurian",
    "code": "36041",
    "epci_code": "200068880",
    "departement_code": "36",
    "region_code": "24",
    "postal_code": "36150"
  },
  {
    "name": "Chasseneuil",
    "code": "36042",
    "epci_code": "200068872",
    "departement_code": "36",
    "region_code": "24",
    "postal_code": "36800"
  },
  {
    "name": "Chassignolles",
    "code": "36043",
    "epci_code": "243600350",
    "departement_code": "36",
    "region_code": "24",
    "postal_code": "36400"
  },
  {
    "name": "Châteauroux",
    "code": "36044",
    "epci_code": "243600327",
    "departement_code": "36",
    "region_code": "24",
    "postal_code": "36000"
  },
  {
    "name": "Châtillon-sur-Indre",
    "code": "36045",
    "epci_code": "200035848",
    "departement_code": "36",
    "region_code": "24",
    "postal_code": "36700"
  },
  {
    "name": "La Châtre",
    "code": "36046",
    "epci_code": "243600350",
    "departement_code": "36",
    "region_code": "24",
    "postal_code": "36400"
  },
  {
    "name": "La Châtre-Langlin",
    "code": "36047",
    "epci_code": "200035137",
    "departement_code": "36",
    "region_code": "24",
    "postal_code": "36170"
  },
  {
    "name": "Chavin",
    "code": "36048",
    "epci_code": "200068872",
    "departement_code": "36",
    "region_code": "24",
    "postal_code": "36200"
  },
  {
    "name": "Chazelet",
    "code": "36049",
    "epci_code": "243600319",
    "departement_code": "36",
    "region_code": "24",
    "postal_code": "36170"
  },
  {
    "name": "Chezelles",
    "code": "36050",
    "epci_code": "243600301",
    "departement_code": "36",
    "region_code": "24",
    "postal_code": "36500"
  },
  {
    "name": "Chitray",
    "code": "36051",
    "epci_code": "243600319",
    "departement_code": "36",
    "region_code": "24",
    "postal_code": "36800"
  },
  {
    "name": "Chouday",
    "code": "36052",
    "epci_code": "200068880",
    "departement_code": "36",
    "region_code": "24",
    "postal_code": "36100"
  },
  {
    "name": "Ciron",
    "code": "36053",
    "epci_code": "243600319",
    "departement_code": "36",
    "region_code": "24",
    "postal_code": "36300"
  },
  {
    "name": "Cléré-du-Bois",
    "code": "36054",
    "epci_code": "200035848",
    "departement_code": "36",
    "region_code": "24",
    "postal_code": "36700"
  },
  {
    "name": "Clion",
    "code": "36055",
    "epci_code": "200035848",
    "departement_code": "36",
    "region_code": "24",
    "postal_code": "36700"
  },
  {
    "name": "Cluis",
    "code": "36056",
    "epci_code": "200018521",
    "departement_code": "36",
    "region_code": "24",
    "postal_code": "36340"
  },
  {
    "name": "Coings",
    "code": "36057",
    "epci_code": "243600327",
    "departement_code": "36",
    "region_code": "24",
    "postal_code": "36130"
  },
  {
    "name": "Concremiers",
    "code": "36058",
    "epci_code": "243600319",
    "departement_code": "36",
    "region_code": "24",
    "postal_code": "36300"
  },
  {
    "name": "Condé",
    "code": "36059",
    "epci_code": "200068880",
    "departement_code": "36",
    "region_code": "24",
    "postal_code": "36100"
  },
  {
    "name": "Crevant",
    "code": "36060",
    "epci_code": "200007052",
    "departement_code": "36",
    "region_code": "24",
    "postal_code": "36140"
  },
  {
    "name": "Crozon-sur-Vauvre",
    "code": "36061",
    "epci_code": "200007052",
    "departement_code": "36",
    "region_code": "24",
    "postal_code": "36140"
  },
  {
    "name": "Cuzion",
    "code": "36062",
    "epci_code": "200068872",
    "departement_code": "36",
    "region_code": "24",
    "postal_code": "36190"
  },
  {
    "name": "Déols",
    "code": "36063",
    "epci_code": "243600327",
    "departement_code": "36",
    "region_code": "24",
    "postal_code": "36130"
  },
  {
    "name": "Diors",
    "code": "36064",
    "epci_code": "243600327",
    "departement_code": "36",
    "region_code": "24",
    "postal_code": "36130"
  },
  {
    "name": "Diou",
    "code": "36065",
    "epci_code": "243600236",
    "departement_code": "36",
    "region_code": "24",
    "postal_code": "36260"
  },
  {
    "name": "Douadic",
    "code": "36066",
    "epci_code": "243600319",
    "departement_code": "36",
    "region_code": "24",
    "postal_code": "36300"
  },
  {
    "name": "Dunet",
    "code": "36067",
    "epci_code": "200035137",
    "departement_code": "36",
    "region_code": "24",
    "postal_code": "36310"
  },
  {
    "name": "Dun-le-Poëlier",
    "code": "36068",
    "epci_code": "243600202",
    "departement_code": "36",
    "region_code": "24",
    "postal_code": "36210"
  },
  {
    "name": "Écueillé",
    "code": "36069",
    "epci_code": "200040558",
    "departement_code": "36",
    "region_code": "24",
    "postal_code": "36240"
  },
  {
    "name": "Éguzon-Chantôme",
    "code": "36070",
    "epci_code": "200068872",
    "departement_code": "36",
    "region_code": "24",
    "postal_code": "36270"
  },
  {
    "name": "Étrechet",
    "code": "36071",
    "epci_code": "243600327",
    "departement_code": "36",
    "region_code": "24",
    "postal_code": "36120"
  },
  {
    "name": "Feusines",
    "code": "36073",
    "epci_code": "243600350",
    "departement_code": "36",
    "region_code": "24",
    "postal_code": "36160"
  },
  {
    "name": "Fléré-la-Rivière",
    "code": "36074",
    "epci_code": "200035848",
    "departement_code": "36",
    "region_code": "24",
    "postal_code": "36700"
  },
  {
    "name": "Fontenay",
    "code": "36075",
    "epci_code": "200068880",
    "departement_code": "36",
    "region_code": "24",
    "postal_code": "36150"
  },
  {
    "name": "Fontgombault",
    "code": "36076",
    "epci_code": "243600319",
    "departement_code": "36",
    "region_code": "24",
    "postal_code": "36220"
  },
  {
    "name": "Fontguenand",
    "code": "36077",
    "epci_code": "200040558",
    "departement_code": "36",
    "region_code": "24",
    "postal_code": "36600"
  },
  {
    "name": "Fougerolles",
    "code": "36078",
    "epci_code": "200018521",
    "departement_code": "36",
    "region_code": "24",
    "postal_code": "36230"
  },
  {
    "name": "Francillon",
    "code": "36079",
    "epci_code": "243600293",
    "departement_code": "36",
    "region_code": "24",
    "postal_code": "36110"
  },
  {
    "name": "Frédille",
    "code": "36080",
    "epci_code": "200040558",
    "departement_code": "36",
    "region_code": "24",
    "postal_code": "36180"
  },
  {
    "name": "Gargilesse-Dampierre",
    "code": "36081",
    "epci_code": "200068872",
    "departement_code": "36",
    "region_code": "24",
    "postal_code": "36190"
  },
  {
    "name": "Gehée",
    "code": "36082",
    "epci_code": "200040558",
    "departement_code": "36",
    "region_code": "24",
    "postal_code": "36240"
  },
  {
    "name": "Giroux",
    "code": "36083",
    "epci_code": "200068880",
    "departement_code": "36",
    "region_code": "24",
    "postal_code": "36150"
  },
  {
    "name": "Gournay",
    "code": "36084",
    "epci_code": "200018521",
    "departement_code": "36",
    "region_code": "24",
    "postal_code": "36230"
  },
  {
    "name": "Guilly",
    "code": "36085",
    "epci_code": "200068880",
    "departement_code": "36",
    "region_code": "24",
    "postal_code": "36150"
  },
  {
    "name": "Heugnes",
    "code": "36086",
    "epci_code": "200040558",
    "departement_code": "36",
    "region_code": "24",
    "postal_code": "36180"
  },
  {
    "name": "Ingrandes",
    "code": "36087",
    "epci_code": "243600319",
    "departement_code": "36",
    "region_code": "24",
    "postal_code": "36300"
  },
  {
    "name": "Issoudun",
    "code": "36088",
    "epci_code": "243600236",
    "departement_code": "36",
    "region_code": "24",
    "postal_code": "36100"
  },
  {
    "name": "Jeu-les-Bois",
    "code": "36089",
    "epci_code": "243600327",
    "departement_code": "36",
    "region_code": "24",
    "postal_code": "36120"
  },
  {
    "name": "Jeu-Maloches",
    "code": "36090",
    "epci_code": "200040558",
    "departement_code": "36",
    "region_code": "24",
    "postal_code": "36240"
  },
  {
    "name": "Lacs",
    "code": "36091",
    "epci_code": "243600350",
    "departement_code": "36",
    "region_code": "24",
    "postal_code": "36400"
  },
  {
    "name": "Langé",
    "code": "36092",
    "epci_code": "200040558",
    "departement_code": "36",
    "region_code": "24",
    "postal_code": "36600"
  },
  {
    "name": "Levroux",
    "code": "36093",
    "epci_code": "243600293",
    "departement_code": "36",
    "region_code": "24",
    "postal_code": "36110"
  },
  {
    "name": "Lignac",
    "code": "36094",
    "epci_code": "200035137",
    "departement_code": "36",
    "region_code": "24",
    "postal_code": "36370"
  },
  {
    "name": "Lignerolles",
    "code": "36095",
    "epci_code": "243600350",
    "departement_code": "36",
    "region_code": "24",
    "postal_code": "36160"
  },
  {
    "name": "Lingé",
    "code": "36096",
    "epci_code": "243600343",
    "departement_code": "36",
    "region_code": "24",
    "postal_code": "36220"
  },
  {
    "name": "Liniez",
    "code": "36097",
    "epci_code": "200068880",
    "departement_code": "36",
    "region_code": "24",
    "postal_code": "36150"
  },
  {
    "name": "Lizeray",
    "code": "36098",
    "epci_code": "200068880",
    "departement_code": "36",
    "region_code": "24",
    "postal_code": "36100"
  },
  {
    "name": "Lourdoueix-Saint-Michel",
    "code": "36099",
    "epci_code": "200007052",
    "departement_code": "36",
    "region_code": "24",
    "postal_code": "36140"
  },
  {
    "name": "Lourouer-Saint-Laurent",
    "code": "36100",
    "epci_code": "243600350",
    "departement_code": "36",
    "region_code": "24",
    "postal_code": "36400"
  },
  {
    "name": "Luant",
    "code": "36101",
    "epci_code": "243600327",
    "departement_code": "36",
    "region_code": "24",
    "postal_code": "36350"
  },
  {
    "name": "Luçay-le-Libre",
    "code": "36102",
    "epci_code": "200068880",
    "departement_code": "36",
    "region_code": "24",
    "postal_code": "36150"
  },
  {
    "name": "Luçay-le-Mâle",
    "code": "36103",
    "epci_code": "200040558",
    "departement_code": "36",
    "region_code": "24",
    "postal_code": "36360"
  },
  {
    "name": "Lurais",
    "code": "36104",
    "epci_code": "243600319",
    "departement_code": "36",
    "region_code": "24",
    "postal_code": "36220"
  },
  {
    "name": "Lureuil",
    "code": "36105",
    "epci_code": "243600319",
    "departement_code": "36",
    "region_code": "24",
    "postal_code": "36220"
  },
  {
    "name": "Luzeret",
    "code": "36106",
    "epci_code": "243600319",
    "departement_code": "36",
    "region_code": "24",
    "postal_code": "36800"
  },
  {
    "name": "Lye",
    "code": "36107",
    "epci_code": "200040558",
    "departement_code": "36",
    "region_code": "24",
    "postal_code": "36600"
  },
  {
    "name": "Lys-Saint-Georges",
    "code": "36108",
    "epci_code": "200018521",
    "departement_code": "36",
    "region_code": "24",
    "postal_code": "36230"
  },
  {
    "name": "Le Magny",
    "code": "36109",
    "epci_code": "243600350",
    "departement_code": "36",
    "region_code": "24",
    "postal_code": "36400"
  },
  {
    "name": "Maillet",
    "code": "36110",
    "epci_code": "200018521",
    "departement_code": "36",
    "region_code": "24",
    "postal_code": "36340"
  },
  {
    "name": "Malicornay",
    "code": "36111",
    "epci_code": "200018521",
    "departement_code": "36",
    "region_code": "24",
    "postal_code": "36340"
  },
  {
    "name": "Mâron",
    "code": "36112",
    "epci_code": "243600327",
    "departement_code": "36",
    "region_code": "24",
    "postal_code": "36120"
  },
  {
    "name": "Martizay",
    "code": "36113",
    "epci_code": "243600343",
    "departement_code": "36",
    "region_code": "24",
    "postal_code": "36220"
  },
  {
    "name": "Mauvières",
    "code": "36114",
    "epci_code": "200035137",
    "departement_code": "36",
    "region_code": "24",
    "postal_code": "36370"
  },
  {
    "name": "Menetou-sur-Nahon",
    "code": "36115",
    "epci_code": "243600202",
    "departement_code": "36",
    "region_code": "24",
    "postal_code": "36210"
  },
  {
    "name": "Ménétréols-sous-Vatan",
    "code": "36116",
    "epci_code": "200068880",
    "departement_code": "36",
    "region_code": "24",
    "postal_code": "36150"
  },
  {
    "name": "Le Menoux",
    "code": "36117",
    "epci_code": "200068872",
    "departement_code": "36",
    "region_code": "24",
    "postal_code": "36200"
  },
  {
    "name": "Méobecq",
    "code": "36118",
    "epci_code": "243600301",
    "departement_code": "36",
    "region_code": "24",
    "postal_code": "36500"
  },
  {
    "name": "Mérigny",
    "code": "36119",
    "epci_code": "243600319",
    "departement_code": "36",
    "region_code": "24",
    "postal_code": "36220"
  },
  {
    "name": "Mers-sur-Indre",
    "code": "36120",
    "epci_code": "200018521",
    "departement_code": "36",
    "region_code": "24",
    "postal_code": "36230"
  },
  {
    "name": "Meunet-Planches",
    "code": "36121",
    "epci_code": "200068880",
    "departement_code": "36",
    "region_code": "24",
    "postal_code": "36100"
  },
  {
    "name": "Meunet-sur-Vatan",
    "code": "36122",
    "epci_code": "200068880",
    "departement_code": "36",
    "region_code": "24",
    "postal_code": "36150"
  },
  {
    "name": "Mézières-en-Brenne",
    "code": "36123",
    "epci_code": "243600343",
    "departement_code": "36",
    "region_code": "24",
    "postal_code": "36290"
  },
  {
    "name": "Migné",
    "code": "36124",
    "epci_code": "243600343",
    "departement_code": "36",
    "region_code": "24",
    "postal_code": "36800"
  },
  {
    "name": "Migny",
    "code": "36125",
    "epci_code": "243600236",
    "departement_code": "36",
    "region_code": "24",
    "postal_code": "36260"
  },
  {
    "name": "Montchevrier",
    "code": "36126",
    "epci_code": "200007052",
    "departement_code": "36",
    "region_code": "24",
    "postal_code": "36140"
  },
  {
    "name": "Montgivray",
    "code": "36127",
    "epci_code": "243600350",
    "departement_code": "36",
    "region_code": "24",
    "postal_code": "36400"
  },
  {
    "name": "Montierchaume",
    "code": "36128",
    "epci_code": "243600327",
    "departement_code": "36",
    "region_code": "24",
    "postal_code": "36130"
  },
  {
    "name": "Montipouret",
    "code": "36129",
    "epci_code": "200018521",
    "departement_code": "36",
    "region_code": "24",
    "postal_code": "36230"
  },
  {
    "name": "Montlevicq",
    "code": "36130",
    "epci_code": "243600350",
    "departement_code": "36",
    "region_code": "24",
    "postal_code": "36400"
  },
  {
    "name": "Mosnay",
    "code": "36131",
    "epci_code": "200068872",
    "departement_code": "36",
    "region_code": "24",
    "postal_code": "36200"
  },
  {
    "name": "La Motte-Feuilly",
    "code": "36132",
    "epci_code": "243600350",
    "departement_code": "36",
    "region_code": "24",
    "postal_code": "36160"
  },
  {
    "name": "Mouhers",
    "code": "36133",
    "epci_code": "200018521",
    "departement_code": "36",
    "region_code": "24",
    "postal_code": "36340"
  },
  {
    "name": "Mouhet",
    "code": "36134",
    "epci_code": "200035137",
    "departement_code": "36",
    "region_code": "24",
    "postal_code": "36170"
  },
  {
    "name": "Moulins-sur-Céphons",
    "code": "36135",
    "epci_code": "243600293",
    "departement_code": "36",
    "region_code": "24",
    "postal_code": "36110"
  },
  {
    "name": "Murs",
    "code": "36136",
    "epci_code": "200035848",
    "departement_code": "36",
    "region_code": "24",
    "postal_code": "36700"
  },
  {
    "name": "Néons-sur-Creuse",
    "code": "36137",
    "epci_code": "243600319",
    "departement_code": "36",
    "region_code": "24",
    "postal_code": "36220"
  },
  {
    "name": "Néret",
    "code": "36138",
    "epci_code": "243600350",
    "departement_code": "36",
    "region_code": "24",
    "postal_code": "36400"
  },
  {
    "name": "Neuillay-les-Bois",
    "code": "36139",
    "epci_code": "243600301",
    "departement_code": "36",
    "region_code": "24",
    "postal_code": "36500"
  },
  {
    "name": "Neuvy-Pailloux",
    "code": "36140",
    "epci_code": "200068880",
    "departement_code": "36",
    "region_code": "24",
    "postal_code": "36100"
  },
  {
    "name": "Neuvy-Saint-Sépulchre",
    "code": "36141",
    "epci_code": "200018521",
    "departement_code": "36",
    "region_code": "24",
    "postal_code": "36230"
  },
  {
    "name": "Niherne",
    "code": "36142",
    "epci_code": "243600301",
    "departement_code": "36",
    "region_code": "24",
    "postal_code": "36250"
  },
  {
    "name": "Nohant-Vic",
    "code": "36143",
    "epci_code": "243600350",
    "departement_code": "36",
    "region_code": "24",
    "postal_code": "36400"
  },
  {
    "name": "Nuret-le-Ferron",
    "code": "36144",
    "epci_code": "243600319",
    "departement_code": "36",
    "region_code": "24",
    "postal_code": "36800"
  },
  {
    "name": "Obterre",
    "code": "36145",
    "epci_code": "243600343",
    "departement_code": "36",
    "region_code": "24",
    "postal_code": "36290"
  },
  {
    "name": "Orsennes",
    "code": "36146",
    "epci_code": "200007052",
    "departement_code": "36",
    "region_code": "24",
    "postal_code": "36190"
  },
  {
    "name": "Orville",
    "code": "36147",
    "epci_code": "243600202",
    "departement_code": "36",
    "region_code": "24",
    "postal_code": "36210"
  },
  {
    "name": "Oulches",
    "code": "36148",
    "epci_code": "243600319",
    "departement_code": "36",
    "region_code": "24",
    "postal_code": "36800"
  },
  {
    "name": "Palluau-sur-Indre",
    "code": "36149",
    "epci_code": "200035848",
    "departement_code": "36",
    "region_code": "24",
    "postal_code": "36500"
  },
  {
    "name": "Parnac",
    "code": "36150",
    "epci_code": "200035137",
    "departement_code": "36",
    "region_code": "24",
    "postal_code": "36170"
  },
  {
    "name": "Paudy",
    "code": "36152",
    "epci_code": "243600236",
    "departement_code": "36",
    "region_code": "24",
    "postal_code": "36260"
  },
  {
    "name": "Paulnay",
    "code": "36153",
    "epci_code": "243600343",
    "departement_code": "36",
    "region_code": "24",
    "postal_code": "36290"
  },
  {
    "name": "Le Pêchereau",
    "code": "36154",
    "epci_code": "200068872",
    "departement_code": "36",
    "region_code": "24",
    "postal_code": "36200"
  },
  {
    "name": "Pellevoisin",
    "code": "36155",
    "epci_code": "200040558",
    "departement_code": "36",
    "region_code": "24",
    "postal_code": "36180"
  },
  {
    "name": "Pérassay",
    "code": "36156",
    "epci_code": "243600350",
    "departement_code": "36",
    "region_code": "24",
    "postal_code": "36160"
  },
  {
    "name": "La Pérouille",
    "code": "36157",
    "epci_code": "243600319",
    "departement_code": "36",
    "region_code": "24",
    "postal_code": "36350"
  },
  {
    "name": "Badecon-le-Pin",
    "code": "36158",
    "epci_code": "200068872",
    "departement_code": "36",
    "region_code": "24",
    "postal_code": "36200"
  },
  {
    "name": "Le Poinçonnet",
    "code": "36159",
    "epci_code": "243600327",
    "departement_code": "36",
    "region_code": "24",
    "postal_code": "36330"
  },
  {
    "name": "Pommiers",
    "code": "36160",
    "epci_code": "200068872",
    "departement_code": "36",
    "region_code": "24",
    "postal_code": "36190"
  },
  {
    "name": "Le Pont-Chrétien-Chabenet",
    "code": "36161",
    "epci_code": "200068872",
    "departement_code": "36",
    "region_code": "24",
    "postal_code": "36800"
  },
  {
    "name": "Poulaines",
    "code": "36162",
    "epci_code": "243600202",
    "departement_code": "36",
    "region_code": "24",
    "postal_code": "36210"
  },
  {
    "name": "Pouligny-Notre-Dame",
    "code": "36163",
    "epci_code": "243600350",
    "departement_code": "36",
    "region_code": "24",
    "postal_code": "36160"
  },
  {
    "name": "Pouligny-Saint-Martin",
    "code": "36164",
    "epci_code": "243600350",
    "departement_code": "36",
    "region_code": "24",
    "postal_code": "36160"
  },
  {
    "name": "Pouligny-Saint-Pierre",
    "code": "36165",
    "epci_code": "243600319",
    "departement_code": "36",
    "region_code": "24",
    "postal_code": "36300"
  },
  {
    "name": "Préaux",
    "code": "36166",
    "epci_code": "200040558",
    "departement_code": "36",
    "region_code": "24",
    "postal_code": "36240"
  },
  {
    "name": "Preuilly-la-Ville",
    "code": "36167",
    "epci_code": "243600319",
    "departement_code": "36",
    "region_code": "24",
    "postal_code": "36220"
  },
  {
    "name": "Prissac",
    "code": "36168",
    "epci_code": "200035137",
    "departement_code": "36",
    "region_code": "24",
    "postal_code": "36370"
  },
  {
    "name": "Pruniers",
    "code": "36169",
    "epci_code": "200068880",
    "departement_code": "36",
    "region_code": "24",
    "postal_code": "36120"
  },
  {
    "name": "Reboursin",
    "code": "36170",
    "epci_code": "200068880",
    "departement_code": "36",
    "region_code": "24",
    "postal_code": "36150"
  },
  {
    "name": "Reuilly",
    "code": "36171",
    "epci_code": "243600236",
    "departement_code": "36",
    "region_code": "24",
    "postal_code": "36260"
  },
  {
    "name": "Rivarennes",
    "code": "36172",
    "epci_code": "243600319",
    "departement_code": "36",
    "region_code": "24",
    "postal_code": "36800"
  },
  {
    "name": "Rosnay",
    "code": "36173",
    "epci_code": "243600319",
    "departement_code": "36",
    "region_code": "24",
    "postal_code": "36300"
  },
  {
    "name": "Roussines",
    "code": "36174",
    "epci_code": "200035137",
    "departement_code": "36",
    "region_code": "24",
    "postal_code": "36170"
  },
  {
    "name": "Rouvres-les-Bois",
    "code": "36175",
    "epci_code": "243600293",
    "departement_code": "36",
    "region_code": "24",
    "postal_code": "36110"
  },
  {
    "name": "Ruffec",
    "code": "36176",
    "epci_code": "243600319",
    "departement_code": "36",
    "region_code": "24",
    "postal_code": "36300"
  },
  {
    "name": "Sacierges-Saint-Martin",
    "code": "36177",
    "epci_code": "243600319",
    "departement_code": "36",
    "region_code": "24",
    "postal_code": "36170"
  },
  {
    "name": "Saint-Aigny",
    "code": "36178",
    "epci_code": "243600319",
    "departement_code": "36",
    "region_code": "24",
    "postal_code": "36300"
  },
  {
    "name": "Saint-Aoustrille",
    "code": "36179",
    "epci_code": "200068880",
    "departement_code": "36",
    "region_code": "24",
    "postal_code": "36100"
  },
  {
    "name": "Saint-Août",
    "code": "36180",
    "epci_code": "243600350",
    "departement_code": "36",
    "region_code": "24",
    "postal_code": "36120"
  },
  {
    "name": "Saint-Aubin",
    "code": "36181",
    "epci_code": "200068880",
    "departement_code": "36",
    "region_code": "24",
    "postal_code": "36100"
  },
  {
    "name": "Saint-Benoît-du-Sault",
    "code": "36182",
    "epci_code": "200035137",
    "departement_code": "36",
    "region_code": "24",
    "postal_code": "36170"
  },
  {
    "name": "Saint-Chartier",
    "code": "36184",
    "epci_code": "243600350",
    "departement_code": "36",
    "region_code": "24",
    "postal_code": "36400"
  },
  {
    "name": "Saint-Christophe-en-Bazelle",
    "code": "36185",
    "epci_code": "243600202",
    "departement_code": "36",
    "region_code": "24",
    "postal_code": "36210"
  },
  {
    "name": "Saint-Christophe-en-Boucherie",
    "code": "36186",
    "epci_code": "243600350",
    "departement_code": "36",
    "region_code": "24",
    "postal_code": "36400"
  },
  {
    "name": "Saint-Civran",
    "code": "36187",
    "epci_code": "243600319",
    "departement_code": "36",
    "region_code": "24",
    "postal_code": "36170"
  },
  {
    "name": "Saint-Cyran-du-Jambot",
    "code": "36188",
    "epci_code": "200035848",
    "departement_code": "36",
    "region_code": "24",
    "postal_code": "36700"
  },
  {
    "name": "Saint-Denis-de-Jouhet",
    "code": "36189",
    "epci_code": "200007052",
    "departement_code": "36",
    "region_code": "24",
    "postal_code": "36230"
  },
  {
    "name": "Sainte-Fauste",
    "code": "36190",
    "epci_code": "200068880",
    "departement_code": "36",
    "region_code": "24",
    "postal_code": "36100"
  },
  {
    "name": "Saint-Florentin",
    "code": "36191",
    "epci_code": "200068880",
    "departement_code": "36",
    "region_code": "24",
    "postal_code": "36150"
  },
  {
    "name": "Saint-Gaultier",
    "code": "36192",
    "epci_code": "200068872",
    "departement_code": "36",
    "region_code": "24",
    "postal_code": "36800"
  },
  {
    "name": "Sainte-Gemme",
    "code": "36193",
    "epci_code": "243600343",
    "departement_code": "36",
    "region_code": "24",
    "postal_code": "36500"
  },
  {
    "name": "Saint-Genou",
    "code": "36194",
    "epci_code": "243600301",
    "departement_code": "36",
    "region_code": "24",
    "postal_code": "36500"
  },
  {
    "name": "Saint-Georges-sur-Arnon",
    "code": "36195",
    "epci_code": "243600236",
    "departement_code": "36",
    "region_code": "24",
    "postal_code": "36100"
  },
  {
    "name": "Saint-Gilles",
    "code": "36196",
    "epci_code": "200035137",
    "departement_code": "36",
    "region_code": "24",
    "postal_code": "36170"
  },
  {
    "name": "Saint-Hilaire-sur-Benaize",
    "code": "36197",
    "epci_code": "200035137",
    "departement_code": "36",
    "region_code": "24",
    "postal_code": "36370"
  },
  {
    "name": "Saint-Lactencin",
    "code": "36198",
    "epci_code": "243600301",
    "departement_code": "36",
    "region_code": "24",
    "postal_code": "36500"
  },
  {
    "name": "Sainte-Lizaigne",
    "code": "36199",
    "epci_code": "243600236",
    "departement_code": "36",
    "region_code": "24",
    "postal_code": "36260"
  },
  {
    "name": "Saint-Marcel",
    "code": "36200",
    "epci_code": "200068872",
    "departement_code": "36",
    "region_code": "24",
    "postal_code": "36200"
  },
  {
    "name": "Saint-Maur",
    "code": "36202",
    "epci_code": "243600327",
    "departement_code": "36",
    "region_code": "24",
    "postal_code": "36250"
  },
  {
    "name": "Saint-Médard",
    "code": "36203",
    "epci_code": "200035848",
    "departement_code": "36",
    "region_code": "24",
    "postal_code": "36700"
  },
  {
    "name": "Saint-Michel-en-Brenne",
    "code": "36204",
    "epci_code": "243600343",
    "departement_code": "36",
    "region_code": "24",
    "postal_code": "36290"
  },
  {
    "name": "Saint-Pierre-de-Jards",
    "code": "36205",
    "epci_code": "200068880",
    "departement_code": "36",
    "region_code": "24",
    "postal_code": "36260"
  },
  {
    "name": "Saint-Plantaire",
    "code": "36207",
    "epci_code": "200007052",
    "departement_code": "36",
    "region_code": "24",
    "postal_code": "36190"
  },
  {
    "name": "Sainte-Sévère-sur-Indre",
    "code": "36208",
    "epci_code": "243600350",
    "departement_code": "36",
    "region_code": "24",
    "postal_code": "36160"
  },
  {
    "name": "Saint-Valentin",
    "code": "36209",
    "epci_code": "200068880",
    "departement_code": "36",
    "region_code": "24",
    "postal_code": "36100"
  },
  {
    "name": "Sarzay",
    "code": "36210",
    "epci_code": "243600350",
    "departement_code": "36",
    "region_code": "24",
    "postal_code": "36230"
  },
  {
    "name": "Sassierges-Saint-Germain",
    "code": "36211",
    "epci_code": "243600327",
    "departement_code": "36",
    "region_code": "24",
    "postal_code": "36120"
  },
  {
    "name": "Saulnay",
    "code": "36212",
    "epci_code": "243600343",
    "departement_code": "36",
    "region_code": "24",
    "postal_code": "36290"
  },
  {
    "name": "Sauzelles",
    "code": "36213",
    "epci_code": "243600319",
    "departement_code": "36",
    "region_code": "24",
    "postal_code": "36220"
  },
  {
    "name": "Sazeray",
    "code": "36214",
    "epci_code": "243600350",
    "departement_code": "36",
    "region_code": "24",
    "postal_code": "36160"
  },
  {
    "name": "Ségry",
    "code": "36215",
    "epci_code": "243600236",
    "departement_code": "36",
    "region_code": "24",
    "postal_code": "36100"
  },
  {
    "name": "Selles-sur-Nahon",
    "code": "36216",
    "epci_code": "200040558",
    "departement_code": "36",
    "region_code": "24",
    "postal_code": "36180"
  },
  {
    "name": "Sembleçay",
    "code": "36217",
    "epci_code": "243600202",
    "departement_code": "36",
    "region_code": "24",
    "postal_code": "36210"
  },
  {
    "name": "Sougé",
    "code": "36218",
    "epci_code": "243600301",
    "departement_code": "36",
    "region_code": "24",
    "postal_code": "36500"
  },
  {
    "name": "Tendu",
    "code": "36219",
    "epci_code": "200068872",
    "departement_code": "36",
    "region_code": "24",
    "postal_code": "36200"
  },
  {
    "name": "Thenay",
    "code": "36220",
    "epci_code": "243600319",
    "departement_code": "36",
    "region_code": "24",
    "postal_code": "36800"
  },
  {
    "name": "Thevet-Saint-Julien",
    "code": "36221",
    "epci_code": "243600350",
    "departement_code": "36",
    "region_code": "24",
    "postal_code": "36400"
  },
  {
    "name": "Thizay",
    "code": "36222",
    "epci_code": "200068880",
    "departement_code": "36",
    "region_code": "24",
    "postal_code": "36100"
  },
  {
    "name": "Tilly",
    "code": "36223",
    "epci_code": "200035137",
    "departement_code": "36",
    "region_code": "24",
    "postal_code": "36310"
  },
  {
    "name": "Tournon-Saint-Martin",
    "code": "36224",
    "epci_code": "243600319",
    "departement_code": "36",
    "region_code": "24",
    "postal_code": "36220"
  },
  {
    "name": "Le Tranger",
    "code": "36225",
    "epci_code": "200035848",
    "departement_code": "36",
    "region_code": "24",
    "postal_code": "36700"
  },
  {
    "name": "Tranzault",
    "code": "36226",
    "epci_code": "200018521",
    "departement_code": "36",
    "region_code": "24",
    "postal_code": "36230"
  },
  {
    "name": "Urciers",
    "code": "36227",
    "epci_code": "243600350",
    "departement_code": "36",
    "region_code": "24",
    "postal_code": "36160"
  },
  {
    "name": "Valençay",
    "code": "36228",
    "epci_code": "200040558",
    "departement_code": "36",
    "region_code": "24",
    "postal_code": "36600"
  },
  {
    "name": "Val-Fouzon",
    "code": "36229",
    "epci_code": "243600202",
    "departement_code": "36",
    "region_code": "24",
    "postal_code": "36210"
  },
  {
    "name": "Vatan",
    "code": "36230",
    "epci_code": "200068880",
    "departement_code": "36",
    "region_code": "24",
    "postal_code": "36150"
  },
  {
    "name": "Velles",
    "code": "36231",
    "epci_code": "200068872",
    "departement_code": "36",
    "region_code": "24",
    "postal_code": "36330"
  },
  {
    "name": "Vendœuvres",
    "code": "36232",
    "epci_code": "243600301",
    "departement_code": "36",
    "region_code": "24",
    "postal_code": "36500"
  },
  {
    "name": "La Vernelle",
    "code": "36233",
    "epci_code": "200040558",
    "departement_code": "36",
    "region_code": "24",
    "postal_code": "36600"
  },
  {
    "name": "Verneuil-sur-Igneraie",
    "code": "36234",
    "epci_code": "243600350",
    "departement_code": "36",
    "region_code": "24",
    "postal_code": "36400"
  },
  {
    "name": "Veuil",
    "code": "36235",
    "epci_code": "200040558",
    "departement_code": "36",
    "region_code": "24",
    "postal_code": "36600"
  },
  {
    "name": "Vicq-Exemplet",
    "code": "36236",
    "epci_code": "243600350",
    "departement_code": "36",
    "region_code": "24",
    "postal_code": "36400"
  },
  {
    "name": "Vicq-sur-Nahon",
    "code": "36237",
    "epci_code": "200040558",
    "departement_code": "36",
    "region_code": "24",
    "postal_code": "36600"
  },
  {
    "name": "Vigoulant",
    "code": "36238",
    "epci_code": "243600350",
    "departement_code": "36",
    "region_code": "24",
    "postal_code": "36160"
  },
  {
    "name": "Vigoux",
    "code": "36239",
    "epci_code": "243600319",
    "departement_code": "36",
    "region_code": "24",
    "postal_code": "36170"
  },
  {
    "name": "Vijon",
    "code": "36240",
    "epci_code": "243600350",
    "departement_code": "36",
    "region_code": "24",
    "postal_code": "36160"
  },
  {
    "name": "Villedieu-sur-Indre",
    "code": "36241",
    "epci_code": "243600301",
    "departement_code": "36",
    "region_code": "24",
    "postal_code": "36320"
  },
  {
    "name": "Villegongis",
    "code": "36242",
    "epci_code": "243600293",
    "departement_code": "36",
    "region_code": "24",
    "postal_code": "36110"
  },
  {
    "name": "Villegouin",
    "code": "36243",
    "epci_code": "200040558",
    "departement_code": "36",
    "region_code": "24",
    "postal_code": "36500"
  },
  {
    "name": "Villentrois-Faverolles-en-Berry",
    "code": "36244",
    "epci_code": "200040558",
    "departement_code": "36",
    "region_code": "24",
    "postal_code": "36360"
  },
  {
    "name": "Villentrois-Faverolles-en-Berry",
    "code": "36244",
    "epci_code": "200040558",
    "departement_code": "36",
    "region_code": "24",
    "postal_code": "36600"
  },
  {
    "name": "Villiers",
    "code": "36246",
    "epci_code": "243600343",
    "departement_code": "36",
    "region_code": "24",
    "postal_code": "36290"
  },
  {
    "name": "Vineuil",
    "code": "36247",
    "epci_code": "243600293",
    "departement_code": "36",
    "region_code": "24",
    "postal_code": "36110"
  },
  {
    "name": "Vouillon",
    "code": "36248",
    "epci_code": "200068880",
    "departement_code": "36",
    "region_code": "24",
    "postal_code": "36100"
  }
]