[
  {
    "name": "Ambloy",
    "code": "41001",
    "epci_code": "200072072",
    "departement_code": "41",
    "region_code": "24",
    "postal_code": "41310"
  },
  {
    "name": "Angé",
    "code": "41002",
    "epci_code": "200072064",
    "departement_code": "41",
    "region_code": "24",
    "postal_code": "41400"
  },
  {
    "name": "Areines",
    "code": "41003",
    "epci_code": "200072072",
    "departement_code": "41",
    "region_code": "24",
    "postal_code": "41100"
  },
  {
    "name": "Artins",
    "code": "41004",
    "epci_code": "200072072",
    "departement_code": "41",
    "region_code": "24",
    "postal_code": "41800"
  },
  {
    "name": "Autainville",
    "code": "41006",
    "epci_code": "200055481",
    "departement_code": "41",
    "region_code": "24",
    "postal_code": "41240"
  },
  {
    "name": "Authon",
    "code": "41007",
    "epci_code": "200072072",
    "departement_code": "41",
    "region_code": "24",
    "postal_code": "41310"
  },
  {
    "name": "Avaray",
    "code": "41008",
    "epci_code": "200055481",
    "departement_code": "41",
    "region_code": "24",
    "postal_code": "41500"
  },
  {
    "name": "Averdon",
    "code": "41009",
    "epci_code": "200030385",
    "departement_code": "41",
    "region_code": "24",
    "postal_code": "41330"
  },
  {
    "name": "Azé",
    "code": "41010",
    "epci_code": "200072072",
    "departement_code": "41",
    "region_code": "24",
    "postal_code": "41100"
  },
  {
    "name": "Baillou",
    "code": "41012",
    "epci_code": "244100293",
    "departement_code": "41",
    "region_code": "24",
    "postal_code": "41170"
  },
  {
    "name": "Bauzy",
    "code": "41013",
    "epci_code": "244100798",
    "departement_code": "41",
    "region_code": "24",
    "postal_code": "41250"
  },
  {
    "name": "Beauchêne",
    "code": "41014",
    "epci_code": "244100293",
    "departement_code": "41",
    "region_code": "24",
    "postal_code": "41170"
  },
  {
    "name": "Billy",
    "code": "41016",
    "epci_code": "200018406",
    "departement_code": "41",
    "region_code": "24",
    "postal_code": "41130"
  },
  {
    "name": "Binas",
    "code": "41017",
    "epci_code": "200070183",
    "departement_code": "41",
    "region_code": "24",
    "postal_code": "41240"
  },
  {
    "name": "Blois",
    "code": "41018",
    "epci_code": "200030385",
    "departement_code": "41",
    "region_code": "24",
    "postal_code": "41000"
  },
  {
    "name": "Boisseau",
    "code": "41019",
    "epci_code": "200055481",
    "departement_code": "41",
    "region_code": "24",
    "postal_code": "41290"
  },
  {
    "name": "Bonneveau",
    "code": "41020",
    "epci_code": "200072072",
    "departement_code": "41",
    "region_code": "24",
    "postal_code": "41800"
  },
  {
    "name": "Bouffry",
    "code": "41022",
    "epci_code": "200040772",
    "departement_code": "41",
    "region_code": "24",
    "postal_code": "41270"
  },
  {
    "name": "Boursay",
    "code": "41024",
    "epci_code": "244100293",
    "departement_code": "41",
    "region_code": "24",
    "postal_code": "41270"
  },
  {
    "name": "Bracieux",
    "code": "41025",
    "epci_code": "244100798",
    "departement_code": "41",
    "region_code": "24",
    "postal_code": "41250"
  },
  {
    "name": "Brévainville",
    "code": "41026",
    "epci_code": "200040772",
    "departement_code": "41",
    "region_code": "24",
    "postal_code": "41160"
  },
  {
    "name": "Briou",
    "code": "41027",
    "epci_code": "200055481",
    "departement_code": "41",
    "region_code": "24",
    "postal_code": "41370"
  },
  {
    "name": "Busloup",
    "code": "41028",
    "epci_code": "200040772",
    "departement_code": "41",
    "region_code": "24",
    "postal_code": "41160"
  },
  {
    "name": "Candé-sur-Beuvron",
    "code": "41029",
    "epci_code": "200030385",
    "departement_code": "41",
    "region_code": "24",
    "postal_code": "41120"
  },
  {
    "name": "Cellé",
    "code": "41030",
    "epci_code": "200072072",
    "departement_code": "41",
    "region_code": "24",
    "postal_code": "41360"
  },
  {
    "name": "Cellettes",
    "code": "41031",
    "epci_code": "200030385",
    "departement_code": "41",
    "region_code": "24",
    "postal_code": "41120"
  },
  {
    "name": "Chailles",
    "code": "41032",
    "epci_code": "200030385",
    "departement_code": "41",
    "region_code": "24",
    "postal_code": "41120"
  },
  {
    "name": "Chambord",
    "code": "41034",
    "epci_code": "244100798",
    "departement_code": "41",
    "region_code": "24",
    "postal_code": "41250"
  },
  {
    "name": "Champigny-en-Beauce",
    "code": "41035",
    "epci_code": "200030385",
    "departement_code": "41",
    "region_code": "24",
    "postal_code": "41330"
  },
  {
    "name": "Chaon",
    "code": "41036",
    "epci_code": "200000800",
    "departement_code": "41",
    "region_code": "24",
    "postal_code": "41600"
  },
  {
    "name": "La Chapelle-Enchérie",
    "code": "41037",
    "epci_code": "200040772",
    "departement_code": "41",
    "region_code": "24",
    "postal_code": "41290"
  },
  {
    "name": "La Chapelle-Montmartin",
    "code": "41038",
    "epci_code": "200018406",
    "departement_code": "41",
    "region_code": "24",
    "postal_code": "41320"
  },
  {
    "name": "La Chapelle-Saint-Martin-en-Plaine",
    "code": "41039",
    "epci_code": "200055481",
    "departement_code": "41",
    "region_code": "24",
    "postal_code": "41500"
  },
  {
    "name": "La Chapelle-Vendômoise",
    "code": "41040",
    "epci_code": "200030385",
    "departement_code": "41",
    "region_code": "24",
    "postal_code": "41330"
  },
  {
    "name": "La Chapelle-Vicomtesse",
    "code": "41041",
    "epci_code": "200040772",
    "departement_code": "41",
    "region_code": "24",
    "postal_code": "41270"
  },
  {
    "name": "Châteauvieux",
    "code": "41042",
    "epci_code": "200072064",
    "departement_code": "41",
    "region_code": "24",
    "postal_code": "41110"
  },
  {
    "name": "Châtillon-sur-Cher",
    "code": "41043",
    "epci_code": "200072064",
    "departement_code": "41",
    "region_code": "24",
    "postal_code": "41130"
  },
  {
    "name": "Châtres-sur-Cher",
    "code": "41044",
    "epci_code": "200018406",
    "departement_code": "41",
    "region_code": "24",
    "postal_code": "41320"
  },
  {
    "name": "Chaumont-sur-Loire",
    "code": "41045",
    "epci_code": "200030385",
    "departement_code": "41",
    "region_code": "24",
    "postal_code": "41150"
  },
  {
    "name": "Chaumont-sur-Tharonne",
    "code": "41046",
    "epci_code": "200000800",
    "departement_code": "41",
    "region_code": "24",
    "postal_code": "41600"
  },
  {
    "name": "La Chaussée-Saint-Victor",
    "code": "41047",
    "epci_code": "200030385",
    "departement_code": "41",
    "region_code": "24",
    "postal_code": "41260"
  },
  {
    "name": "Chauvigny-du-Perche",
    "code": "41048",
    "epci_code": "200040772",
    "departement_code": "41",
    "region_code": "24",
    "postal_code": "41270"
  },
  {
    "name": "Chémery",
    "code": "41049",
    "epci_code": "200072064",
    "departement_code": "41",
    "region_code": "24",
    "postal_code": "41700"
  },
  {
    "name": "Cheverny",
    "code": "41050",
    "epci_code": "200030385",
    "departement_code": "41",
    "region_code": "24",
    "postal_code": "41700"
  },
  {
    "name": "Chissay-en-Touraine",
    "code": "41051",
    "epci_code": "200072064",
    "departement_code": "41",
    "region_code": "24",
    "postal_code": "41400"
  },
  {
    "name": "Chitenay",
    "code": "41052",
    "epci_code": "200030385",
    "departement_code": "41",
    "region_code": "24",
    "postal_code": "41120"
  },
  {
    "name": "Choue",
    "code": "41053",
    "epci_code": "244100293",
    "departement_code": "41",
    "region_code": "24",
    "postal_code": "41170"
  },
  {
    "name": "Choussy",
    "code": "41054",
    "epci_code": "200072064",
    "departement_code": "41",
    "region_code": "24",
    "postal_code": "41700"
  },
  {
    "name": "Valloire-sur-Cisse",
    "code": "41055",
    "epci_code": "200030385",
    "departement_code": "41",
    "region_code": "24",
    "postal_code": "41150"
  },
  {
    "name": "Conan",
    "code": "41057",
    "epci_code": "200055481",
    "departement_code": "41",
    "region_code": "24",
    "postal_code": "41290"
  },
  {
    "name": "Concriers",
    "code": "41058",
    "epci_code": "200055481",
    "departement_code": "41",
    "region_code": "24",
    "postal_code": "41370"
  },
  {
    "name": "Le Controis-en-Sologne",
    "code": "41059",
    "epci_code": "200072064",
    "departement_code": "41",
    "region_code": "24",
    "postal_code": "41120"
  },
  {
    "name": "Le Controis-en-Sologne",
    "code": "41059",
    "epci_code": "200072064",
    "departement_code": "41",
    "region_code": "24",
    "postal_code": "41400"
  },
  {
    "name": "Le Controis-en-Sologne",
    "code": "41059",
    "epci_code": "200072064",
    "departement_code": "41",
    "region_code": "24",
    "postal_code": "41700"
  },
  {
    "name": "Cormenon",
    "code": "41060",
    "epci_code": "244100293",
    "departement_code": "41",
    "region_code": "24",
    "postal_code": "41170"
  },
  {
    "name": "Cormeray",
    "code": "41061",
    "epci_code": "200030385",
    "departement_code": "41",
    "region_code": "24",
    "postal_code": "41120"
  },
  {
    "name": "Couddes",
    "code": "41062",
    "epci_code": "200072064",
    "departement_code": "41",
    "region_code": "24",
    "postal_code": "41700"
  },
  {
    "name": "Couffy",
    "code": "41063",
    "epci_code": "200072064",
    "departement_code": "41",
    "region_code": "24",
    "postal_code": "41110"
  },
  {
    "name": "Coulommiers-la-Tour",
    "code": "41065",
    "epci_code": "200072072",
    "departement_code": "41",
    "region_code": "24",
    "postal_code": "41100"
  },
  {
    "name": "Courbouzon",
    "code": "41066",
    "epci_code": "200055481",
    "departement_code": "41",
    "region_code": "24",
    "postal_code": "41500"
  },
  {
    "name": "Cour-Cheverny",
    "code": "41067",
    "epci_code": "200030385",
    "departement_code": "41",
    "region_code": "24",
    "postal_code": "41700"
  },
  {
    "name": "Courmemin",
    "code": "41068",
    "epci_code": "200018406",
    "departement_code": "41",
    "region_code": "24",
    "postal_code": "41230"
  },
  {
    "name": "Cour-sur-Loire",
    "code": "41069",
    "epci_code": "200055481",
    "departement_code": "41",
    "region_code": "24",
    "postal_code": "41500"
  },
  {
    "name": "Vallée-de-Ronsard",
    "code": "41070",
    "epci_code": "200072072",
    "departement_code": "41",
    "region_code": "24",
    "postal_code": "41800"
  },
  {
    "name": "Crouy-sur-Cosson",
    "code": "41071",
    "epci_code": "244100798",
    "departement_code": "41",
    "region_code": "24",
    "postal_code": "41220"
  },
  {
    "name": "Crucheray",
    "code": "41072",
    "epci_code": "200072072",
    "departement_code": "41",
    "region_code": "24",
    "postal_code": "41100"
  },
  {
    "name": "Danzé",
    "code": "41073",
    "epci_code": "200072072",
    "departement_code": "41",
    "region_code": "24",
    "postal_code": "41160"
  },
  {
    "name": "Dhuizon",
    "code": "41074",
    "epci_code": "244100780",
    "departement_code": "41",
    "region_code": "24",
    "postal_code": "41220"
  },
  {
    "name": "Droué",
    "code": "41075",
    "epci_code": "200040772",
    "departement_code": "41",
    "region_code": "24",
    "postal_code": "41270"
  },
  {
    "name": "Épiais",
    "code": "41077",
    "epci_code": "200055481",
    "departement_code": "41",
    "region_code": "24",
    "postal_code": "41290"
  },
  {
    "name": "Épuisay",
    "code": "41078",
    "epci_code": "200072072",
    "departement_code": "41",
    "region_code": "24",
    "postal_code": "41360"
  },
  {
    "name": "Les Essarts",
    "code": "41079",
    "epci_code": "200072072",
    "departement_code": "41",
    "region_code": "24",
    "postal_code": "41800"
  },
  {
    "name": "Faverolles-sur-Cher",
    "code": "41080",
    "epci_code": "200072064",
    "departement_code": "41",
    "region_code": "24",
    "postal_code": "41400"
  },
  {
    "name": "Faye",
    "code": "41081",
    "epci_code": "200072072",
    "departement_code": "41",
    "region_code": "24",
    "postal_code": "41100"
  },
  {
    "name": "La Ferté-Beauharnais",
    "code": "41083",
    "epci_code": "244100780",
    "departement_code": "41",
    "region_code": "24",
    "postal_code": "41210"
  },
  {
    "name": "La Ferté-Imbault",
    "code": "41084",
    "epci_code": "244100806",
    "departement_code": "41",
    "region_code": "24",
    "postal_code": "41300"
  },
  {
    "name": "La Ferté-Saint-Cyr",
    "code": "41085",
    "epci_code": "244100798",
    "departement_code": "41",
    "region_code": "24",
    "postal_code": "41220"
  },
  {
    "name": "Fontaines-en-Sologne",
    "code": "41086",
    "epci_code": "244100798",
    "departement_code": "41",
    "region_code": "24",
    "postal_code": "41250"
  },
  {
    "name": "Fontaine-les-Coteaux",
    "code": "41087",
    "epci_code": "200072072",
    "departement_code": "41",
    "region_code": "24",
    "postal_code": "41800"
  },
  {
    "name": "Fontaine-Raoul",
    "code": "41088",
    "epci_code": "200040772",
    "departement_code": "41",
    "region_code": "24",
    "postal_code": "41270"
  },
  {
    "name": "La Fontenelle",
    "code": "41089",
    "epci_code": "200040772",
    "departement_code": "41",
    "region_code": "24",
    "postal_code": "41270"
  },
  {
    "name": "Fortan",
    "code": "41090",
    "epci_code": "200072072",
    "departement_code": "41",
    "region_code": "24",
    "postal_code": "41360"
  },
  {
    "name": "Fossé",
    "code": "41091",
    "epci_code": "200030385",
    "departement_code": "41",
    "region_code": "24",
    "postal_code": "41330"
  },
  {
    "name": "Françay",
    "code": "41093",
    "epci_code": "200030385",
    "departement_code": "41",
    "region_code": "24",
    "postal_code": "41190"
  },
  {
    "name": "Fresnes",
    "code": "41094",
    "epci_code": "200072064",
    "departement_code": "41",
    "region_code": "24",
    "postal_code": "41700"
  },
  {
    "name": "Fréteval",
    "code": "41095",
    "epci_code": "200040772",
    "departement_code": "41",
    "region_code": "24",
    "postal_code": "41160"
  },
  {
    "name": "Le Gault-du-Perche",
    "code": "41096",
    "epci_code": "244100293",
    "departement_code": "41",
    "region_code": "24",
    "postal_code": "41270"
  },
  {
    "name": "Gièvres",
    "code": "41097",
    "epci_code": "200018406",
    "departement_code": "41",
    "region_code": "24",
    "postal_code": "41130"
  },
  {
    "name": "Gombergean",
    "code": "41098",
    "epci_code": "200072072",
    "departement_code": "41",
    "region_code": "24",
    "postal_code": "41310"
  },
  {
    "name": "Gy-en-Sologne",
    "code": "41099",
    "epci_code": "200072064",
    "departement_code": "41",
    "region_code": "24",
    "postal_code": "41230"
  },
  {
    "name": "Les Hayes",
    "code": "41100",
    "epci_code": "200072072",
    "departement_code": "41",
    "region_code": "24",
    "postal_code": "41800"
  },
  {
    "name": "Herbault",
    "code": "41101",
    "epci_code": "200030385",
    "departement_code": "41",
    "region_code": "24",
    "postal_code": "41190"
  },
  {
    "name": "Houssay",
    "code": "41102",
    "epci_code": "200072072",
    "departement_code": "41",
    "region_code": "24",
    "postal_code": "41800"
  },
  {
    "name": "Huisseau-en-Beauce",
    "code": "41103",
    "epci_code": "200072072",
    "departement_code": "41",
    "region_code": "24",
    "postal_code": "41310"
  },
  {
    "name": "Huisseau-sur-Cosson",
    "code": "41104",
    "epci_code": "244100798",
    "departement_code": "41",
    "region_code": "24",
    "postal_code": "41350"
  },
  {
    "name": "Josnes",
    "code": "41105",
    "epci_code": "200055481",
    "departement_code": "41",
    "region_code": "24",
    "postal_code": "41370"
  },
  {
    "name": "Lamotte-Beuvron",
    "code": "41106",
    "epci_code": "200000800",
    "departement_code": "41",
    "region_code": "24",
    "postal_code": "41600"
  },
  {
    "name": "Lancé",
    "code": "41107",
    "epci_code": "200072072",
    "departement_code": "41",
    "region_code": "24",
    "postal_code": "41310"
  },
  {
    "name": "Lancôme",
    "code": "41108",
    "epci_code": "200030385",
    "departement_code": "41",
    "region_code": "24",
    "postal_code": "41190"
  },
  {
    "name": "Landes-le-Gaulois",
    "code": "41109",
    "epci_code": "200030385",
    "departement_code": "41",
    "region_code": "24",
    "postal_code": "41190"
  },
  {
    "name": "Langon-sur-Cher",
    "code": "41110",
    "epci_code": "200018406",
    "departement_code": "41",
    "region_code": "24",
    "postal_code": "41320"
  },
  {
    "name": "Lassay-sur-Croisne",
    "code": "41112",
    "epci_code": "200072064",
    "departement_code": "41",
    "region_code": "24",
    "postal_code": "41230"
  },
  {
    "name": "Lavardin",
    "code": "41113",
    "epci_code": "200072072",
    "departement_code": "41",
    "region_code": "24",
    "postal_code": "41800"
  },
  {
    "name": "Lestiou",
    "code": "41114",
    "epci_code": "200055481",
    "departement_code": "41",
    "region_code": "24",
    "postal_code": "41500"
  },
  {
    "name": "Lignières",
    "code": "41115",
    "epci_code": "200040772",
    "departement_code": "41",
    "region_code": "24",
    "postal_code": "41160"
  },
  {
    "name": "Lisle",
    "code": "41116",
    "epci_code": "200040772",
    "departement_code": "41",
    "region_code": "24",
    "postal_code": "41100"
  },
  {
    "name": "Loreux",
    "code": "41118",
    "epci_code": "200018406",
    "departement_code": "41",
    "region_code": "24",
    "postal_code": "41200"
  },
  {
    "name": "Lorges",
    "code": "41119",
    "epci_code": "200055481",
    "departement_code": "41",
    "region_code": "24",
    "postal_code": "41370"
  },
  {
    "name": "Lunay",
    "code": "41120",
    "epci_code": "200072072",
    "departement_code": "41",
    "region_code": "24",
    "postal_code": "41360"
  },
  {
    "name": "La Madeleine-Villefrouin",
    "code": "41121",
    "epci_code": "200055481",
    "departement_code": "41",
    "region_code": "24",
    "postal_code": "41370"
  },
  {
    "name": "Maray",
    "code": "41122",
    "epci_code": "200018406",
    "departement_code": "41",
    "region_code": "24",
    "postal_code": "41320"
  },
  {
    "name": "Marchenoir",
    "code": "41123",
    "epci_code": "200055481",
    "departement_code": "41",
    "region_code": "24",
    "postal_code": "41370"
  },
  {
    "name": "Marcilly-en-Beauce",
    "code": "41124",
    "epci_code": "200072072",
    "departement_code": "41",
    "region_code": "24",
    "postal_code": "41100"
  },
  {
    "name": "Marcilly-en-Gault",
    "code": "41125",
    "epci_code": "244100780",
    "departement_code": "41",
    "region_code": "24",
    "postal_code": "41210"
  },
  {
    "name": "Mareuil-sur-Cher",
    "code": "41126",
    "epci_code": "200072064",
    "departement_code": "41",
    "region_code": "24",
    "postal_code": "41110"
  },
  {
    "name": "La Marolle-en-Sologne",
    "code": "41127",
    "epci_code": "244100780",
    "departement_code": "41",
    "region_code": "24",
    "postal_code": "41210"
  },
  {
    "name": "Marolles",
    "code": "41128",
    "epci_code": "200030385",
    "departement_code": "41",
    "region_code": "24",
    "postal_code": "41330"
  },
  {
    "name": "Maslives",
    "code": "41129",
    "epci_code": "244100798",
    "departement_code": "41",
    "region_code": "24",
    "postal_code": "41250"
  },
  {
    "name": "Maves",
    "code": "41130",
    "epci_code": "200055481",
    "departement_code": "41",
    "region_code": "24",
    "postal_code": "41500"
  },
  {
    "name": "Mazangé",
    "code": "41131",
    "epci_code": "200072072",
    "departement_code": "41",
    "region_code": "24",
    "postal_code": "41100"
  },
  {
    "name": "Méhers",
    "code": "41132",
    "epci_code": "200072064",
    "departement_code": "41",
    "region_code": "24",
    "postal_code": "41140"
  },
  {
    "name": "Menars",
    "code": "41134",
    "epci_code": "200030385",
    "departement_code": "41",
    "region_code": "24",
    "postal_code": "41500"
  },
  {
    "name": "Mennetou-sur-Cher",
    "code": "41135",
    "epci_code": "200018406",
    "departement_code": "41",
    "region_code": "24",
    "postal_code": "41320"
  },
  {
    "name": "Mer",
    "code": "41136",
    "epci_code": "200055481",
    "departement_code": "41",
    "region_code": "24",
    "postal_code": "41500"
  },
  {
    "name": "Mesland",
    "code": "41137",
    "epci_code": "200030385",
    "departement_code": "41",
    "region_code": "24",
    "postal_code": "41150"
  },
  {
    "name": "Meslay",
    "code": "41138",
    "epci_code": "200072072",
    "departement_code": "41",
    "region_code": "24",
    "postal_code": "41100"
  },
  {
    "name": "Meusnes",
    "code": "41139",
    "epci_code": "200072064",
    "departement_code": "41",
    "region_code": "24",
    "postal_code": "41130"
  },
  {
    "name": "Millançay",
    "code": "41140",
    "epci_code": "244100780",
    "departement_code": "41",
    "region_code": "24",
    "postal_code": "41200"
  },
  {
    "name": "Moisy",
    "code": "41141",
    "epci_code": "200040772",
    "departement_code": "41",
    "region_code": "24",
    "postal_code": "41160"
  },
  {
    "name": "Valencisse",
    "code": "41142",
    "epci_code": "200030385",
    "departement_code": "41",
    "region_code": "24",
    "postal_code": "41190"
  },
  {
    "name": "Mondoubleau",
    "code": "41143",
    "epci_code": "244100293",
    "departement_code": "41",
    "region_code": "24",
    "postal_code": "41170"
  },
  {
    "name": "Monteaux",
    "code": "41144",
    "epci_code": "200030385",
    "departement_code": "41",
    "region_code": "24",
    "postal_code": "41150"
  },
  {
    "name": "Monthou-sur-Bièvre",
    "code": "41145",
    "epci_code": "200030385",
    "departement_code": "41",
    "region_code": "24",
    "postal_code": "41120"
  },
  {
    "name": "Monthou-sur-Cher",
    "code": "41146",
    "epci_code": "200072064",
    "departement_code": "41",
    "region_code": "24",
    "postal_code": "41400"
  },
  {
    "name": "Les Montils",
    "code": "41147",
    "epci_code": "200030385",
    "departement_code": "41",
    "region_code": "24",
    "postal_code": "41120"
  },
  {
    "name": "Montlivault",
    "code": "41148",
    "epci_code": "244100798",
    "departement_code": "41",
    "region_code": "24",
    "postal_code": "41350"
  },
  {
    "name": "Montoire-sur-le-Loir",
    "code": "41149",
    "epci_code": "200072072",
    "departement_code": "41",
    "region_code": "24",
    "postal_code": "41800"
  },
  {
    "name": "Mont-près-Chambord",
    "code": "41150",
    "epci_code": "244100798",
    "departement_code": "41",
    "region_code": "24",
    "postal_code": "41250"
  },
  {
    "name": "Montrichard Val de Cher",
    "code": "41151",
    "epci_code": "200072064",
    "departement_code": "41",
    "region_code": "24",
    "postal_code": "41400"
  },
  {
    "name": "Montrieux-en-Sologne",
    "code": "41152",
    "epci_code": "244100780",
    "departement_code": "41",
    "region_code": "24",
    "postal_code": "41210"
  },
  {
    "name": "Montrouveau",
    "code": "41153",
    "epci_code": "200072072",
    "departement_code": "41",
    "region_code": "24",
    "postal_code": "41800"
  },
  {
    "name": "Morée",
    "code": "41154",
    "epci_code": "200040772",
    "departement_code": "41",
    "region_code": "24",
    "postal_code": "41160"
  },
  {
    "name": "Muides-sur-Loire",
    "code": "41155",
    "epci_code": "200055481",
    "departement_code": "41",
    "region_code": "24",
    "postal_code": "41500"
  },
  {
    "name": "Mulsans",
    "code": "41156",
    "epci_code": "200055481",
    "departement_code": "41",
    "region_code": "24",
    "postal_code": "41500"
  },
  {
    "name": "Mur-de-Sologne",
    "code": "41157",
    "epci_code": "200018406",
    "departement_code": "41",
    "region_code": "24",
    "postal_code": "41230"
  },
  {
    "name": "Naveil",
    "code": "41158",
    "epci_code": "200072072",
    "departement_code": "41",
    "region_code": "24",
    "postal_code": "41100"
  },
  {
    "name": "Neung-sur-Beuvron",
    "code": "41159",
    "epci_code": "244100780",
    "departement_code": "41",
    "region_code": "24",
    "postal_code": "41210"
  },
  {
    "name": "Neuvy",
    "code": "41160",
    "epci_code": "244100798",
    "departement_code": "41",
    "region_code": "24",
    "postal_code": "41250"
  },
  {
    "name": "Nouan-le-Fuzelier",
    "code": "41161",
    "epci_code": "200000800",
    "departement_code": "41",
    "region_code": "24",
    "postal_code": "41600"
  },
  {
    "name": "Nourray",
    "code": "41163",
    "epci_code": "200072072",
    "departement_code": "41",
    "region_code": "24",
    "postal_code": "41310"
  },
  {
    "name": "Noyers-sur-Cher",
    "code": "41164",
    "epci_code": "200072064",
    "departement_code": "41",
    "region_code": "24",
    "postal_code": "41140"
  },
  {
    "name": "Oisly",
    "code": "41166",
    "epci_code": "200072064",
    "departement_code": "41",
    "region_code": "24",
    "postal_code": "41700"
  },
  {
    "name": "Veuzain-sur-Loire",
    "code": "41167",
    "epci_code": "200030385",
    "departement_code": "41",
    "region_code": "24",
    "postal_code": "41150"
  },
  {
    "name": "Orçay",
    "code": "41168",
    "epci_code": "244100806",
    "departement_code": "41",
    "region_code": "24",
    "postal_code": "41300"
  },
  {
    "name": "Oucques La Nouvelle",
    "code": "41171",
    "epci_code": "200055481",
    "departement_code": "41",
    "region_code": "24",
    "postal_code": "41290"
  },
  {
    "name": "Ouzouer-le-Doyen",
    "code": "41172",
    "epci_code": "200040772",
    "departement_code": "41",
    "region_code": "24",
    "postal_code": "41160"
  },
  {
    "name": "Beauce la Romaine",
    "code": "41173",
    "epci_code": "200070183",
    "departement_code": "41",
    "region_code": "24",
    "postal_code": "41160"
  },
  {
    "name": "Beauce la Romaine",
    "code": "41173",
    "epci_code": "200070183",
    "departement_code": "41",
    "region_code": "24",
    "postal_code": "41240"
  },
  {
    "name": "Périgny",
    "code": "41174",
    "epci_code": "200072072",
    "departement_code": "41",
    "region_code": "24",
    "postal_code": "41100"
  },
  {
    "name": "Pezou",
    "code": "41175",
    "epci_code": "200040772",
    "departement_code": "41",
    "region_code": "24",
    "postal_code": "41100"
  },
  {
    "name": "Pierrefitte-sur-Sauldre",
    "code": "41176",
    "epci_code": "244100806",
    "departement_code": "41",
    "region_code": "24",
    "postal_code": "41300"
  },
  {
    "name": "Le Plessis-Dorin",
    "code": "41177",
    "epci_code": "244100293",
    "departement_code": "41",
    "region_code": "24",
    "postal_code": "41170"
  },
  {
    "name": "Le Plessis-l’Échelle",
    "code": "41178",
    "epci_code": "200055481",
    "departement_code": "41",
    "region_code": "24",
    "postal_code": "41370"
  },
  {
    "name": "Le Poislay",
    "code": "41179",
    "epci_code": "200040772",
    "departement_code": "41",
    "region_code": "24",
    "postal_code": "41270"
  },
  {
    "name": "Pontlevoy",
    "code": "41180",
    "epci_code": "200072064",
    "departement_code": "41",
    "region_code": "24",
    "postal_code": "41400"
  },
  {
    "name": "Pouillé",
    "code": "41181",
    "epci_code": "200072064",
    "departement_code": "41",
    "region_code": "24",
    "postal_code": "41110"
  },
  {
    "name": "Pray",
    "code": "41182",
    "epci_code": "200072072",
    "departement_code": "41",
    "region_code": "24",
    "postal_code": "41190"
  },
  {
    "name": "Prunay-Cassereau",
    "code": "41184",
    "epci_code": "200072072",
    "departement_code": "41",
    "region_code": "24",
    "postal_code": "41310"
  },
  {
    "name": "Pruniers-en-Sologne",
    "code": "41185",
    "epci_code": "200018406",
    "departement_code": "41",
    "region_code": "24",
    "postal_code": "41200"
  },
  {
    "name": "Rahart",
    "code": "41186",
    "epci_code": "200072072",
    "departement_code": "41",
    "region_code": "24",
    "postal_code": "41160"
  },
  {
    "name": "Renay",
    "code": "41187",
    "epci_code": "200040772",
    "departement_code": "41",
    "region_code": "24",
    "postal_code": "41100"
  },
  {
    "name": "Rhodon",
    "code": "41188",
    "epci_code": "200055481",
    "departement_code": "41",
    "region_code": "24",
    "postal_code": "41290"
  },
  {
    "name": "Rilly-sur-Loire",
    "code": "41189",
    "epci_code": "200030385",
    "departement_code": "41",
    "region_code": "24",
    "postal_code": "41150"
  },
  {
    "name": "Rocé",
    "code": "41190",
    "epci_code": "200072072",
    "departement_code": "41",
    "region_code": "24",
    "postal_code": "41100"
  },
  {
    "name": "Roches",
    "code": "41191",
    "epci_code": "200055481",
    "departement_code": "41",
    "region_code": "24",
    "postal_code": "41370"
  },
  {
    "name": "Les Roches-l’Évêque",
    "code": "41192",
    "epci_code": "200072072",
    "departement_code": "41",
    "region_code": "24",
    "postal_code": "41800"
  },
  {
    "name": "Romilly",
    "code": "41193",
    "epci_code": "200040772",
    "departement_code": "41",
    "region_code": "24",
    "postal_code": "41270"
  },
  {
    "name": "Romorantin-Lanthenay",
    "code": "41194",
    "epci_code": "200018406",
    "departement_code": "41",
    "region_code": "24",
    "postal_code": "41200"
  },
  {
    "name": "Rougeou",
    "code": "41195",
    "epci_code": "200072064",
    "departement_code": "41",
    "region_code": "24",
    "postal_code": "41230"
  },
  {
    "name": "Ruan-sur-Egvonne",
    "code": "41196",
    "epci_code": "200040772",
    "departement_code": "41",
    "region_code": "24",
    "postal_code": "41270"
  },
  {
    "name": "Saint-Aignan",
    "code": "41198",
    "epci_code": "200072064",
    "departement_code": "41",
    "region_code": "24",
    "postal_code": "41110"
  },
  {
    "name": "Saint-Amand-Longpré",
    "code": "41199",
    "epci_code": "200072072",
    "departement_code": "41",
    "region_code": "24",
    "postal_code": "41310"
  },
  {
    "name": "Sainte-Anne",
    "code": "41200",
    "epci_code": "200072072",
    "departement_code": "41",
    "region_code": "24",
    "postal_code": "41100"
  },
  {
    "name": "Saint-Arnoult",
    "code": "41201",
    "epci_code": "200072072",
    "departement_code": "41",
    "region_code": "24",
    "postal_code": "41800"
  },
  {
    "name": "Saint-Bohaire",
    "code": "41203",
    "epci_code": "200030385",
    "departement_code": "41",
    "region_code": "24",
    "postal_code": "41330"
  },
  {
    "name": "Saint-Claude-de-Diray",
    "code": "41204",
    "epci_code": "244100798",
    "departement_code": "41",
    "region_code": "24",
    "postal_code": "41350"
  },
  {
    "name": "Saint-Cyr-du-Gault",
    "code": "41205",
    "epci_code": "200030385",
    "departement_code": "41",
    "region_code": "24",
    "postal_code": "41190"
  },
  {
    "name": "Saint-Denis-sur-Loire",
    "code": "41206",
    "epci_code": "200030385",
    "departement_code": "41",
    "region_code": "24",
    "postal_code": "41000"
  },
  {
    "name": "Saint-Dyé-sur-Loire",
    "code": "41207",
    "epci_code": "244100798",
    "departement_code": "41",
    "region_code": "24",
    "postal_code": "41500"
  },
  {
    "name": "Saint-Étienne-des-Guérets",
    "code": "41208",
    "epci_code": "200030385",
    "departement_code": "41",
    "region_code": "24",
    "postal_code": "41190"
  },
  {
    "name": "Saint-Firmin-des-Prés",
    "code": "41209",
    "epci_code": "200072072",
    "departement_code": "41",
    "region_code": "24",
    "postal_code": "41100"
  },
  {
    "name": "Saint-Georges-sur-Cher",
    "code": "41211",
    "epci_code": "200072064",
    "departement_code": "41",
    "region_code": "24",
    "postal_code": "41400"
  },
  {
    "name": "Saint-Gervais-la-Forêt",
    "code": "41212",
    "epci_code": "200030385",
    "departement_code": "41",
    "region_code": "24",
    "postal_code": "41350"
  },
  {
    "name": "Saint-Gourgon",
    "code": "41213",
    "epci_code": "200072072",
    "departement_code": "41",
    "region_code": "24",
    "postal_code": "41310"
  },
  {
    "name": "Saint-Hilaire-la-Gravelle",
    "code": "41214",
    "epci_code": "200040772",
    "departement_code": "41",
    "region_code": "24",
    "postal_code": "41160"
  },
  {
    "name": "Saint-Jacques-des-Guérets",
    "code": "41215",
    "epci_code": "200072072",
    "departement_code": "41",
    "region_code": "24",
    "postal_code": "41800"
  },
  {
    "name": "Saint-Jean-Froidmentel",
    "code": "41216",
    "epci_code": "200040772",
    "departement_code": "41",
    "region_code": "24",
    "postal_code": "41160"
  },
  {
    "name": "Saint-Julien-de-Chédon",
    "code": "41217",
    "epci_code": "200072064",
    "departement_code": "41",
    "region_code": "24",
    "postal_code": "41400"
  },
  {
    "name": "Saint-Julien-sur-Cher",
    "code": "41218",
    "epci_code": "200018406",
    "departement_code": "41",
    "region_code": "24",
    "postal_code": "41320"
  },
  {
    "name": "Saint-Laurent-des-Bois",
    "code": "41219",
    "epci_code": "200070183",
    "departement_code": "41",
    "region_code": "24",
    "postal_code": "41240"
  },
  {
    "name": "Saint-Laurent-Nouan",
    "code": "41220",
    "epci_code": "244100798",
    "departement_code": "41",
    "region_code": "24",
    "postal_code": "41220"
  },
  {
    "name": "Saint-Léonard-en-Beauce",
    "code": "41221",
    "epci_code": "200055481",
    "departement_code": "41",
    "region_code": "24",
    "postal_code": "41370"
  },
  {
    "name": "Saint-Loup",
    "code": "41222",
    "epci_code": "200018406",
    "departement_code": "41",
    "region_code": "24",
    "postal_code": "41320"
  },
  {
    "name": "Saint-Lubin-en-Vergonnois",
    "code": "41223",
    "epci_code": "200030385",
    "departement_code": "41",
    "region_code": "24",
    "postal_code": "41190"
  },
  {
    "name": "Saint-Marc-du-Cor",
    "code": "41224",
    "epci_code": "244100293",
    "departement_code": "41",
    "region_code": "24",
    "postal_code": "41170"
  },
  {
    "name": "Saint-Martin-des-Bois",
    "code": "41225",
    "epci_code": "200072072",
    "departement_code": "41",
    "region_code": "24",
    "postal_code": "41800"
  },
  {
    "name": "Saint-Ouen",
    "code": "41226",
    "epci_code": "200072072",
    "departement_code": "41",
    "region_code": "24",
    "postal_code": "41100"
  },
  {
    "name": "Saint-Rimay",
    "code": "41228",
    "epci_code": "200072072",
    "departement_code": "41",
    "region_code": "24",
    "postal_code": "41800"
  },
  {
    "name": "Saint-Romain-sur-Cher",
    "code": "41229",
    "epci_code": "200072064",
    "departement_code": "41",
    "region_code": "24",
    "postal_code": "41140"
  },
  {
    "name": "Saint-Sulpice-de-Pommeray",
    "code": "41230",
    "epci_code": "200030385",
    "departement_code": "41",
    "region_code": "24",
    "postal_code": "41000"
  },
  {
    "name": "Saint-Viâtre",
    "code": "41231",
    "epci_code": "244100780",
    "departement_code": "41",
    "region_code": "24",
    "postal_code": "41210"
  },
  {
    "name": "Salbris",
    "code": "41232",
    "epci_code": "244100806",
    "departement_code": "41",
    "region_code": "24",
    "postal_code": "41300"
  },
  {
    "name": "Sambin",
    "code": "41233",
    "epci_code": "200030385",
    "departement_code": "41",
    "region_code": "24",
    "postal_code": "41120"
  },
  {
    "name": "Santenay",
    "code": "41234",
    "epci_code": "200030385",
    "departement_code": "41",
    "region_code": "24",
    "postal_code": "41190"
  },
  {
    "name": "Sargé-sur-Braye",
    "code": "41235",
    "epci_code": "244100293",
    "departement_code": "41",
    "region_code": "24",
    "postal_code": "41170"
  },
  {
    "name": "Sasnières",
    "code": "41236",
    "epci_code": "200072072",
    "departement_code": "41",
    "region_code": "24",
    "postal_code": "41310"
  },
  {
    "name": "Sassay",
    "code": "41237",
    "epci_code": "200072064",
    "departement_code": "41",
    "region_code": "24",
    "postal_code": "41700"
  },
  {
    "name": "Savigny-sur-Braye",
    "code": "41238",
    "epci_code": "200072072",
    "departement_code": "41",
    "region_code": "24",
    "postal_code": "41360"
  },
  {
    "name": "Seigy",
    "code": "41239",
    "epci_code": "200072064",
    "departement_code": "41",
    "region_code": "24",
    "postal_code": "41110"
  },
  {
    "name": "Selles-Saint-Denis",
    "code": "41241",
    "epci_code": "244100806",
    "departement_code": "41",
    "region_code": "24",
    "postal_code": "41300"
  },
  {
    "name": "Selles-sur-Cher",
    "code": "41242",
    "epci_code": "200072064",
    "departement_code": "41",
    "region_code": "24",
    "postal_code": "41130"
  },
  {
    "name": "Selommes",
    "code": "41243",
    "epci_code": "200072072",
    "departement_code": "41",
    "region_code": "24",
    "postal_code": "41100"
  },
  {
    "name": "Séris",
    "code": "41245",
    "epci_code": "200055481",
    "departement_code": "41",
    "region_code": "24",
    "postal_code": "41500"
  },
  {
    "name": "Seur",
    "code": "41246",
    "epci_code": "200030385",
    "departement_code": "41",
    "region_code": "24",
    "postal_code": "41120"
  },
  {
    "name": "Soings-en-Sologne",
    "code": "41247",
    "epci_code": "200072064",
    "departement_code": "41",
    "region_code": "24",
    "postal_code": "41230"
  },
  {
    "name": "Couëtron-au-Perche",
    "code": "41248",
    "epci_code": "244100293",
    "departement_code": "41",
    "region_code": "24",
    "postal_code": "41170"
  },
  {
    "name": "Souesmes",
    "code": "41249",
    "epci_code": "244100806",
    "departement_code": "41",
    "region_code": "24",
    "postal_code": "41300"
  },
  {
    "name": "Sougé",
    "code": "41250",
    "epci_code": "200072072",
    "departement_code": "41",
    "region_code": "24",
    "postal_code": "41800"
  },
  {
    "name": "Souvigny-en-Sologne",
    "code": "41251",
    "epci_code": "200000800",
    "departement_code": "41",
    "region_code": "24",
    "postal_code": "41600"
  },
  {
    "name": "Suèvres",
    "code": "41252",
    "epci_code": "200055481",
    "departement_code": "41",
    "region_code": "24",
    "postal_code": "41500"
  },
  {
    "name": "Talcy",
    "code": "41253",
    "epci_code": "200055481",
    "departement_code": "41",
    "region_code": "24",
    "postal_code": "41370"
  },
  {
    "name": "Le Temple",
    "code": "41254",
    "epci_code": "244100293",
    "departement_code": "41",
    "region_code": "24",
    "postal_code": "41170"
  },
  {
    "name": "Ternay",
    "code": "41255",
    "epci_code": "200072072",
    "departement_code": "41",
    "region_code": "24",
    "postal_code": "41800"
  },
  {
    "name": "Theillay",
    "code": "41256",
    "epci_code": "244100806",
    "departement_code": "41",
    "region_code": "24",
    "postal_code": "41300"
  },
  {
    "name": "Thésée",
    "code": "41258",
    "epci_code": "200072064",
    "departement_code": "41",
    "region_code": "24",
    "postal_code": "41140"
  },
  {
    "name": "Thoré-la-Rochette",
    "code": "41259",
    "epci_code": "200072072",
    "departement_code": "41",
    "region_code": "24",
    "postal_code": "41100"
  },
  {
    "name": "Thoury",
    "code": "41260",
    "epci_code": "244100798",
    "departement_code": "41",
    "region_code": "24",
    "postal_code": "41220"
  },
  {
    "name": "Tourailles",
    "code": "41261",
    "epci_code": "200072072",
    "departement_code": "41",
    "region_code": "24",
    "postal_code": "41190"
  },
  {
    "name": "Tour-en-Sologne",
    "code": "41262",
    "epci_code": "244100798",
    "departement_code": "41",
    "region_code": "24",
    "postal_code": "41250"
  },
  {
    "name": "Troo",
    "code": "41265",
    "epci_code": "200072072",
    "departement_code": "41",
    "region_code": "24",
    "postal_code": "41800"
  },
  {
    "name": "Valaire",
    "code": "41266",
    "epci_code": "200030385",
    "departement_code": "41",
    "region_code": "24",
    "postal_code": "41120"
  },
  {
    "name": "Vallières-les-Grandes",
    "code": "41267",
    "epci_code": "200072064",
    "departement_code": "41",
    "region_code": "24",
    "postal_code": "41400"
  },
  {
    "name": "Veilleins",
    "code": "41268",
    "epci_code": "244100780",
    "departement_code": "41",
    "region_code": "24",
    "postal_code": "41230"
  },
  {
    "name": "Vendôme",
    "code": "41269",
    "epci_code": "200072072",
    "departement_code": "41",
    "region_code": "24",
    "postal_code": "41100"
  },
  {
    "name": "Vernou-en-Sologne",
    "code": "41271",
    "epci_code": "244100780",
    "departement_code": "41",
    "region_code": "24",
    "postal_code": "41230"
  },
  {
    "name": "Vievy-le-Rayé",
    "code": "41273",
    "epci_code": "200055481",
    "departement_code": "41",
    "region_code": "24",
    "postal_code": "41290"
  },
  {
    "name": "Villavard",
    "code": "41274",
    "epci_code": "200072072",
    "departement_code": "41",
    "region_code": "24",
    "postal_code": "41800"
  },
  {
    "name": "La Ville-aux-Clercs",
    "code": "41275",
    "epci_code": "200072072",
    "departement_code": "41",
    "region_code": "24",
    "postal_code": "41160"
  },
  {
    "name": "Villebarou",
    "code": "41276",
    "epci_code": "200030385",
    "departement_code": "41",
    "region_code": "24",
    "postal_code": "41000"
  },
  {
    "name": "Villebout",
    "code": "41277",
    "epci_code": "200040772",
    "departement_code": "41",
    "region_code": "24",
    "postal_code": "41270"
  },
  {
    "name": "Villechauve",
    "code": "41278",
    "epci_code": "200072072",
    "departement_code": "41",
    "region_code": "24",
    "postal_code": "41310"
  },
  {
    "name": "Villedieu-le-Château",
    "code": "41279",
    "epci_code": "200072072",
    "departement_code": "41",
    "region_code": "24",
    "postal_code": "41800"
  },
  {
    "name": "Villefranche-sur-Cher",
    "code": "41280",
    "epci_code": "200018406",
    "departement_code": "41",
    "region_code": "24",
    "postal_code": "41200"
  },
  {
    "name": "Villefrancœur",
    "code": "41281",
    "epci_code": "200030385",
    "departement_code": "41",
    "region_code": "24",
    "postal_code": "41330"
  },
  {
    "name": "Villeherviers",
    "code": "41282",
    "epci_code": "200018406",
    "departement_code": "41",
    "region_code": "24",
    "postal_code": "41200"
  },
  {
    "name": "Villemardy",
    "code": "41283",
    "epci_code": "200072072",
    "departement_code": "41",
    "region_code": "24",
    "postal_code": "41100"
  },
  {
    "name": "Villeneuve-Frouville",
    "code": "41284",
    "epci_code": "200055481",
    "departement_code": "41",
    "region_code": "24",
    "postal_code": "41290"
  },
  {
    "name": "Villeny",
    "code": "41285",
    "epci_code": "244100780",
    "departement_code": "41",
    "region_code": "24",
    "postal_code": "41220"
  },
  {
    "name": "Villeporcher",
    "code": "41286",
    "epci_code": "200072072",
    "departement_code": "41",
    "region_code": "24",
    "postal_code": "41310"
  },
  {
    "name": "Villerable",
    "code": "41287",
    "epci_code": "200072072",
    "departement_code": "41",
    "region_code": "24",
    "postal_code": "41100"
  },
  {
    "name": "Villerbon",
    "code": "41288",
    "epci_code": "200030385",
    "departement_code": "41",
    "region_code": "24",
    "postal_code": "41000"
  },
  {
    "name": "Villermain",
    "code": "41289",
    "epci_code": "200070183",
    "departement_code": "41",
    "region_code": "24",
    "postal_code": "41240"
  },
  {
    "name": "Villeromain",
    "code": "41290",
    "epci_code": "200072072",
    "departement_code": "41",
    "region_code": "24",
    "postal_code": "41100"
  },
  {
    "name": "Villetrun",
    "code": "41291",
    "epci_code": "200072072",
    "departement_code": "41",
    "region_code": "24",
    "postal_code": "41100"
  },
  {
    "name": "Villexanton",
    "code": "41292",
    "epci_code": "200055481",
    "departement_code": "41",
    "region_code": "24",
    "postal_code": "41500"
  },
  {
    "name": "Villiersfaux",
    "code": "41293",
    "epci_code": "200072072",
    "departement_code": "41",
    "region_code": "24",
    "postal_code": "41100"
  },
  {
    "name": "Villiers-sur-Loir",
    "code": "41294",
    "epci_code": "200072072",
    "departement_code": "41",
    "region_code": "24",
    "postal_code": "41100"
  },
  {
    "name": "Vineuil",
    "code": "41295",
    "epci_code": "200030385",
    "departement_code": "41",
    "region_code": "24",
    "postal_code": "41350"
  },
  {
    "name": "Vouzon",
    "code": "41296",
    "epci_code": "200000800",
    "departement_code": "41",
    "region_code": "24",
    "postal_code": "41600"
  },
  {
    "name": "Yvoy-le-Marron",
    "code": "41297",
    "epci_code": "244100780",
    "departement_code": "41",
    "region_code": "24",
    "postal_code": "41600"
  }
]