[
  {
    "name": "Achenheim",
    "code": "67001",
    "epci_code": "246700488",
    "departement_code": "67",
    "region_code": "44",
    "postal_code": "67204"
  },
  {
    "name": "Adamswiller",
    "code": "67002",
    "epci_code": "200067841",
    "departement_code": "67",
    "region_code": "44",
    "postal_code": "67320"
  },
  {
    "name": "Albé",
    "code": "67003",
    "epci_code": "246700777",
    "departement_code": "67",
    "region_code": "44",
    "postal_code": "67220"
  },
  {
    "name": "Sommerau",
    "code": "67004",
    "epci_code": "200068112",
    "departement_code": "67",
    "region_code": "44",
    "postal_code": "67310"
  },
  {
    "name": "Sommerau",
    "code": "67004",
    "epci_code": "200068112",
    "departement_code": "67",
    "region_code": "44",
    "postal_code": "67440"
  },
  {
    "name": "Alteckendorf",
    "code": "67005",
    "epci_code": "246700959",
    "departement_code": "67",
    "region_code": "44",
    "postal_code": "67270"
  },
  {
    "name": "Altenheim",
    "code": "67006",
    "epci_code": "200068112",
    "departement_code": "67",
    "region_code": "44",
    "postal_code": "67490"
  },
  {
    "name": "Altorf",
    "code": "67008",
    "epci_code": "246701064",
    "departement_code": "67",
    "region_code": "44",
    "postal_code": "67120"
  },
  {
    "name": "Altwiller",
    "code": "67009",
    "epci_code": "200067841",
    "departement_code": "67",
    "region_code": "44",
    "postal_code": "67260"
  },
  {
    "name": "Andlau",
    "code": "67010",
    "epci_code": "200034270",
    "departement_code": "67",
    "region_code": "44",
    "postal_code": "67140"
  },
  {
    "name": "Artolsheim",
    "code": "67011",
    "epci_code": "200030526",
    "departement_code": "67",
    "region_code": "44",
    "postal_code": "67390"
  },
  {
    "name": "Aschbach",
    "code": "67012",
    "epci_code": "200040178",
    "departement_code": "67",
    "region_code": "44",
    "postal_code": "67250"
  },
  {
    "name": "Asswiller",
    "code": "67013",
    "epci_code": "200067841",
    "departement_code": "67",
    "region_code": "44",
    "postal_code": "67320"
  },
  {
    "name": "Avolsheim",
    "code": "67016",
    "epci_code": "246701064",
    "departement_code": "67",
    "region_code": "44",
    "postal_code": "67120"
  },
  {
    "name": "Baerendorf",
    "code": "67017",
    "epci_code": "200067841",
    "departement_code": "67",
    "region_code": "44",
    "postal_code": "67320"
  },
  {
    "name": "Balbronn",
    "code": "67018",
    "epci_code": "200068864",
    "departement_code": "67",
    "region_code": "44",
    "postal_code": "67310"
  },
  {
    "name": "Baldenheim",
    "code": "67019",
    "epci_code": "246700967",
    "departement_code": "67",
    "region_code": "44",
    "postal_code": "67600"
  },
  {
    "name": "Barembach",
    "code": "67020",
    "epci_code": "246700306",
    "departement_code": "67",
    "region_code": "44",
    "postal_code": "67130"
  },
  {
    "name": "Barr",
    "code": "67021",
    "epci_code": "200034270",
    "departement_code": "67",
    "region_code": "44",
    "postal_code": "67140"
  },
  {
    "name": "Bassemberg",
    "code": "67022",
    "epci_code": "246700777",
    "departement_code": "67",
    "region_code": "44",
    "postal_code": "67220"
  },
  {
    "name": "Batzendorf",
    "code": "67023",
    "epci_code": "200067874",
    "departement_code": "67",
    "region_code": "44",
    "postal_code": "67500"
  },
  {
    "name": "Beinheim",
    "code": "67025",
    "epci_code": "200041283",
    "departement_code": "67",
    "region_code": "44",
    "postal_code": "67930"
  },
  {
    "name": "Bellefosse",
    "code": "67026",
    "epci_code": "246700306",
    "departement_code": "67",
    "region_code": "44",
    "postal_code": "67130"
  },
  {
    "name": "Belmont",
    "code": "67027",
    "epci_code": "246700306",
    "departement_code": "67",
    "region_code": "44",
    "postal_code": "67130"
  },
  {
    "name": "Benfeld",
    "code": "67028",
    "epci_code": "200067924",
    "departement_code": "67",
    "region_code": "44",
    "postal_code": "67230"
  },
  {
    "name": "Berg",
    "code": "67029",
    "epci_code": "200067841",
    "departement_code": "67",
    "region_code": "44",
    "postal_code": "67320"
  },
  {
    "name": "Bergbieten",
    "code": "67030",
    "epci_code": "200068864",
    "departement_code": "67",
    "region_code": "44",
    "postal_code": "67310"
  },
  {
    "name": "Bernardswiller",
    "code": "67031",
    "epci_code": "246701080",
    "departement_code": "67",
    "region_code": "44",
    "postal_code": "67210"
  },
  {
    "name": "Bernardvillé",
    "code": "67032",
    "epci_code": "200034270",
    "departement_code": "67",
    "region_code": "44",
    "postal_code": "67140"
  },
  {
    "name": "Bernolsheim",
    "code": "67033",
    "epci_code": "200067874",
    "departement_code": "67",
    "region_code": "44",
    "postal_code": "67170"
  },
  {
    "name": "Berstett",
    "code": "67034",
    "epci_code": "200034635",
    "departement_code": "67",
    "region_code": "44",
    "postal_code": "67370"
  },
  {
    "name": "Berstheim",
    "code": "67035",
    "epci_code": "200067874",
    "departement_code": "67",
    "region_code": "44",
    "postal_code": "67170"
  },
  {
    "name": "Bettwiller",
    "code": "67036",
    "epci_code": "200067841",
    "departement_code": "67",
    "region_code": "44",
    "postal_code": "67320"
  },
  {
    "name": "Biblisheim",
    "code": "67037",
    "epci_code": "200013050",
    "departement_code": "67",
    "region_code": "44",
    "postal_code": "67360"
  },
  {
    "name": "Bietlenheim",
    "code": "67038",
    "epci_code": "246700843",
    "departement_code": "67",
    "region_code": "44",
    "postal_code": "67720"
  },
  {
    "name": "Bilwisheim",
    "code": "67039",
    "epci_code": "200067874",
    "departement_code": "67",
    "region_code": "44",
    "postal_code": "67170"
  },
  {
    "name": "Bindernheim",
    "code": "67040",
    "epci_code": "200030526",
    "departement_code": "67",
    "region_code": "44",
    "postal_code": "67600"
  },
  {
    "name": "Bischheim",
    "code": "67043",
    "epci_code": "246700488",
    "departement_code": "67",
    "region_code": "44",
    "postal_code": "67800"
  },
  {
    "name": "Bischholtz",
    "code": "67044",
    "epci_code": "200067783",
    "departement_code": "67",
    "region_code": "44",
    "postal_code": "67340"
  },
  {
    "name": "Bischoffsheim",
    "code": "67045",
    "epci_code": "246700744",
    "departement_code": "67",
    "region_code": "44",
    "postal_code": "67870"
  },
  {
    "name": "Bischwiller",
    "code": "67046",
    "epci_code": "200067874",
    "departement_code": "67",
    "region_code": "44",
    "postal_code": "67240"
  },
  {
    "name": "Bissert",
    "code": "67047",
    "epci_code": "200067841",
    "departement_code": "67",
    "region_code": "44",
    "postal_code": "67260"
  },
  {
    "name": "Bitschhoffen",
    "code": "67048",
    "epci_code": "200067874",
    "departement_code": "67",
    "region_code": "44",
    "postal_code": "67350"
  },
  {
    "name": "Blaesheim",
    "code": "67049",
    "epci_code": "246700488",
    "departement_code": "67",
    "region_code": "44",
    "postal_code": "67113"
  },
  {
    "name": "Blancherupt",
    "code": "67050",
    "epci_code": "246700306",
    "departement_code": "67",
    "region_code": "44",
    "postal_code": "67130"
  },
  {
    "name": "Blienschwiller",
    "code": "67051",
    "epci_code": "200034270",
    "departement_code": "67",
    "region_code": "44",
    "postal_code": "67650"
  },
  {
    "name": "Bœrsch",
    "code": "67052",
    "epci_code": "246700744",
    "departement_code": "67",
    "region_code": "44",
    "postal_code": "67530"
  },
  {
    "name": "Bœsenbiesen",
    "code": "67053",
    "epci_code": "200030526",
    "departement_code": "67",
    "region_code": "44",
    "postal_code": "67390"
  },
  {
    "name": "Bolsenheim",
    "code": "67054",
    "epci_code": "200067924",
    "departement_code": "67",
    "region_code": "44",
    "postal_code": "67150"
  },
  {
    "name": "Boofzheim",
    "code": "67055",
    "epci_code": "200067924",
    "departement_code": "67",
    "region_code": "44",
    "postal_code": "67860"
  },
  {
    "name": "Bootzheim",
    "code": "67056",
    "epci_code": "200030526",
    "departement_code": "67",
    "region_code": "44",
    "postal_code": "67390"
  },
  {
    "name": "Bosselshausen",
    "code": "67057",
    "epci_code": "200067783",
    "departement_code": "67",
    "region_code": "44",
    "postal_code": "67330"
  },
  {
    "name": "Bossendorf",
    "code": "67058",
    "epci_code": "246700959",
    "departement_code": "67",
    "region_code": "44",
    "postal_code": "67270"
  },
  {
    "name": "Bourg-Bruche",
    "code": "67059",
    "epci_code": "246700306",
    "departement_code": "67",
    "region_code": "44",
    "postal_code": "67420"
  },
  {
    "name": "Bourgheim",
    "code": "67060",
    "epci_code": "200034270",
    "departement_code": "67",
    "region_code": "44",
    "postal_code": "67140"
  },
  {
    "name": "Bouxwiller",
    "code": "67061",
    "epci_code": "200067783",
    "departement_code": "67",
    "region_code": "44",
    "postal_code": "67330"
  },
  {
    "name": "Breitenau",
    "code": "67062",
    "epci_code": "246700777",
    "departement_code": "67",
    "region_code": "44",
    "postal_code": "67220"
  },
  {
    "name": "Breitenbach",
    "code": "67063",
    "epci_code": "246700777",
    "departement_code": "67",
    "region_code": "44",
    "postal_code": "67220"
  },
  {
    "name": "Breuschwickersheim",
    "code": "67065",
    "epci_code": "246700488",
    "departement_code": "67",
    "region_code": "44",
    "postal_code": "67112"
  },
  {
    "name": "La Broque",
    "code": "67066",
    "epci_code": "246700306",
    "departement_code": "67",
    "region_code": "44",
    "postal_code": "67130"
  },
  {
    "name": "La Broque",
    "code": "67066",
    "epci_code": "246700306",
    "departement_code": "67",
    "region_code": "44",
    "postal_code": "67570"
  },
  {
    "name": "Brumath",
    "code": "67067",
    "epci_code": "200067874",
    "departement_code": "67",
    "region_code": "44",
    "postal_code": "67170"
  },
  {
    "name": "Buswiller",
    "code": "67068",
    "epci_code": "200067783",
    "departement_code": "67",
    "region_code": "44",
    "postal_code": "67350"
  },
  {
    "name": "Buhl",
    "code": "67069",
    "epci_code": "200041283",
    "departement_code": "67",
    "region_code": "44",
    "postal_code": "67470"
  },
  {
    "name": "Burbach",
    "code": "67070",
    "epci_code": "200067841",
    "departement_code": "67",
    "region_code": "44",
    "postal_code": "67260"
  },
  {
    "name": "Bust",
    "code": "67071",
    "epci_code": "200067841",
    "departement_code": "67",
    "region_code": "44",
    "postal_code": "67320"
  },
  {
    "name": "Butten",
    "code": "67072",
    "epci_code": "200067841",
    "departement_code": "67",
    "region_code": "44",
    "postal_code": "67430"
  },
  {
    "name": "Châtenois",
    "code": "67073",
    "epci_code": "246700967",
    "departement_code": "67",
    "region_code": "44",
    "postal_code": "67730"
  },
  {
    "name": "Cleebourg",
    "code": "67074",
    "epci_code": "246700926",
    "departement_code": "67",
    "region_code": "44",
    "postal_code": "67160"
  },
  {
    "name": "Climbach",
    "code": "67075",
    "epci_code": "246700926",
    "departement_code": "67",
    "region_code": "44",
    "postal_code": "67510"
  },
  {
    "name": "Colroy-la-Roche",
    "code": "67076",
    "epci_code": "246700306",
    "departement_code": "67",
    "region_code": "44",
    "postal_code": "67420"
  },
  {
    "name": "Cosswiller",
    "code": "67077",
    "epci_code": "200068864",
    "departement_code": "67",
    "region_code": "44",
    "postal_code": "67310"
  },
  {
    "name": "Crastatt",
    "code": "67078",
    "epci_code": "200068864",
    "departement_code": "67",
    "region_code": "44",
    "postal_code": "67310"
  },
  {
    "name": "Crœttwiller",
    "code": "67079",
    "epci_code": "200041283",
    "departement_code": "67",
    "region_code": "44",
    "postal_code": "67470"
  },
  {
    "name": "Dachstein",
    "code": "67080",
    "epci_code": "246701064",
    "departement_code": "67",
    "region_code": "44",
    "postal_code": "67120"
  },
  {
    "name": "Dahlenheim",
    "code": "67081",
    "epci_code": "200068864",
    "departement_code": "67",
    "region_code": "44",
    "postal_code": "67310"
  },
  {
    "name": "Dalhunden",
    "code": "67082",
    "epci_code": "200041325",
    "departement_code": "67",
    "region_code": "44",
    "postal_code": "67770"
  },
  {
    "name": "Dambach",
    "code": "67083",
    "epci_code": "246701098",
    "departement_code": "67",
    "region_code": "44",
    "postal_code": "67110"
  },
  {
    "name": "Dambach-la-Ville",
    "code": "67084",
    "epci_code": "200034270",
    "departement_code": "67",
    "region_code": "44",
    "postal_code": "67650"
  },
  {
    "name": "Dangolsheim",
    "code": "67085",
    "epci_code": "200068864",
    "departement_code": "67",
    "region_code": "44",
    "postal_code": "67310"
  },
  {
    "name": "Daubensand",
    "code": "67086",
    "epci_code": "200067924",
    "departement_code": "67",
    "region_code": "44",
    "postal_code": "67150"
  },
  {
    "name": "Dauendorf",
    "code": "67087",
    "epci_code": "200067874",
    "departement_code": "67",
    "region_code": "44",
    "postal_code": "67350"
  },
  {
    "name": "Dehlingen",
    "code": "67088",
    "epci_code": "200067841",
    "departement_code": "67",
    "region_code": "44",
    "postal_code": "67430"
  },
  {
    "name": "Dettwiller",
    "code": "67089",
    "epci_code": "200068112",
    "departement_code": "67",
    "region_code": "44",
    "postal_code": "67490"
  },
  {
    "name": "Diebolsheim",
    "code": "67090",
    "epci_code": "200067924",
    "departement_code": "67",
    "region_code": "44",
    "postal_code": "67230"
  },
  {
    "name": "Diedendorf",
    "code": "67091",
    "epci_code": "200067841",
    "departement_code": "67",
    "region_code": "44",
    "postal_code": "67260"
  },
  {
    "name": "Dieffenbach-au-Val",
    "code": "67092",
    "epci_code": "246700777",
    "departement_code": "67",
    "region_code": "44",
    "postal_code": "67220"
  },
  {
    "name": "Dieffenbach-lès-Wœrth",
    "code": "67093",
    "epci_code": "200013050",
    "departement_code": "67",
    "region_code": "44",
    "postal_code": "67360"
  },
  {
    "name": "Dieffenthal",
    "code": "67094",
    "epci_code": "246700967",
    "departement_code": "67",
    "region_code": "44",
    "postal_code": "67650"
  },
  {
    "name": "Diemeringen",
    "code": "67095",
    "epci_code": "200067841",
    "departement_code": "67",
    "region_code": "44",
    "postal_code": "67430"
  },
  {
    "name": "Dimbsthal",
    "code": "67096",
    "epci_code": "200068112",
    "departement_code": "67",
    "region_code": "44",
    "postal_code": "67440"
  },
  {
    "name": "Dingsheim",
    "code": "67097",
    "epci_code": "200034635",
    "departement_code": "67",
    "region_code": "44",
    "postal_code": "67370"
  },
  {
    "name": "Dinsheim-sur-Bruche",
    "code": "67098",
    "epci_code": "246701064",
    "departement_code": "67",
    "region_code": "44",
    "postal_code": "67190"
  },
  {
    "name": "Domfessel",
    "code": "67099",
    "epci_code": "200067841",
    "departement_code": "67",
    "region_code": "44",
    "postal_code": "67430"
  },
  {
    "name": "Donnenheim",
    "code": "67100",
    "epci_code": "200067874",
    "departement_code": "67",
    "region_code": "44",
    "postal_code": "67170"
  },
  {
    "name": "Dorlisheim",
    "code": "67101",
    "epci_code": "246701064",
    "departement_code": "67",
    "region_code": "44",
    "postal_code": "67120"
  },
  {
    "name": "Dossenheim-Kochersberg",
    "code": "67102",
    "epci_code": "200034635",
    "departement_code": "67",
    "region_code": "44",
    "postal_code": "67117"
  },
  {
    "name": "Dossenheim-sur-Zinsel",
    "code": "67103",
    "epci_code": "200067783",
    "departement_code": "67",
    "region_code": "44",
    "postal_code": "67330"
  },
  {
    "name": "Drachenbronn-Birlenbach",
    "code": "67104",
    "epci_code": "246700926",
    "departement_code": "67",
    "region_code": "44",
    "postal_code": "67160"
  },
  {
    "name": "Drulingen",
    "code": "67105",
    "epci_code": "200067841",
    "departement_code": "67",
    "region_code": "44",
    "postal_code": "67320"
  },
  {
    "name": "Drusenheim",
    "code": "67106",
    "epci_code": "200041325",
    "departement_code": "67",
    "region_code": "44",
    "postal_code": "67410"
  },
  {
    "name": "Duntzenheim",
    "code": "67107",
    "epci_code": "246700959",
    "departement_code": "67",
    "region_code": "44",
    "postal_code": "67270"
  },
  {
    "name": "Duppigheim",
    "code": "67108",
    "epci_code": "246701064",
    "departement_code": "67",
    "region_code": "44",
    "postal_code": "67120"
  },
  {
    "name": "Durningen",
    "code": "67109",
    "epci_code": "200034635",
    "departement_code": "67",
    "region_code": "44",
    "postal_code": "67270"
  },
  {
    "name": "Durrenbach",
    "code": "67110",
    "epci_code": "200013050",
    "departement_code": "67",
    "region_code": "44",
    "postal_code": "67360"
  },
  {
    "name": "Durstel",
    "code": "67111",
    "epci_code": "200067841",
    "departement_code": "67",
    "region_code": "44",
    "postal_code": "67320"
  },
  {
    "name": "Duttlenheim",
    "code": "67112",
    "epci_code": "246701064",
    "departement_code": "67",
    "region_code": "44",
    "postal_code": "67120"
  },
  {
    "name": "Eberbach-Seltz",
    "code": "67113",
    "epci_code": "200041283",
    "departement_code": "67",
    "region_code": "44",
    "postal_code": "67470"
  },
  {
    "name": "Ebersheim",
    "code": "67115",
    "epci_code": "246700967",
    "departement_code": "67",
    "region_code": "44",
    "postal_code": "67600"
  },
  {
    "name": "Ebersmunster",
    "code": "67116",
    "epci_code": "246700967",
    "departement_code": "67",
    "region_code": "44",
    "postal_code": "67600"
  },
  {
    "name": "Eckartswiller",
    "code": "67117",
    "epci_code": "200068112",
    "departement_code": "67",
    "region_code": "44",
    "postal_code": "67700"
  },
  {
    "name": "Eckbolsheim",
    "code": "67118",
    "epci_code": "246700488",
    "departement_code": "67",
    "region_code": "44",
    "postal_code": "67201"
  },
  {
    "name": "Eckwersheim",
    "code": "67119",
    "epci_code": "246700488",
    "departement_code": "67",
    "region_code": "44",
    "postal_code": "67550"
  },
  {
    "name": "Eichhoffen",
    "code": "67120",
    "epci_code": "200034270",
    "departement_code": "67",
    "region_code": "44",
    "postal_code": "67140"
  },
  {
    "name": "Elsenheim",
    "code": "67121",
    "epci_code": "200030526",
    "departement_code": "67",
    "region_code": "44",
    "postal_code": "67390"
  },
  {
    "name": "Wangenbourg-Engenthal",
    "code": "67122",
    "epci_code": "200068864",
    "departement_code": "67",
    "region_code": "44",
    "postal_code": "67710"
  },
  {
    "name": "Engwiller",
    "code": "67123",
    "epci_code": "200067874",
    "departement_code": "67",
    "region_code": "44",
    "postal_code": "67350"
  },
  {
    "name": "Entzheim",
    "code": "67124",
    "epci_code": "246700488",
    "departement_code": "67",
    "region_code": "44",
    "postal_code": "67960"
  },
  {
    "name": "Epfig",
    "code": "67125",
    "epci_code": "200034270",
    "departement_code": "67",
    "region_code": "44",
    "postal_code": "67680"
  },
  {
    "name": "Erckartswiller",
    "code": "67126",
    "epci_code": "200067783",
    "departement_code": "67",
    "region_code": "44",
    "postal_code": "67290"
  },
  {
    "name": "Ergersheim",
    "code": "67127",
    "epci_code": "246701064",
    "departement_code": "67",
    "region_code": "44",
    "postal_code": "67120"
  },
  {
    "name": "Ernolsheim-Bruche",
    "code": "67128",
    "epci_code": "246701064",
    "departement_code": "67",
    "region_code": "44",
    "postal_code": "67120"
  },
  {
    "name": "Ernolsheim-lès-Saverne",
    "code": "67129",
    "epci_code": "200068112",
    "departement_code": "67",
    "region_code": "44",
    "postal_code": "67330"
  },
  {
    "name": "Erstein",
    "code": "67130",
    "epci_code": "200067924",
    "departement_code": "67",
    "region_code": "44",
    "postal_code": "67150"
  },
  {
    "name": "Eschau",
    "code": "67131",
    "epci_code": "246700488",
    "departement_code": "67",
    "region_code": "44",
    "postal_code": "67114"
  },
  {
    "name": "Eschbach",
    "code": "67132",
    "epci_code": "200013050",
    "departement_code": "67",
    "region_code": "44",
    "postal_code": "67360"
  },
  {
    "name": "Eschbourg",
    "code": "67133",
    "epci_code": "200067783",
    "departement_code": "67",
    "region_code": "44",
    "postal_code": "67320"
  },
  {
    "name": "Eschwiller",
    "code": "67134",
    "epci_code": "200067841",
    "departement_code": "67",
    "region_code": "44",
    "postal_code": "67320"
  },
  {
    "name": "Ettendorf",
    "code": "67135",
    "epci_code": "246700959",
    "departement_code": "67",
    "region_code": "44",
    "postal_code": "67350"
  },
  {
    "name": "Eywiller",
    "code": "67136",
    "epci_code": "200067841",
    "departement_code": "67",
    "region_code": "44",
    "postal_code": "67320"
  },
  {
    "name": "Fegersheim",
    "code": "67137",
    "epci_code": "246700488",
    "departement_code": "67",
    "region_code": "44",
    "postal_code": "67640"
  },
  {
    "name": "Fessenheim-le-Bas",
    "code": "67138",
    "epci_code": "200034635",
    "departement_code": "67",
    "region_code": "44",
    "postal_code": "67117"
  },
  {
    "name": "Flexbourg",
    "code": "67139",
    "epci_code": "200068864",
    "departement_code": "67",
    "region_code": "44",
    "postal_code": "67310"
  },
  {
    "name": "Forstfeld",
    "code": "67140",
    "epci_code": "200041325",
    "departement_code": "67",
    "region_code": "44",
    "postal_code": "67480"
  },
  {
    "name": "Forstheim",
    "code": "67141",
    "epci_code": "200013050",
    "departement_code": "67",
    "region_code": "44",
    "postal_code": "67580"
  },
  {
    "name": "Fort-Louis",
    "code": "67142",
    "epci_code": "200041325",
    "departement_code": "67",
    "region_code": "44",
    "postal_code": "67480"
  },
  {
    "name": "Fouchy",
    "code": "67143",
    "epci_code": "246700777",
    "departement_code": "67",
    "region_code": "44",
    "postal_code": "67220"
  },
  {
    "name": "Fouday",
    "code": "67144",
    "epci_code": "246700306",
    "departement_code": "67",
    "region_code": "44",
    "postal_code": "67130"
  },
  {
    "name": "Friedolsheim",
    "code": "67145",
    "epci_code": "200068112",
    "departement_code": "67",
    "region_code": "44",
    "postal_code": "67490"
  },
  {
    "name": "Friesenheim",
    "code": "67146",
    "epci_code": "200067924",
    "departement_code": "67",
    "region_code": "44",
    "postal_code": "67860"
  },
  {
    "name": "Frœschwiller",
    "code": "67147",
    "epci_code": "200013050",
    "departement_code": "67",
    "region_code": "44",
    "postal_code": "67360"
  },
  {
    "name": "Frohmuhl",
    "code": "67148",
    "epci_code": "200067783",
    "departement_code": "67",
    "region_code": "44",
    "postal_code": "67290"
  },
  {
    "name": "Furchhausen",
    "code": "67149",
    "epci_code": "200068112",
    "departement_code": "67",
    "region_code": "44",
    "postal_code": "67700"
  },
  {
    "name": "Furdenheim",
    "code": "67150",
    "epci_code": "200034635",
    "departement_code": "67",
    "region_code": "44",
    "postal_code": "67117"
  },
  {
    "name": "Gambsheim",
    "code": "67151",
    "epci_code": "200041325",
    "departement_code": "67",
    "region_code": "44",
    "postal_code": "67760"
  },
  {
    "name": "Geispolsheim",
    "code": "67152",
    "epci_code": "246700488",
    "departement_code": "67",
    "region_code": "44",
    "postal_code": "67118"
  },
  {
    "name": "Geiswiller-Zœbersdorf",
    "code": "67153",
    "epci_code": "246700959",
    "departement_code": "67",
    "region_code": "44",
    "postal_code": "67270"
  },
  {
    "name": "Gerstheim",
    "code": "67154",
    "epci_code": "200067924",
    "departement_code": "67",
    "region_code": "44",
    "postal_code": "67150"
  },
  {
    "name": "Gertwiller",
    "code": "67155",
    "epci_code": "200034270",
    "departement_code": "67",
    "region_code": "44",
    "postal_code": "67140"
  },
  {
    "name": "Geudertheim",
    "code": "67156",
    "epci_code": "246700843",
    "departement_code": "67",
    "region_code": "44",
    "postal_code": "67170"
  },
  {
    "name": "Gœrlingen",
    "code": "67159",
    "epci_code": "200067841",
    "departement_code": "67",
    "region_code": "44",
    "postal_code": "67320"
  },
  {
    "name": "Gœrsdorf",
    "code": "67160",
    "epci_code": "200013050",
    "departement_code": "67",
    "region_code": "44",
    "postal_code": "67360"
  },
  {
    "name": "Gottenhouse",
    "code": "67161",
    "epci_code": "200068112",
    "departement_code": "67",
    "region_code": "44",
    "postal_code": "67700"
  },
  {
    "name": "Gottesheim",
    "code": "67162",
    "epci_code": "200068112",
    "departement_code": "67",
    "region_code": "44",
    "postal_code": "67490"
  },
  {
    "name": "Gougenheim",
    "code": "67163",
    "epci_code": "200034635",
    "departement_code": "67",
    "region_code": "44",
    "postal_code": "67270"
  },
  {
    "name": "Goxwiller",
    "code": "67164",
    "epci_code": "200034270",
    "departement_code": "67",
    "region_code": "44",
    "postal_code": "67210"
  },
  {
    "name": "Grandfontaine",
    "code": "67165",
    "epci_code": "246700306",
    "departement_code": "67",
    "region_code": "44",
    "postal_code": "67130"
  },
  {
    "name": "Grassendorf",
    "code": "67166",
    "epci_code": "246700959",
    "departement_code": "67",
    "region_code": "44",
    "postal_code": "67350"
  },
  {
    "name": "Grendelbruch",
    "code": "67167",
    "epci_code": "246700744",
    "departement_code": "67",
    "region_code": "44",
    "postal_code": "67190"
  },
  {
    "name": "Gresswiller",
    "code": "67168",
    "epci_code": "246701064",
    "departement_code": "67",
    "region_code": "44",
    "postal_code": "67190"
  },
  {
    "name": "Gries",
    "code": "67169",
    "epci_code": "246700843",
    "departement_code": "67",
    "region_code": "44",
    "postal_code": "67240"
  },
  {
    "name": "Griesheim-près-Molsheim",
    "code": "67172",
    "epci_code": "246700744",
    "departement_code": "67",
    "region_code": "44",
    "postal_code": "67870"
  },
  {
    "name": "Griesheim-sur-Souffel",
    "code": "67173",
    "epci_code": "200034635",
    "departement_code": "67",
    "region_code": "44",
    "postal_code": "67370"
  },
  {
    "name": "Gumbrechtshoffen",
    "code": "67174",
    "epci_code": "246701098",
    "departement_code": "67",
    "region_code": "44",
    "postal_code": "67110"
  },
  {
    "name": "Gundershoffen",
    "code": "67176",
    "epci_code": "246701098",
    "departement_code": "67",
    "region_code": "44",
    "postal_code": "67110"
  },
  {
    "name": "Gunstett",
    "code": "67177",
    "epci_code": "200013050",
    "departement_code": "67",
    "region_code": "44",
    "postal_code": "67360"
  },
  {
    "name": "Gungwiller",
    "code": "67178",
    "epci_code": "200067841",
    "departement_code": "67",
    "region_code": "44",
    "postal_code": "67320"
  },
  {
    "name": "Haegen",
    "code": "67179",
    "epci_code": "200068112",
    "departement_code": "67",
    "region_code": "44",
    "postal_code": "67700"
  },
  {
    "name": "Haguenau",
    "code": "67180",
    "epci_code": "200067874",
    "departement_code": "67",
    "region_code": "44",
    "postal_code": "67500"
  },
  {
    "name": "Handschuheim",
    "code": "67181",
    "epci_code": "200034635",
    "departement_code": "67",
    "region_code": "44",
    "postal_code": "67117"
  },
  {
    "name": "Hangenbieten",
    "code": "67182",
    "epci_code": "246700488",
    "departement_code": "67",
    "region_code": "44",
    "postal_code": "67980"
  },
  {
    "name": "Harskirchen",
    "code": "67183",
    "epci_code": "200067841",
    "departement_code": "67",
    "region_code": "44",
    "postal_code": "67260"
  },
  {
    "name": "Hatten",
    "code": "67184",
    "epci_code": "200040178",
    "departement_code": "67",
    "region_code": "44",
    "postal_code": "67690"
  },
  {
    "name": "Hattmatt",
    "code": "67185",
    "epci_code": "200068112",
    "departement_code": "67",
    "region_code": "44",
    "postal_code": "67330"
  },
  {
    "name": "Hegeney",
    "code": "67186",
    "epci_code": "200013050",
    "departement_code": "67",
    "region_code": "44",
    "postal_code": "67360"
  },
  {
    "name": "Heidolsheim",
    "code": "67187",
    "epci_code": "200030526",
    "departement_code": "67",
    "region_code": "44",
    "postal_code": "67390"
  },
  {
    "name": "Heiligenberg",
    "code": "67188",
    "epci_code": "246701064",
    "departement_code": "67",
    "region_code": "44",
    "postal_code": "67190"
  },
  {
    "name": "Heiligenstein",
    "code": "67189",
    "epci_code": "200034270",
    "departement_code": "67",
    "region_code": "44",
    "postal_code": "67140"
  },
  {
    "name": "Hengwiller",
    "code": "67190",
    "epci_code": "200068112",
    "departement_code": "67",
    "region_code": "44",
    "postal_code": "67440"
  },
  {
    "name": "Herbitzheim",
    "code": "67191",
    "epci_code": "200067841",
    "departement_code": "67",
    "region_code": "44",
    "postal_code": "67260"
  },
  {
    "name": "Herbsheim",
    "code": "67192",
    "epci_code": "200067924",
    "departement_code": "67",
    "region_code": "44",
    "postal_code": "67230"
  },
  {
    "name": "Herrlisheim",
    "code": "67194",
    "epci_code": "200041325",
    "departement_code": "67",
    "region_code": "44",
    "postal_code": "67850"
  },
  {
    "name": "Hessenheim",
    "code": "67195",
    "epci_code": "200030526",
    "departement_code": "67",
    "region_code": "44",
    "postal_code": "67390"
  },
  {
    "name": "Hilsenheim",
    "code": "67196",
    "epci_code": "200030526",
    "departement_code": "67",
    "region_code": "44",
    "postal_code": "67600"
  },
  {
    "name": "Hindisheim",
    "code": "67197",
    "epci_code": "200067924",
    "departement_code": "67",
    "region_code": "44",
    "postal_code": "67150"
  },
  {
    "name": "Hinsbourg",
    "code": "67198",
    "epci_code": "200067783",
    "departement_code": "67",
    "region_code": "44",
    "postal_code": "67290"
  },
  {
    "name": "Hinsingen",
    "code": "67199",
    "epci_code": "200067841",
    "departement_code": "67",
    "region_code": "44",
    "postal_code": "67260"
  },
  {
    "name": "Hipsheim",
    "code": "67200",
    "epci_code": "200067924",
    "departement_code": "67",
    "region_code": "44",
    "postal_code": "67150"
  },
  {
    "name": "Hirschland",
    "code": "67201",
    "epci_code": "200067841",
    "departement_code": "67",
    "region_code": "44",
    "postal_code": "67320"
  },
  {
    "name": "Hochfelden",
    "code": "67202",
    "epci_code": "246700959",
    "departement_code": "67",
    "region_code": "44",
    "postal_code": "67270"
  },
  {
    "name": "Hochstett",
    "code": "67203",
    "epci_code": "200067874",
    "departement_code": "67",
    "region_code": "44",
    "postal_code": "67170"
  },
  {
    "name": "Hœnheim",
    "code": "67204",
    "epci_code": "246700488",
    "departement_code": "67",
    "region_code": "44",
    "postal_code": "67800"
  },
  {
    "name": "Hœrdt",
    "code": "67205",
    "epci_code": "246700843",
    "departement_code": "67",
    "region_code": "44",
    "postal_code": "67720"
  },
  {
    "name": "Hoffen",
    "code": "67206",
    "epci_code": "200040178",
    "departement_code": "67",
    "region_code": "44",
    "postal_code": "67250"
  },
  {
    "name": "Hohengœft",
    "code": "67208",
    "epci_code": "200068864",
    "departement_code": "67",
    "region_code": "44",
    "postal_code": "67310"
  },
  {
    "name": "Hohfrankenheim",
    "code": "67209",
    "epci_code": "246700959",
    "departement_code": "67",
    "region_code": "44",
    "postal_code": "67270"
  },
  {
    "name": "Le Hohwald",
    "code": "67210",
    "epci_code": "200034270",
    "departement_code": "67",
    "region_code": "44",
    "postal_code": "67140"
  },
  {
    "name": "Holtzheim",
    "code": "67212",
    "epci_code": "246700488",
    "departement_code": "67",
    "region_code": "44",
    "postal_code": "67810"
  },
  {
    "name": "Hunspach",
    "code": "67213",
    "epci_code": "246700926",
    "departement_code": "67",
    "region_code": "44",
    "postal_code": "67250"
  },
  {
    "name": "Hurtigheim",
    "code": "67214",
    "epci_code": "200034635",
    "departement_code": "67",
    "region_code": "44",
    "postal_code": "67117"
  },
  {
    "name": "Huttendorf",
    "code": "67215",
    "epci_code": "200067874",
    "departement_code": "67",
    "region_code": "44",
    "postal_code": "67270"
  },
  {
    "name": "Huttenheim",
    "code": "67216",
    "epci_code": "200067924",
    "departement_code": "67",
    "region_code": "44",
    "postal_code": "67230"
  },
  {
    "name": "Ichtratzheim",
    "code": "67217",
    "epci_code": "200067924",
    "departement_code": "67",
    "region_code": "44",
    "postal_code": "67640"
  },
  {
    "name": "Illkirch-Graffenstaden",
    "code": "67218",
    "epci_code": "246700488",
    "departement_code": "67",
    "region_code": "44",
    "postal_code": "67400"
  },
  {
    "name": "Ingenheim",
    "code": "67220",
    "epci_code": "246700959",
    "departement_code": "67",
    "region_code": "44",
    "postal_code": "67270"
  },
  {
    "name": "Ingolsheim",
    "code": "67221",
    "epci_code": "246700926",
    "departement_code": "67",
    "region_code": "44",
    "postal_code": "67250"
  },
  {
    "name": "Ingwiller",
    "code": "67222",
    "epci_code": "200067783",
    "departement_code": "67",
    "region_code": "44",
    "postal_code": "67340"
  },
  {
    "name": "Innenheim",
    "code": "67223",
    "epci_code": "246701080",
    "departement_code": "67",
    "region_code": "44",
    "postal_code": "67880"
  },
  {
    "name": "Issenhausen",
    "code": "67225",
    "epci_code": "246700959",
    "departement_code": "67",
    "region_code": "44",
    "postal_code": "67330"
  },
  {
    "name": "Ittenheim",
    "code": "67226",
    "epci_code": "200034635",
    "departement_code": "67",
    "region_code": "44",
    "postal_code": "67117"
  },
  {
    "name": "Itterswiller",
    "code": "67227",
    "epci_code": "200034270",
    "departement_code": "67",
    "region_code": "44",
    "postal_code": "67140"
  },
  {
    "name": "Neugartheim-Ittlenheim",
    "code": "67228",
    "epci_code": "200034635",
    "departement_code": "67",
    "region_code": "44",
    "postal_code": "67370"
  },
  {
    "name": "Jetterswiller",
    "code": "67229",
    "epci_code": "200068864",
    "departement_code": "67",
    "region_code": "44",
    "postal_code": "67440"
  },
  {
    "name": "Kaltenhouse",
    "code": "67230",
    "epci_code": "200067874",
    "departement_code": "67",
    "region_code": "44",
    "postal_code": "67240"
  },
  {
    "name": "Kauffenheim",
    "code": "67231",
    "epci_code": "200041325",
    "departement_code": "67",
    "region_code": "44",
    "postal_code": "67480"
  },
  {
    "name": "Keffenach",
    "code": "67232",
    "epci_code": "200040178",
    "departement_code": "67",
    "region_code": "44",
    "postal_code": "67250"
  },
  {
    "name": "Kertzfeld",
    "code": "67233",
    "epci_code": "200067924",
    "departement_code": "67",
    "region_code": "44",
    "postal_code": "67230"
  },
  {
    "name": "Keskastel",
    "code": "67234",
    "epci_code": "200067841",
    "departement_code": "67",
    "region_code": "44",
    "postal_code": "67260"
  },
  {
    "name": "Kesseldorf",
    "code": "67235",
    "epci_code": "200041283",
    "departement_code": "67",
    "region_code": "44",
    "postal_code": "67930"
  },
  {
    "name": "Kienheim",
    "code": "67236",
    "epci_code": "200034635",
    "departement_code": "67",
    "region_code": "44",
    "postal_code": "67270"
  },
  {
    "name": "Kilstett",
    "code": "67237",
    "epci_code": "200041325",
    "departement_code": "67",
    "region_code": "44",
    "postal_code": "67840"
  },
  {
    "name": "Kindwiller",
    "code": "67238",
    "epci_code": "200067874",
    "departement_code": "67",
    "region_code": "44",
    "postal_code": "67350"
  },
  {
    "name": "Kintzheim",
    "code": "67239",
    "epci_code": "246700967",
    "departement_code": "67",
    "region_code": "44",
    "postal_code": "67600"
  },
  {
    "name": "Kirchheim",
    "code": "67240",
    "epci_code": "200068864",
    "departement_code": "67",
    "region_code": "44",
    "postal_code": "67520"
  },
  {
    "name": "Kirrberg",
    "code": "67241",
    "epci_code": "200067841",
    "departement_code": "67",
    "region_code": "44",
    "postal_code": "67320"
  },
  {
    "name": "Kirrwiller",
    "code": "67242",
    "epci_code": "200067783",
    "departement_code": "67",
    "region_code": "44",
    "postal_code": "67330"
  },
  {
    "name": "Kleingœft",
    "code": "67244",
    "epci_code": "200068112",
    "departement_code": "67",
    "region_code": "44",
    "postal_code": "67440"
  },
  {
    "name": "Knœrsheim",
    "code": "67245",
    "epci_code": "200068864",
    "departement_code": "67",
    "region_code": "44",
    "postal_code": "67310"
  },
  {
    "name": "Kogenheim",
    "code": "67246",
    "epci_code": "200067924",
    "departement_code": "67",
    "region_code": "44",
    "postal_code": "67230"
  },
  {
    "name": "Kolbsheim",
    "code": "67247",
    "epci_code": "246700488",
    "departement_code": "67",
    "region_code": "44",
    "postal_code": "67120"
  },
  {
    "name": "Krautergersheim",
    "code": "67248",
    "epci_code": "246701080",
    "departement_code": "67",
    "region_code": "44",
    "postal_code": "67880"
  },
  {
    "name": "Krautwiller",
    "code": "67249",
    "epci_code": "200067874",
    "departement_code": "67",
    "region_code": "44",
    "postal_code": "67170"
  },
  {
    "name": "Kriegsheim",
    "code": "67250",
    "epci_code": "200067874",
    "departement_code": "67",
    "region_code": "44",
    "postal_code": "67170"
  },
  {
    "name": "Kurtzenhouse",
    "code": "67252",
    "epci_code": "246700843",
    "departement_code": "67",
    "region_code": "44",
    "postal_code": "67240"
  },
  {
    "name": "Kuttolsheim",
    "code": "67253",
    "epci_code": "200034635",
    "departement_code": "67",
    "region_code": "44",
    "postal_code": "67520"
  },
  {
    "name": "Kutzenhausen",
    "code": "67254",
    "epci_code": "200013050",
    "departement_code": "67",
    "region_code": "44",
    "postal_code": "67250"
  },
  {
    "name": "Lalaye",
    "code": "67255",
    "epci_code": "246700777",
    "departement_code": "67",
    "region_code": "44",
    "postal_code": "67220"
  },
  {
    "name": "Lampertheim",
    "code": "67256",
    "epci_code": "246700488",
    "departement_code": "67",
    "region_code": "44",
    "postal_code": "67450"
  },
  {
    "name": "Lampertsloch",
    "code": "67257",
    "epci_code": "200013050",
    "departement_code": "67",
    "region_code": "44",
    "postal_code": "67250"
  },
  {
    "name": "Landersheim",
    "code": "67258",
    "epci_code": "200068112",
    "departement_code": "67",
    "region_code": "44",
    "postal_code": "67700"
  },
  {
    "name": "Langensoultzbach",
    "code": "67259",
    "epci_code": "200013050",
    "departement_code": "67",
    "region_code": "44",
    "postal_code": "67360"
  },
  {
    "name": "Laubach",
    "code": "67260",
    "epci_code": "200013050",
    "departement_code": "67",
    "region_code": "44",
    "postal_code": "67580"
  },
  {
    "name": "Lauterbourg",
    "code": "67261",
    "epci_code": "200041283",
    "departement_code": "67",
    "region_code": "44",
    "postal_code": "67630"
  },
  {
    "name": "Lembach",
    "code": "67263",
    "epci_code": "200013050",
    "departement_code": "67",
    "region_code": "44",
    "postal_code": "67510"
  },
  {
    "name": "Leutenheim",
    "code": "67264",
    "epci_code": "200041325",
    "departement_code": "67",
    "region_code": "44",
    "postal_code": "67480"
  },
  {
    "name": "Lichtenberg",
    "code": "67265",
    "epci_code": "200067783",
    "departement_code": "67",
    "region_code": "44",
    "postal_code": "67340"
  },
  {
    "name": "Limersheim",
    "code": "67266",
    "epci_code": "200067924",
    "departement_code": "67",
    "region_code": "44",
    "postal_code": "67150"
  },
  {
    "name": "Lingolsheim",
    "code": "67267",
    "epci_code": "246700488",
    "departement_code": "67",
    "region_code": "44",
    "postal_code": "67380"
  },
  {
    "name": "Lipsheim",
    "code": "67268",
    "epci_code": "246700488",
    "departement_code": "67",
    "region_code": "44",
    "postal_code": "67640"
  },
  {
    "name": "Littenheim",
    "code": "67269",
    "epci_code": "200068112",
    "departement_code": "67",
    "region_code": "44",
    "postal_code": "67490"
  },
  {
    "name": "Lixhausen",
    "code": "67270",
    "epci_code": "246700959",
    "departement_code": "67",
    "region_code": "44",
    "postal_code": "67270"
  },
  {
    "name": "Lobsann",
    "code": "67271",
    "epci_code": "200013050",
    "departement_code": "67",
    "region_code": "44",
    "postal_code": "67250"
  },
  {
    "name": "Lochwiller",
    "code": "67272",
    "epci_code": "200068112",
    "departement_code": "67",
    "region_code": "44",
    "postal_code": "67440"
  },
  {
    "name": "Lohr",
    "code": "67273",
    "epci_code": "200067783",
    "departement_code": "67",
    "region_code": "44",
    "postal_code": "67290"
  },
  {
    "name": "Lorentzen",
    "code": "67274",
    "epci_code": "200067841",
    "departement_code": "67",
    "region_code": "44",
    "postal_code": "67430"
  },
  {
    "name": "Lupstein",
    "code": "67275",
    "epci_code": "200068112",
    "departement_code": "67",
    "region_code": "44",
    "postal_code": "67490"
  },
  {
    "name": "Lutzelhouse",
    "code": "67276",
    "epci_code": "246700306",
    "departement_code": "67",
    "region_code": "44",
    "postal_code": "67130"
  },
  {
    "name": "Mackenheim",
    "code": "67277",
    "epci_code": "200030526",
    "departement_code": "67",
    "region_code": "44",
    "postal_code": "67390"
  },
  {
    "name": "Mackwiller",
    "code": "67278",
    "epci_code": "200067841",
    "departement_code": "67",
    "region_code": "44",
    "postal_code": "67430"
  },
  {
    "name": "Maennolsheim",
    "code": "67279",
    "epci_code": "200068112",
    "departement_code": "67",
    "region_code": "44",
    "postal_code": "67700"
  },
  {
    "name": "Maisonsgoutte",
    "code": "67280",
    "epci_code": "246700777",
    "departement_code": "67",
    "region_code": "44",
    "postal_code": "67220"
  },
  {
    "name": "Marckolsheim",
    "code": "67281",
    "epci_code": "200030526",
    "departement_code": "67",
    "region_code": "44",
    "postal_code": "67390"
  },
  {
    "name": "Marlenheim",
    "code": "67282",
    "epci_code": "200068864",
    "departement_code": "67",
    "region_code": "44",
    "postal_code": "67520"
  },
  {
    "name": "Marmoutier",
    "code": "67283",
    "epci_code": "200068112",
    "departement_code": "67",
    "region_code": "44",
    "postal_code": "67440"
  },
  {
    "name": "Matzenheim",
    "code": "67285",
    "epci_code": "200067924",
    "departement_code": "67",
    "region_code": "44",
    "postal_code": "67150"
  },
  {
    "name": "Meistratzheim",
    "code": "67286",
    "epci_code": "246701080",
    "departement_code": "67",
    "region_code": "44",
    "postal_code": "67210"
  },
  {
    "name": "Melsheim",
    "code": "67287",
    "epci_code": "246700959",
    "departement_code": "67",
    "region_code": "44",
    "postal_code": "67270"
  },
  {
    "name": "Memmelshoffen",
    "code": "67288",
    "epci_code": "200040178",
    "departement_code": "67",
    "region_code": "44",
    "postal_code": "67250"
  },
  {
    "name": "Menchhoffen",
    "code": "67289",
    "epci_code": "200067783",
    "departement_code": "67",
    "region_code": "44",
    "postal_code": "67340"
  },
  {
    "name": "Merkwiller-Pechelbronn",
    "code": "67290",
    "epci_code": "200013050",
    "departement_code": "67",
    "region_code": "44",
    "postal_code": "67250"
  },
  {
    "name": "Mertzwiller",
    "code": "67291",
    "epci_code": "246701098",
    "departement_code": "67",
    "region_code": "44",
    "postal_code": "67580"
  },
  {
    "name": "Mietesheim",
    "code": "67292",
    "epci_code": "246701098",
    "departement_code": "67",
    "region_code": "44",
    "postal_code": "67580"
  },
  {
    "name": "Minversheim",
    "code": "67293",
    "epci_code": "246700959",
    "departement_code": "67",
    "region_code": "44",
    "postal_code": "67270"
  },
  {
    "name": "Mittelbergheim",
    "code": "67295",
    "epci_code": "200034270",
    "departement_code": "67",
    "region_code": "44",
    "postal_code": "67140"
  },
  {
    "name": "Mittelhausbergen",
    "code": "67296",
    "epci_code": "246700488",
    "departement_code": "67",
    "region_code": "44",
    "postal_code": "67206"
  },
  {
    "name": "Mittelschaeffolsheim",
    "code": "67298",
    "epci_code": "200067874",
    "departement_code": "67",
    "region_code": "44",
    "postal_code": "67170"
  },
  {
    "name": "Mollkirch",
    "code": "67299",
    "epci_code": "246700744",
    "departement_code": "67",
    "region_code": "44",
    "postal_code": "67190"
  },
  {
    "name": "Molsheim",
    "code": "67300",
    "epci_code": "246701064",
    "departement_code": "67",
    "region_code": "44",
    "postal_code": "67120"
  },
  {
    "name": "Mommenheim",
    "code": "67301",
    "epci_code": "200067874",
    "departement_code": "67",
    "region_code": "44",
    "postal_code": "67670"
  },
  {
    "name": "Monswiller",
    "code": "67302",
    "epci_code": "200068112",
    "departement_code": "67",
    "region_code": "44",
    "postal_code": "67700"
  },
  {
    "name": "Morsbronn-les-Bains",
    "code": "67303",
    "epci_code": "200013050",
    "departement_code": "67",
    "region_code": "44",
    "postal_code": "67360"
  },
  {
    "name": "Morschwiller",
    "code": "67304",
    "epci_code": "200067874",
    "departement_code": "67",
    "region_code": "44",
    "postal_code": "67350"
  },
  {
    "name": "Mothern",
    "code": "67305",
    "epci_code": "200041283",
    "departement_code": "67",
    "region_code": "44",
    "postal_code": "67470"
  },
  {
    "name": "Muhlbach-sur-Bruche",
    "code": "67306",
    "epci_code": "246700306",
    "departement_code": "67",
    "region_code": "44",
    "postal_code": "67130"
  },
  {
    "name": "Mulhausen",
    "code": "67307",
    "epci_code": "200067783",
    "departement_code": "67",
    "region_code": "44",
    "postal_code": "67350"
  },
  {
    "name": "Munchhausen",
    "code": "67308",
    "epci_code": "200041283",
    "departement_code": "67",
    "region_code": "44",
    "postal_code": "67470"
  },
  {
    "name": "Mundolsheim",
    "code": "67309",
    "epci_code": "246700488",
    "departement_code": "67",
    "region_code": "44",
    "postal_code": "67450"
  },
  {
    "name": "Mussig",
    "code": "67310",
    "epci_code": "246700967",
    "departement_code": "67",
    "region_code": "44",
    "postal_code": "67600"
  },
  {
    "name": "Muttersholtz",
    "code": "67311",
    "epci_code": "246700967",
    "departement_code": "67",
    "region_code": "44",
    "postal_code": "67600"
  },
  {
    "name": "Mutzenhouse",
    "code": "67312",
    "epci_code": "246700959",
    "departement_code": "67",
    "region_code": "44",
    "postal_code": "67270"
  },
  {
    "name": "Mutzig",
    "code": "67313",
    "epci_code": "246701064",
    "departement_code": "67",
    "region_code": "44",
    "postal_code": "67190"
  },
  {
    "name": "Natzwiller",
    "code": "67314",
    "epci_code": "246700306",
    "departement_code": "67",
    "region_code": "44",
    "postal_code": "67130"
  },
  {
    "name": "Neewiller-près-Lauterbourg",
    "code": "67315",
    "epci_code": "200041283",
    "departement_code": "67",
    "region_code": "44",
    "postal_code": "67630"
  },
  {
    "name": "Neubois",
    "code": "67317",
    "epci_code": "246700777",
    "departement_code": "67",
    "region_code": "44",
    "postal_code": "67220"
  },
  {
    "name": "Neuhaeusel",
    "code": "67319",
    "epci_code": "200041325",
    "departement_code": "67",
    "region_code": "44",
    "postal_code": "67480"
  },
  {
    "name": "Neuve-Église",
    "code": "67320",
    "epci_code": "246700777",
    "departement_code": "67",
    "region_code": "44",
    "postal_code": "67220"
  },
  {
    "name": "Neuviller-la-Roche",
    "code": "67321",
    "epci_code": "246700306",
    "departement_code": "67",
    "region_code": "44",
    "postal_code": "67130"
  },
  {
    "name": "Neuwiller-lès-Saverne",
    "code": "67322",
    "epci_code": "200067783",
    "departement_code": "67",
    "region_code": "44",
    "postal_code": "67330"
  },
  {
    "name": "Niederbronn-les-Bains",
    "code": "67324",
    "epci_code": "246701098",
    "departement_code": "67",
    "region_code": "44",
    "postal_code": "67110"
  },
  {
    "name": "Niederhaslach",
    "code": "67325",
    "epci_code": "246701064",
    "departement_code": "67",
    "region_code": "44",
    "postal_code": "67280"
  },
  {
    "name": "Niederhausbergen",
    "code": "67326",
    "epci_code": "246700488",
    "departement_code": "67",
    "region_code": "44",
    "postal_code": "67207"
  },
  {
    "name": "Niederlauterbach",
    "code": "67327",
    "epci_code": "200041283",
    "departement_code": "67",
    "region_code": "44",
    "postal_code": "67630"
  },
  {
    "name": "Niedermodern",
    "code": "67328",
    "epci_code": "200067874",
    "departement_code": "67",
    "region_code": "44",
    "postal_code": "67350"
  },
  {
    "name": "Niedernai",
    "code": "67329",
    "epci_code": "246701080",
    "departement_code": "67",
    "region_code": "44",
    "postal_code": "67210"
  },
  {
    "name": "Niederrœdern",
    "code": "67330",
    "epci_code": "200041283",
    "departement_code": "67",
    "region_code": "44",
    "postal_code": "67470"
  },
  {
    "name": "Niederschaeffolsheim",
    "code": "67331",
    "epci_code": "200067874",
    "departement_code": "67",
    "region_code": "44",
    "postal_code": "67500"
  },
  {
    "name": "Niedersoultzbach",
    "code": "67333",
    "epci_code": "200067783",
    "departement_code": "67",
    "region_code": "44",
    "postal_code": "67330"
  },
  {
    "name": "Niedersteinbach",
    "code": "67334",
    "epci_code": "200013050",
    "departement_code": "67",
    "region_code": "44",
    "postal_code": "67510"
  },
  {
    "name": "Nordheim",
    "code": "67335",
    "epci_code": "200068864",
    "departement_code": "67",
    "region_code": "44",
    "postal_code": "67520"
  },
  {
    "name": "Nordhouse",
    "code": "67336",
    "epci_code": "200067924",
    "departement_code": "67",
    "region_code": "44",
    "postal_code": "67150"
  },
  {
    "name": "Nothalten",
    "code": "67337",
    "epci_code": "200034270",
    "departement_code": "67",
    "region_code": "44",
    "postal_code": "67680"
  },
  {
    "name": "Obenheim",
    "code": "67338",
    "epci_code": "200067924",
    "departement_code": "67",
    "region_code": "44",
    "postal_code": "67230"
  },
  {
    "name": "Betschdorf",
    "code": "67339",
    "epci_code": "200040178",
    "departement_code": "67",
    "region_code": "44",
    "postal_code": "67660"
  },
  {
    "name": "Oberbronn",
    "code": "67340",
    "epci_code": "246701098",
    "departement_code": "67",
    "region_code": "44",
    "postal_code": "67110"
  },
  {
    "name": "Oberdorf-Spachbach",
    "code": "67341",
    "epci_code": "200013050",
    "departement_code": "67",
    "region_code": "44",
    "postal_code": "67360"
  },
  {
    "name": "Oberhaslach",
    "code": "67342",
    "epci_code": "246701064",
    "departement_code": "67",
    "region_code": "44",
    "postal_code": "67280"
  },
  {
    "name": "Oberhausbergen",
    "code": "67343",
    "epci_code": "246700488",
    "departement_code": "67",
    "region_code": "44",
    "postal_code": "67205"
  },
  {
    "name": "Oberhoffen-lès-Wissembourg",
    "code": "67344",
    "epci_code": "246700926",
    "departement_code": "67",
    "region_code": "44",
    "postal_code": "67160"
  },
  {
    "name": "Oberhoffen-sur-Moder",
    "code": "67345",
    "epci_code": "200067874",
    "departement_code": "67",
    "region_code": "44",
    "postal_code": "67240"
  },
  {
    "name": "Oberlauterbach",
    "code": "67346",
    "epci_code": "200041283",
    "departement_code": "67",
    "region_code": "44",
    "postal_code": "67160"
  },
  {
    "name": "Obermodern-Zutzendorf",
    "code": "67347",
    "epci_code": "200067783",
    "departement_code": "67",
    "region_code": "44",
    "postal_code": "67330"
  },
  {
    "name": "Obernai",
    "code": "67348",
    "epci_code": "246701080",
    "departement_code": "67",
    "region_code": "44",
    "postal_code": "67210"
  },
  {
    "name": "Oberrœdern",
    "code": "67349",
    "epci_code": "200040178",
    "departement_code": "67",
    "region_code": "44",
    "postal_code": "67250"
  },
  {
    "name": "Oberschaeffolsheim",
    "code": "67350",
    "epci_code": "246700488",
    "departement_code": "67",
    "region_code": "44",
    "postal_code": "67203"
  },
  {
    "name": "Seebach",
    "code": "67351",
    "epci_code": "246700926",
    "departement_code": "67",
    "region_code": "44",
    "postal_code": "67160"
  },
  {
    "name": "Obersoultzbach",
    "code": "67352",
    "epci_code": "200067783",
    "departement_code": "67",
    "region_code": "44",
    "postal_code": "67330"
  },
  {
    "name": "Obersteinbach",
    "code": "67353",
    "epci_code": "200013050",
    "departement_code": "67",
    "region_code": "44",
    "postal_code": "67510"
  },
  {
    "name": "Odratzheim",
    "code": "67354",
    "epci_code": "200068864",
    "departement_code": "67",
    "region_code": "44",
    "postal_code": "67520"
  },
  {
    "name": "Oermingen",
    "code": "67355",
    "epci_code": "200067841",
    "departement_code": "67",
    "region_code": "44",
    "postal_code": "67970"
  },
  {
    "name": "Offendorf",
    "code": "67356",
    "epci_code": "200041325",
    "departement_code": "67",
    "region_code": "44",
    "postal_code": "67850"
  },
  {
    "name": "Offwiller",
    "code": "67358",
    "epci_code": "246701098",
    "departement_code": "67",
    "region_code": "44",
    "postal_code": "67340"
  },
  {
    "name": "Ohlungen",
    "code": "67359",
    "epci_code": "200067874",
    "departement_code": "67",
    "region_code": "44",
    "postal_code": "67170"
  },
  {
    "name": "Ohlungen",
    "code": "67359",
    "epci_code": "200067874",
    "departement_code": "67",
    "region_code": "44",
    "postal_code": "67590"
  },
  {
    "name": "Ohnenheim",
    "code": "67360",
    "epci_code": "200030526",
    "departement_code": "67",
    "region_code": "44",
    "postal_code": "67390"
  },
  {
    "name": "Olwisheim",
    "code": "67361",
    "epci_code": "200067874",
    "departement_code": "67",
    "region_code": "44",
    "postal_code": "67170"
  },
  {
    "name": "Orschwiller",
    "code": "67362",
    "epci_code": "246700967",
    "departement_code": "67",
    "region_code": "44",
    "postal_code": "67600"
  },
  {
    "name": "Osthoffen",
    "code": "67363",
    "epci_code": "246700488",
    "departement_code": "67",
    "region_code": "44",
    "postal_code": "67990"
  },
  {
    "name": "Osthouse",
    "code": "67364",
    "epci_code": "200067924",
    "departement_code": "67",
    "region_code": "44",
    "postal_code": "67150"
  },
  {
    "name": "Ostwald",
    "code": "67365",
    "epci_code": "246700488",
    "departement_code": "67",
    "region_code": "44",
    "postal_code": "67540"
  },
  {
    "name": "Ottersthal",
    "code": "67366",
    "epci_code": "200068112",
    "departement_code": "67",
    "region_code": "44",
    "postal_code": "67700"
  },
  {
    "name": "Otterswiller",
    "code": "67367",
    "epci_code": "200068112",
    "departement_code": "67",
    "region_code": "44",
    "postal_code": "67700"
  },
  {
    "name": "Ottrott",
    "code": "67368",
    "epci_code": "246700744",
    "departement_code": "67",
    "region_code": "44",
    "postal_code": "67530"
  },
  {
    "name": "Ottwiller",
    "code": "67369",
    "epci_code": "200067841",
    "departement_code": "67",
    "region_code": "44",
    "postal_code": "67320"
  },
  {
    "name": "Petersbach",
    "code": "67370",
    "epci_code": "200067783",
    "departement_code": "67",
    "region_code": "44",
    "postal_code": "67290"
  },
  {
    "name": "La Petite-Pierre",
    "code": "67371",
    "epci_code": "200067783",
    "departement_code": "67",
    "region_code": "44",
    "postal_code": "67290"
  },
  {
    "name": "Val-de-Moder",
    "code": "67372",
    "epci_code": "200067874",
    "departement_code": "67",
    "region_code": "44",
    "postal_code": "67350"
  },
  {
    "name": "Pfalzweyer",
    "code": "67373",
    "epci_code": "200067783",
    "departement_code": "67",
    "region_code": "44",
    "postal_code": "67320"
  },
  {
    "name": "Pfulgriesheim",
    "code": "67375",
    "epci_code": "200034635",
    "departement_code": "67",
    "region_code": "44",
    "postal_code": "67370"
  },
  {
    "name": "Plaine",
    "code": "67377",
    "epci_code": "246700306",
    "departement_code": "67",
    "region_code": "44",
    "postal_code": "67420"
  },
  {
    "name": "Plobsheim",
    "code": "67378",
    "epci_code": "246700488",
    "departement_code": "67",
    "region_code": "44",
    "postal_code": "67115"
  },
  {
    "name": "Preuschdorf",
    "code": "67379",
    "epci_code": "200013050",
    "departement_code": "67",
    "region_code": "44",
    "postal_code": "67250"
  },
  {
    "name": "Printzheim",
    "code": "67380",
    "epci_code": "200068112",
    "departement_code": "67",
    "region_code": "44",
    "postal_code": "67490"
  },
  {
    "name": "Puberg",
    "code": "67381",
    "epci_code": "200067783",
    "departement_code": "67",
    "region_code": "44",
    "postal_code": "67290"
  },
  {
    "name": "Quatzenheim",
    "code": "67382",
    "epci_code": "200034635",
    "departement_code": "67",
    "region_code": "44",
    "postal_code": "67117"
  },
  {
    "name": "Rangen",
    "code": "67383",
    "epci_code": "200068864",
    "departement_code": "67",
    "region_code": "44",
    "postal_code": "67310"
  },
  {
    "name": "Ranrupt",
    "code": "67384",
    "epci_code": "246700306",
    "departement_code": "67",
    "region_code": "44",
    "postal_code": "67420"
  },
  {
    "name": "Ratzwiller",
    "code": "67385",
    "epci_code": "200067841",
    "departement_code": "67",
    "region_code": "44",
    "postal_code": "67430"
  },
  {
    "name": "Rauwiller",
    "code": "67386",
    "epci_code": "200067841",
    "departement_code": "67",
    "region_code": "44",
    "postal_code": "67320"
  },
  {
    "name": "Reichsfeld",
    "code": "67387",
    "epci_code": "200034270",
    "departement_code": "67",
    "region_code": "44",
    "postal_code": "67140"
  },
  {
    "name": "Reichshoffen",
    "code": "67388",
    "epci_code": "246701098",
    "departement_code": "67",
    "region_code": "44",
    "postal_code": "67110"
  },
  {
    "name": "Reichstett",
    "code": "67389",
    "epci_code": "246700488",
    "departement_code": "67",
    "region_code": "44",
    "postal_code": "67116"
  },
  {
    "name": "Reinhardsmunster",
    "code": "67391",
    "epci_code": "200068112",
    "departement_code": "67",
    "region_code": "44",
    "postal_code": "67440"
  },
  {
    "name": "Reipertswiller",
    "code": "67392",
    "epci_code": "200067783",
    "departement_code": "67",
    "region_code": "44",
    "postal_code": "67340"
  },
  {
    "name": "Retschwiller",
    "code": "67394",
    "epci_code": "200040178",
    "departement_code": "67",
    "region_code": "44",
    "postal_code": "67250"
  },
  {
    "name": "Reutenbourg",
    "code": "67395",
    "epci_code": "200068112",
    "departement_code": "67",
    "region_code": "44",
    "postal_code": "67440"
  },
  {
    "name": "Rexingen",
    "code": "67396",
    "epci_code": "200067841",
    "departement_code": "67",
    "region_code": "44",
    "postal_code": "67320"
  },
  {
    "name": "Rhinau",
    "code": "67397",
    "epci_code": "200067924",
    "departement_code": "67",
    "region_code": "44",
    "postal_code": "67860"
  },
  {
    "name": "Richtolsheim",
    "code": "67398",
    "epci_code": "200030526",
    "departement_code": "67",
    "region_code": "44",
    "postal_code": "67390"
  },
  {
    "name": "Riedseltz",
    "code": "67400",
    "epci_code": "246700926",
    "departement_code": "67",
    "region_code": "44",
    "postal_code": "67160"
  },
  {
    "name": "Rimsdorf",
    "code": "67401",
    "epci_code": "200067841",
    "departement_code": "67",
    "region_code": "44",
    "postal_code": "67260"
  },
  {
    "name": "Ringendorf",
    "code": "67403",
    "epci_code": "200067783",
    "departement_code": "67",
    "region_code": "44",
    "postal_code": "67350"
  },
  {
    "name": "Rittershoffen",
    "code": "67404",
    "epci_code": "200040178",
    "departement_code": "67",
    "region_code": "44",
    "postal_code": "67690"
  },
  {
    "name": "Rœschwoog",
    "code": "67405",
    "epci_code": "200041325",
    "departement_code": "67",
    "region_code": "44",
    "postal_code": "67480"
  },
  {
    "name": "Rohr",
    "code": "67406",
    "epci_code": "200034635",
    "departement_code": "67",
    "region_code": "44",
    "postal_code": "67270"
  },
  {
    "name": "Rohrwiller",
    "code": "67407",
    "epci_code": "200067874",
    "departement_code": "67",
    "region_code": "44",
    "postal_code": "67410"
  },
  {
    "name": "Romanswiller",
    "code": "67408",
    "epci_code": "200068864",
    "departement_code": "67",
    "region_code": "44",
    "postal_code": "67310"
  },
  {
    "name": "Roppenheim",
    "code": "67409",
    "epci_code": "200041325",
    "departement_code": "67",
    "region_code": "44",
    "postal_code": "67480"
  },
  {
    "name": "Rosenwiller",
    "code": "67410",
    "epci_code": "246700744",
    "departement_code": "67",
    "region_code": "44",
    "postal_code": "67560"
  },
  {
    "name": "Rosheim",
    "code": "67411",
    "epci_code": "246700744",
    "departement_code": "67",
    "region_code": "44",
    "postal_code": "67560"
  },
  {
    "name": "Rossfeld",
    "code": "67412",
    "epci_code": "200067924",
    "departement_code": "67",
    "region_code": "44",
    "postal_code": "67230"
  },
  {
    "name": "Rosteig",
    "code": "67413",
    "epci_code": "200067783",
    "departement_code": "67",
    "region_code": "44",
    "postal_code": "67290"
  },
  {
    "name": "Rothau",
    "code": "67414",
    "epci_code": "246700306",
    "departement_code": "67",
    "region_code": "44",
    "postal_code": "67570"
  },
  {
    "name": "Rothbach",
    "code": "67415",
    "epci_code": "246701098",
    "departement_code": "67",
    "region_code": "44",
    "postal_code": "67340"
  },
  {
    "name": "Rott",
    "code": "67416",
    "epci_code": "246700926",
    "departement_code": "67",
    "region_code": "44",
    "postal_code": "67160"
  },
  {
    "name": "Rottelsheim",
    "code": "67417",
    "epci_code": "200067874",
    "departement_code": "67",
    "region_code": "44",
    "postal_code": "67170"
  },
  {
    "name": "Rountzenheim-Auenheim",
    "code": "67418",
    "epci_code": "200041325",
    "departement_code": "67",
    "region_code": "44",
    "postal_code": "67480"
  },
  {
    "name": "Russ",
    "code": "67420",
    "epci_code": "246700306",
    "departement_code": "67",
    "region_code": "44",
    "postal_code": "67130"
  },
  {
    "name": "Saales",
    "code": "67421",
    "epci_code": "246700306",
    "departement_code": "67",
    "region_code": "44",
    "postal_code": "67420"
  },
  {
    "name": "Saasenheim",
    "code": "67422",
    "epci_code": "200030526",
    "departement_code": "67",
    "region_code": "44",
    "postal_code": "67390"
  },
  {
    "name": "Saessolsheim",
    "code": "67423",
    "epci_code": "200068112",
    "departement_code": "67",
    "region_code": "44",
    "postal_code": "67270"
  },
  {
    "name": "Saint-Blaise-la-Roche",
    "code": "67424",
    "epci_code": "246700306",
    "departement_code": "67",
    "region_code": "44",
    "postal_code": "67420"
  },
  {
    "name": "Saint-Jean-Saverne",
    "code": "67425",
    "epci_code": "200068112",
    "departement_code": "67",
    "region_code": "44",
    "postal_code": "67700"
  },
  {
    "name": "Saint-Martin",
    "code": "67426",
    "epci_code": "246700777",
    "departement_code": "67",
    "region_code": "44",
    "postal_code": "67220"
  },
  {
    "name": "Saint-Maurice",
    "code": "67427",
    "epci_code": "246700777",
    "departement_code": "67",
    "region_code": "44",
    "postal_code": "67220"
  },
  {
    "name": "Saint-Nabor",
    "code": "67428",
    "epci_code": "246700744",
    "departement_code": "67",
    "region_code": "44",
    "postal_code": "67530"
  },
  {
    "name": "Saint-Pierre",
    "code": "67429",
    "epci_code": "200034270",
    "departement_code": "67",
    "region_code": "44",
    "postal_code": "67140"
  },
  {
    "name": "Saint-Pierre-Bois",
    "code": "67430",
    "epci_code": "246700777",
    "departement_code": "67",
    "region_code": "44",
    "postal_code": "67220"
  },
  {
    "name": "Salmbach",
    "code": "67432",
    "epci_code": "200041283",
    "departement_code": "67",
    "region_code": "44",
    "postal_code": "67160"
  },
  {
    "name": "Sand",
    "code": "67433",
    "epci_code": "200067924",
    "departement_code": "67",
    "region_code": "44",
    "postal_code": "67230"
  },
  {
    "name": "Sarre-Union",
    "code": "67434",
    "epci_code": "200067841",
    "departement_code": "67",
    "region_code": "44",
    "postal_code": "67260"
  },
  {
    "name": "Sarrewerden",
    "code": "67435",
    "epci_code": "200067841",
    "departement_code": "67",
    "region_code": "44",
    "postal_code": "67260"
  },
  {
    "name": "Saulxures",
    "code": "67436",
    "epci_code": "246700306",
    "departement_code": "67",
    "region_code": "44",
    "postal_code": "67420"
  },
  {
    "name": "Saverne",
    "code": "67437",
    "epci_code": "200068112",
    "departement_code": "67",
    "region_code": "44",
    "postal_code": "67700"
  },
  {
    "name": "Schaeffersheim",
    "code": "67438",
    "epci_code": "200067924",
    "departement_code": "67",
    "region_code": "44",
    "postal_code": "67150"
  },
  {
    "name": "Schaffhouse-près-Seltz",
    "code": "67440",
    "epci_code": "200041283",
    "departement_code": "67",
    "region_code": "44",
    "postal_code": "67470"
  },
  {
    "name": "Schalkendorf",
    "code": "67441",
    "epci_code": "200067783",
    "departement_code": "67",
    "region_code": "44",
    "postal_code": "67350"
  },
  {
    "name": "Scharrachbergheim-Irmstett",
    "code": "67442",
    "epci_code": "200068864",
    "departement_code": "67",
    "region_code": "44",
    "postal_code": "67310"
  },
  {
    "name": "Scheibenhard",
    "code": "67443",
    "epci_code": "200041283",
    "departement_code": "67",
    "region_code": "44",
    "postal_code": "67630"
  },
  {
    "name": "Scherlenheim",
    "code": "67444",
    "epci_code": "246700959",
    "departement_code": "67",
    "region_code": "44",
    "postal_code": "67270"
  },
  {
    "name": "Scherwiller",
    "code": "67445",
    "epci_code": "246700967",
    "departement_code": "67",
    "region_code": "44",
    "postal_code": "67750"
  },
  {
    "name": "Schillersdorf",
    "code": "67446",
    "epci_code": "200067783",
    "departement_code": "67",
    "region_code": "44",
    "postal_code": "67340"
  },
  {
    "name": "Schiltigheim",
    "code": "67447",
    "epci_code": "246700488",
    "departement_code": "67",
    "region_code": "44",
    "postal_code": "67300"
  },
  {
    "name": "Schirmeck",
    "code": "67448",
    "epci_code": "246700306",
    "departement_code": "67",
    "region_code": "44",
    "postal_code": "67130"
  },
  {
    "name": "Schirrhein",
    "code": "67449",
    "epci_code": "200067874",
    "departement_code": "67",
    "region_code": "44",
    "postal_code": "67240"
  },
  {
    "name": "Schirrhoffen",
    "code": "67450",
    "epci_code": "200067874",
    "departement_code": "67",
    "region_code": "44",
    "postal_code": "67240"
  },
  {
    "name": "Schleithal",
    "code": "67451",
    "epci_code": "246700926",
    "departement_code": "67",
    "region_code": "44",
    "postal_code": "67160"
  },
  {
    "name": "Schnersheim",
    "code": "67452",
    "epci_code": "200034635",
    "departement_code": "67",
    "region_code": "44",
    "postal_code": "67370"
  },
  {
    "name": "Schœnau",
    "code": "67453",
    "epci_code": "200030526",
    "departement_code": "67",
    "region_code": "44",
    "postal_code": "67390"
  },
  {
    "name": "Schœnbourg",
    "code": "67454",
    "epci_code": "200067783",
    "departement_code": "67",
    "region_code": "44",
    "postal_code": "67320"
  },
  {
    "name": "Schœnenbourg",
    "code": "67455",
    "epci_code": "200040178",
    "departement_code": "67",
    "region_code": "44",
    "postal_code": "67250"
  },
  {
    "name": "Schopperten",
    "code": "67456",
    "epci_code": "200067841",
    "departement_code": "67",
    "region_code": "44",
    "postal_code": "67260"
  },
  {
    "name": "Schweighouse-sur-Moder",
    "code": "67458",
    "epci_code": "200067874",
    "departement_code": "67",
    "region_code": "44",
    "postal_code": "67590"
  },
  {
    "name": "Schwenheim",
    "code": "67459",
    "epci_code": "200068112",
    "departement_code": "67",
    "region_code": "44",
    "postal_code": "67440"
  },
  {
    "name": "Schwindratzheim",
    "code": "67460",
    "epci_code": "246700959",
    "departement_code": "67",
    "region_code": "44",
    "postal_code": "67270"
  },
  {
    "name": "Schwobsheim",
    "code": "67461",
    "epci_code": "200030526",
    "departement_code": "67",
    "region_code": "44",
    "postal_code": "67390"
  },
  {
    "name": "Sélestat",
    "code": "67462",
    "epci_code": "246700967",
    "departement_code": "67",
    "region_code": "44",
    "postal_code": "67600"
  },
  {
    "name": "Seltz",
    "code": "67463",
    "epci_code": "200041283",
    "departement_code": "67",
    "region_code": "44",
    "postal_code": "67470"
  },
  {
    "name": "Sermersheim",
    "code": "67464",
    "epci_code": "200067924",
    "departement_code": "67",
    "region_code": "44",
    "postal_code": "67230"
  },
  {
    "name": "Sessenheim",
    "code": "67465",
    "epci_code": "200041325",
    "departement_code": "67",
    "region_code": "44",
    "postal_code": "67770"
  },
  {
    "name": "Siegen",
    "code": "67466",
    "epci_code": "200041283",
    "departement_code": "67",
    "region_code": "44",
    "postal_code": "67160"
  },
  {
    "name": "Siewiller",
    "code": "67467",
    "epci_code": "200067841",
    "departement_code": "67",
    "region_code": "44",
    "postal_code": "67320"
  },
  {
    "name": "Siltzheim",
    "code": "67468",
    "epci_code": "200070746",
    "departement_code": "67",
    "region_code": "44",
    "postal_code": "67260"
  },
  {
    "name": "Solbach",
    "code": "67470",
    "epci_code": "246700306",
    "departement_code": "67",
    "region_code": "44",
    "postal_code": "67130"
  },
  {
    "name": "Souffelweyersheim",
    "code": "67471",
    "epci_code": "246700488",
    "departement_code": "67",
    "region_code": "44",
    "postal_code": "67460"
  },
  {
    "name": "Soufflenheim",
    "code": "67472",
    "epci_code": "200041325",
    "departement_code": "67",
    "region_code": "44",
    "postal_code": "67620"
  },
  {
    "name": "Soultz-les-Bains",
    "code": "67473",
    "epci_code": "246701064",
    "departement_code": "67",
    "region_code": "44",
    "postal_code": "67120"
  },
  {
    "name": "Soultz-sous-Forêts",
    "code": "67474",
    "epci_code": "200040178",
    "departement_code": "67",
    "region_code": "44",
    "postal_code": "67250"
  },
  {
    "name": "Sparsbach",
    "code": "67475",
    "epci_code": "200067783",
    "departement_code": "67",
    "region_code": "44",
    "postal_code": "67340"
  },
  {
    "name": "Stattmatten",
    "code": "67476",
    "epci_code": "200041325",
    "departement_code": "67",
    "region_code": "44",
    "postal_code": "67770"
  },
  {
    "name": "Steige",
    "code": "67477",
    "epci_code": "246700777",
    "departement_code": "67",
    "region_code": "44",
    "postal_code": "67220"
  },
  {
    "name": "Steinbourg",
    "code": "67478",
    "epci_code": "200068112",
    "departement_code": "67",
    "region_code": "44",
    "postal_code": "67790"
  },
  {
    "name": "Steinseltz",
    "code": "67479",
    "epci_code": "246700926",
    "departement_code": "67",
    "region_code": "44",
    "postal_code": "67160"
  },
  {
    "name": "Still",
    "code": "67480",
    "epci_code": "246701064",
    "departement_code": "67",
    "region_code": "44",
    "postal_code": "67190"
  },
  {
    "name": "Stotzheim",
    "code": "67481",
    "epci_code": "200034270",
    "departement_code": "67",
    "region_code": "44",
    "postal_code": "67140"
  },
  {
    "name": "Strasbourg",
    "code": "67482",
    "epci_code": "246700488",
    "departement_code": "67",
    "region_code": "44",
    "postal_code": "67000"
  },
  {
    "name": "Strasbourg",
    "code": "67482",
    "epci_code": "246700488",
    "departement_code": "67",
    "region_code": "44",
    "postal_code": "67100"
  },
  {
    "name": "Strasbourg",
    "code": "67482",
    "epci_code": "246700488",
    "departement_code": "67",
    "region_code": "44",
    "postal_code": "67200"
  },
  {
    "name": "Struth",
    "code": "67483",
    "epci_code": "200067783",
    "departement_code": "67",
    "region_code": "44",
    "postal_code": "67290"
  },
  {
    "name": "Stundwiller",
    "code": "67484",
    "epci_code": "200040178",
    "departement_code": "67",
    "region_code": "44",
    "postal_code": "67250"
  },
  {
    "name": "Stutzheim-Offenheim",
    "code": "67485",
    "epci_code": "200034635",
    "departement_code": "67",
    "region_code": "44",
    "postal_code": "67370"
  },
  {
    "name": "Sundhouse",
    "code": "67486",
    "epci_code": "200030526",
    "departement_code": "67",
    "region_code": "44",
    "postal_code": "67920"
  },
  {
    "name": "Surbourg",
    "code": "67487",
    "epci_code": "200040178",
    "departement_code": "67",
    "region_code": "44",
    "postal_code": "67250"
  },
  {
    "name": "Thal-Drulingen",
    "code": "67488",
    "epci_code": "200067841",
    "departement_code": "67",
    "region_code": "44",
    "postal_code": "67320"
  },
  {
    "name": "Thal-Marmoutier",
    "code": "67489",
    "epci_code": "200068112",
    "departement_code": "67",
    "region_code": "44",
    "postal_code": "67440"
  },
  {
    "name": "Thanvillé",
    "code": "67490",
    "epci_code": "246700777",
    "departement_code": "67",
    "region_code": "44",
    "postal_code": "67220"
  },
  {
    "name": "Tieffenbach",
    "code": "67491",
    "epci_code": "200067783",
    "departement_code": "67",
    "region_code": "44",
    "postal_code": "67290"
  },
  {
    "name": "Traenheim",
    "code": "67492",
    "epci_code": "200068864",
    "departement_code": "67",
    "region_code": "44",
    "postal_code": "67310"
  },
  {
    "name": "Triembach-au-Val",
    "code": "67493",
    "epci_code": "246700777",
    "departement_code": "67",
    "region_code": "44",
    "postal_code": "67220"
  },
  {
    "name": "Trimbach",
    "code": "67494",
    "epci_code": "200041283",
    "departement_code": "67",
    "region_code": "44",
    "postal_code": "67470"
  },
  {
    "name": "Truchtersheim",
    "code": "67495",
    "epci_code": "200034635",
    "departement_code": "67",
    "region_code": "44",
    "postal_code": "67370"
  },
  {
    "name": "Uhlwiller",
    "code": "67497",
    "epci_code": "200067874",
    "departement_code": "67",
    "region_code": "44",
    "postal_code": "67350"
  },
  {
    "name": "Uhrwiller",
    "code": "67498",
    "epci_code": "200067874",
    "departement_code": "67",
    "region_code": "44",
    "postal_code": "67350"
  },
  {
    "name": "Urbeis",
    "code": "67499",
    "epci_code": "246700777",
    "departement_code": "67",
    "region_code": "44",
    "postal_code": "67220"
  },
  {
    "name": "Urmatt",
    "code": "67500",
    "epci_code": "246700306",
    "departement_code": "67",
    "region_code": "44",
    "postal_code": "67280"
  },
  {
    "name": "Uttenheim",
    "code": "67501",
    "epci_code": "200067924",
    "departement_code": "67",
    "region_code": "44",
    "postal_code": "67150"
  },
  {
    "name": "Uttenhoffen",
    "code": "67502",
    "epci_code": "246701098",
    "departement_code": "67",
    "region_code": "44",
    "postal_code": "67110"
  },
  {
    "name": "Uttwiller",
    "code": "67503",
    "epci_code": "200067783",
    "departement_code": "67",
    "region_code": "44",
    "postal_code": "67330"
  },
  {
    "name": "Valff",
    "code": "67504",
    "epci_code": "200034270",
    "departement_code": "67",
    "region_code": "44",
    "postal_code": "67210"
  },
  {
    "name": "La Vancelle",
    "code": "67505",
    "epci_code": "246700967",
    "departement_code": "67",
    "region_code": "44",
    "postal_code": "67730"
  },
  {
    "name": "Vendenheim",
    "code": "67506",
    "epci_code": "246700488",
    "departement_code": "67",
    "region_code": "44",
    "postal_code": "67550"
  },
  {
    "name": "Villé",
    "code": "67507",
    "epci_code": "246700777",
    "departement_code": "67",
    "region_code": "44",
    "postal_code": "67220"
  },
  {
    "name": "Vœllerdingen",
    "code": "67508",
    "epci_code": "200067841",
    "departement_code": "67",
    "region_code": "44",
    "postal_code": "67430"
  },
  {
    "name": "Volksberg",
    "code": "67509",
    "epci_code": "200067841",
    "departement_code": "67",
    "region_code": "44",
    "postal_code": "67290"
  },
  {
    "name": "Wahlenheim",
    "code": "67510",
    "epci_code": "200067874",
    "departement_code": "67",
    "region_code": "44",
    "postal_code": "67170"
  },
  {
    "name": "Walbourg",
    "code": "67511",
    "epci_code": "200013050",
    "departement_code": "67",
    "region_code": "44",
    "postal_code": "67360"
  },
  {
    "name": "Waldersbach",
    "code": "67513",
    "epci_code": "246700306",
    "departement_code": "67",
    "region_code": "44",
    "postal_code": "67130"
  },
  {
    "name": "Waldhambach",
    "code": "67514",
    "epci_code": "200067841",
    "departement_code": "67",
    "region_code": "44",
    "postal_code": "67430"
  },
  {
    "name": "Waldolwisheim",
    "code": "67515",
    "epci_code": "200068112",
    "departement_code": "67",
    "region_code": "44",
    "postal_code": "67700"
  },
  {
    "name": "Waltenheim-sur-Zorn",
    "code": "67516",
    "epci_code": "246700959",
    "departement_code": "67",
    "region_code": "44",
    "postal_code": "67670"
  },
  {
    "name": "Wangen",
    "code": "67517",
    "epci_code": "200068864",
    "departement_code": "67",
    "region_code": "44",
    "postal_code": "67520"
  },
  {
    "name": "La Wantzenau",
    "code": "67519",
    "epci_code": "246700488",
    "departement_code": "67",
    "region_code": "44",
    "postal_code": "67610"
  },
  {
    "name": "Wasselonne",
    "code": "67520",
    "epci_code": "200068864",
    "departement_code": "67",
    "region_code": "44",
    "postal_code": "67310"
  },
  {
    "name": "Weinbourg",
    "code": "67521",
    "epci_code": "200067783",
    "departement_code": "67",
    "region_code": "44",
    "postal_code": "67340"
  },
  {
    "name": "Weislingen",
    "code": "67522",
    "epci_code": "200067841",
    "departement_code": "67",
    "region_code": "44",
    "postal_code": "67290"
  },
  {
    "name": "Weitbruch",
    "code": "67523",
    "epci_code": "246700843",
    "departement_code": "67",
    "region_code": "44",
    "postal_code": "67500"
  },
  {
    "name": "Weiterswiller",
    "code": "67524",
    "epci_code": "200067783",
    "departement_code": "67",
    "region_code": "44",
    "postal_code": "67340"
  },
  {
    "name": "Westhoffen",
    "code": "67525",
    "epci_code": "200068864",
    "departement_code": "67",
    "region_code": "44",
    "postal_code": "67310"
  },
  {
    "name": "Westhouse",
    "code": "67526",
    "epci_code": "200067924",
    "departement_code": "67",
    "region_code": "44",
    "postal_code": "67230"
  },
  {
    "name": "Westhouse-Marmoutier",
    "code": "67527",
    "epci_code": "200068112",
    "departement_code": "67",
    "region_code": "44",
    "postal_code": "67440"
  },
  {
    "name": "Weyer",
    "code": "67528",
    "epci_code": "200067841",
    "departement_code": "67",
    "region_code": "44",
    "postal_code": "67320"
  },
  {
    "name": "Weyersheim",
    "code": "67529",
    "epci_code": "246700843",
    "departement_code": "67",
    "region_code": "44",
    "postal_code": "67720"
  },
  {
    "name": "Wickersheim-Wilshausen",
    "code": "67530",
    "epci_code": "246700959",
    "departement_code": "67",
    "region_code": "44",
    "postal_code": "67270"
  },
  {
    "name": "Wildersbach",
    "code": "67531",
    "epci_code": "246700306",
    "departement_code": "67",
    "region_code": "44",
    "postal_code": "67130"
  },
  {
    "name": "Willgottheim",
    "code": "67532",
    "epci_code": "200034635",
    "departement_code": "67",
    "region_code": "44",
    "postal_code": "67370"
  },
  {
    "name": "Wilwisheim",
    "code": "67534",
    "epci_code": "246700959",
    "departement_code": "67",
    "region_code": "44",
    "postal_code": "67270"
  },
  {
    "name": "Wimmenau",
    "code": "67535",
    "epci_code": "200067783",
    "departement_code": "67",
    "region_code": "44",
    "postal_code": "67290"
  },
  {
    "name": "Windstein",
    "code": "67536",
    "epci_code": "246701098",
    "departement_code": "67",
    "region_code": "44",
    "postal_code": "67110"
  },
  {
    "name": "Wingen",
    "code": "67537",
    "epci_code": "200013050",
    "departement_code": "67",
    "region_code": "44",
    "postal_code": "67510"
  },
  {
    "name": "Wingen-sur-Moder",
    "code": "67538",
    "epci_code": "200067783",
    "departement_code": "67",
    "region_code": "44",
    "postal_code": "67290"
  },
  {
    "name": "Wingersheim les Quatre Bans",
    "code": "67539",
    "epci_code": "246700959",
    "departement_code": "67",
    "region_code": "44",
    "postal_code": "67170"
  },
  {
    "name": "Wingersheim les Quatre Bans",
    "code": "67539",
    "epci_code": "246700959",
    "departement_code": "67",
    "region_code": "44",
    "postal_code": "67270"
  },
  {
    "name": "Wintershouse",
    "code": "67540",
    "epci_code": "200067874",
    "departement_code": "67",
    "region_code": "44",
    "postal_code": "67590"
  },
  {
    "name": "Wintzenbach",
    "code": "67541",
    "epci_code": "200041283",
    "departement_code": "67",
    "region_code": "44",
    "postal_code": "67470"
  },
  {
    "name": "Wintzenheim-Kochersberg",
    "code": "67542",
    "epci_code": "200034635",
    "departement_code": "67",
    "region_code": "44",
    "postal_code": "67370"
  },
  {
    "name": "Wisches",
    "code": "67543",
    "epci_code": "246700306",
    "departement_code": "67",
    "region_code": "44",
    "postal_code": "67130"
  },
  {
    "name": "Wissembourg",
    "code": "67544",
    "epci_code": "246700926",
    "departement_code": "67",
    "region_code": "44",
    "postal_code": "67160"
  },
  {
    "name": "Witternheim",
    "code": "67545",
    "epci_code": "200067924",
    "departement_code": "67",
    "region_code": "44",
    "postal_code": "67230"
  },
  {
    "name": "Wittersheim",
    "code": "67546",
    "epci_code": "200067874",
    "departement_code": "67",
    "region_code": "44",
    "postal_code": "67670"
  },
  {
    "name": "Wittisheim",
    "code": "67547",
    "epci_code": "200030526",
    "departement_code": "67",
    "region_code": "44",
    "postal_code": "67820"
  },
  {
    "name": "Wiwersheim",
    "code": "67548",
    "epci_code": "200034635",
    "departement_code": "67",
    "region_code": "44",
    "postal_code": "67370"
  },
  {
    "name": "Wœrth",
    "code": "67550",
    "epci_code": "200013050",
    "departement_code": "67",
    "region_code": "44",
    "postal_code": "67360"
  },
  {
    "name": "Wolfisheim",
    "code": "67551",
    "epci_code": "246700488",
    "departement_code": "67",
    "region_code": "44",
    "postal_code": "67202"
  },
  {
    "name": "Wolfskirchen",
    "code": "67552",
    "epci_code": "200067841",
    "departement_code": "67",
    "region_code": "44",
    "postal_code": "67260"
  },
  {
    "name": "Wolschheim",
    "code": "67553",
    "epci_code": "200068112",
    "departement_code": "67",
    "region_code": "44",
    "postal_code": "67700"
  },
  {
    "name": "Wolxheim",
    "code": "67554",
    "epci_code": "246701064",
    "departement_code": "67",
    "region_code": "44",
    "postal_code": "67120"
  },
  {
    "name": "Zehnacker",
    "code": "67555",
    "epci_code": "200068864",
    "departement_code": "67",
    "region_code": "44",
    "postal_code": "67310"
  },
  {
    "name": "Zeinheim",
    "code": "67556",
    "epci_code": "200068864",
    "departement_code": "67",
    "region_code": "44",
    "postal_code": "67310"
  },
  {
    "name": "Zellwiller",
    "code": "67557",
    "epci_code": "200034270",
    "departement_code": "67",
    "region_code": "44",
    "postal_code": "67140"
  },
  {
    "name": "Zinswiller",
    "code": "67558",
    "epci_code": "246701098",
    "departement_code": "67",
    "region_code": "44",
    "postal_code": "67110"
  },
  {
    "name": "Zittersheim",
    "code": "67559",
    "epci_code": "200067783",
    "departement_code": "67",
    "region_code": "44",
    "postal_code": "67290"
  }
]