[
  {
    "name": "Allouville-Bellefosse",
    "code": "76001",
    "epci_code": "247600620",
    "departement_code": "76",
    "region_code": "28",
    "postal_code": "76190"
  },
  {
    "name": "Alvimare",
    "code": "76002",
    "epci_code": "200010700",
    "departement_code": "76",
    "region_code": "28",
    "postal_code": "76640"
  },
  {
    "name": "Ambrumesnil",
    "code": "76004",
    "epci_code": "200068534",
    "departement_code": "76",
    "region_code": "28",
    "postal_code": "76550"
  },
  {
    "name": "Amfreville-la-Mi-Voie",
    "code": "76005",
    "epci_code": "200023414",
    "departement_code": "76",
    "region_code": "28",
    "postal_code": "76920"
  },
  {
    "name": "Amfreville-les-Champs",
    "code": "76006",
    "epci_code": "200069847",
    "departement_code": "76",
    "region_code": "28",
    "postal_code": "76560"
  },
  {
    "name": "Anceaumeville",
    "code": "76007",
    "epci_code": "200070449",
    "departement_code": "76",
    "region_code": "28",
    "postal_code": "76710"
  },
  {
    "name": "Ancourt",
    "code": "76008",
    "epci_code": "247600786",
    "departement_code": "76",
    "region_code": "28",
    "postal_code": "76370"
  },
  {
    "name": "Ancourteville-sur-Héricourt",
    "code": "76009",
    "epci_code": "200069839",
    "departement_code": "76",
    "region_code": "28",
    "postal_code": "76560"
  },
  {
    "name": "Ancretiéville-Saint-Victor",
    "code": "76010",
    "epci_code": "200069847",
    "departement_code": "76",
    "region_code": "28",
    "postal_code": "76760"
  },
  {
    "name": "Ancretteville-sur-Mer",
    "code": "76011",
    "epci_code": "200069821",
    "departement_code": "76",
    "region_code": "28",
    "postal_code": "76540"
  },
  {
    "name": "Angerville-Bailleul",
    "code": "76012",
    "epci_code": "247600505",
    "departement_code": "76",
    "region_code": "28",
    "postal_code": "76110"
  },
  {
    "name": "Angerville-la-Martel",
    "code": "76013",
    "epci_code": "200069821",
    "departement_code": "76",
    "region_code": "28",
    "postal_code": "76540"
  },
  {
    "name": "Angerville-l’Orcher",
    "code": "76014",
    "epci_code": "200084952",
    "departement_code": "76",
    "region_code": "28",
    "postal_code": "76280"
  },
  {
    "name": "Angiens",
    "code": "76015",
    "epci_code": "200069839",
    "departement_code": "76",
    "region_code": "28",
    "postal_code": "76740"
  },
  {
    "name": "Anglesqueville-la-Bras-Long",
    "code": "76016",
    "epci_code": "200069839",
    "departement_code": "76",
    "region_code": "28",
    "postal_code": "76740"
  },
  {
    "name": "Anglesqueville-l’Esneval",
    "code": "76017",
    "epci_code": "200084952",
    "departement_code": "76",
    "region_code": "28",
    "postal_code": "76280"
  },
  {
    "name": "Val-de-Saâne",
    "code": "76018",
    "epci_code": "200068534",
    "departement_code": "76",
    "region_code": "28",
    "postal_code": "76890"
  },
  {
    "name": "Anneville-sur-Scie",
    "code": "76019",
    "epci_code": "200068534",
    "departement_code": "76",
    "region_code": "28",
    "postal_code": "76590"
  },
  {
    "name": "Anneville-Ambourville",
    "code": "76020",
    "epci_code": "200023414",
    "departement_code": "76",
    "region_code": "28",
    "postal_code": "76480"
  },
  {
    "name": "Annouville-Vilmesnil",
    "code": "76021",
    "epci_code": "247600505",
    "departement_code": "76",
    "region_code": "28",
    "postal_code": "76110"
  },
  {
    "name": "Anquetierville",
    "code": "76022",
    "epci_code": "200010700",
    "departement_code": "76",
    "region_code": "28",
    "postal_code": "76490"
  },
  {
    "name": "Anvéville",
    "code": "76023",
    "epci_code": "200069847",
    "departement_code": "76",
    "region_code": "28",
    "postal_code": "76560"
  },
  {
    "name": "Ardouval",
    "code": "76024",
    "epci_code": "200070068",
    "departement_code": "76",
    "region_code": "28",
    "postal_code": "76680"
  },
  {
    "name": "Argueil",
    "code": "76025",
    "epci_code": "200069730",
    "departement_code": "76",
    "region_code": "28",
    "postal_code": "76780"
  },
  {
    "name": "Arques-la-Bataille",
    "code": "76026",
    "epci_code": "247600786",
    "departement_code": "76",
    "region_code": "28",
    "postal_code": "76880"
  },
  {
    "name": "Aubéguimont",
    "code": "76028",
    "epci_code": "200069722",
    "departement_code": "76",
    "region_code": "28",
    "postal_code": "76390"
  },
  {
    "name": "Aubermesnil-aux-Érables",
    "code": "76029",
    "epci_code": "200069722",
    "departement_code": "76",
    "region_code": "28",
    "postal_code": "76340"
  },
  {
    "name": "Aubermesnil-Beaumais",
    "code": "76030",
    "epci_code": "247600786",
    "departement_code": "76",
    "region_code": "28",
    "postal_code": "76550"
  },
  {
    "name": "Auberville-la-Manuel",
    "code": "76032",
    "epci_code": "200069839",
    "departement_code": "76",
    "region_code": "28",
    "postal_code": "76450"
  },
  {
    "name": "Auberville-la-Renault",
    "code": "76033",
    "epci_code": "247600505",
    "departement_code": "76",
    "region_code": "28",
    "postal_code": "76110"
  },
  {
    "name": "Val-de-Scie",
    "code": "76034",
    "epci_code": "200068534",
    "departement_code": "76",
    "region_code": "28",
    "postal_code": "76720"
  },
  {
    "name": "Val-de-Scie",
    "code": "76034",
    "epci_code": "200068534",
    "departement_code": "76",
    "region_code": "28",
    "postal_code": "76850"
  },
  {
    "name": "Aumale",
    "code": "76035",
    "epci_code": "200069722",
    "departement_code": "76",
    "region_code": "28",
    "postal_code": "76390"
  },
  {
    "name": "Auppegard",
    "code": "76036",
    "epci_code": "200068534",
    "departement_code": "76",
    "region_code": "28",
    "postal_code": "76730"
  },
  {
    "name": "Authieux-Ratiéville",
    "code": "76038",
    "epci_code": "200070449",
    "departement_code": "76",
    "region_code": "28",
    "postal_code": "76690"
  },
  {
    "name": "Les Authieux-sur-le-Port-Saint-Ouen",
    "code": "76039",
    "epci_code": "200023414",
    "departement_code": "76",
    "region_code": "28",
    "postal_code": "76520"
  },
  {
    "name": "Autigny",
    "code": "76040",
    "epci_code": "200069839",
    "departement_code": "76",
    "region_code": "28",
    "postal_code": "76740"
  },
  {
    "name": "Les Hauts-de-Caux",
    "code": "76041",
    "epci_code": "247600620",
    "departement_code": "76",
    "region_code": "28",
    "postal_code": "76190"
  },
  {
    "name": "Auvilliers",
    "code": "76042",
    "epci_code": "200070068",
    "departement_code": "76",
    "region_code": "28",
    "postal_code": "76270"
  },
  {
    "name": "Auzebosc",
    "code": "76043",
    "epci_code": "247600620",
    "departement_code": "76",
    "region_code": "28",
    "postal_code": "76190"
  },
  {
    "name": "Auzouville-l’Esneval",
    "code": "76045",
    "epci_code": "200069847",
    "departement_code": "76",
    "region_code": "28",
    "postal_code": "76760"
  },
  {
    "name": "Auzouville-sur-Ry",
    "code": "76046",
    "epci_code": "200070449",
    "departement_code": "76",
    "region_code": "28",
    "postal_code": "76116"
  },
  {
    "name": "Auzouville-sur-Saâne",
    "code": "76047",
    "epci_code": "200068534",
    "departement_code": "76",
    "region_code": "28",
    "postal_code": "76730"
  },
  {
    "name": "Avesnes-en-Bray",
    "code": "76048",
    "epci_code": "200069730",
    "departement_code": "76",
    "region_code": "28",
    "postal_code": "76220"
  },
  {
    "name": "Avesnes-en-Val",
    "code": "76049",
    "epci_code": "247600729",
    "departement_code": "76",
    "region_code": "28",
    "postal_code": "76630"
  },
  {
    "name": "Avremesnil",
    "code": "76050",
    "epci_code": "200068534",
    "departement_code": "76",
    "region_code": "28",
    "postal_code": "76730"
  },
  {
    "name": "Bacqueville-en-Caux",
    "code": "76051",
    "epci_code": "200068534",
    "departement_code": "76",
    "region_code": "28",
    "postal_code": "76730"
  },
  {
    "name": "Bailleul-Neuville",
    "code": "76052",
    "epci_code": "247600604",
    "departement_code": "76",
    "region_code": "28",
    "postal_code": "76660"
  },
  {
    "name": "Baillolet",
    "code": "76053",
    "epci_code": "247600604",
    "departement_code": "76",
    "region_code": "28",
    "postal_code": "76660"
  },
  {
    "name": "Bailly-en-Rivière",
    "code": "76054",
    "epci_code": "247600729",
    "departement_code": "76",
    "region_code": "28",
    "postal_code": "76630"
  },
  {
    "name": "Baons-le-Comte",
    "code": "76055",
    "epci_code": "247600620",
    "departement_code": "76",
    "region_code": "28",
    "postal_code": "76190"
  },
  {
    "name": "Bardouville",
    "code": "76056",
    "epci_code": "200023414",
    "departement_code": "76",
    "region_code": "28",
    "postal_code": "76480"
  },
  {
    "name": "Barentin",
    "code": "76057",
    "epci_code": "247600646",
    "departement_code": "76",
    "region_code": "28",
    "postal_code": "76360"
  },
  {
    "name": "Baromesnil",
    "code": "76058",
    "epci_code": "247600588",
    "departement_code": "76",
    "region_code": "28",
    "postal_code": "76260"
  },
  {
    "name": "Bazinval",
    "code": "76059",
    "epci_code": "200069722",
    "departement_code": "76",
    "region_code": "28",
    "postal_code": "76340"
  },
  {
    "name": "Beaubec-la-Rosière",
    "code": "76060",
    "epci_code": "200069730",
    "departement_code": "76",
    "region_code": "28",
    "postal_code": "76440"
  },
  {
    "name": "Beaumont-le-Hareng",
    "code": "76062",
    "epci_code": "200070449",
    "departement_code": "76",
    "region_code": "28",
    "postal_code": "76850"
  },
  {
    "name": "Beauval-en-Caux",
    "code": "76063",
    "epci_code": "200068534",
    "departement_code": "76",
    "region_code": "28",
    "postal_code": "76890"
  },
  {
    "name": "Beaurepaire",
    "code": "76064",
    "epci_code": "200084952",
    "departement_code": "76",
    "region_code": "28",
    "postal_code": "76280"
  },
  {
    "name": "Beaussault",
    "code": "76065",
    "epci_code": "200069730",
    "departement_code": "76",
    "region_code": "28",
    "postal_code": "76870"
  },
  {
    "name": "Beautot",
    "code": "76066",
    "epci_code": "200068534",
    "departement_code": "76",
    "region_code": "28",
    "postal_code": "76890"
  },
  {
    "name": "Beauvoir-en-Lyons",
    "code": "76067",
    "epci_code": "200069730",
    "departement_code": "76",
    "region_code": "28",
    "postal_code": "76220"
  },
  {
    "name": "Bec-de-Mortagne",
    "code": "76068",
    "epci_code": "247600505",
    "departement_code": "76",
    "region_code": "28",
    "postal_code": "76110"
  },
  {
    "name": "Belbeuf",
    "code": "76069",
    "epci_code": "200023414",
    "departement_code": "76",
    "region_code": "28",
    "postal_code": "76240"
  },
  {
    "name": "Bellencombre",
    "code": "76070",
    "epci_code": "200070068",
    "departement_code": "76",
    "region_code": "28",
    "postal_code": "76680"
  },
  {
    "name": "Bellengreville",
    "code": "76071",
    "epci_code": "247600729",
    "departement_code": "76",
    "region_code": "28",
    "postal_code": "76630"
  },
  {
    "name": "Belleville-en-Caux",
    "code": "76072",
    "epci_code": "200068534",
    "departement_code": "76",
    "region_code": "28",
    "postal_code": "76890"
  },
  {
    "name": "La Bellière",
    "code": "76074",
    "epci_code": "200069730",
    "departement_code": "76",
    "region_code": "28",
    "postal_code": "76440"
  },
  {
    "name": "Belmesnil",
    "code": "76075",
    "epci_code": "200068534",
    "departement_code": "76",
    "region_code": "28",
    "postal_code": "76590"
  },
  {
    "name": "Bénarville",
    "code": "76076",
    "epci_code": "247600505",
    "departement_code": "76",
    "region_code": "28",
    "postal_code": "76110"
  },
  {
    "name": "Bénesville",
    "code": "76077",
    "epci_code": "200069847",
    "departement_code": "76",
    "region_code": "28",
    "postal_code": "76560"
  },
  {
    "name": "Bénouville",
    "code": "76079",
    "epci_code": "200084952",
    "departement_code": "76",
    "region_code": "28",
    "postal_code": "76790"
  },
  {
    "name": "Bernières",
    "code": "76082",
    "epci_code": "200010700",
    "departement_code": "76",
    "region_code": "28",
    "postal_code": "76210"
  },
  {
    "name": "Bertheauville",
    "code": "76083",
    "epci_code": "200069839",
    "departement_code": "76",
    "region_code": "28",
    "postal_code": "76450"
  },
  {
    "name": "Bertreville",
    "code": "76084",
    "epci_code": "200069839",
    "departement_code": "76",
    "region_code": "28",
    "postal_code": "76450"
  },
  {
    "name": "Bertreville-Saint-Ouen",
    "code": "76085",
    "epci_code": "200068534",
    "departement_code": "76",
    "region_code": "28",
    "postal_code": "76590"
  },
  {
    "name": "Bertrimont",
    "code": "76086",
    "epci_code": "200068534",
    "departement_code": "76",
    "region_code": "28",
    "postal_code": "76890"
  },
  {
    "name": "Berville-en-Caux",
    "code": "76087",
    "epci_code": "200069847",
    "departement_code": "76",
    "region_code": "28",
    "postal_code": "76560"
  },
  {
    "name": "Berville-sur-Seine",
    "code": "76088",
    "epci_code": "200023414",
    "departement_code": "76",
    "region_code": "28",
    "postal_code": "76480"
  },
  {
    "name": "Beuzeville-la-Grenier",
    "code": "76090",
    "epci_code": "200010700",
    "departement_code": "76",
    "region_code": "28",
    "postal_code": "76210"
  },
  {
    "name": "Beuzeville-la-Guérard",
    "code": "76091",
    "epci_code": "200069839",
    "departement_code": "76",
    "region_code": "28",
    "postal_code": "76450"
  },
  {
    "name": "Beuzevillette",
    "code": "76092",
    "epci_code": "200010700",
    "departement_code": "76",
    "region_code": "28",
    "postal_code": "76210"
  },
  {
    "name": "Bézancourt",
    "code": "76093",
    "epci_code": "200069730",
    "departement_code": "76",
    "region_code": "28",
    "postal_code": "76220"
  },
  {
    "name": "Bierville",
    "code": "76094",
    "epci_code": "200070449",
    "departement_code": "76",
    "region_code": "28",
    "postal_code": "76750"
  },
  {
    "name": "Bihorel",
    "code": "76095",
    "epci_code": "200023414",
    "departement_code": "76",
    "region_code": "28",
    "postal_code": "76420"
  },
  {
    "name": "Biville-la-Baignarde",
    "code": "76096",
    "epci_code": "200068534",
    "departement_code": "76",
    "region_code": "28",
    "postal_code": "76890"
  },
  {
    "name": "Biville-la-Rivière",
    "code": "76097",
    "epci_code": "200068534",
    "departement_code": "76",
    "region_code": "28",
    "postal_code": "76730"
  },
  {
    "name": "Blacqueville",
    "code": "76099",
    "epci_code": "247600646",
    "departement_code": "76",
    "region_code": "28",
    "postal_code": "76190"
  },
  {
    "name": "Blainville-Crevon",
    "code": "76100",
    "epci_code": "200070449",
    "departement_code": "76",
    "region_code": "28",
    "postal_code": "76116"
  },
  {
    "name": "Blangy-sur-Bresle",
    "code": "76101",
    "epci_code": "200069722",
    "departement_code": "76",
    "region_code": "28",
    "postal_code": "76340"
  },
  {
    "name": "Bonsecours",
    "code": "76103",
    "epci_code": "200023414",
    "departement_code": "76",
    "region_code": "28",
    "postal_code": "76240"
  },
  {
    "name": "Blosseville",
    "code": "76104",
    "epci_code": "200069839",
    "departement_code": "76",
    "region_code": "28",
    "postal_code": "76460"
  },
  {
    "name": "Le Bocasse",
    "code": "76105",
    "epci_code": "200070449",
    "departement_code": "76",
    "region_code": "28",
    "postal_code": "76690"
  },
  {
    "name": "Bois-d’Ennebourg",
    "code": "76106",
    "epci_code": "200070449",
    "departement_code": "76",
    "region_code": "28",
    "postal_code": "76160"
  },
  {
    "name": "Bois-Guilbert",
    "code": "76107",
    "epci_code": "200070449",
    "departement_code": "76",
    "region_code": "28",
    "postal_code": "76750"
  },
  {
    "name": "Bois-Guillaume",
    "code": "76108",
    "epci_code": "200023414",
    "departement_code": "76",
    "region_code": "28",
    "postal_code": "76230"
  },
  {
    "name": "Bois-Héroult",
    "code": "76109",
    "epci_code": "200070449",
    "departement_code": "76",
    "region_code": "28",
    "postal_code": "76750"
  },
  {
    "name": "Bois-Himont",
    "code": "76110",
    "epci_code": "247600620",
    "departement_code": "76",
    "region_code": "28",
    "postal_code": "76190"
  },
  {
    "name": "Bois-l’Évêque",
    "code": "76111",
    "epci_code": "200070449",
    "departement_code": "76",
    "region_code": "28",
    "postal_code": "76160"
  },
  {
    "name": "Le Bois-Robert",
    "code": "76112",
    "epci_code": "200068534",
    "departement_code": "76",
    "region_code": "28",
    "postal_code": "76590"
  },
  {
    "name": "Boissay",
    "code": "76113",
    "epci_code": "200070449",
    "departement_code": "76",
    "region_code": "28",
    "postal_code": "76750"
  },
  {
    "name": "Bolbec",
    "code": "76114",
    "epci_code": "200010700",
    "departement_code": "76",
    "region_code": "28",
    "postal_code": "76210"
  },
  {
    "name": "Bolleville",
    "code": "76115",
    "epci_code": "200010700",
    "departement_code": "76",
    "region_code": "28",
    "postal_code": "76210"
  },
  {
    "name": "Boos",
    "code": "76116",
    "epci_code": "200023414",
    "departement_code": "76",
    "region_code": "28",
    "postal_code": "76520"
  },
  {
    "name": "Bordeaux-Saint-Clair",
    "code": "76117",
    "epci_code": "200084952",
    "departement_code": "76",
    "region_code": "28",
    "postal_code": "76790"
  },
  {
    "name": "Bornambusc",
    "code": "76118",
    "epci_code": "247600505",
    "departement_code": "76",
    "region_code": "28",
    "postal_code": "76110"
  },
  {
    "name": "Bosc-Bérenger",
    "code": "76119",
    "epci_code": "200070068",
    "departement_code": "76",
    "region_code": "28",
    "postal_code": "76680"
  },
  {
    "name": "Bosc-Bordel",
    "code": "76120",
    "epci_code": "200070449",
    "departement_code": "76",
    "region_code": "28",
    "postal_code": "76750"
  },
  {
    "name": "Bosc-Édeline",
    "code": "76121",
    "epci_code": "200070449",
    "departement_code": "76",
    "region_code": "28",
    "postal_code": "76750"
  },
  {
    "name": "Callengeville",
    "code": "76122",
    "epci_code": "200070068",
    "departement_code": "76",
    "region_code": "28",
    "postal_code": "76270"
  },
  {
    "name": "Bosc-Guérard-Saint-Adrien",
    "code": "76123",
    "epci_code": "200070449",
    "departement_code": "76",
    "region_code": "28",
    "postal_code": "76710"
  },
  {
    "name": "Bosc-Hyons",
    "code": "76124",
    "epci_code": "200069730",
    "departement_code": "76",
    "region_code": "28",
    "postal_code": "76220"
  },
  {
    "name": "Bosc-le-Hard",
    "code": "76125",
    "epci_code": "200070449",
    "departement_code": "76",
    "region_code": "28",
    "postal_code": "76850"
  },
  {
    "name": "Bosc-Mesnil",
    "code": "76126",
    "epci_code": "200070068",
    "departement_code": "76",
    "region_code": "28",
    "postal_code": "76680"
  },
  {
    "name": "Bosville",
    "code": "76128",
    "epci_code": "200069839",
    "departement_code": "76",
    "region_code": "28",
    "postal_code": "76450"
  },
  {
    "name": "Boudeville",
    "code": "76129",
    "epci_code": "200069847",
    "departement_code": "76",
    "region_code": "28",
    "postal_code": "76560"
  },
  {
    "name": "Bouelles",
    "code": "76130",
    "epci_code": "200070068",
    "departement_code": "76",
    "region_code": "28",
    "postal_code": "76270"
  },
  {
    "name": "La Bouille",
    "code": "76131",
    "epci_code": "200023414",
    "departement_code": "76",
    "region_code": "28",
    "postal_code": "76530"
  },
  {
    "name": "Bourdainville",
    "code": "76132",
    "epci_code": "200069847",
    "departement_code": "76",
    "region_code": "28",
    "postal_code": "76760"
  },
  {
    "name": "Le Bourg-Dun",
    "code": "76133",
    "epci_code": "200069839",
    "departement_code": "76",
    "region_code": "28",
    "postal_code": "76740"
  },
  {
    "name": "Bourville",
    "code": "76134",
    "epci_code": "200069839",
    "departement_code": "76",
    "region_code": "28",
    "postal_code": "76740"
  },
  {
    "name": "Bouville",
    "code": "76135",
    "epci_code": "247600646",
    "departement_code": "76",
    "region_code": "28",
    "postal_code": "76360"
  },
  {
    "name": "Brachy",
    "code": "76136",
    "epci_code": "200068534",
    "departement_code": "76",
    "region_code": "28",
    "postal_code": "76730"
  },
  {
    "name": "Bracquetuit",
    "code": "76138",
    "epci_code": "200068534",
    "departement_code": "76",
    "region_code": "28",
    "postal_code": "76850"
  },
  {
    "name": "Bradiancourt",
    "code": "76139",
    "epci_code": "200070068",
    "departement_code": "76",
    "region_code": "28",
    "postal_code": "76680"
  },
  {
    "name": "Brametot",
    "code": "76140",
    "epci_code": "200069839",
    "departement_code": "76",
    "region_code": "28",
    "postal_code": "76740"
  },
  {
    "name": "Bréauté",
    "code": "76141",
    "epci_code": "247600505",
    "departement_code": "76",
    "region_code": "28",
    "postal_code": "76110"
  },
  {
    "name": "Brémontier-Merval",
    "code": "76142",
    "epci_code": "200069730",
    "departement_code": "76",
    "region_code": "28",
    "postal_code": "76220"
  },
  {
    "name": "Bretteville-du-Grand-Caux",
    "code": "76143",
    "epci_code": "247600505",
    "departement_code": "76",
    "region_code": "28",
    "postal_code": "76110"
  },
  {
    "name": "Bretteville-Saint-Laurent",
    "code": "76144",
    "epci_code": "200069847",
    "departement_code": "76",
    "region_code": "28",
    "postal_code": "76560"
  },
  {
    "name": "Buchy",
    "code": "76146",
    "epci_code": "200070449",
    "departement_code": "76",
    "region_code": "28",
    "postal_code": "76750"
  },
  {
    "name": "Bully",
    "code": "76147",
    "epci_code": "200070068",
    "departement_code": "76",
    "region_code": "28",
    "postal_code": "76270"
  },
  {
    "name": "Bures-en-Bray",
    "code": "76148",
    "epci_code": "247600604",
    "departement_code": "76",
    "region_code": "28",
    "postal_code": "76660"
  },
  {
    "name": "Butot",
    "code": "76149",
    "epci_code": "200069847",
    "departement_code": "76",
    "region_code": "28",
    "postal_code": "76890"
  },
  {
    "name": "Cailleville",
    "code": "76151",
    "epci_code": "200069839",
    "departement_code": "76",
    "region_code": "28",
    "postal_code": "76460"
  },
  {
    "name": "Cailly",
    "code": "76152",
    "epci_code": "200070449",
    "departement_code": "76",
    "region_code": "28",
    "postal_code": "76690"
  },
  {
    "name": "Calleville-les-Deux-Églises",
    "code": "76153",
    "epci_code": "200068534",
    "departement_code": "76",
    "region_code": "28",
    "postal_code": "76890"
  },
  {
    "name": "Campneuseville",
    "code": "76154",
    "epci_code": "200069722",
    "departement_code": "76",
    "region_code": "28",
    "postal_code": "76340"
  },
  {
    "name": "Canehan",
    "code": "76155",
    "epci_code": "247600729",
    "departement_code": "76",
    "region_code": "28",
    "postal_code": "76260"
  },
  {
    "name": "Canouville",
    "code": "76156",
    "epci_code": "200069839",
    "departement_code": "76",
    "region_code": "28",
    "postal_code": "76450"
  },
  {
    "name": "Canteleu",
    "code": "76157",
    "epci_code": "200023414",
    "departement_code": "76",
    "region_code": "28",
    "postal_code": "76380"
  },
  {
    "name": "Canville-les-Deux-Églises",
    "code": "76158",
    "epci_code": "200069847",
    "departement_code": "76",
    "region_code": "28",
    "postal_code": "76560"
  },
  {
    "name": "Cany-Barville",
    "code": "76159",
    "epci_code": "200069839",
    "departement_code": "76",
    "region_code": "28",
    "postal_code": "76450"
  },
  {
    "name": "Carville-la-Folletière",
    "code": "76160",
    "epci_code": "247600620",
    "departement_code": "76",
    "region_code": "28",
    "postal_code": "76190"
  },
  {
    "name": "Carville-Pot-de-Fer",
    "code": "76161",
    "epci_code": "200069847",
    "departement_code": "76",
    "region_code": "28",
    "postal_code": "76560"
  },
  {
    "name": "Le Catelier",
    "code": "76162",
    "epci_code": "200068534",
    "departement_code": "76",
    "region_code": "28",
    "postal_code": "76590"
  },
  {
    "name": "Catenay",
    "code": "76163",
    "epci_code": "200070449",
    "departement_code": "76",
    "region_code": "28",
    "postal_code": "76116"
  },
  {
    "name": "Rives-en-Seine",
    "code": "76164",
    "epci_code": "200010700",
    "departement_code": "76",
    "region_code": "28",
    "postal_code": "76490"
  },
  {
    "name": "Caudebec-lès-Elbeuf",
    "code": "76165",
    "epci_code": "200023414",
    "departement_code": "76",
    "region_code": "28",
    "postal_code": "76320"
  },
  {
    "name": "Le Caule-Sainte-Beuve",
    "code": "76166",
    "epci_code": "200069722",
    "departement_code": "76",
    "region_code": "28",
    "postal_code": "76390"
  },
  {
    "name": "Cauville-sur-Mer",
    "code": "76167",
    "epci_code": "200084952",
    "departement_code": "76",
    "region_code": "28",
    "postal_code": "76930"
  },
  {
    "name": "Les Cent-Acres",
    "code": "76168",
    "epci_code": "200068534",
    "departement_code": "76",
    "region_code": "28",
    "postal_code": "76590"
  },
  {
    "name": "La Cerlangue",
    "code": "76169",
    "epci_code": "200084952",
    "departement_code": "76",
    "region_code": "28",
    "postal_code": "76430"
  },
  {
    "name": "La Chapelle-du-Bourgay",
    "code": "76170",
    "epci_code": "200068534",
    "departement_code": "76",
    "region_code": "28",
    "postal_code": "76590"
  },
  {
    "name": "La Chapelle-Saint-Ouen",
    "code": "76171",
    "epci_code": "200069730",
    "departement_code": "76",
    "region_code": "28",
    "postal_code": "76780"
  },
  {
    "name": "La Chapelle-sur-Dun",
    "code": "76172",
    "epci_code": "200069839",
    "departement_code": "76",
    "region_code": "28",
    "postal_code": "76740"
  },
  {
    "name": "La Chaussée",
    "code": "76173",
    "epci_code": "200068534",
    "departement_code": "76",
    "region_code": "28",
    "postal_code": "76590"
  },
  {
    "name": "Cideville",
    "code": "76174",
    "epci_code": "200069847",
    "departement_code": "76",
    "region_code": "28",
    "postal_code": "76570"
  },
  {
    "name": "Clais",
    "code": "76175",
    "epci_code": "247600604",
    "departement_code": "76",
    "region_code": "28",
    "postal_code": "76660"
  },
  {
    "name": "Clasville",
    "code": "76176",
    "epci_code": "200069839",
    "departement_code": "76",
    "region_code": "28",
    "postal_code": "76450"
  },
  {
    "name": "Claville-Motteville",
    "code": "76177",
    "epci_code": "200070449",
    "departement_code": "76",
    "region_code": "28",
    "postal_code": "76690"
  },
  {
    "name": "Cléon",
    "code": "76178",
    "epci_code": "200023414",
    "departement_code": "76",
    "region_code": "28",
    "postal_code": "76410"
  },
  {
    "name": "Clères",
    "code": "76179",
    "epci_code": "200070449",
    "departement_code": "76",
    "region_code": "28",
    "postal_code": "76690"
  },
  {
    "name": "Cleuville",
    "code": "76180",
    "epci_code": "200069839",
    "departement_code": "76",
    "region_code": "28",
    "postal_code": "76450"
  },
  {
    "name": "Cléville",
    "code": "76181",
    "epci_code": "200010700",
    "departement_code": "76",
    "region_code": "28",
    "postal_code": "76640"
  },
  {
    "name": "Cliponville",
    "code": "76182",
    "epci_code": "200010700",
    "departement_code": "76",
    "region_code": "28",
    "postal_code": "76640"
  },
  {
    "name": "Colleville",
    "code": "76183",
    "epci_code": "200069821",
    "departement_code": "76",
    "region_code": "28",
    "postal_code": "76400"
  },
  {
    "name": "Colmesnil-Manneville",
    "code": "76184",
    "epci_code": "247600786",
    "departement_code": "76",
    "region_code": "28",
    "postal_code": "76550"
  },
  {
    "name": "Compainville",
    "code": "76185",
    "epci_code": "200069730",
    "departement_code": "76",
    "region_code": "28",
    "postal_code": "76440"
  },
  {
    "name": "Conteville",
    "code": "76186",
    "epci_code": "200069722",
    "departement_code": "76",
    "region_code": "28",
    "postal_code": "76390"
  },
  {
    "name": "Contremoulins",
    "code": "76187",
    "epci_code": "200069821",
    "departement_code": "76",
    "region_code": "28",
    "postal_code": "76400"
  },
  {
    "name": "Cottévrard",
    "code": "76188",
    "epci_code": "200070449",
    "departement_code": "76",
    "region_code": "28",
    "postal_code": "76850"
  },
  {
    "name": "Crasville-la-Mallet",
    "code": "76189",
    "epci_code": "200069839",
    "departement_code": "76",
    "region_code": "28",
    "postal_code": "76450"
  },
  {
    "name": "Crasville-la-Rocquefort",
    "code": "76190",
    "epci_code": "200069839",
    "departement_code": "76",
    "region_code": "28",
    "postal_code": "76740"
  },
  {
    "name": "Criel-sur-Mer",
    "code": "76192",
    "epci_code": "247600588",
    "departement_code": "76",
    "region_code": "28",
    "postal_code": "76910"
  },
  {
    "name": "La Crique",
    "code": "76193",
    "epci_code": "200070068",
    "departement_code": "76",
    "region_code": "28",
    "postal_code": "76850"
  },
  {
    "name": "Criquebeuf-en-Caux",
    "code": "76194",
    "epci_code": "200069821",
    "departement_code": "76",
    "region_code": "28",
    "postal_code": "76111"
  },
  {
    "name": "Criquetot-le-Mauconduit",
    "code": "76195",
    "epci_code": "200069839",
    "departement_code": "76",
    "region_code": "28",
    "postal_code": "76540"
  },
  {
    "name": "Criquetot-l’Esneval",
    "code": "76196",
    "epci_code": "200084952",
    "departement_code": "76",
    "region_code": "28",
    "postal_code": "76280"
  },
  {
    "name": "Criquetot-sur-Longueville",
    "code": "76197",
    "epci_code": "200068534",
    "departement_code": "76",
    "region_code": "28",
    "postal_code": "76590"
  },
  {
    "name": "Criquetot-sur-Ouville",
    "code": "76198",
    "epci_code": "200069847",
    "departement_code": "76",
    "region_code": "28",
    "postal_code": "76760"
  },
  {
    "name": "Criquiers",
    "code": "76199",
    "epci_code": "200069722",
    "departement_code": "76",
    "region_code": "28",
    "postal_code": "76390"
  },
  {
    "name": "Critot",
    "code": "76200",
    "epci_code": "200070068",
    "departement_code": "76",
    "region_code": "28",
    "postal_code": "76680"
  },
  {
    "name": "Croisy-sur-Andelle",
    "code": "76201",
    "epci_code": "200069730",
    "departement_code": "76",
    "region_code": "28",
    "postal_code": "76780"
  },
  {
    "name": "Croixdalle",
    "code": "76202",
    "epci_code": "247600604",
    "departement_code": "76",
    "region_code": "28",
    "postal_code": "76660"
  },
  {
    "name": "Croix-Mare",
    "code": "76203",
    "epci_code": "247600620",
    "departement_code": "76",
    "region_code": "28",
    "postal_code": "76190"
  },
  {
    "name": "Cropus",
    "code": "76204",
    "epci_code": "200068534",
    "departement_code": "76",
    "region_code": "28",
    "postal_code": "76720"
  },
  {
    "name": "Crosville-sur-Scie",
    "code": "76205",
    "epci_code": "200068534",
    "departement_code": "76",
    "region_code": "28",
    "postal_code": "76590"
  },
  {
    "name": "Cuverville",
    "code": "76206",
    "epci_code": "200084952",
    "departement_code": "76",
    "region_code": "28",
    "postal_code": "76280"
  },
  {
    "name": "Cuverville-sur-Yères",
    "code": "76207",
    "epci_code": "247600729",
    "departement_code": "76",
    "region_code": "28",
    "postal_code": "76260"
  },
  {
    "name": "Cuy-Saint-Fiacre",
    "code": "76208",
    "epci_code": "200069730",
    "departement_code": "76",
    "region_code": "28",
    "postal_code": "76220"
  },
  {
    "name": "Dampierre-en-Bray",
    "code": "76209",
    "epci_code": "200069730",
    "departement_code": "76",
    "region_code": "28",
    "postal_code": "76220"
  },
  {
    "name": "Dampierre-Saint-Nicolas",
    "code": "76210",
    "epci_code": "247600729",
    "departement_code": "76",
    "region_code": "28",
    "postal_code": "76510"
  },
  {
    "name": "Dancourt",
    "code": "76211",
    "epci_code": "200069722",
    "departement_code": "76",
    "region_code": "28",
    "postal_code": "76340"
  },
  {
    "name": "Darnétal",
    "code": "76212",
    "epci_code": "200023414",
    "departement_code": "76",
    "region_code": "28",
    "postal_code": "76160"
  },
  {
    "name": "Daubeuf-Serville",
    "code": "76213",
    "epci_code": "247600505",
    "departement_code": "76",
    "region_code": "28",
    "postal_code": "76110"
  },
  {
    "name": "Dénestanville",
    "code": "76214",
    "epci_code": "200068534",
    "departement_code": "76",
    "region_code": "28",
    "postal_code": "76590"
  },
  {
    "name": "Déville-lès-Rouen",
    "code": "76216",
    "epci_code": "200023414",
    "departement_code": "76",
    "region_code": "28",
    "postal_code": "76250"
  },
  {
    "name": "Dieppe",
    "code": "76217",
    "epci_code": "247600786",
    "departement_code": "76",
    "region_code": "28",
    "postal_code": "76200"
  },
  {
    "name": "Dieppe",
    "code": "76217",
    "epci_code": "247600786",
    "departement_code": "76",
    "region_code": "28",
    "postal_code": "76370"
  },
  {
    "name": "Doudeauville",
    "code": "76218",
    "epci_code": "200069730",
    "departement_code": "76",
    "region_code": "28",
    "postal_code": "76220"
  },
  {
    "name": "Doudeville",
    "code": "76219",
    "epci_code": "200069847",
    "departement_code": "76",
    "region_code": "28",
    "postal_code": "76560"
  },
  {
    "name": "Douvrend",
    "code": "76220",
    "epci_code": "247600729",
    "departement_code": "76",
    "region_code": "28",
    "postal_code": "76630"
  },
  {
    "name": "Drosay",
    "code": "76221",
    "epci_code": "200069839",
    "departement_code": "76",
    "region_code": "28",
    "postal_code": "76460"
  },
  {
    "name": "Duclair",
    "code": "76222",
    "epci_code": "200023414",
    "departement_code": "76",
    "region_code": "28",
    "postal_code": "76480"
  },
  {
    "name": "Écalles-Alix",
    "code": "76223",
    "epci_code": "247600620",
    "departement_code": "76",
    "region_code": "28",
    "postal_code": "76190"
  },
  {
    "name": "Écrainville",
    "code": "76224",
    "epci_code": "247600505",
    "departement_code": "76",
    "region_code": "28",
    "postal_code": "76110"
  },
  {
    "name": "Écretteville-lès-Baons",
    "code": "76225",
    "epci_code": "247600620",
    "departement_code": "76",
    "region_code": "28",
    "postal_code": "76190"
  },
  {
    "name": "Écretteville-sur-Mer",
    "code": "76226",
    "epci_code": "200069821",
    "departement_code": "76",
    "region_code": "28",
    "postal_code": "76540"
  },
  {
    "name": "Ectot-l’Auber",
    "code": "76227",
    "epci_code": "200069847",
    "departement_code": "76",
    "region_code": "28",
    "postal_code": "76760"
  },
  {
    "name": "Ectot-lès-Baons",
    "code": "76228",
    "epci_code": "200069847",
    "departement_code": "76",
    "region_code": "28",
    "postal_code": "76970"
  },
  {
    "name": "Elbeuf-en-Bray",
    "code": "76229",
    "epci_code": "200069730",
    "departement_code": "76",
    "region_code": "28",
    "postal_code": "76220"
  },
  {
    "name": "Elbeuf-sur-Andelle",
    "code": "76230",
    "epci_code": "200070449",
    "departement_code": "76",
    "region_code": "28",
    "postal_code": "76780"
  },
  {
    "name": "Elbeuf",
    "code": "76231",
    "epci_code": "200023414",
    "departement_code": "76",
    "region_code": "28",
    "postal_code": "76500"
  },
  {
    "name": "Életot",
    "code": "76232",
    "epci_code": "200069821",
    "departement_code": "76",
    "region_code": "28",
    "postal_code": "76540"
  },
  {
    "name": "Ellecourt",
    "code": "76233",
    "epci_code": "200069722",
    "departement_code": "76",
    "region_code": "28",
    "postal_code": "76390"
  },
  {
    "name": "Émanville",
    "code": "76234",
    "epci_code": "247600646",
    "departement_code": "76",
    "region_code": "28",
    "postal_code": "76570"
  },
  {
    "name": "Envermeu",
    "code": "76235",
    "epci_code": "247600729",
    "departement_code": "76",
    "region_code": "28",
    "postal_code": "76630"
  },
  {
    "name": "Envronville",
    "code": "76236",
    "epci_code": "200010700",
    "departement_code": "76",
    "region_code": "28",
    "postal_code": "76640"
  },
  {
    "name": "Épinay-sur-Duclair",
    "code": "76237",
    "epci_code": "200023414",
    "departement_code": "76",
    "region_code": "28",
    "postal_code": "76480"
  },
  {
    "name": "Épouville",
    "code": "76238",
    "epci_code": "200084952",
    "departement_code": "76",
    "region_code": "28",
    "postal_code": "76133"
  },
  {
    "name": "Épretot",
    "code": "76239",
    "epci_code": "200084952",
    "departement_code": "76",
    "region_code": "28",
    "postal_code": "76430"
  },
  {
    "name": "Épreville",
    "code": "76240",
    "epci_code": "200069821",
    "departement_code": "76",
    "region_code": "28",
    "postal_code": "76400"
  },
  {
    "name": "Ermenouville",
    "code": "76241",
    "epci_code": "200069839",
    "departement_code": "76",
    "region_code": "28",
    "postal_code": "76740"
  },
  {
    "name": "Ernemont-la-Villette",
    "code": "76242",
    "epci_code": "200069730",
    "departement_code": "76",
    "region_code": "28",
    "postal_code": "76220"
  },
  {
    "name": "Ernemont-sur-Buchy",
    "code": "76243",
    "epci_code": "200070449",
    "departement_code": "76",
    "region_code": "28",
    "postal_code": "76750"
  },
  {
    "name": "Esclavelles",
    "code": "76244",
    "epci_code": "200070068",
    "departement_code": "76",
    "region_code": "28",
    "postal_code": "76270"
  },
  {
    "name": "Eslettes",
    "code": "76245",
    "epci_code": "200070449",
    "departement_code": "76",
    "region_code": "28",
    "postal_code": "76710"
  },
  {
    "name": "Esteville",
    "code": "76247",
    "epci_code": "200070449",
    "departement_code": "76",
    "region_code": "28",
    "postal_code": "76690"
  },
  {
    "name": "Étaimpuis",
    "code": "76249",
    "epci_code": "200068534",
    "departement_code": "76",
    "region_code": "28",
    "postal_code": "76850"
  },
  {
    "name": "Étainhus",
    "code": "76250",
    "epci_code": "200084952",
    "departement_code": "76",
    "region_code": "28",
    "postal_code": "76430"
  },
  {
    "name": "Étalleville",
    "code": "76251",
    "epci_code": "200069847",
    "departement_code": "76",
    "region_code": "28",
    "postal_code": "76560"
  },
  {
    "name": "Étalondes",
    "code": "76252",
    "epci_code": "247600588",
    "departement_code": "76",
    "region_code": "28",
    "postal_code": "76260"
  },
  {
    "name": "Étoutteville",
    "code": "76253",
    "epci_code": "200069847",
    "departement_code": "76",
    "region_code": "28",
    "postal_code": "76190"
  },
  {
    "name": "Étretat",
    "code": "76254",
    "epci_code": "200084952",
    "departement_code": "76",
    "region_code": "28",
    "postal_code": "76790"
  },
  {
    "name": "Eu",
    "code": "76255",
    "epci_code": "247600588",
    "departement_code": "76",
    "region_code": "28",
    "postal_code": "76260"
  },
  {
    "name": "Fallencourt",
    "code": "76257",
    "epci_code": "200069722",
    "departement_code": "76",
    "region_code": "28",
    "postal_code": "76340"
  },
  {
    "name": "Terres-de-Caux",
    "code": "76258",
    "epci_code": "200010700",
    "departement_code": "76",
    "region_code": "28",
    "postal_code": "76640"
  },
  {
    "name": "Fécamp",
    "code": "76259",
    "epci_code": "200069821",
    "departement_code": "76",
    "region_code": "28",
    "postal_code": "76400"
  },
  {
    "name": "Ferrières-en-Bray",
    "code": "76260",
    "epci_code": "200069730",
    "departement_code": "76",
    "region_code": "28",
    "postal_code": "76220"
  },
  {
    "name": "La Ferté-Saint-Samson",
    "code": "76261",
    "epci_code": "200069730",
    "departement_code": "76",
    "region_code": "28",
    "postal_code": "76440"
  },
  {
    "name": "Fesques",
    "code": "76262",
    "epci_code": "200070068",
    "departement_code": "76",
    "region_code": "28",
    "postal_code": "76270"
  },
  {
    "name": "La Feuillie",
    "code": "76263",
    "epci_code": "200069730",
    "departement_code": "76",
    "region_code": "28",
    "postal_code": "76220"
  },
  {
    "name": "Flamanville",
    "code": "76264",
    "epci_code": "200069847",
    "departement_code": "76",
    "region_code": "28",
    "postal_code": "76970"
  },
  {
    "name": "Flamets-Frétils",
    "code": "76265",
    "epci_code": "200070068",
    "departement_code": "76",
    "region_code": "28",
    "postal_code": "76270"
  },
  {
    "name": "Flocques",
    "code": "76266",
    "epci_code": "247600588",
    "departement_code": "76",
    "region_code": "28",
    "postal_code": "76260"
  },
  {
    "name": "Fongueusemare",
    "code": "76268",
    "epci_code": "200084952",
    "departement_code": "76",
    "region_code": "28",
    "postal_code": "76280"
  },
  {
    "name": "Fontaine-en-Bray",
    "code": "76269",
    "epci_code": "200070068",
    "departement_code": "76",
    "region_code": "28",
    "postal_code": "76440"
  },
  {
    "name": "Fontaine-la-Mallet",
    "code": "76270",
    "epci_code": "200084952",
    "departement_code": "76",
    "region_code": "28",
    "postal_code": "76290"
  },
  {
    "name": "Fontaine-le-Bourg",
    "code": "76271",
    "epci_code": "200070449",
    "departement_code": "76",
    "region_code": "28",
    "postal_code": "76690"
  },
  {
    "name": "Fontaine-le-Dun",
    "code": "76272",
    "epci_code": "200069839",
    "departement_code": "76",
    "region_code": "28",
    "postal_code": "76740"
  },
  {
    "name": "Fontaine-sous-Préaux",
    "code": "76273",
    "epci_code": "200023414",
    "departement_code": "76",
    "region_code": "28",
    "postal_code": "76160"
  },
  {
    "name": "La Fontelaye",
    "code": "76274",
    "epci_code": "200068534",
    "departement_code": "76",
    "region_code": "28",
    "postal_code": "76890"
  },
  {
    "name": "Fontenay",
    "code": "76275",
    "epci_code": "200084952",
    "departement_code": "76",
    "region_code": "28",
    "postal_code": "76290"
  },
  {
    "name": "Forges-les-Eaux",
    "code": "76276",
    "epci_code": "200069730",
    "departement_code": "76",
    "region_code": "28",
    "postal_code": "76440"
  },
  {
    "name": "Foucarmont",
    "code": "76278",
    "epci_code": "200069722",
    "departement_code": "76",
    "region_code": "28",
    "postal_code": "76340"
  },
  {
    "name": "Foucart",
    "code": "76279",
    "epci_code": "200010700",
    "departement_code": "76",
    "region_code": "28",
    "postal_code": "76640"
  },
  {
    "name": "Fréauville",
    "code": "76280",
    "epci_code": "247600604",
    "departement_code": "76",
    "region_code": "28",
    "postal_code": "76660"
  },
  {
    "name": "La Frénaye",
    "code": "76281",
    "epci_code": "200010700",
    "departement_code": "76",
    "region_code": "28",
    "postal_code": "76170"
  },
  {
    "name": "Freneuse",
    "code": "76282",
    "epci_code": "200023414",
    "departement_code": "76",
    "region_code": "28",
    "postal_code": "76410"
  },
  {
    "name": "Fresles",
    "code": "76283",
    "epci_code": "200070068",
    "departement_code": "76",
    "region_code": "28",
    "postal_code": "76270"
  },
  {
    "name": "Fresnay-le-Long",
    "code": "76284",
    "epci_code": "200068534",
    "departement_code": "76",
    "region_code": "28",
    "postal_code": "76850"
  },
  {
    "name": "Fresne-le-Plan",
    "code": "76285",
    "epci_code": "200070449",
    "departement_code": "76",
    "region_code": "28",
    "postal_code": "76520"
  },
  {
    "name": "Fresnoy-Folny",
    "code": "76286",
    "epci_code": "247600604",
    "departement_code": "76",
    "region_code": "28",
    "postal_code": "76660"
  },
  {
    "name": "Fresquiennes",
    "code": "76287",
    "epci_code": "200070449",
    "departement_code": "76",
    "region_code": "28",
    "postal_code": "76570"
  },
  {
    "name": "Freulleville",
    "code": "76288",
    "epci_code": "247600729",
    "departement_code": "76",
    "region_code": "28",
    "postal_code": "76510"
  },
  {
    "name": "Saint Martin de l’If",
    "code": "76289",
    "epci_code": "247600620",
    "departement_code": "76",
    "region_code": "28",
    "postal_code": "76190"
  },
  {
    "name": "Frichemesnil",
    "code": "76290",
    "epci_code": "200070449",
    "departement_code": "76",
    "region_code": "28",
    "postal_code": "76690"
  },
  {
    "name": "Froberville",
    "code": "76291",
    "epci_code": "200069821",
    "departement_code": "76",
    "region_code": "28",
    "postal_code": "76400"
  },
  {
    "name": "Fry",
    "code": "76292",
    "epci_code": "200069730",
    "departement_code": "76",
    "region_code": "28",
    "postal_code": "76780"
  },
  {
    "name": "Fultot",
    "code": "76293",
    "epci_code": "200069847",
    "departement_code": "76",
    "region_code": "28",
    "postal_code": "76560"
  },
  {
    "name": "La Gaillarde",
    "code": "76294",
    "epci_code": "200069839",
    "departement_code": "76",
    "region_code": "28",
    "postal_code": "76740"
  },
  {
    "name": "Gaillefontaine",
    "code": "76295",
    "epci_code": "200069730",
    "departement_code": "76",
    "region_code": "28",
    "postal_code": "76870"
  },
  {
    "name": "Gainneville",
    "code": "76296",
    "epci_code": "200084952",
    "departement_code": "76",
    "region_code": "28",
    "postal_code": "76700"
  },
  {
    "name": "Gancourt-Saint-Étienne",
    "code": "76297",
    "epci_code": "200069730",
    "departement_code": "76",
    "region_code": "28",
    "postal_code": "76220"
  },
  {
    "name": "Ganzeville",
    "code": "76298",
    "epci_code": "200069821",
    "departement_code": "76",
    "region_code": "28",
    "postal_code": "76400"
  },
  {
    "name": "Gerponville",
    "code": "76299",
    "epci_code": "200069821",
    "departement_code": "76",
    "region_code": "28",
    "postal_code": "76540"
  },
  {
    "name": "Gerville",
    "code": "76300",
    "epci_code": "200069821",
    "departement_code": "76",
    "region_code": "28",
    "postal_code": "76790"
  },
  {
    "name": "Goderville",
    "code": "76302",
    "epci_code": "247600505",
    "departement_code": "76",
    "region_code": "28",
    "postal_code": "76110"
  },
  {
    "name": "Gommerville",
    "code": "76303",
    "epci_code": "200084952",
    "departement_code": "76",
    "region_code": "28",
    "postal_code": "76430"
  },
  {
    "name": "Gonfreville-Caillot",
    "code": "76304",
    "epci_code": "247600505",
    "departement_code": "76",
    "region_code": "28",
    "postal_code": "76110"
  },
  {
    "name": "Gonfreville-l’Orcher",
    "code": "76305",
    "epci_code": "200084952",
    "departement_code": "76",
    "region_code": "28",
    "postal_code": "76700"
  },
  {
    "name": "Gonnetot",
    "code": "76306",
    "epci_code": "200068534",
    "departement_code": "76",
    "region_code": "28",
    "postal_code": "76730"
  },
  {
    "name": "Gonneville-la-Mallet",
    "code": "76307",
    "epci_code": "200084952",
    "departement_code": "76",
    "region_code": "28",
    "postal_code": "76280"
  },
  {
    "name": "Gonneville-sur-Scie",
    "code": "76308",
    "epci_code": "200068534",
    "departement_code": "76",
    "region_code": "28",
    "postal_code": "76590"
  },
  {
    "name": "Gonzeville",
    "code": "76309",
    "epci_code": "200069847",
    "departement_code": "76",
    "region_code": "28",
    "postal_code": "76560"
  },
  {
    "name": "Goupillières",
    "code": "76311",
    "epci_code": "247600646",
    "departement_code": "76",
    "region_code": "28",
    "postal_code": "76570"
  },
  {
    "name": "Gournay-en-Bray",
    "code": "76312",
    "epci_code": "200069730",
    "departement_code": "76",
    "region_code": "28",
    "postal_code": "76220"
  },
  {
    "name": "Gouy",
    "code": "76313",
    "epci_code": "200023414",
    "departement_code": "76",
    "region_code": "28",
    "postal_code": "76520"
  },
  {
    "name": "Graimbouville",
    "code": "76314",
    "epci_code": "200084952",
    "departement_code": "76",
    "region_code": "28",
    "postal_code": "76430"
  },
  {
    "name": "Grainville-la-Teinturière",
    "code": "76315",
    "epci_code": "200069839",
    "departement_code": "76",
    "region_code": "28",
    "postal_code": "76450"
  },
  {
    "name": "Grainville-sur-Ry",
    "code": "76316",
    "epci_code": "200070449",
    "departement_code": "76",
    "region_code": "28",
    "postal_code": "76116"
  },
  {
    "name": "Grainville-Ymauville",
    "code": "76317",
    "epci_code": "247600505",
    "departement_code": "76",
    "region_code": "28",
    "postal_code": "76110"
  },
  {
    "name": "Grand-Camp",
    "code": "76318",
    "epci_code": "200010700",
    "departement_code": "76",
    "region_code": "28",
    "postal_code": "76170"
  },
  {
    "name": "Grand-Couronne",
    "code": "76319",
    "epci_code": "200023414",
    "departement_code": "76",
    "region_code": "28",
    "postal_code": "76530"
  },
  {
    "name": "Grandcourt",
    "code": "76320",
    "epci_code": "247600604",
    "departement_code": "76",
    "region_code": "28",
    "postal_code": "76660"
  },
  {
    "name": "Les Grandes-Ventes",
    "code": "76321",
    "epci_code": "200070068",
    "departement_code": "76",
    "region_code": "28",
    "postal_code": "76950"
  },
  {
    "name": "Le Grand-Quevilly",
    "code": "76322",
    "epci_code": "200023414",
    "departement_code": "76",
    "region_code": "28",
    "postal_code": "76120"
  },
  {
    "name": "Graval",
    "code": "76323",
    "epci_code": "200070068",
    "departement_code": "76",
    "region_code": "28",
    "postal_code": "76270"
  },
  {
    "name": "Grèges",
    "code": "76324",
    "epci_code": "247600786",
    "departement_code": "76",
    "region_code": "28",
    "postal_code": "76370"
  },
  {
    "name": "Grémonville",
    "code": "76325",
    "epci_code": "200069847",
    "departement_code": "76",
    "region_code": "28",
    "postal_code": "76970"
  },
  {
    "name": "Greuville",
    "code": "76327",
    "epci_code": "200068534",
    "departement_code": "76",
    "region_code": "28",
    "postal_code": "76810"
  },
  {
    "name": "Grigneuseville",
    "code": "76328",
    "epci_code": "200070449",
    "departement_code": "76",
    "region_code": "28",
    "postal_code": "76850"
  },
  {
    "name": "Gruchet-le-Valasse",
    "code": "76329",
    "epci_code": "200010700",
    "departement_code": "76",
    "region_code": "28",
    "postal_code": "76210"
  },
  {
    "name": "Gruchet-Saint-Siméon",
    "code": "76330",
    "epci_code": "200068534",
    "departement_code": "76",
    "region_code": "28",
    "postal_code": "76810"
  },
  {
    "name": "Grugny",
    "code": "76331",
    "epci_code": "200070449",
    "departement_code": "76",
    "region_code": "28",
    "postal_code": "76690"
  },
  {
    "name": "Grumesnil",
    "code": "76332",
    "epci_code": "200069730",
    "departement_code": "76",
    "region_code": "28",
    "postal_code": "76440"
  },
  {
    "name": "Guerville",
    "code": "76333",
    "epci_code": "200069722",
    "departement_code": "76",
    "region_code": "28",
    "postal_code": "76340"
  },
  {
    "name": "Gueures",
    "code": "76334",
    "epci_code": "200068534",
    "departement_code": "76",
    "region_code": "28",
    "postal_code": "76730"
  },
  {
    "name": "Gueutteville",
    "code": "76335",
    "epci_code": "200068534",
    "departement_code": "76",
    "region_code": "28",
    "postal_code": "76890"
  },
  {
    "name": "Gueutteville-les-Grès",
    "code": "76336",
    "epci_code": "200069839",
    "departement_code": "76",
    "region_code": "28",
    "postal_code": "76460"
  },
  {
    "name": "La Hallotière",
    "code": "76338",
    "epci_code": "200069730",
    "departement_code": "76",
    "region_code": "28",
    "postal_code": "76780"
  },
  {
    "name": "Le Hanouard",
    "code": "76339",
    "epci_code": "200069839",
    "departement_code": "76",
    "region_code": "28",
    "postal_code": "76450"
  },
  {
    "name": "Harcanville",
    "code": "76340",
    "epci_code": "200069847",
    "departement_code": "76",
    "region_code": "28",
    "postal_code": "76560"
  },
  {
    "name": "Harfleur",
    "code": "76341",
    "epci_code": "200084952",
    "departement_code": "76",
    "region_code": "28",
    "postal_code": "76700"
  },
  {
    "name": "Hattenville",
    "code": "76342",
    "epci_code": "200010700",
    "departement_code": "76",
    "region_code": "28",
    "postal_code": "76640"
  },
  {
    "name": "Haucourt",
    "code": "76343",
    "epci_code": "200069730",
    "departement_code": "76",
    "region_code": "28",
    "postal_code": "76440"
  },
  {
    "name": "Haudricourt",
    "code": "76344",
    "epci_code": "200069722",
    "departement_code": "76",
    "region_code": "28",
    "postal_code": "76390"
  },
  {
    "name": "Haussez",
    "code": "76345",
    "epci_code": "200069730",
    "departement_code": "76",
    "region_code": "28",
    "postal_code": "76440"
  },
  {
    "name": "Hautot-l’Auvray",
    "code": "76346",
    "epci_code": "200069839",
    "departement_code": "76",
    "region_code": "28",
    "postal_code": "76450"
  },
  {
    "name": "Hautot-le-Vatois",
    "code": "76347",
    "epci_code": "247600620",
    "departement_code": "76",
    "region_code": "28",
    "postal_code": "76190"
  },
  {
    "name": "Hautot-Saint-Sulpice",
    "code": "76348",
    "epci_code": "247600620",
    "departement_code": "76",
    "region_code": "28",
    "postal_code": "76190"
  },
  {
    "name": "Hautot-sur-Mer",
    "code": "76349",
    "epci_code": "247600786",
    "departement_code": "76",
    "region_code": "28",
    "postal_code": "76550"
  },
  {
    "name": "Hautot-sur-Seine",
    "code": "76350",
    "epci_code": "200023414",
    "departement_code": "76",
    "region_code": "28",
    "postal_code": "76113"
  },
  {
    "name": "Le Havre",
    "code": "76351",
    "epci_code": "200084952",
    "departement_code": "76",
    "region_code": "28",
    "postal_code": "76600"
  },
  {
    "name": "Le Havre",
    "code": "76351",
    "epci_code": "200084952",
    "departement_code": "76",
    "region_code": "28",
    "postal_code": "76610"
  },
  {
    "name": "Le Havre",
    "code": "76351",
    "epci_code": "200084952",
    "departement_code": "76",
    "region_code": "28",
    "postal_code": "76620"
  },
  {
    "name": "La Haye",
    "code": "76352",
    "epci_code": "200069730",
    "departement_code": "76",
    "region_code": "28",
    "postal_code": "76780"
  },
  {
    "name": "Héberville",
    "code": "76353",
    "epci_code": "200069839",
    "departement_code": "76",
    "region_code": "28",
    "postal_code": "76740"
  },
  {
    "name": "Hénouville",
    "code": "76354",
    "epci_code": "200023414",
    "departement_code": "76",
    "region_code": "28",
    "postal_code": "76840"
  },
  {
    "name": "Héricourt-en-Caux",
    "code": "76355",
    "epci_code": "200069847",
    "departement_code": "76",
    "region_code": "28",
    "postal_code": "76560"
  },
  {
    "name": "Hermanville",
    "code": "76356",
    "epci_code": "200068534",
    "departement_code": "76",
    "region_code": "28",
    "postal_code": "76730"
  },
  {
    "name": "Hermeville",
    "code": "76357",
    "epci_code": "200084952",
    "departement_code": "76",
    "region_code": "28",
    "postal_code": "76280"
  },
  {
    "name": "Héronchelles",
    "code": "76359",
    "epci_code": "200070449",
    "departement_code": "76",
    "region_code": "28",
    "postal_code": "76750"
  },
  {
    "name": "Heugleville-sur-Scie",
    "code": "76360",
    "epci_code": "200068534",
    "departement_code": "76",
    "region_code": "28",
    "postal_code": "76720"
  },
  {
    "name": "Heuqueville",
    "code": "76361",
    "epci_code": "200084952",
    "departement_code": "76",
    "region_code": "28",
    "postal_code": "76280"
  },
  {
    "name": "Heurteauville",
    "code": "76362",
    "epci_code": "200010700",
    "departement_code": "76",
    "region_code": "28",
    "postal_code": "76940"
  },
  {
    "name": "Hodeng-au-Bosc",
    "code": "76363",
    "epci_code": "200069722",
    "departement_code": "76",
    "region_code": "28",
    "postal_code": "76340"
  },
  {
    "name": "Hodeng-Hodenger",
    "code": "76364",
    "epci_code": "200069730",
    "departement_code": "76",
    "region_code": "28",
    "postal_code": "76780"
  },
  {
    "name": "Houdetot",
    "code": "76365",
    "epci_code": "200069839",
    "departement_code": "76",
    "region_code": "28",
    "postal_code": "76740"
  },
  {
    "name": "Le Houlme",
    "code": "76366",
    "epci_code": "200023414",
    "departement_code": "76",
    "region_code": "28",
    "postal_code": "76770"
  },
  {
    "name": "Houppeville",
    "code": "76367",
    "epci_code": "200023414",
    "departement_code": "76",
    "region_code": "28",
    "postal_code": "76770"
  },
  {
    "name": "Houquetot",
    "code": "76368",
    "epci_code": "247600505",
    "departement_code": "76",
    "region_code": "28",
    "postal_code": "76110"
  },
  {
    "name": "La Houssaye-Béranger",
    "code": "76369",
    "epci_code": "200070449",
    "departement_code": "76",
    "region_code": "28",
    "postal_code": "76690"
  },
  {
    "name": "Hugleville-en-Caux",
    "code": "76370",
    "epci_code": "200069847",
    "departement_code": "76",
    "region_code": "28",
    "postal_code": "76570"
  },
  {
    "name": "Les Ifs",
    "code": "76371",
    "epci_code": "247600729",
    "departement_code": "76",
    "region_code": "28",
    "postal_code": "76630"
  },
  {
    "name": "Illois",
    "code": "76372",
    "epci_code": "200069722",
    "departement_code": "76",
    "region_code": "28",
    "postal_code": "76390"
  },
  {
    "name": "Imbleville",
    "code": "76373",
    "epci_code": "200068534",
    "departement_code": "76",
    "region_code": "28",
    "postal_code": "76890"
  },
  {
    "name": "Incheville",
    "code": "76374",
    "epci_code": "247600588",
    "departement_code": "76",
    "region_code": "28",
    "postal_code": "76117"
  },
  {
    "name": "Ingouville",
    "code": "76375",
    "epci_code": "200069839",
    "departement_code": "76",
    "region_code": "28",
    "postal_code": "76460"
  },
  {
    "name": "Isneauville",
    "code": "76377",
    "epci_code": "200023414",
    "departement_code": "76",
    "region_code": "28",
    "postal_code": "76230"
  },
  {
    "name": "Jumièges",
    "code": "76378",
    "epci_code": "200023414",
    "departement_code": "76",
    "region_code": "28",
    "postal_code": "76480"
  },
  {
    "name": "Lamberville",
    "code": "76379",
    "epci_code": "200068534",
    "departement_code": "76",
    "region_code": "28",
    "postal_code": "76730"
  },
  {
    "name": "Lammerville",
    "code": "76380",
    "epci_code": "200068534",
    "departement_code": "76",
    "region_code": "28",
    "postal_code": "76730"
  },
  {
    "name": "Landes-Vieilles-et-Neuves",
    "code": "76381",
    "epci_code": "200069722",
    "departement_code": "76",
    "region_code": "28",
    "postal_code": "76390"
  },
  {
    "name": "Lanquetot",
    "code": "76382",
    "epci_code": "200010700",
    "departement_code": "76",
    "region_code": "28",
    "postal_code": "76210"
  },
  {
    "name": "Lestanville",
    "code": "76383",
    "epci_code": "200068534",
    "departement_code": "76",
    "region_code": "28",
    "postal_code": "76730"
  },
  {
    "name": "Lillebonne",
    "code": "76384",
    "epci_code": "200010700",
    "departement_code": "76",
    "region_code": "28",
    "postal_code": "76170"
  },
  {
    "name": "Limésy",
    "code": "76385",
    "epci_code": "247600646",
    "departement_code": "76",
    "region_code": "28",
    "postal_code": "76570"
  },
  {
    "name": "Limpiville",
    "code": "76386",
    "epci_code": "200069821",
    "departement_code": "76",
    "region_code": "28",
    "postal_code": "76540"
  },
  {
    "name": "Lindebeuf",
    "code": "76387",
    "epci_code": "200069847",
    "departement_code": "76",
    "region_code": "28",
    "postal_code": "76760"
  },
  {
    "name": "Lintot",
    "code": "76388",
    "epci_code": "200010700",
    "departement_code": "76",
    "region_code": "28",
    "postal_code": "76210"
  },
  {
    "name": "Lintot-les-Bois",
    "code": "76389",
    "epci_code": "200068534",
    "departement_code": "76",
    "region_code": "28",
    "postal_code": "76590"
  },
  {
    "name": "Les Loges",
    "code": "76390",
    "epci_code": "200069821",
    "departement_code": "76",
    "region_code": "28",
    "postal_code": "76790"
  },
  {
    "name": "La Londe",
    "code": "76391",
    "epci_code": "200023414",
    "departement_code": "76",
    "region_code": "28",
    "postal_code": "76500"
  },
  {
    "name": "Londinières",
    "code": "76392",
    "epci_code": "247600604",
    "departement_code": "76",
    "region_code": "28",
    "postal_code": "76660"
  },
  {
    "name": "Longmesnil",
    "code": "76393",
    "epci_code": "200069730",
    "departement_code": "76",
    "region_code": "28",
    "postal_code": "76440"
  },
  {
    "name": "Longroy",
    "code": "76394",
    "epci_code": "247600588",
    "departement_code": "76",
    "region_code": "28",
    "postal_code": "76260"
  },
  {
    "name": "Longueil",
    "code": "76395",
    "epci_code": "200068534",
    "departement_code": "76",
    "region_code": "28",
    "postal_code": "76860"
  },
  {
    "name": "Longuerue",
    "code": "76396",
    "epci_code": "200070449",
    "departement_code": "76",
    "region_code": "28",
    "postal_code": "76750"
  },
  {
    "name": "Longueville-sur-Scie",
    "code": "76397",
    "epci_code": "200068534",
    "departement_code": "76",
    "region_code": "28",
    "postal_code": "76590"
  },
  {
    "name": "Louvetot",
    "code": "76398",
    "epci_code": "200010700",
    "departement_code": "76",
    "region_code": "28",
    "postal_code": "76490"
  },
  {
    "name": "Lucy",
    "code": "76399",
    "epci_code": "200070068",
    "departement_code": "76",
    "region_code": "28",
    "postal_code": "76270"
  },
  {
    "name": "Luneray",
    "code": "76400",
    "epci_code": "200068534",
    "departement_code": "76",
    "region_code": "28",
    "postal_code": "76810"
  },
  {
    "name": "Arelaune-en-Seine",
    "code": "76401",
    "epci_code": "200010700",
    "departement_code": "76",
    "region_code": "28",
    "postal_code": "76940"
  },
  {
    "name": "Malaunay",
    "code": "76402",
    "epci_code": "200023414",
    "departement_code": "76",
    "region_code": "28",
    "postal_code": "76770"
  },
  {
    "name": "Malleville-les-Grès",
    "code": "76403",
    "epci_code": "200069839",
    "departement_code": "76",
    "region_code": "28",
    "postal_code": "76450"
  },
  {
    "name": "Manéglise",
    "code": "76404",
    "epci_code": "200084952",
    "departement_code": "76",
    "region_code": "28",
    "postal_code": "76133"
  },
  {
    "name": "Manéhouville",
    "code": "76405",
    "epci_code": "200068534",
    "departement_code": "76",
    "region_code": "28",
    "postal_code": "76590"
  },
  {
    "name": "Maniquerville",
    "code": "76406",
    "epci_code": "200069821",
    "departement_code": "76",
    "region_code": "28",
    "postal_code": "76400"
  },
  {
    "name": "Manneville-ès-Plains",
    "code": "76407",
    "epci_code": "200069839",
    "departement_code": "76",
    "region_code": "28",
    "postal_code": "76460"
  },
  {
    "name": "Manneville-la-Goupil",
    "code": "76408",
    "epci_code": "247600505",
    "departement_code": "76",
    "region_code": "28",
    "postal_code": "76110"
  },
  {
    "name": "Mannevillette",
    "code": "76409",
    "epci_code": "200084952",
    "departement_code": "76",
    "region_code": "28",
    "postal_code": "76290"
  },
  {
    "name": "Maromme",
    "code": "76410",
    "epci_code": "200023414",
    "departement_code": "76",
    "region_code": "28",
    "postal_code": "76150"
  },
  {
    "name": "Marques",
    "code": "76411",
    "epci_code": "200069722",
    "departement_code": "76",
    "region_code": "28",
    "postal_code": "76390"
  },
  {
    "name": "Martainville-Épreville",
    "code": "76412",
    "epci_code": "200070449",
    "departement_code": "76",
    "region_code": "28",
    "postal_code": "76116"
  },
  {
    "name": "Martigny",
    "code": "76413",
    "epci_code": "247600786",
    "departement_code": "76",
    "region_code": "28",
    "postal_code": "76880"
  },
  {
    "name": "Martin-Église",
    "code": "76414",
    "epci_code": "247600786",
    "departement_code": "76",
    "region_code": "28",
    "postal_code": "76370"
  },
  {
    "name": "Massy",
    "code": "76415",
    "epci_code": "200070068",
    "departement_code": "76",
    "region_code": "28",
    "postal_code": "76270"
  },
  {
    "name": "Mathonville",
    "code": "76416",
    "epci_code": "200070068",
    "departement_code": "76",
    "region_code": "28",
    "postal_code": "76680"
  },
  {
    "name": "Maucomble",
    "code": "76417",
    "epci_code": "200070068",
    "departement_code": "76",
    "region_code": "28",
    "postal_code": "76680"
  },
  {
    "name": "Maulévrier-Sainte-Gertrude",
    "code": "76418",
    "epci_code": "200010700",
    "departement_code": "76",
    "region_code": "28",
    "postal_code": "76490"
  },
  {
    "name": "Mauny",
    "code": "76419",
    "epci_code": "200066405",
    "departement_code": "76",
    "region_code": "28",
    "postal_code": "76530"
  },
  {
    "name": "Mauquenchy",
    "code": "76420",
    "epci_code": "200069730",
    "departement_code": "76",
    "region_code": "28",
    "postal_code": "76440"
  },
  {
    "name": "Mélamare",
    "code": "76421",
    "epci_code": "200010700",
    "departement_code": "76",
    "region_code": "28",
    "postal_code": "76170"
  },
  {
    "name": "Melleville",
    "code": "76422",
    "epci_code": "247600588",
    "departement_code": "76",
    "region_code": "28",
    "postal_code": "76260"
  },
  {
    "name": "Ménerval",
    "code": "76423",
    "epci_code": "200069730",
    "departement_code": "76",
    "region_code": "28",
    "postal_code": "76220"
  },
  {
    "name": "Ménonval",
    "code": "76424",
    "epci_code": "200070068",
    "departement_code": "76",
    "region_code": "28",
    "postal_code": "76270"
  },
  {
    "name": "Mentheville",
    "code": "76425",
    "epci_code": "247600505",
    "departement_code": "76",
    "region_code": "28",
    "postal_code": "76110"
  },
  {
    "name": "Mésangueville",
    "code": "76426",
    "epci_code": "200069730",
    "departement_code": "76",
    "region_code": "28",
    "postal_code": "76780"
  },
  {
    "name": "Mesnières-en-Bray",
    "code": "76427",
    "epci_code": "200070068",
    "departement_code": "76",
    "region_code": "28",
    "postal_code": "76270"
  },
  {
    "name": "Le Mesnil-Durdent",
    "code": "76428",
    "epci_code": "200069839",
    "departement_code": "76",
    "region_code": "28",
    "postal_code": "76460"
  },
  {
    "name": "Le Mesnil-Esnard",
    "code": "76429",
    "epci_code": "200023414",
    "departement_code": "76",
    "region_code": "28",
    "postal_code": "76240"
  },
  {
    "name": "Mesnil-Follemprise",
    "code": "76430",
    "epci_code": "200070068",
    "departement_code": "76",
    "region_code": "28",
    "postal_code": "76660"
  },
  {
    "name": "Le Mesnil-Lieubray",
    "code": "76431",
    "epci_code": "200069730",
    "departement_code": "76",
    "region_code": "28",
    "postal_code": "76780"
  },
  {
    "name": "Mesnil-Mauger",
    "code": "76432",
    "epci_code": "200069730",
    "departement_code": "76",
    "region_code": "28",
    "postal_code": "76440"
  },
  {
    "name": "Mesnil-Panneville",
    "code": "76433",
    "epci_code": "247600620",
    "departement_code": "76",
    "region_code": "28",
    "postal_code": "76570"
  },
  {
    "name": "Mesnil-Raoul",
    "code": "76434",
    "epci_code": "200070449",
    "departement_code": "76",
    "region_code": "28",
    "postal_code": "76520"
  },
  {
    "name": "Le Mesnil-Réaume",
    "code": "76435",
    "epci_code": "247600588",
    "departement_code": "76",
    "region_code": "28",
    "postal_code": "76260"
  },
  {
    "name": "Le Mesnil-sous-Jumièges",
    "code": "76436",
    "epci_code": "200023414",
    "departement_code": "76",
    "region_code": "28",
    "postal_code": "76480"
  },
  {
    "name": "Meulers",
    "code": "76437",
    "epci_code": "247600729",
    "departement_code": "76",
    "region_code": "28",
    "postal_code": "76510"
  },
  {
    "name": "Millebosc",
    "code": "76438",
    "epci_code": "247600588",
    "departement_code": "76",
    "region_code": "28",
    "postal_code": "76260"
  },
  {
    "name": "Mirville",
    "code": "76439",
    "epci_code": "200010700",
    "departement_code": "76",
    "region_code": "28",
    "postal_code": "76210"
  },
  {
    "name": "Molagnies",
    "code": "76440",
    "epci_code": "200069730",
    "departement_code": "76",
    "region_code": "28",
    "postal_code": "76220"
  },
  {
    "name": "Monchaux-Soreng",
    "code": "76441",
    "epci_code": "200069722",
    "departement_code": "76",
    "region_code": "28",
    "postal_code": "76340"
  },
  {
    "name": "Monchy-sur-Eu",
    "code": "76442",
    "epci_code": "247600588",
    "departement_code": "76",
    "region_code": "28",
    "postal_code": "76260"
  },
  {
    "name": "Mont-Cauvaire",
    "code": "76443",
    "epci_code": "200070449",
    "departement_code": "76",
    "region_code": "28",
    "postal_code": "76690"
  },
  {
    "name": "Montérolier",
    "code": "76445",
    "epci_code": "200070068",
    "departement_code": "76",
    "region_code": "28",
    "postal_code": "76680"
  },
  {
    "name": "Montigny",
    "code": "76446",
    "epci_code": "200070449",
    "departement_code": "76",
    "region_code": "28",
    "postal_code": "76380"
  },
  {
    "name": "Montivilliers",
    "code": "76447",
    "epci_code": "200084952",
    "departement_code": "76",
    "region_code": "28",
    "postal_code": "76290"
  },
  {
    "name": "Montmain",
    "code": "76448",
    "epci_code": "200023414",
    "departement_code": "76",
    "region_code": "28",
    "postal_code": "76520"
  },
  {
    "name": "Montreuil-en-Caux",
    "code": "76449",
    "epci_code": "200068534",
    "departement_code": "76",
    "region_code": "28",
    "postal_code": "76850"
  },
  {
    "name": "Montroty",
    "code": "76450",
    "epci_code": "200069730",
    "departement_code": "76",
    "region_code": "28",
    "postal_code": "76220"
  },
  {
    "name": "Mont-Saint-Aignan",
    "code": "76451",
    "epci_code": "200023414",
    "departement_code": "76",
    "region_code": "28",
    "postal_code": "76130"
  },
  {
    "name": "Montville",
    "code": "76452",
    "epci_code": "200070449",
    "departement_code": "76",
    "region_code": "28",
    "postal_code": "76710"
  },
  {
    "name": "Morgny-la-Pommeraye",
    "code": "76453",
    "epci_code": "200070449",
    "departement_code": "76",
    "region_code": "28",
    "postal_code": "76750"
  },
  {
    "name": "Mortemer",
    "code": "76454",
    "epci_code": "200070068",
    "departement_code": "76",
    "region_code": "28",
    "postal_code": "76270"
  },
  {
    "name": "Morville-le-Héron",
    "code": "76455",
    "epci_code": "200069730",
    "departement_code": "76",
    "region_code": "28",
    "postal_code": "76780"
  },
  {
    "name": "Motteville",
    "code": "76456",
    "epci_code": "200069847",
    "departement_code": "76",
    "region_code": "28",
    "postal_code": "76970"
  },
  {
    "name": "Moulineaux",
    "code": "76457",
    "epci_code": "200023414",
    "departement_code": "76",
    "region_code": "28",
    "postal_code": "76530"
  },
  {
    "name": "Muchedent",
    "code": "76458",
    "epci_code": "200068534",
    "departement_code": "76",
    "region_code": "28",
    "postal_code": "76590"
  },
  {
    "name": "Nesle-Hodeng",
    "code": "76459",
    "epci_code": "200070068",
    "departement_code": "76",
    "region_code": "28",
    "postal_code": "76270"
  },
  {
    "name": "Nesle-Normandeuse",
    "code": "76460",
    "epci_code": "200069722",
    "departement_code": "76",
    "region_code": "28",
    "postal_code": "76340"
  },
  {
    "name": "Neufbosc",
    "code": "76461",
    "epci_code": "200070068",
    "departement_code": "76",
    "region_code": "28",
    "postal_code": "76680"
  },
  {
    "name": "Neufchâtel-en-Bray",
    "code": "76462",
    "epci_code": "200070068",
    "departement_code": "76",
    "region_code": "28",
    "postal_code": "76270"
  },
  {
    "name": "Neuf-Marché",
    "code": "76463",
    "epci_code": "200069730",
    "departement_code": "76",
    "region_code": "28",
    "postal_code": "76220"
  },
  {
    "name": "La Neuville-Chant-d’Oisel",
    "code": "76464",
    "epci_code": "200023414",
    "departement_code": "76",
    "region_code": "28",
    "postal_code": "76520"
  },
  {
    "name": "Neuville-Ferrières",
    "code": "76465",
    "epci_code": "200070068",
    "departement_code": "76",
    "region_code": "28",
    "postal_code": "76270"
  },
  {
    "name": "Néville",
    "code": "76467",
    "epci_code": "200069839",
    "departement_code": "76",
    "region_code": "28",
    "postal_code": "76460"
  },
  {
    "name": "Nointot",
    "code": "76468",
    "epci_code": "200010700",
    "departement_code": "76",
    "region_code": "28",
    "postal_code": "76210"
  },
  {
    "name": "Nolléval",
    "code": "76469",
    "epci_code": "200069730",
    "departement_code": "76",
    "region_code": "28",
    "postal_code": "76780"
  },
  {
    "name": "Normanville",
    "code": "76470",
    "epci_code": "200069839",
    "departement_code": "76",
    "region_code": "28",
    "postal_code": "76640"
  },
  {
    "name": "Norville",
    "code": "76471",
    "epci_code": "200010700",
    "departement_code": "76",
    "region_code": "28",
    "postal_code": "76330"
  },
  {
    "name": "Notre-Dame-d’Aliermont",
    "code": "76472",
    "epci_code": "247600729",
    "departement_code": "76",
    "region_code": "28",
    "postal_code": "76510"
  },
  {
    "name": "Notre-Dame-de-Bliquetuit",
    "code": "76473",
    "epci_code": "200010700",
    "departement_code": "76",
    "region_code": "28",
    "postal_code": "76940"
  },
  {
    "name": "Notre-Dame-de-Bondeville",
    "code": "76474",
    "epci_code": "200023414",
    "departement_code": "76",
    "region_code": "28",
    "postal_code": "76960"
  },
  {
    "name": "Franqueville-Saint-Pierre",
    "code": "76475",
    "epci_code": "200023414",
    "departement_code": "76",
    "region_code": "28",
    "postal_code": "76520"
  },
  {
    "name": "Port-Jérôme-sur-Seine",
    "code": "76476",
    "epci_code": "200010700",
    "departement_code": "76",
    "region_code": "28",
    "postal_code": "76170"
  },
  {
    "name": "Port-Jérôme-sur-Seine",
    "code": "76476",
    "epci_code": "200010700",
    "departement_code": "76",
    "region_code": "28",
    "postal_code": "76330"
  },
  {
    "name": "Notre-Dame-du-Bec",
    "code": "76477",
    "epci_code": "200084952",
    "departement_code": "76",
    "region_code": "28",
    "postal_code": "76133"
  },
  {
    "name": "Notre-Dame-du-Parc",
    "code": "76478",
    "epci_code": "200068534",
    "departement_code": "76",
    "region_code": "28",
    "postal_code": "76590"
  },
  {
    "name": "Nullemont",
    "code": "76479",
    "epci_code": "200069722",
    "departement_code": "76",
    "region_code": "28",
    "postal_code": "76390"
  },
  {
    "name": "Ocqueville",
    "code": "76480",
    "epci_code": "200069839",
    "departement_code": "76",
    "region_code": "28",
    "postal_code": "76450"
  },
  {
    "name": "Octeville-sur-Mer",
    "code": "76481",
    "epci_code": "200084952",
    "departement_code": "76",
    "region_code": "28",
    "postal_code": "76930"
  },
  {
    "name": "Offranville",
    "code": "76482",
    "epci_code": "247600786",
    "departement_code": "76",
    "region_code": "28",
    "postal_code": "76550"
  },
  {
    "name": "Oherville",
    "code": "76483",
    "epci_code": "200069839",
    "departement_code": "76",
    "region_code": "28",
    "postal_code": "76560"
  },
  {
    "name": "Oissel",
    "code": "76484",
    "epci_code": "200023414",
    "departement_code": "76",
    "region_code": "28",
    "postal_code": "76350"
  },
  {
    "name": "Omonville",
    "code": "76485",
    "epci_code": "200068534",
    "departement_code": "76",
    "region_code": "28",
    "postal_code": "76730"
  },
  {
    "name": "Orival",
    "code": "76486",
    "epci_code": "200023414",
    "departement_code": "76",
    "region_code": "28",
    "postal_code": "76500"
  },
  {
    "name": "Osmoy-Saint-Valery",
    "code": "76487",
    "epci_code": "247600604",
    "departement_code": "76",
    "region_code": "28",
    "postal_code": "76660"
  },
  {
    "name": "Ouainville",
    "code": "76488",
    "epci_code": "200069839",
    "departement_code": "76",
    "region_code": "28",
    "postal_code": "76450"
  },
  {
    "name": "Oudalle",
    "code": "76489",
    "epci_code": "200084952",
    "departement_code": "76",
    "region_code": "28",
    "postal_code": "76430"
  },
  {
    "name": "Ourville-en-Caux",
    "code": "76490",
    "epci_code": "200069839",
    "departement_code": "76",
    "region_code": "28",
    "postal_code": "76450"
  },
  {
    "name": "Ouville-l’Abbaye",
    "code": "76491",
    "epci_code": "200069847",
    "departement_code": "76",
    "region_code": "28",
    "postal_code": "76760"
  },
  {
    "name": "Ouville-la-Rivière",
    "code": "76492",
    "epci_code": "200068534",
    "departement_code": "76",
    "region_code": "28",
    "postal_code": "76860"
  },
  {
    "name": "Paluel",
    "code": "76493",
    "epci_code": "200069839",
    "departement_code": "76",
    "region_code": "28",
    "postal_code": "76450"
  },
  {
    "name": "Parc-d’Anxtot",
    "code": "76494",
    "epci_code": "200010700",
    "departement_code": "76",
    "region_code": "28",
    "postal_code": "76210"
  },
  {
    "name": "Pavilly",
    "code": "76495",
    "epci_code": "247600646",
    "departement_code": "76",
    "region_code": "28",
    "postal_code": "76570"
  },
  {
    "name": "Petit-Couronne",
    "code": "76497",
    "epci_code": "200023414",
    "departement_code": "76",
    "region_code": "28",
    "postal_code": "76650"
  },
  {
    "name": "Le Petit-Quevilly",
    "code": "76498",
    "epci_code": "200023414",
    "departement_code": "76",
    "region_code": "28",
    "postal_code": "76140"
  },
  {
    "name": "Petiville",
    "code": "76499",
    "epci_code": "200010700",
    "departement_code": "76",
    "region_code": "28",
    "postal_code": "76330"
  },
  {
    "name": "Pierrecourt",
    "code": "76500",
    "epci_code": "200069722",
    "departement_code": "76",
    "region_code": "28",
    "postal_code": "76340"
  },
  {
    "name": "Pierrefiques",
    "code": "76501",
    "epci_code": "200084952",
    "departement_code": "76",
    "region_code": "28",
    "postal_code": "76280"
  },
  {
    "name": "Pierreval",
    "code": "76502",
    "epci_code": "200070449",
    "departement_code": "76",
    "region_code": "28",
    "postal_code": "76750"
  },
  {
    "name": "Pissy-Pôville",
    "code": "76503",
    "epci_code": "200070449",
    "departement_code": "76",
    "region_code": "28",
    "postal_code": "76360"
  },
  {
    "name": "Pleine-Sève",
    "code": "76504",
    "epci_code": "200069839",
    "departement_code": "76",
    "region_code": "28",
    "postal_code": "76460"
  },
  {
    "name": "Pommereux",
    "code": "76505",
    "epci_code": "200069730",
    "departement_code": "76",
    "region_code": "28",
    "postal_code": "76440"
  },
  {
    "name": "Pommeréval",
    "code": "76506",
    "epci_code": "200070068",
    "departement_code": "76",
    "region_code": "28",
    "postal_code": "76680"
  },
  {
    "name": "Ponts-et-Marais",
    "code": "76507",
    "epci_code": "247600588",
    "departement_code": "76",
    "region_code": "28",
    "postal_code": "76260"
  },
  {
    "name": "La Poterie-Cap-d’Antifer",
    "code": "76508",
    "epci_code": "200084952",
    "departement_code": "76",
    "region_code": "28",
    "postal_code": "76280"
  },
  {
    "name": "Préaux",
    "code": "76509",
    "epci_code": "200070449",
    "departement_code": "76",
    "region_code": "28",
    "postal_code": "76160"
  },
  {
    "name": "Prétot-Vicquemare",
    "code": "76510",
    "epci_code": "200069847",
    "departement_code": "76",
    "region_code": "28",
    "postal_code": "76560"
  },
  {
    "name": "Preuseville",
    "code": "76511",
    "epci_code": "247600604",
    "departement_code": "76",
    "region_code": "28",
    "postal_code": "76660"
  },
  {
    "name": "Puisenval",
    "code": "76512",
    "epci_code": "247600604",
    "departement_code": "76",
    "region_code": "28",
    "postal_code": "76660"
  },
  {
    "name": "Quevillon",
    "code": "76513",
    "epci_code": "200023414",
    "departement_code": "76",
    "region_code": "28",
    "postal_code": "76840"
  },
  {
    "name": "Quévreville-la-Poterie",
    "code": "76514",
    "epci_code": "200023414",
    "departement_code": "76",
    "region_code": "28",
    "postal_code": "76520"
  },
  {
    "name": "Quiberville-sur-Mer",
    "code": "76515",
    "epci_code": "200068534",
    "departement_code": "76",
    "region_code": "28",
    "postal_code": "76860"
  },
  {
    "name": "Quièvrecourt",
    "code": "76516",
    "epci_code": "200070068",
    "departement_code": "76",
    "region_code": "28",
    "postal_code": "76270"
  },
  {
    "name": "Quincampoix",
    "code": "76517",
    "epci_code": "200070449",
    "departement_code": "76",
    "region_code": "28",
    "postal_code": "76230"
  },
  {
    "name": "Raffetot",
    "code": "76518",
    "epci_code": "200010700",
    "departement_code": "76",
    "region_code": "28",
    "postal_code": "76210"
  },
  {
    "name": "Rainfreville",
    "code": "76519",
    "epci_code": "200068534",
    "departement_code": "76",
    "region_code": "28",
    "postal_code": "76730"
  },
  {
    "name": "Réalcamp",
    "code": "76520",
    "epci_code": "200069722",
    "departement_code": "76",
    "region_code": "28",
    "postal_code": "76340"
  },
  {
    "name": "Rebets",
    "code": "76521",
    "epci_code": "200070449",
    "departement_code": "76",
    "region_code": "28",
    "postal_code": "76750"
  },
  {
    "name": "La Remuée",
    "code": "76522",
    "epci_code": "200084952",
    "departement_code": "76",
    "region_code": "28",
    "postal_code": "76430"
  },
  {
    "name": "Rétonval",
    "code": "76523",
    "epci_code": "200069722",
    "departement_code": "76",
    "region_code": "28",
    "postal_code": "76340"
  },
  {
    "name": "Reuville",
    "code": "76524",
    "epci_code": "200069847",
    "departement_code": "76",
    "region_code": "28",
    "postal_code": "76560"
  },
  {
    "name": "Ricarville-du-Val",
    "code": "76526",
    "epci_code": "247600729",
    "departement_code": "76",
    "region_code": "28",
    "postal_code": "76510"
  },
  {
    "name": "Richemont",
    "code": "76527",
    "epci_code": "200069722",
    "departement_code": "76",
    "region_code": "28",
    "postal_code": "76390"
  },
  {
    "name": "Rieux",
    "code": "76528",
    "epci_code": "200069722",
    "departement_code": "76",
    "region_code": "28",
    "postal_code": "76340"
  },
  {
    "name": "Riville",
    "code": "76529",
    "epci_code": "200069821",
    "departement_code": "76",
    "region_code": "28",
    "postal_code": "76540"
  },
  {
    "name": "Robertot",
    "code": "76530",
    "epci_code": "200069847",
    "departement_code": "76",
    "region_code": "28",
    "postal_code": "76560"
  },
  {
    "name": "Rocquefort",
    "code": "76531",
    "epci_code": "247600620",
    "departement_code": "76",
    "region_code": "28",
    "postal_code": "76640"
  },
  {
    "name": "Rocquemont",
    "code": "76532",
    "epci_code": "200070068",
    "departement_code": "76",
    "region_code": "28",
    "postal_code": "76680"
  },
  {
    "name": "Rogerville",
    "code": "76533",
    "epci_code": "200084952",
    "departement_code": "76",
    "region_code": "28",
    "postal_code": "76700"
  },
  {
    "name": "Rolleville",
    "code": "76534",
    "epci_code": "200084952",
    "departement_code": "76",
    "region_code": "28",
    "postal_code": "76133"
  },
  {
    "name": "Roncherolles-en-Bray",
    "code": "76535",
    "epci_code": "200069730",
    "departement_code": "76",
    "region_code": "28",
    "postal_code": "76440"
  },
  {
    "name": "Roncherolles-sur-le-Vivier",
    "code": "76536",
    "epci_code": "200023414",
    "departement_code": "76",
    "region_code": "28",
    "postal_code": "76160"
  },
  {
    "name": "Ronchois",
    "code": "76537",
    "epci_code": "200069722",
    "departement_code": "76",
    "region_code": "28",
    "postal_code": "76390"
  },
  {
    "name": "Rosay",
    "code": "76538",
    "epci_code": "200070068",
    "departement_code": "76",
    "region_code": "28",
    "postal_code": "76680"
  },
  {
    "name": "Rouen",
    "code": "76540",
    "epci_code": "200023414",
    "departement_code": "76",
    "region_code": "28",
    "postal_code": "76000"
  },
  {
    "name": "Rouen",
    "code": "76540",
    "epci_code": "200023414",
    "departement_code": "76",
    "region_code": "28",
    "postal_code": "76100"
  },
  {
    "name": "Roumare",
    "code": "76541",
    "epci_code": "200070449",
    "departement_code": "76",
    "region_code": "28",
    "postal_code": "76480"
  },
  {
    "name": "Routes",
    "code": "76542",
    "epci_code": "200069847",
    "departement_code": "76",
    "region_code": "28",
    "postal_code": "76560"
  },
  {
    "name": "Rouville",
    "code": "76543",
    "epci_code": "200010700",
    "departement_code": "76",
    "region_code": "28",
    "postal_code": "76210"
  },
  {
    "name": "Rouvray-Catillon",
    "code": "76544",
    "epci_code": "200069730",
    "departement_code": "76",
    "region_code": "28",
    "postal_code": "76440"
  },
  {
    "name": "Rouxmesnil-Bouteilles",
    "code": "76545",
    "epci_code": "247600786",
    "departement_code": "76",
    "region_code": "28",
    "postal_code": "76370"
  },
  {
    "name": "Royville",
    "code": "76546",
    "epci_code": "200068534",
    "departement_code": "76",
    "region_code": "28",
    "postal_code": "76730"
  },
  {
    "name": "La Rue-Saint-Pierre",
    "code": "76547",
    "epci_code": "200070449",
    "departement_code": "76",
    "region_code": "28",
    "postal_code": "76690"
  },
  {
    "name": "Ry",
    "code": "76548",
    "epci_code": "200070449",
    "departement_code": "76",
    "region_code": "28",
    "postal_code": "76116"
  },
  {
    "name": "Saâne-Saint-Just",
    "code": "76549",
    "epci_code": "200068534",
    "departement_code": "76",
    "region_code": "28",
    "postal_code": "76730"
  },
  {
    "name": "Sahurs",
    "code": "76550",
    "epci_code": "200023414",
    "departement_code": "76",
    "region_code": "28",
    "postal_code": "76113"
  },
  {
    "name": "Sainneville",
    "code": "76551",
    "epci_code": "200084952",
    "departement_code": "76",
    "region_code": "28",
    "postal_code": "76430"
  },
  {
    "name": "Sainte-Adresse",
    "code": "76552",
    "epci_code": "200084952",
    "departement_code": "76",
    "region_code": "28",
    "postal_code": "76310"
  },
  {
    "name": "Sainte-Agathe-d’Aliermont",
    "code": "76553",
    "epci_code": "247600604",
    "departement_code": "76",
    "region_code": "28",
    "postal_code": "76660"
  },
  {
    "name": "Saint-Aignan-sur-Ry",
    "code": "76554",
    "epci_code": "200070449",
    "departement_code": "76",
    "region_code": "28",
    "postal_code": "76116"
  },
  {
    "name": "Saint-André-sur-Cailly",
    "code": "76555",
    "epci_code": "200070449",
    "departement_code": "76",
    "region_code": "28",
    "postal_code": "76690"
  },
  {
    "name": "Saint-Antoine-la-Forêt",
    "code": "76556",
    "epci_code": "200010700",
    "departement_code": "76",
    "region_code": "28",
    "postal_code": "76170"
  },
  {
    "name": "Saint-Arnoult",
    "code": "76557",
    "epci_code": "200010700",
    "departement_code": "76",
    "region_code": "28",
    "postal_code": "76490"
  },
  {
    "name": "Saint-Aubin-Celloville",
    "code": "76558",
    "epci_code": "200023414",
    "departement_code": "76",
    "region_code": "28",
    "postal_code": "76520"
  },
  {
    "name": "Saint-Aubin-de-Crétot",
    "code": "76559",
    "epci_code": "200010700",
    "departement_code": "76",
    "region_code": "28",
    "postal_code": "76190"
  },
  {
    "name": "Saint-Aubin-Épinay",
    "code": "76560",
    "epci_code": "200023414",
    "departement_code": "76",
    "region_code": "28",
    "postal_code": "76160"
  },
  {
    "name": "Saint-Aubin-lès-Elbeuf",
    "code": "76561",
    "epci_code": "200023414",
    "departement_code": "76",
    "region_code": "28",
    "postal_code": "76410"
  },
  {
    "name": "Saint-Aubin-le-Cauf",
    "code": "76562",
    "epci_code": "247600729",
    "departement_code": "76",
    "region_code": "28",
    "postal_code": "76510"
  },
  {
    "name": "Saint-Aubin-Routot",
    "code": "76563",
    "epci_code": "200084952",
    "departement_code": "76",
    "region_code": "28",
    "postal_code": "76430"
  },
  {
    "name": "Saint-Aubin-sur-Mer",
    "code": "76564",
    "epci_code": "200069839",
    "departement_code": "76",
    "region_code": "28",
    "postal_code": "76740"
  },
  {
    "name": "Saint-Aubin-sur-Scie",
    "code": "76565",
    "epci_code": "247600786",
    "departement_code": "76",
    "region_code": "28",
    "postal_code": "76550"
  },
  {
    "name": "Sainte-Austreberthe",
    "code": "76566",
    "epci_code": "247600646",
    "departement_code": "76",
    "region_code": "28",
    "postal_code": "76570"
  },
  {
    "name": "Sainte-Beuve-en-Rivière",
    "code": "76567",
    "epci_code": "200070068",
    "departement_code": "76",
    "region_code": "28",
    "postal_code": "76270"
  },
  {
    "name": "Saint-Clair-sur-les-Monts",
    "code": "76568",
    "epci_code": "247600620",
    "departement_code": "76",
    "region_code": "28",
    "postal_code": "76190"
  },
  {
    "name": "Sainte-Colombe",
    "code": "76569",
    "epci_code": "200069839",
    "departement_code": "76",
    "region_code": "28",
    "postal_code": "76460"
  },
  {
    "name": "Saint-Crespin",
    "code": "76570",
    "epci_code": "200068534",
    "departement_code": "76",
    "region_code": "28",
    "postal_code": "76590"
  },
  {
    "name": "Sainte-Croix-sur-Buchy",
    "code": "76571",
    "epci_code": "200070449",
    "departement_code": "76",
    "region_code": "28",
    "postal_code": "76750"
  },
  {
    "name": "Saint-Denis-d’Aclon",
    "code": "76572",
    "epci_code": "200068534",
    "departement_code": "76",
    "region_code": "28",
    "postal_code": "76860"
  },
  {
    "name": "Saint-Denis-le-Thiboult",
    "code": "76573",
    "epci_code": "200070449",
    "departement_code": "76",
    "region_code": "28",
    "postal_code": "76116"
  },
  {
    "name": "Saint-Denis-sur-Scie",
    "code": "76574",
    "epci_code": "200068534",
    "departement_code": "76",
    "region_code": "28",
    "postal_code": "76890"
  },
  {
    "name": "Saint-Étienne-du-Rouvray",
    "code": "76575",
    "epci_code": "200023414",
    "departement_code": "76",
    "region_code": "28",
    "postal_code": "76800"
  },
  {
    "name": "Saint-Eustache-la-Forêt",
    "code": "76576",
    "epci_code": "200010700",
    "departement_code": "76",
    "region_code": "28",
    "postal_code": "76210"
  },
  {
    "name": "Sainte-Foy",
    "code": "76577",
    "epci_code": "200068534",
    "departement_code": "76",
    "region_code": "28",
    "postal_code": "76590"
  },
  {
    "name": "Sainte-Geneviève",
    "code": "76578",
    "epci_code": "200070068",
    "departement_code": "76",
    "region_code": "28",
    "postal_code": "76440"
  },
  {
    "name": "Saint-Georges-sur-Fontaine",
    "code": "76580",
    "epci_code": "200070449",
    "departement_code": "76",
    "region_code": "28",
    "postal_code": "76690"
  },
  {
    "name": "Saint-Germain-des-Essourts",
    "code": "76581",
    "epci_code": "200070449",
    "departement_code": "76",
    "region_code": "28",
    "postal_code": "76750"
  },
  {
    "name": "Saint-Germain-d’Étables",
    "code": "76582",
    "epci_code": "200068534",
    "departement_code": "76",
    "region_code": "28",
    "postal_code": "76590"
  },
  {
    "name": "Saint-Germain-sous-Cailly",
    "code": "76583",
    "epci_code": "200070449",
    "departement_code": "76",
    "region_code": "28",
    "postal_code": "76690"
  },
  {
    "name": "Saint-Germain-sur-Eaulne",
    "code": "76584",
    "epci_code": "200070068",
    "departement_code": "76",
    "region_code": "28",
    "postal_code": "76270"
  },
  {
    "name": "Saint-Gilles-de-Crétot",
    "code": "76585",
    "epci_code": "200010700",
    "departement_code": "76",
    "region_code": "28",
    "postal_code": "76490"
  },
  {
    "name": "Saint-Gilles-de-la-Neuville",
    "code": "76586",
    "epci_code": "200084952",
    "departement_code": "76",
    "region_code": "28",
    "postal_code": "76430"
  },
  {
    "name": "Sainte-Hélène-Bondeville",
    "code": "76587",
    "epci_code": "200069821",
    "departement_code": "76",
    "region_code": "28",
    "postal_code": "76400"
  },
  {
    "name": "Saint-Hellier",
    "code": "76588",
    "epci_code": "200070068",
    "departement_code": "76",
    "region_code": "28",
    "postal_code": "76680"
  },
  {
    "name": "Saint-Honoré",
    "code": "76589",
    "epci_code": "200068534",
    "departement_code": "76",
    "region_code": "28",
    "postal_code": "76590"
  },
  {
    "name": "Saint-Jacques-d’Aliermont",
    "code": "76590",
    "epci_code": "247600729",
    "departement_code": "76",
    "region_code": "28",
    "postal_code": "76510"
  },
  {
    "name": "Saint-Jacques-sur-Darnétal",
    "code": "76591",
    "epci_code": "200023414",
    "departement_code": "76",
    "region_code": "28",
    "postal_code": "76160"
  },
  {
    "name": "Saint-Jean-de-Folleville",
    "code": "76592",
    "epci_code": "200010700",
    "departement_code": "76",
    "region_code": "28",
    "postal_code": "76170"
  },
  {
    "name": "Saint-Jean-de-la-Neuville",
    "code": "76593",
    "epci_code": "200010700",
    "departement_code": "76",
    "region_code": "28",
    "postal_code": "76210"
  },
  {
    "name": "Saint-Jean-du-Cardonnay",
    "code": "76594",
    "epci_code": "200070449",
    "departement_code": "76",
    "region_code": "28",
    "postal_code": "76150"
  },
  {
    "name": "Saint-Jouin-Bruneval",
    "code": "76595",
    "epci_code": "200084952",
    "departement_code": "76",
    "region_code": "28",
    "postal_code": "76280"
  },
  {
    "name": "Saint-Laurent-de-Brèvedent",
    "code": "76596",
    "epci_code": "200084952",
    "departement_code": "76",
    "region_code": "28",
    "postal_code": "76700"
  },
  {
    "name": "Saint-Laurent-en-Caux",
    "code": "76597",
    "epci_code": "200069847",
    "departement_code": "76",
    "region_code": "28",
    "postal_code": "76560"
  },
  {
    "name": "Saint-Léger-aux-Bois",
    "code": "76598",
    "epci_code": "200069722",
    "departement_code": "76",
    "region_code": "28",
    "postal_code": "76340"
  },
  {
    "name": "Saint-Léger-du-Bourg-Denis",
    "code": "76599",
    "epci_code": "200023414",
    "departement_code": "76",
    "region_code": "28",
    "postal_code": "76160"
  },
  {
    "name": "Saint-Léonard",
    "code": "76600",
    "epci_code": "200069821",
    "departement_code": "76",
    "region_code": "28",
    "postal_code": "76400"
  },
  {
    "name": "Saint-Lucien",
    "code": "76601",
    "epci_code": "200069730",
    "departement_code": "76",
    "region_code": "28",
    "postal_code": "76780"
  },
  {
    "name": "Saint-Maclou-de-Folleville",
    "code": "76602",
    "epci_code": "200068534",
    "departement_code": "76",
    "region_code": "28",
    "postal_code": "76890"
  },
  {
    "name": "Saint-Maclou-la-Brière",
    "code": "76603",
    "epci_code": "247600505",
    "departement_code": "76",
    "region_code": "28",
    "postal_code": "76110"
  },
  {
    "name": "Saint-Mards",
    "code": "76604",
    "epci_code": "200068534",
    "departement_code": "76",
    "region_code": "28",
    "postal_code": "76730"
  },
  {
    "name": "Sainte-Marguerite-sur-Mer",
    "code": "76605",
    "epci_code": "247600786",
    "departement_code": "76",
    "region_code": "28",
    "postal_code": "76119"
  },
  {
    "name": "Morienne",
    "code": "76606",
    "epci_code": "200069722",
    "departement_code": "76",
    "region_code": "28",
    "postal_code": "76390"
  },
  {
    "name": "Sainte-Marguerite-sur-Duclair",
    "code": "76608",
    "epci_code": "200023414",
    "departement_code": "76",
    "region_code": "28",
    "postal_code": "76480"
  },
  {
    "name": "Sainte-Marie-au-Bosc",
    "code": "76609",
    "epci_code": "200084952",
    "departement_code": "76",
    "region_code": "28",
    "postal_code": "76280"
  },
  {
    "name": "Sainte-Marie-des-Champs",
    "code": "76610",
    "epci_code": "247600620",
    "departement_code": "76",
    "region_code": "28",
    "postal_code": "76190"
  },
  {
    "name": "Saint-Martin-aux-Arbres",
    "code": "76611",
    "epci_code": "200069847",
    "departement_code": "76",
    "region_code": "28",
    "postal_code": "76760"
  },
  {
    "name": "Saint-Martin-au-Bosc",
    "code": "76612",
    "epci_code": "200069722",
    "departement_code": "76",
    "region_code": "28",
    "postal_code": "76340"
  },
  {
    "name": "Saint-Martin-aux-Buneaux",
    "code": "76613",
    "epci_code": "200069839",
    "departement_code": "76",
    "region_code": "28",
    "postal_code": "76450"
  },
  {
    "name": "Saint-Martin-aux-Buneaux",
    "code": "76613",
    "epci_code": "200069839",
    "departement_code": "76",
    "region_code": "28",
    "postal_code": "76540"
  },
  {
    "name": "Saint-Martin-de-Boscherville",
    "code": "76614",
    "epci_code": "200023414",
    "departement_code": "76",
    "region_code": "28",
    "postal_code": "76840"
  },
  {
    "name": "Saint-Martin-du-Bec",
    "code": "76615",
    "epci_code": "200084952",
    "departement_code": "76",
    "region_code": "28",
    "postal_code": "76133"
  },
  {
    "name": "Saint-Martin-du-Manoir",
    "code": "76616",
    "epci_code": "200084952",
    "departement_code": "76",
    "region_code": "28",
    "postal_code": "76290"
  },
  {
    "name": "Saint-Martin-du-Vivier",
    "code": "76617",
    "epci_code": "200023414",
    "departement_code": "76",
    "region_code": "28",
    "postal_code": "76160"
  },
  {
    "name": "Petit-Caux",
    "code": "76618",
    "epci_code": "247600729",
    "departement_code": "76",
    "region_code": "28",
    "postal_code": "76370"
  },
  {
    "name": "Petit-Caux",
    "code": "76618",
    "epci_code": "247600729",
    "departement_code": "76",
    "region_code": "28",
    "postal_code": "76630"
  },
  {
    "name": "Petit-Caux",
    "code": "76618",
    "epci_code": "247600729",
    "departement_code": "76",
    "region_code": "28",
    "postal_code": "76910"
  },
  {
    "name": "Saint-Martin-le-Gaillard",
    "code": "76619",
    "epci_code": "247600729",
    "departement_code": "76",
    "region_code": "28",
    "postal_code": "76260"
  },
  {
    "name": "Saint-Martin-l’Hortier",
    "code": "76620",
    "epci_code": "200070068",
    "departement_code": "76",
    "region_code": "28",
    "postal_code": "76270"
  },
  {
    "name": "Saint-Martin-Osmonville",
    "code": "76621",
    "epci_code": "200070068",
    "departement_code": "76",
    "region_code": "28",
    "postal_code": "76680"
  },
  {
    "name": "Saint-Maurice-d’Ételan",
    "code": "76622",
    "epci_code": "200010700",
    "departement_code": "76",
    "region_code": "28",
    "postal_code": "76330"
  },
  {
    "name": "Saint-Michel-d’Halescourt",
    "code": "76623",
    "epci_code": "200069730",
    "departement_code": "76",
    "region_code": "28",
    "postal_code": "76440"
  },
  {
    "name": "Saint-Nicolas-d’Aliermont",
    "code": "76624",
    "epci_code": "247600729",
    "departement_code": "76",
    "region_code": "28",
    "postal_code": "76510"
  },
  {
    "name": "Saint-Nicolas-de-la-Haie",
    "code": "76626",
    "epci_code": "200010700",
    "departement_code": "76",
    "region_code": "28",
    "postal_code": "76490"
  },
  {
    "name": "Saint-Nicolas-de-la-Taille",
    "code": "76627",
    "epci_code": "200010700",
    "departement_code": "76",
    "region_code": "28",
    "postal_code": "76170"
  },
  {
    "name": "Saint-Ouen-du-Breuil",
    "code": "76628",
    "epci_code": "200068534",
    "departement_code": "76",
    "region_code": "28",
    "postal_code": "76890"
  },
  {
    "name": "Saint-Ouen-le-Mauger",
    "code": "76629",
    "epci_code": "200068534",
    "departement_code": "76",
    "region_code": "28",
    "postal_code": "76730"
  },
  {
    "name": "Saint-Ouen-sous-Bailly",
    "code": "76630",
    "epci_code": "247600729",
    "departement_code": "76",
    "region_code": "28",
    "postal_code": "76630"
  },
  {
    "name": "Saint-Paër",
    "code": "76631",
    "epci_code": "200023414",
    "departement_code": "76",
    "region_code": "28",
    "postal_code": "76480"
  },
  {
    "name": "Saint-Pierre-Bénouville",
    "code": "76632",
    "epci_code": "200068534",
    "departement_code": "76",
    "region_code": "28",
    "postal_code": "76890"
  },
  {
    "name": "Saint-Pierre-de-Manneville",
    "code": "76634",
    "epci_code": "200023414",
    "departement_code": "76",
    "region_code": "28",
    "postal_code": "76113"
  },
  {
    "name": "Saint-Pierre-des-Jonquières",
    "code": "76635",
    "epci_code": "247600604",
    "departement_code": "76",
    "region_code": "28",
    "postal_code": "76660"
  },
  {
    "name": "Saint-Pierre-de-Varengeville",
    "code": "76636",
    "epci_code": "200023414",
    "departement_code": "76",
    "region_code": "28",
    "postal_code": "76480"
  },
  {
    "name": "Saint-Pierre-en-Port",
    "code": "76637",
    "epci_code": "200069821",
    "departement_code": "76",
    "region_code": "28",
    "postal_code": "76540"
  },
  {
    "name": "Saint-Pierre-en-Val",
    "code": "76638",
    "epci_code": "247600588",
    "departement_code": "76",
    "region_code": "28",
    "postal_code": "76260"
  },
  {
    "name": "Saint-Pierre-lès-Elbeuf",
    "code": "76640",
    "epci_code": "200023414",
    "departement_code": "76",
    "region_code": "28",
    "postal_code": "76320"
  },
  {
    "name": "Saint-Pierre-le-Vieux",
    "code": "76641",
    "epci_code": "200069839",
    "departement_code": "76",
    "region_code": "28",
    "postal_code": "76740"
  },
  {
    "name": "Saint-Pierre-le-Viger",
    "code": "76642",
    "epci_code": "200069839",
    "departement_code": "76",
    "region_code": "28",
    "postal_code": "76740"
  },
  {
    "name": "Saint-Rémy-Boscrocourt",
    "code": "76644",
    "epci_code": "247600588",
    "departement_code": "76",
    "region_code": "28",
    "postal_code": "76260"
  },
  {
    "name": "Saint-Riquier-en-Rivière",
    "code": "76645",
    "epci_code": "200069722",
    "departement_code": "76",
    "region_code": "28",
    "postal_code": "76340"
  },
  {
    "name": "Saint-Riquier-ès-Plains",
    "code": "76646",
    "epci_code": "200069839",
    "departement_code": "76",
    "region_code": "28",
    "postal_code": "76460"
  },
  {
    "name": "Saint-Romain-de-Colbosc",
    "code": "76647",
    "epci_code": "200084952",
    "departement_code": "76",
    "region_code": "28",
    "postal_code": "76430"
  },
  {
    "name": "Saint-Saëns",
    "code": "76648",
    "epci_code": "200070068",
    "departement_code": "76",
    "region_code": "28",
    "postal_code": "76680"
  },
  {
    "name": "Saint-Saire",
    "code": "76649",
    "epci_code": "200070068",
    "departement_code": "76",
    "region_code": "28",
    "postal_code": "76270"
  },
  {
    "name": "Saint-Sauveur-d’Émalleville",
    "code": "76650",
    "epci_code": "247600505",
    "departement_code": "76",
    "region_code": "28",
    "postal_code": "76110"
  },
  {
    "name": "Saint-Sylvain",
    "code": "76651",
    "epci_code": "200069839",
    "departement_code": "76",
    "region_code": "28",
    "postal_code": "76460"
  },
  {
    "name": "Saint-Vaast-d’Équiqueville",
    "code": "76652",
    "epci_code": "247600729",
    "departement_code": "76",
    "region_code": "28",
    "postal_code": "76510"
  },
  {
    "name": "Saint-Vaast-Dieppedalle",
    "code": "76653",
    "epci_code": "200069839",
    "departement_code": "76",
    "region_code": "28",
    "postal_code": "76450"
  },
  {
    "name": "Saint-Vaast-du-Val",
    "code": "76654",
    "epci_code": "200068534",
    "departement_code": "76",
    "region_code": "28",
    "postal_code": "76890"
  },
  {
    "name": "Saint-Valery-en-Caux",
    "code": "76655",
    "epci_code": "200069839",
    "departement_code": "76",
    "region_code": "28",
    "postal_code": "76460"
  },
  {
    "name": "Saint-Victor-l’Abbaye",
    "code": "76656",
    "epci_code": "200068534",
    "departement_code": "76",
    "region_code": "28",
    "postal_code": "76890"
  },
  {
    "name": "Saint-Vigor-d’Ymonville",
    "code": "76657",
    "epci_code": "200084952",
    "departement_code": "76",
    "region_code": "28",
    "postal_code": "76430"
  },
  {
    "name": "Saint-Vincent-Cramesnil",
    "code": "76658",
    "epci_code": "200084952",
    "departement_code": "76",
    "region_code": "28",
    "postal_code": "76430"
  },
  {
    "name": "Sandouville",
    "code": "76660",
    "epci_code": "200084952",
    "departement_code": "76",
    "region_code": "28",
    "postal_code": "76430"
  },
  {
    "name": "Sassetot-le-Malgardé",
    "code": "76662",
    "epci_code": "200068534",
    "departement_code": "76",
    "region_code": "28",
    "postal_code": "76730"
  },
  {
    "name": "Sassetot-le-Mauconduit",
    "code": "76663",
    "epci_code": "200069821",
    "departement_code": "76",
    "region_code": "28",
    "postal_code": "76540"
  },
  {
    "name": "Sasseville",
    "code": "76664",
    "epci_code": "200069839",
    "departement_code": "76",
    "region_code": "28",
    "postal_code": "76450"
  },
  {
    "name": "Sauchay",
    "code": "76665",
    "epci_code": "247600729",
    "departement_code": "76",
    "region_code": "28",
    "postal_code": "76630"
  },
  {
    "name": "Saumont-la-Poterie",
    "code": "76666",
    "epci_code": "200069730",
    "departement_code": "76",
    "region_code": "28",
    "postal_code": "76440"
  },
  {
    "name": "Sauqueville",
    "code": "76667",
    "epci_code": "247600786",
    "departement_code": "76",
    "region_code": "28",
    "postal_code": "76550"
  },
  {
    "name": "Saussay",
    "code": "76668",
    "epci_code": "200069847",
    "departement_code": "76",
    "region_code": "28",
    "postal_code": "76760"
  },
  {
    "name": "Sausseuzemare-en-Caux",
    "code": "76669",
    "epci_code": "247600505",
    "departement_code": "76",
    "region_code": "28",
    "postal_code": "76110"
  },
  {
    "name": "Senneville-sur-Fécamp",
    "code": "76670",
    "epci_code": "200069821",
    "departement_code": "76",
    "region_code": "28",
    "postal_code": "76400"
  },
  {
    "name": "Sept-Meules",
    "code": "76671",
    "epci_code": "247600729",
    "departement_code": "76",
    "region_code": "28",
    "postal_code": "76260"
  },
  {
    "name": "Serqueux",
    "code": "76672",
    "epci_code": "200069730",
    "departement_code": "76",
    "region_code": "28",
    "postal_code": "76440"
  },
  {
    "name": "Servaville-Salmonville",
    "code": "76673",
    "epci_code": "200070449",
    "departement_code": "76",
    "region_code": "28",
    "postal_code": "76116"
  },
  {
    "name": "Sierville",
    "code": "76675",
    "epci_code": "200070449",
    "departement_code": "76",
    "region_code": "28",
    "postal_code": "76690"
  },
  {
    "name": "Sigy-en-Bray",
    "code": "76676",
    "epci_code": "200069730",
    "departement_code": "76",
    "region_code": "28",
    "postal_code": "76780"
  },
  {
    "name": "Smermesnil",
    "code": "76677",
    "epci_code": "247600604",
    "departement_code": "76",
    "region_code": "28",
    "postal_code": "76660"
  },
  {
    "name": "Sommery",
    "code": "76678",
    "epci_code": "200070068",
    "departement_code": "76",
    "region_code": "28",
    "postal_code": "76440"
  },
  {
    "name": "Sommesnil",
    "code": "76679",
    "epci_code": "200069839",
    "departement_code": "76",
    "region_code": "28",
    "postal_code": "76560"
  },
  {
    "name": "Sorquainville",
    "code": "76680",
    "epci_code": "200069821",
    "departement_code": "76",
    "region_code": "28",
    "postal_code": "76540"
  },
  {
    "name": "Sotteville-lès-Rouen",
    "code": "76681",
    "epci_code": "200023414",
    "departement_code": "76",
    "region_code": "28",
    "postal_code": "76300"
  },
  {
    "name": "Sotteville-sous-le-Val",
    "code": "76682",
    "epci_code": "200023414",
    "departement_code": "76",
    "region_code": "28",
    "postal_code": "76410"
  },
  {
    "name": "Sotteville-sur-Mer",
    "code": "76683",
    "epci_code": "200069839",
    "departement_code": "76",
    "region_code": "28",
    "postal_code": "76740"
  },
  {
    "name": "Tancarville",
    "code": "76684",
    "epci_code": "200010700",
    "departement_code": "76",
    "region_code": "28",
    "postal_code": "76430"
  },
  {
    "name": "Thérouldeville",
    "code": "76685",
    "epci_code": "200069821",
    "departement_code": "76",
    "region_code": "28",
    "postal_code": "76540"
  },
  {
    "name": "Theuville-aux-Maillots",
    "code": "76686",
    "epci_code": "200069821",
    "departement_code": "76",
    "region_code": "28",
    "postal_code": "76540"
  },
  {
    "name": "Thiergeville",
    "code": "76688",
    "epci_code": "200069821",
    "departement_code": "76",
    "region_code": "28",
    "postal_code": "76540"
  },
  {
    "name": "Thiétreville",
    "code": "76689",
    "epci_code": "200069821",
    "departement_code": "76",
    "region_code": "28",
    "postal_code": "76540"
  },
  {
    "name": "Thil-Manneville",
    "code": "76690",
    "epci_code": "200068534",
    "departement_code": "76",
    "region_code": "28",
    "postal_code": "76730"
  },
  {
    "name": "Le Thil-Riberpré",
    "code": "76691",
    "epci_code": "200069730",
    "departement_code": "76",
    "region_code": "28",
    "postal_code": "76440"
  },
  {
    "name": "Thiouville",
    "code": "76692",
    "epci_code": "200069839",
    "departement_code": "76",
    "region_code": "28",
    "postal_code": "76450"
  },
  {
    "name": "Le Tilleul",
    "code": "76693",
    "epci_code": "200084952",
    "departement_code": "76",
    "region_code": "28",
    "postal_code": "76790"
  },
  {
    "name": "Tocqueville-en-Caux",
    "code": "76694",
    "epci_code": "200068534",
    "departement_code": "76",
    "region_code": "28",
    "postal_code": "76730"
  },
  {
    "name": "Tocqueville-les-Murs",
    "code": "76695",
    "epci_code": "247600505",
    "departement_code": "76",
    "region_code": "28",
    "postal_code": "76110"
  },
  {
    "name": "Torcy-le-Grand",
    "code": "76697",
    "epci_code": "200068534",
    "departement_code": "76",
    "region_code": "28",
    "postal_code": "76590"
  },
  {
    "name": "Torcy-le-Petit",
    "code": "76698",
    "epci_code": "200068534",
    "departement_code": "76",
    "region_code": "28",
    "postal_code": "76590"
  },
  {
    "name": "Le Torp-Mesnil",
    "code": "76699",
    "epci_code": "200069847",
    "departement_code": "76",
    "region_code": "28",
    "postal_code": "76560"
  },
  {
    "name": "Tôtes",
    "code": "76700",
    "epci_code": "200068534",
    "departement_code": "76",
    "region_code": "28",
    "postal_code": "76890"
  },
  {
    "name": "Touffreville-la-Corbeline",
    "code": "76702",
    "epci_code": "247600620",
    "departement_code": "76",
    "region_code": "28",
    "postal_code": "76190"
  },
  {
    "name": "Touffreville-sur-Eu",
    "code": "76703",
    "epci_code": "247600729",
    "departement_code": "76",
    "region_code": "28",
    "postal_code": "76910"
  },
  {
    "name": "Tourville-la-Rivière",
    "code": "76705",
    "epci_code": "200023414",
    "departement_code": "76",
    "region_code": "28",
    "postal_code": "76410"
  },
  {
    "name": "Tourville-les-Ifs",
    "code": "76706",
    "epci_code": "200069821",
    "departement_code": "76",
    "region_code": "28",
    "postal_code": "76400"
  },
  {
    "name": "Tourville-sur-Arques",
    "code": "76707",
    "epci_code": "247600786",
    "departement_code": "76",
    "region_code": "28",
    "postal_code": "76550"
  },
  {
    "name": "Toussaint",
    "code": "76708",
    "epci_code": "200069821",
    "departement_code": "76",
    "region_code": "28",
    "postal_code": "76400"
  },
  {
    "name": "Le Trait",
    "code": "76709",
    "epci_code": "200023414",
    "departement_code": "76",
    "region_code": "28",
    "postal_code": "76580"
  },
  {
    "name": "Trémauville",
    "code": "76710",
    "epci_code": "200010700",
    "departement_code": "76",
    "region_code": "28",
    "postal_code": "76640"
  },
  {
    "name": "Le Tréport",
    "code": "76711",
    "epci_code": "247600588",
    "departement_code": "76",
    "region_code": "28",
    "postal_code": "76470"
  },
  {
    "name": "La Trinité-du-Mont",
    "code": "76712",
    "epci_code": "200010700",
    "departement_code": "76",
    "region_code": "28",
    "postal_code": "76170"
  },
  {
    "name": "Les Trois-Pierres",
    "code": "76714",
    "epci_code": "200084952",
    "departement_code": "76",
    "region_code": "28",
    "postal_code": "76430"
  },
  {
    "name": "Trouville",
    "code": "76715",
    "epci_code": "200010700",
    "departement_code": "76",
    "region_code": "28",
    "postal_code": "76210"
  },
  {
    "name": "Turretot",
    "code": "76716",
    "epci_code": "200084952",
    "departement_code": "76",
    "region_code": "28",
    "postal_code": "76280"
  },
  {
    "name": "Val-de-la-Haye",
    "code": "76717",
    "epci_code": "200023414",
    "departement_code": "76",
    "region_code": "28",
    "postal_code": "76380"
  },
  {
    "name": "Valliquerville",
    "code": "76718",
    "epci_code": "247600620",
    "departement_code": "76",
    "region_code": "28",
    "postal_code": "76190"
  },
  {
    "name": "Valmont",
    "code": "76719",
    "epci_code": "200069821",
    "departement_code": "76",
    "region_code": "28",
    "postal_code": "76540"
  },
  {
    "name": "Varengeville-sur-Mer",
    "code": "76720",
    "epci_code": "247600786",
    "departement_code": "76",
    "region_code": "28",
    "postal_code": "76119"
  },
  {
    "name": "Varneville-Bretteville",
    "code": "76721",
    "epci_code": "200068534",
    "departement_code": "76",
    "region_code": "28",
    "postal_code": "76890"
  },
  {
    "name": "Vassonville",
    "code": "76723",
    "epci_code": "200068534",
    "departement_code": "76",
    "region_code": "28",
    "postal_code": "76890"
  },
  {
    "name": "Vatierville",
    "code": "76724",
    "epci_code": "200070068",
    "departement_code": "76",
    "region_code": "28",
    "postal_code": "76270"
  },
  {
    "name": "Vattetot-sous-Beaumont",
    "code": "76725",
    "epci_code": "247600505",
    "departement_code": "76",
    "region_code": "28",
    "postal_code": "76110"
  },
  {
    "name": "Vattetot-sur-Mer",
    "code": "76726",
    "epci_code": "200069821",
    "departement_code": "76",
    "region_code": "28",
    "postal_code": "76111"
  },
  {
    "name": "Vatteville-la-Rue",
    "code": "76727",
    "epci_code": "200010700",
    "departement_code": "76",
    "region_code": "28",
    "postal_code": "76940"
  },
  {
    "name": "La Vaupalière",
    "code": "76728",
    "epci_code": "200070449",
    "departement_code": "76",
    "region_code": "28",
    "postal_code": "76150"
  },
  {
    "name": "Veauville-lès-Quelles",
    "code": "76730",
    "epci_code": "200069839",
    "departement_code": "76",
    "region_code": "28",
    "postal_code": "76560"
  },
  {
    "name": "Vénestanville",
    "code": "76731",
    "epci_code": "200068534",
    "departement_code": "76",
    "region_code": "28",
    "postal_code": "76730"
  },
  {
    "name": "Butot-Vénesville",
    "code": "76732",
    "epci_code": "200069839",
    "departement_code": "76",
    "region_code": "28",
    "postal_code": "76450"
  },
  {
    "name": "Ventes-Saint-Rémy",
    "code": "76733",
    "epci_code": "200070068",
    "departement_code": "76",
    "region_code": "28",
    "postal_code": "76680"
  },
  {
    "name": "Vergetot",
    "code": "76734",
    "epci_code": "200084952",
    "departement_code": "76",
    "region_code": "28",
    "postal_code": "76280"
  },
  {
    "name": "Veules-les-Roses",
    "code": "76735",
    "epci_code": "200069839",
    "departement_code": "76",
    "region_code": "28",
    "postal_code": "76980"
  },
  {
    "name": "Veulettes-sur-Mer",
    "code": "76736",
    "epci_code": "200069839",
    "departement_code": "76",
    "region_code": "28",
    "postal_code": "76450"
  },
  {
    "name": "Vibeuf",
    "code": "76737",
    "epci_code": "200069847",
    "departement_code": "76",
    "region_code": "28",
    "postal_code": "76760"
  },
  {
    "name": "Vieux-Manoir",
    "code": "76738",
    "epci_code": "200070449",
    "departement_code": "76",
    "region_code": "28",
    "postal_code": "76750"
  },
  {
    "name": "Vieux-Rouen-sur-Bresle",
    "code": "76739",
    "epci_code": "200069722",
    "departement_code": "76",
    "region_code": "28",
    "postal_code": "76390"
  },
  {
    "name": "La Vieux-Rue",
    "code": "76740",
    "epci_code": "200070449",
    "departement_code": "76",
    "region_code": "28",
    "postal_code": "76160"
  },
  {
    "name": "Villainville",
    "code": "76741",
    "epci_code": "200084952",
    "departement_code": "76",
    "region_code": "28",
    "postal_code": "76280"
  },
  {
    "name": "Villers-Écalles",
    "code": "76743",
    "epci_code": "247600646",
    "departement_code": "76",
    "region_code": "28",
    "postal_code": "76360"
  },
  {
    "name": "Villers-sous-Foucarmont",
    "code": "76744",
    "epci_code": "200069722",
    "departement_code": "76",
    "region_code": "28",
    "postal_code": "76340"
  },
  {
    "name": "Villy-sur-Yères",
    "code": "76745",
    "epci_code": "247600729",
    "departement_code": "76",
    "region_code": "28",
    "postal_code": "76260"
  },
  {
    "name": "Vinnemerville",
    "code": "76746",
    "epci_code": "200069839",
    "departement_code": "76",
    "region_code": "28",
    "postal_code": "76540"
  },
  {
    "name": "Virville",
    "code": "76747",
    "epci_code": "247600505",
    "departement_code": "76",
    "region_code": "28",
    "postal_code": "76110"
  },
  {
    "name": "Vittefleur",
    "code": "76748",
    "epci_code": "200069839",
    "departement_code": "76",
    "region_code": "28",
    "postal_code": "76450"
  },
  {
    "name": "Wanchy-Capval",
    "code": "76749",
    "epci_code": "247600604",
    "departement_code": "76",
    "region_code": "28",
    "postal_code": "76660"
  },
  {
    "name": "Yainville",
    "code": "76750",
    "epci_code": "200023414",
    "departement_code": "76",
    "region_code": "28",
    "postal_code": "76480"
  },
  {
    "name": "Yébleron",
    "code": "76751",
    "epci_code": "200010700",
    "departement_code": "76",
    "region_code": "28",
    "postal_code": "76640"
  },
  {
    "name": "Yerville",
    "code": "76752",
    "epci_code": "200069847",
    "departement_code": "76",
    "region_code": "28",
    "postal_code": "76760"
  },
  {
    "name": "Ymare",
    "code": "76753",
    "epci_code": "200023414",
    "departement_code": "76",
    "region_code": "28",
    "postal_code": "76520"
  },
  {
    "name": "Yport",
    "code": "76754",
    "epci_code": "200069821",
    "departement_code": "76",
    "region_code": "28",
    "postal_code": "76111"
  },
  {
    "name": "Ypreville-Biville",
    "code": "76755",
    "epci_code": "200069821",
    "departement_code": "76",
    "region_code": "28",
    "postal_code": "76540"
  },
  {
    "name": "Yquebeuf",
    "code": "76756",
    "epci_code": "200070449",
    "departement_code": "76",
    "region_code": "28",
    "postal_code": "76690"
  },
  {
    "name": "Yvecrique",
    "code": "76757",
    "epci_code": "200069847",
    "departement_code": "76",
    "region_code": "28",
    "postal_code": "76560"
  },
  {
    "name": "Yvetot",
    "code": "76758",
    "epci_code": "247600620",
    "departement_code": "76",
    "region_code": "28",
    "postal_code": "76190"
  },
  {
    "name": "Yville-sur-Seine",
    "code": "76759",
    "epci_code": "200023414",
    "departement_code": "76",
    "region_code": "28",
    "postal_code": "76530"
  }
]