[
  {
    "name": "Aiglun",
    "code": "04001",
    "epci_code": "200067437",
    "departement_code": "04",
    "region_code": "93",
    "postal_code": "04510"
  },
  {
    "name": "Allemagne-en-Provence",
    "code": "04004",
    "epci_code": "200034700",
    "departement_code": "04",
    "region_code": "93",
    "postal_code": "04500"
  },
  {
    "name": "Allons",
    "code": "04005",
    "epci_code": "200068625",
    "departement_code": "04",
    "region_code": "93",
    "postal_code": "04170"
  },
  {
    "name": "Allos",
    "code": "04006",
    "epci_code": "200068625",
    "departement_code": "04",
    "region_code": "93",
    "postal_code": "04260"
  },
  {
    "name": "Angles",
    "code": "04007",
    "epci_code": "200068625",
    "departement_code": "04",
    "region_code": "93",
    "postal_code": "04170"
  },
  {
    "name": "Annot",
    "code": "04008",
    "epci_code": "200068625",
    "departement_code": "04",
    "region_code": "93",
    "postal_code": "04240"
  },
  {
    "name": "Archail",
    "code": "04009",
    "epci_code": "200067437",
    "departement_code": "04",
    "region_code": "93",
    "postal_code": "04420"
  },
  {
    "name": "Aubenas-les-Alpes",
    "code": "04012",
    "epci_code": "200071025",
    "departement_code": "04",
    "region_code": "93",
    "postal_code": "04110"
  },
  {
    "name": "Aubignosc",
    "code": "04013",
    "epci_code": "200071033",
    "departement_code": "04",
    "region_code": "93",
    "postal_code": "04200"
  },
  {
    "name": "Authon",
    "code": "04016",
    "epci_code": "200068765",
    "departement_code": "04",
    "region_code": "93",
    "postal_code": "04200"
  },
  {
    "name": "Auzet",
    "code": "04017",
    "epci_code": "200067437",
    "departement_code": "04",
    "region_code": "93",
    "postal_code": "04140"
  },
  {
    "name": "Banon",
    "code": "04018",
    "epci_code": "200071025",
    "departement_code": "04",
    "region_code": "93",
    "postal_code": "04150"
  },
  {
    "name": "Barcelonnette",
    "code": "04019",
    "epci_code": "200072304",
    "departement_code": "04",
    "region_code": "93",
    "postal_code": "04400"
  },
  {
    "name": "Barles",
    "code": "04020",
    "epci_code": "200067437",
    "departement_code": "04",
    "region_code": "93",
    "postal_code": "04140"
  },
  {
    "name": "Barras",
    "code": "04021",
    "epci_code": "200067437",
    "departement_code": "04",
    "region_code": "93",
    "postal_code": "04380"
  },
  {
    "name": "Barrême",
    "code": "04022",
    "epci_code": "200068625",
    "departement_code": "04",
    "region_code": "93",
    "postal_code": "04330"
  },
  {
    "name": "Bayons",
    "code": "04023",
    "epci_code": "200068765",
    "departement_code": "04",
    "region_code": "93",
    "postal_code": "04250"
  },
  {
    "name": "Beaujeu",
    "code": "04024",
    "epci_code": "200067437",
    "departement_code": "04",
    "region_code": "93",
    "postal_code": "04420"
  },
  {
    "name": "Beauvezer",
    "code": "04025",
    "epci_code": "200068625",
    "departement_code": "04",
    "region_code": "93",
    "postal_code": "04370"
  },
  {
    "name": "Bellaffaire",
    "code": "04026",
    "epci_code": "200068765",
    "departement_code": "04",
    "region_code": "93",
    "postal_code": "04250"
  },
  {
    "name": "Bevons",
    "code": "04027",
    "epci_code": "200071033",
    "departement_code": "04",
    "region_code": "93",
    "postal_code": "04200"
  },
  {
    "name": "Beynes",
    "code": "04028",
    "epci_code": "200067437",
    "departement_code": "04",
    "region_code": "93",
    "postal_code": "04270"
  },
  {
    "name": "Blieux",
    "code": "04030",
    "epci_code": "200068625",
    "departement_code": "04",
    "region_code": "93",
    "postal_code": "04330"
  },
  {
    "name": "Bras-d’Asse",
    "code": "04031",
    "epci_code": "200067437",
    "departement_code": "04",
    "region_code": "93",
    "postal_code": "04270"
  },
  {
    "name": "Braux",
    "code": "04032",
    "epci_code": "200068625",
    "departement_code": "04",
    "region_code": "93",
    "postal_code": "04240"
  },
  {
    "name": "Ubaye-Serre-Ponçon",
    "code": "04033",
    "epci_code": "200072304",
    "departement_code": "04",
    "region_code": "93",
    "postal_code": "04340"
  },
  {
    "name": "La Brillanne",
    "code": "04034",
    "epci_code": "200034700",
    "departement_code": "04",
    "region_code": "93",
    "postal_code": "04700"
  },
  {
    "name": "Brunet",
    "code": "04035",
    "epci_code": "200034700",
    "departement_code": "04",
    "region_code": "93",
    "postal_code": "04210"
  },
  {
    "name": "Le Brusquet",
    "code": "04036",
    "epci_code": "200067437",
    "departement_code": "04",
    "region_code": "93",
    "postal_code": "04420"
  },
  {
    "name": "Le Caire",
    "code": "04037",
    "epci_code": "200068765",
    "departement_code": "04",
    "region_code": "93",
    "postal_code": "04250"
  },
  {
    "name": "Castellane",
    "code": "04039",
    "epci_code": "200068625",
    "departement_code": "04",
    "region_code": "93",
    "postal_code": "04120"
  },
  {
    "name": "Le Castellard-Mélan",
    "code": "04040",
    "epci_code": "200067437",
    "departement_code": "04",
    "region_code": "93",
    "postal_code": "04380"
  },
  {
    "name": "Le Castellet",
    "code": "04041",
    "epci_code": "200034700",
    "departement_code": "04",
    "region_code": "93",
    "postal_code": "04700"
  },
  {
    "name": "Castellet-lès-Sausses",
    "code": "04042",
    "epci_code": "200068625",
    "departement_code": "04",
    "region_code": "93",
    "postal_code": "04320"
  },
  {
    "name": "Val-de-Chalvagne",
    "code": "04043",
    "epci_code": "200068625",
    "departement_code": "04",
    "region_code": "93",
    "postal_code": "04320"
  },
  {
    "name": "Céreste-en-Luberon",
    "code": "04045",
    "epci_code": "200040624",
    "departement_code": "04",
    "region_code": "93",
    "postal_code": "04280"
  },
  {
    "name": "Le Chaffaut-Saint-Jurson",
    "code": "04046",
    "epci_code": "200067437",
    "departement_code": "04",
    "region_code": "93",
    "postal_code": "04510"
  },
  {
    "name": "Champtercier",
    "code": "04047",
    "epci_code": "200067437",
    "departement_code": "04",
    "region_code": "93",
    "postal_code": "04660"
  },
  {
    "name": "Château-Arnoux-Saint-Auban",
    "code": "04049",
    "epci_code": "200067437",
    "departement_code": "04",
    "region_code": "93",
    "postal_code": "04160"
  },
  {
    "name": "Château-Arnoux-Saint-Auban",
    "code": "04049",
    "epci_code": "200067437",
    "departement_code": "04",
    "region_code": "93",
    "postal_code": "04600"
  },
  {
    "name": "Châteaufort",
    "code": "04050",
    "epci_code": "200068765",
    "departement_code": "04",
    "region_code": "93",
    "postal_code": "04250"
  },
  {
    "name": "Châteauneuf-Miravail",
    "code": "04051",
    "epci_code": "200071033",
    "departement_code": "04",
    "region_code": "93",
    "postal_code": "04200"
  },
  {
    "name": "Châteauneuf-Val-Saint-Donat",
    "code": "04053",
    "epci_code": "200071033",
    "departement_code": "04",
    "region_code": "93",
    "postal_code": "04200"
  },
  {
    "name": "Châteauredon",
    "code": "04054",
    "epci_code": "200067437",
    "departement_code": "04",
    "region_code": "93",
    "postal_code": "04270"
  },
  {
    "name": "Chaudon-Norante",
    "code": "04055",
    "epci_code": "200068625",
    "departement_code": "04",
    "region_code": "93",
    "postal_code": "04330"
  },
  {
    "name": "Clamensane",
    "code": "04057",
    "epci_code": "200068765",
    "departement_code": "04",
    "region_code": "93",
    "postal_code": "04250"
  },
  {
    "name": "Claret",
    "code": "04058",
    "epci_code": "200067825",
    "departement_code": "04",
    "region_code": "93",
    "postal_code": "05110"
  },
  {
    "name": "Clumanc",
    "code": "04059",
    "epci_code": "200068625",
    "departement_code": "04",
    "region_code": "93",
    "postal_code": "04330"
  },
  {
    "name": "Colmars",
    "code": "04061",
    "epci_code": "200068625",
    "departement_code": "04",
    "region_code": "93",
    "postal_code": "04370"
  },
  {
    "name": "La Condamine-Châtelard",
    "code": "04062",
    "epci_code": "200072304",
    "departement_code": "04",
    "region_code": "93",
    "postal_code": "04530"
  },
  {
    "name": "Corbières-en-Provence",
    "code": "04063",
    "epci_code": "200034700",
    "departement_code": "04",
    "region_code": "93",
    "postal_code": "04220"
  },
  {
    "name": "Cruis",
    "code": "04065",
    "epci_code": "240400440",
    "departement_code": "04",
    "region_code": "93",
    "postal_code": "04230"
  },
  {
    "name": "Curbans",
    "code": "04066",
    "epci_code": "200067825",
    "departement_code": "04",
    "region_code": "93",
    "postal_code": "05110"
  },
  {
    "name": "Curel",
    "code": "04067",
    "epci_code": "200071033",
    "departement_code": "04",
    "region_code": "93",
    "postal_code": "04200"
  },
  {
    "name": "Dauphin",
    "code": "04068",
    "epci_code": "200071025",
    "departement_code": "04",
    "region_code": "93",
    "postal_code": "04300"
  },
  {
    "name": "Demandolx",
    "code": "04069",
    "epci_code": "200068625",
    "departement_code": "04",
    "region_code": "93",
    "postal_code": "04120"
  },
  {
    "name": "Digne-les-Bains",
    "code": "04070",
    "epci_code": "200067437",
    "departement_code": "04",
    "region_code": "93",
    "postal_code": "04000"
  },
  {
    "name": "Draix",
    "code": "04072",
    "epci_code": "200067437",
    "departement_code": "04",
    "region_code": "93",
    "postal_code": "04420"
  },
  {
    "name": "Enchastrayes",
    "code": "04073",
    "epci_code": "200072304",
    "departement_code": "04",
    "region_code": "93",
    "postal_code": "04400"
  },
  {
    "name": "Entrages",
    "code": "04074",
    "epci_code": "200067437",
    "departement_code": "04",
    "region_code": "93",
    "postal_code": "04000"
  },
  {
    "name": "Entrages",
    "code": "04074",
    "epci_code": "200067437",
    "departement_code": "04",
    "region_code": "93",
    "postal_code": "04270"
  },
  {
    "name": "Entrepierres",
    "code": "04075",
    "epci_code": "200068765",
    "departement_code": "04",
    "region_code": "93",
    "postal_code": "04200"
  },
  {
    "name": "Entrevaux",
    "code": "04076",
    "epci_code": "200068625",
    "departement_code": "04",
    "region_code": "93",
    "postal_code": "04320"
  },
  {
    "name": "Entrevennes",
    "code": "04077",
    "epci_code": "200034700",
    "departement_code": "04",
    "region_code": "93",
    "postal_code": "04700"
  },
  {
    "name": "L’Escale",
    "code": "04079",
    "epci_code": "200067437",
    "departement_code": "04",
    "region_code": "93",
    "postal_code": "04160"
  },
  {
    "name": "Esparron-de-Verdon",
    "code": "04081",
    "epci_code": "200034700",
    "departement_code": "04",
    "region_code": "93",
    "postal_code": "04800"
  },
  {
    "name": "Estoublon",
    "code": "04084",
    "epci_code": "200067437",
    "departement_code": "04",
    "region_code": "93",
    "postal_code": "04270"
  },
  {
    "name": "Faucon-du-Caire",
    "code": "04085",
    "epci_code": "200068765",
    "departement_code": "04",
    "region_code": "93",
    "postal_code": "04250"
  },
  {
    "name": "Faucon-de-Barcelonnette",
    "code": "04086",
    "epci_code": "200072304",
    "departement_code": "04",
    "region_code": "93",
    "postal_code": "04400"
  },
  {
    "name": "Fontienne",
    "code": "04087",
    "epci_code": "240400440",
    "departement_code": "04",
    "region_code": "93",
    "postal_code": "04230"
  },
  {
    "name": "Forcalquier",
    "code": "04088",
    "epci_code": "240400440",
    "departement_code": "04",
    "region_code": "93",
    "postal_code": "04300"
  },
  {
    "name": "Le Fugeret",
    "code": "04090",
    "epci_code": "200068625",
    "departement_code": "04",
    "region_code": "93",
    "postal_code": "04240"
  },
  {
    "name": "Ganagobie",
    "code": "04091",
    "epci_code": "200067437",
    "departement_code": "04",
    "region_code": "93",
    "postal_code": "04310"
  },
  {
    "name": "La Garde",
    "code": "04092",
    "epci_code": "200068625",
    "departement_code": "04",
    "region_code": "93",
    "postal_code": "04120"
  },
  {
    "name": "Gigors",
    "code": "04093",
    "epci_code": "200068765",
    "departement_code": "04",
    "region_code": "93",
    "postal_code": "04250"
  },
  {
    "name": "Gréoux-les-Bains",
    "code": "04094",
    "epci_code": "200034700",
    "departement_code": "04",
    "region_code": "93",
    "postal_code": "04800"
  },
  {
    "name": "L’Hospitalet",
    "code": "04095",
    "epci_code": "200071025",
    "departement_code": "04",
    "region_code": "93",
    "postal_code": "04150"
  },
  {
    "name": "Jausiers",
    "code": "04096",
    "epci_code": "200072304",
    "departement_code": "04",
    "region_code": "93",
    "postal_code": "04850"
  },
  {
    "name": "La Javie",
    "code": "04097",
    "epci_code": "200067437",
    "departement_code": "04",
    "region_code": "93",
    "postal_code": "04000"
  },
  {
    "name": "La Javie",
    "code": "04097",
    "epci_code": "200067437",
    "departement_code": "04",
    "region_code": "93",
    "postal_code": "04420"
  },
  {
    "name": "Lambruisse",
    "code": "04099",
    "epci_code": "200068625",
    "departement_code": "04",
    "region_code": "93",
    "postal_code": "04170"
  },
  {
    "name": "Lardiers",
    "code": "04101",
    "epci_code": "240400440",
    "departement_code": "04",
    "region_code": "93",
    "postal_code": "04230"
  },
  {
    "name": "Le Lauzet-Ubaye",
    "code": "04102",
    "epci_code": "200072304",
    "departement_code": "04",
    "region_code": "93",
    "postal_code": "04340"
  },
  {
    "name": "Limans",
    "code": "04104",
    "epci_code": "240400440",
    "departement_code": "04",
    "region_code": "93",
    "postal_code": "04300"
  },
  {
    "name": "Lurs",
    "code": "04106",
    "epci_code": "240400440",
    "departement_code": "04",
    "region_code": "93",
    "postal_code": "04700"
  },
  {
    "name": "Majastres",
    "code": "04107",
    "epci_code": "200067437",
    "departement_code": "04",
    "region_code": "93",
    "postal_code": "04270"
  },
  {
    "name": "Malijai",
    "code": "04108",
    "epci_code": "200067437",
    "departement_code": "04",
    "region_code": "93",
    "postal_code": "04350"
  },
  {
    "name": "Malijai",
    "code": "04108",
    "epci_code": "200067437",
    "departement_code": "04",
    "region_code": "93",
    "postal_code": "04510"
  },
  {
    "name": "Mallefougasse-Augès",
    "code": "04109",
    "epci_code": "200067437",
    "departement_code": "04",
    "region_code": "93",
    "postal_code": "04230"
  },
  {
    "name": "Mallemoisson",
    "code": "04110",
    "epci_code": "200067437",
    "departement_code": "04",
    "region_code": "93",
    "postal_code": "04510"
  },
  {
    "name": "Mane",
    "code": "04111",
    "epci_code": "200071025",
    "departement_code": "04",
    "region_code": "93",
    "postal_code": "04300"
  },
  {
    "name": "Manosque",
    "code": "04112",
    "epci_code": "200034700",
    "departement_code": "04",
    "region_code": "93",
    "postal_code": "04100"
  },
  {
    "name": "Marcoux",
    "code": "04113",
    "epci_code": "200067437",
    "departement_code": "04",
    "region_code": "93",
    "postal_code": "04420"
  },
  {
    "name": "Méailles",
    "code": "04115",
    "epci_code": "200068625",
    "departement_code": "04",
    "region_code": "93",
    "postal_code": "04240"
  },
  {
    "name": "Les Mées",
    "code": "04116",
    "epci_code": "200067437",
    "departement_code": "04",
    "region_code": "93",
    "postal_code": "04190"
  },
  {
    "name": "Melve",
    "code": "04118",
    "epci_code": "200068765",
    "departement_code": "04",
    "region_code": "93",
    "postal_code": "04250"
  },
  {
    "name": "Val d’Oronaye",
    "code": "04120",
    "epci_code": "200072304",
    "departement_code": "04",
    "region_code": "93",
    "postal_code": "04530"
  },
  {
    "name": "Mézel",
    "code": "04121",
    "epci_code": "200067437",
    "departement_code": "04",
    "region_code": "93",
    "postal_code": "04270"
  },
  {
    "name": "Mirabeau",
    "code": "04122",
    "epci_code": "200067437",
    "departement_code": "04",
    "region_code": "93",
    "postal_code": "04510"
  },
  {
    "name": "Mison",
    "code": "04123",
    "epci_code": "200068765",
    "departement_code": "04",
    "region_code": "93",
    "postal_code": "04200"
  },
  {
    "name": "Montagnac-Montpezat",
    "code": "04124",
    "epci_code": "200034700",
    "departement_code": "04",
    "region_code": "93",
    "postal_code": "04500"
  },
  {
    "name": "Montclar",
    "code": "04126",
    "epci_code": "200067437",
    "departement_code": "04",
    "region_code": "93",
    "postal_code": "04140"
  },
  {
    "name": "Montfort",
    "code": "04127",
    "epci_code": "200071033",
    "departement_code": "04",
    "region_code": "93",
    "postal_code": "04600"
  },
  {
    "name": "Montfuron",
    "code": "04128",
    "epci_code": "200034700",
    "departement_code": "04",
    "region_code": "93",
    "postal_code": "04110"
  },
  {
    "name": "Montjustin",
    "code": "04129",
    "epci_code": "200071025",
    "departement_code": "04",
    "region_code": "93",
    "postal_code": "04110"
  },
  {
    "name": "Montlaux",
    "code": "04130",
    "epci_code": "240400440",
    "departement_code": "04",
    "region_code": "93",
    "postal_code": "04230"
  },
  {
    "name": "Montsalier",
    "code": "04132",
    "epci_code": "200071025",
    "departement_code": "04",
    "region_code": "93",
    "postal_code": "04150"
  },
  {
    "name": "Moriez",
    "code": "04133",
    "epci_code": "200068625",
    "departement_code": "04",
    "region_code": "93",
    "postal_code": "04170"
  },
  {
    "name": "La Motte-du-Caire",
    "code": "04134",
    "epci_code": "200068765",
    "departement_code": "04",
    "region_code": "93",
    "postal_code": "04250"
  },
  {
    "name": "Moustiers-Sainte-Marie",
    "code": "04135",
    "epci_code": "200067437",
    "departement_code": "04",
    "region_code": "93",
    "postal_code": "04360"
  },
  {
    "name": "La Mure-Argens",
    "code": "04136",
    "epci_code": "200068625",
    "departement_code": "04",
    "region_code": "93",
    "postal_code": "04170"
  },
  {
    "name": "Nibles",
    "code": "04137",
    "epci_code": "200068765",
    "departement_code": "04",
    "region_code": "93",
    "postal_code": "04250"
  },
  {
    "name": "Niozelles",
    "code": "04138",
    "epci_code": "240400440",
    "departement_code": "04",
    "region_code": "93",
    "postal_code": "04300"
  },
  {
    "name": "Noyers-sur-Jabron",
    "code": "04139",
    "epci_code": "200071033",
    "departement_code": "04",
    "region_code": "93",
    "postal_code": "04200"
  },
  {
    "name": "Les Omergues",
    "code": "04140",
    "epci_code": "200071033",
    "departement_code": "04",
    "region_code": "93",
    "postal_code": "04200"
  },
  {
    "name": "Ongles",
    "code": "04141",
    "epci_code": "240400440",
    "departement_code": "04",
    "region_code": "93",
    "postal_code": "04230"
  },
  {
    "name": "Oppedette",
    "code": "04142",
    "epci_code": "200071025",
    "departement_code": "04",
    "region_code": "93",
    "postal_code": "04110"
  },
  {
    "name": "Oraison",
    "code": "04143",
    "epci_code": "200034700",
    "departement_code": "04",
    "region_code": "93",
    "postal_code": "04700"
  },
  {
    "name": "La Palud-sur-Verdon",
    "code": "04144",
    "epci_code": "200068625",
    "departement_code": "04",
    "region_code": "93",
    "postal_code": "04120"
  },
  {
    "name": "Peipin",
    "code": "04145",
    "epci_code": "200071033",
    "departement_code": "04",
    "region_code": "93",
    "postal_code": "04200"
  },
  {
    "name": "Peyroules",
    "code": "04148",
    "epci_code": "200068625",
    "departement_code": "04",
    "region_code": "93",
    "postal_code": "04120"
  },
  {
    "name": "Peyruis",
    "code": "04149",
    "epci_code": "200067437",
    "departement_code": "04",
    "region_code": "93",
    "postal_code": "04310"
  },
  {
    "name": "Piégut",
    "code": "04150",
    "epci_code": "200067320",
    "departement_code": "04",
    "region_code": "93",
    "postal_code": "05130"
  },
  {
    "name": "Pierrerue",
    "code": "04151",
    "epci_code": "240400440",
    "departement_code": "04",
    "region_code": "93",
    "postal_code": "04300"
  },
  {
    "name": "Pierrevert",
    "code": "04152",
    "epci_code": "200034700",
    "departement_code": "04",
    "region_code": "93",
    "postal_code": "04860"
  },
  {
    "name": "Pontis",
    "code": "04154",
    "epci_code": "200067742",
    "departement_code": "04",
    "region_code": "93",
    "postal_code": "05160"
  },
  {
    "name": "Prads-Haute-Bléone",
    "code": "04155",
    "epci_code": "200067437",
    "departement_code": "04",
    "region_code": "93",
    "postal_code": "04420"
  },
  {
    "name": "Puimichel",
    "code": "04156",
    "epci_code": "200034700",
    "departement_code": "04",
    "region_code": "93",
    "postal_code": "04700"
  },
  {
    "name": "Puimoisson",
    "code": "04157",
    "epci_code": "200034700",
    "departement_code": "04",
    "region_code": "93",
    "postal_code": "04410"
  },
  {
    "name": "Quinson",
    "code": "04158",
    "epci_code": "200034700",
    "departement_code": "04",
    "region_code": "93",
    "postal_code": "04500"
  },
  {
    "name": "Redortiers",
    "code": "04159",
    "epci_code": "200071025",
    "departement_code": "04",
    "region_code": "93",
    "postal_code": "04150"
  },
  {
    "name": "Reillanne",
    "code": "04160",
    "epci_code": "200071025",
    "departement_code": "04",
    "region_code": "93",
    "postal_code": "04110"
  },
  {
    "name": "Méolans-Revel",
    "code": "04161",
    "epci_code": "200072304",
    "departement_code": "04",
    "region_code": "93",
    "postal_code": "04340"
  },
  {
    "name": "Revest-des-Brousses",
    "code": "04162",
    "epci_code": "200071025",
    "departement_code": "04",
    "region_code": "93",
    "postal_code": "04150"
  },
  {
    "name": "Revest-du-Bion",
    "code": "04163",
    "epci_code": "200071025",
    "departement_code": "04",
    "region_code": "93",
    "postal_code": "04150"
  },
  {
    "name": "Revest-Saint-Martin",
    "code": "04164",
    "epci_code": "240400440",
    "departement_code": "04",
    "region_code": "93",
    "postal_code": "04230"
  },
  {
    "name": "Riez",
    "code": "04166",
    "epci_code": "200034700",
    "departement_code": "04",
    "region_code": "93",
    "postal_code": "04500"
  },
  {
    "name": "La Robine-sur-Galabre",
    "code": "04167",
    "epci_code": "200067437",
    "departement_code": "04",
    "region_code": "93",
    "postal_code": "04000"
  },
  {
    "name": "La Rochegiron",
    "code": "04169",
    "epci_code": "200071025",
    "departement_code": "04",
    "region_code": "93",
    "postal_code": "04150"
  },
  {
    "name": "La Rochette",
    "code": "04170",
    "epci_code": "200068625",
    "departement_code": "04",
    "region_code": "93",
    "postal_code": "06260"
  },
  {
    "name": "Rougon",
    "code": "04171",
    "epci_code": "200068625",
    "departement_code": "04",
    "region_code": "93",
    "postal_code": "04120"
  },
  {
    "name": "Roumoules",
    "code": "04172",
    "epci_code": "200034700",
    "departement_code": "04",
    "region_code": "93",
    "postal_code": "04500"
  },
  {
    "name": "Saint-André-les-Alpes",
    "code": "04173",
    "epci_code": "200068625",
    "departement_code": "04",
    "region_code": "93",
    "postal_code": "04170"
  },
  {
    "name": "Saint-Benoît",
    "code": "04174",
    "epci_code": "200068625",
    "departement_code": "04",
    "region_code": "93",
    "postal_code": "04240"
  },
  {
    "name": "Sainte-Croix-à-Lauze",
    "code": "04175",
    "epci_code": "200071025",
    "departement_code": "04",
    "region_code": "93",
    "postal_code": "04110"
  },
  {
    "name": "Sainte-Croix-du-Verdon",
    "code": "04176",
    "epci_code": "200067437",
    "departement_code": "04",
    "region_code": "93",
    "postal_code": "04500"
  },
  {
    "name": "Hautes-Duyes",
    "code": "04177",
    "epci_code": "200067437",
    "departement_code": "04",
    "region_code": "93",
    "postal_code": "04380"
  },
  {
    "name": "Saint-Étienne-les-Orgues",
    "code": "04178",
    "epci_code": "240400440",
    "departement_code": "04",
    "region_code": "93",
    "postal_code": "04230"
  },
  {
    "name": "Saint-Geniez",
    "code": "04179",
    "epci_code": "200068765",
    "departement_code": "04",
    "region_code": "93",
    "postal_code": "04200"
  },
  {
    "name": "Saint-Jacques",
    "code": "04180",
    "epci_code": "200068625",
    "departement_code": "04",
    "region_code": "93",
    "postal_code": "04330"
  },
  {
    "name": "Saint-Jeannet",
    "code": "04181",
    "epci_code": "200067437",
    "departement_code": "04",
    "region_code": "93",
    "postal_code": "04270"
  },
  {
    "name": "Saint-Julien-d’Asse",
    "code": "04182",
    "epci_code": "200067437",
    "departement_code": "04",
    "region_code": "93",
    "postal_code": "04270"
  },
  {
    "name": "Saint-Julien-du-Verdon",
    "code": "04183",
    "epci_code": "200068625",
    "departement_code": "04",
    "region_code": "93",
    "postal_code": "04170"
  },
  {
    "name": "Saint-Jurs",
    "code": "04184",
    "epci_code": "200067437",
    "departement_code": "04",
    "region_code": "93",
    "postal_code": "04410"
  },
  {
    "name": "Saint-Laurent-du-Verdon",
    "code": "04186",
    "epci_code": "200034700",
    "departement_code": "04",
    "region_code": "93",
    "postal_code": "04500"
  },
  {
    "name": "Saint-Lions",
    "code": "04187",
    "epci_code": "200068625",
    "departement_code": "04",
    "region_code": "93",
    "postal_code": "04330"
  },
  {
    "name": "Saint-Maime",
    "code": "04188",
    "epci_code": "200071025",
    "departement_code": "04",
    "region_code": "93",
    "postal_code": "04300"
  },
  {
    "name": "Saint-Martin-de-Brômes",
    "code": "04189",
    "epci_code": "200034700",
    "departement_code": "04",
    "region_code": "93",
    "postal_code": "04800"
  },
  {
    "name": "Saint-Martin-les-Eaux",
    "code": "04190",
    "epci_code": "200071025",
    "departement_code": "04",
    "region_code": "93",
    "postal_code": "04300"
  },
  {
    "name": "Saint-Martin-lès-Seyne",
    "code": "04191",
    "epci_code": "200067437",
    "departement_code": "04",
    "region_code": "93",
    "postal_code": "04140"
  },
  {
    "name": "Saint-Michel-l’Observatoire",
    "code": "04192",
    "epci_code": "200071025",
    "departement_code": "04",
    "region_code": "93",
    "postal_code": "04870"
  },
  {
    "name": "Saint-Paul-sur-Ubaye",
    "code": "04193",
    "epci_code": "200072304",
    "departement_code": "04",
    "region_code": "93",
    "postal_code": "04530"
  },
  {
    "name": "Saint-Pierre",
    "code": "04194",
    "epci_code": "200068625",
    "departement_code": "04",
    "region_code": "93",
    "postal_code": "06260"
  },
  {
    "name": "Saint-Pons",
    "code": "04195",
    "epci_code": "200072304",
    "departement_code": "04",
    "region_code": "93",
    "postal_code": "04400"
  },
  {
    "name": "Sainte-Tulle",
    "code": "04197",
    "epci_code": "200034700",
    "departement_code": "04",
    "region_code": "93",
    "postal_code": "04220"
  },
  {
    "name": "Saint-Vincent-sur-Jabron",
    "code": "04199",
    "epci_code": "200071033",
    "departement_code": "04",
    "region_code": "93",
    "postal_code": "04200"
  },
  {
    "name": "Salignac",
    "code": "04200",
    "epci_code": "200071033",
    "departement_code": "04",
    "region_code": "93",
    "postal_code": "04290"
  },
  {
    "name": "Saumane",
    "code": "04201",
    "epci_code": "200071025",
    "departement_code": "04",
    "region_code": "93",
    "postal_code": "04150"
  },
  {
    "name": "Sausses",
    "code": "04202",
    "epci_code": "200068625",
    "departement_code": "04",
    "region_code": "93",
    "postal_code": "04320"
  },
  {
    "name": "Selonnet",
    "code": "04203",
    "epci_code": "200067437",
    "departement_code": "04",
    "region_code": "93",
    "postal_code": "04140"
  },
  {
    "name": "Senez",
    "code": "04204",
    "epci_code": "200068625",
    "departement_code": "04",
    "region_code": "93",
    "postal_code": "04270"
  },
  {
    "name": "Senez",
    "code": "04204",
    "epci_code": "200068625",
    "departement_code": "04",
    "region_code": "93",
    "postal_code": "04330"
  },
  {
    "name": "Seyne",
    "code": "04205",
    "epci_code": "200067437",
    "departement_code": "04",
    "region_code": "93",
    "postal_code": "04140"
  },
  {
    "name": "Sigonce",
    "code": "04206",
    "epci_code": "240400440",
    "departement_code": "04",
    "region_code": "93",
    "postal_code": "04300"
  },
  {
    "name": "Sigoyer",
    "code": "04207",
    "epci_code": "200068765",
    "departement_code": "04",
    "region_code": "93",
    "postal_code": "04200"
  },
  {
    "name": "Simiane-la-Rotonde",
    "code": "04208",
    "epci_code": "200071025",
    "departement_code": "04",
    "region_code": "93",
    "postal_code": "04150"
  },
  {
    "name": "Sisteron",
    "code": "04209",
    "epci_code": "200068765",
    "departement_code": "04",
    "region_code": "93",
    "postal_code": "04200"
  },
  {
    "name": "Soleilhas",
    "code": "04210",
    "epci_code": "200068625",
    "departement_code": "04",
    "region_code": "93",
    "postal_code": "04120"
  },
  {
    "name": "Sourribes",
    "code": "04211",
    "epci_code": "200071033",
    "departement_code": "04",
    "region_code": "93",
    "postal_code": "04290"
  },
  {
    "name": "Tartonne",
    "code": "04214",
    "epci_code": "200068625",
    "departement_code": "04",
    "region_code": "93",
    "postal_code": "04330"
  },
  {
    "name": "Thèze",
    "code": "04216",
    "epci_code": "200068765",
    "departement_code": "04",
    "region_code": "93",
    "postal_code": "04200"
  },
  {
    "name": "Thoard",
    "code": "04217",
    "epci_code": "200067437",
    "departement_code": "04",
    "region_code": "93",
    "postal_code": "04380"
  },
  {
    "name": "Thorame-Basse",
    "code": "04218",
    "epci_code": "200068625",
    "departement_code": "04",
    "region_code": "93",
    "postal_code": "04170"
  },
  {
    "name": "Thorame-Haute",
    "code": "04219",
    "epci_code": "200068625",
    "departement_code": "04",
    "region_code": "93",
    "postal_code": "04170"
  },
  {
    "name": "Les Thuiles",
    "code": "04220",
    "epci_code": "200072304",
    "departement_code": "04",
    "region_code": "93",
    "postal_code": "04400"
  },
  {
    "name": "Turriers",
    "code": "04222",
    "epci_code": "200068765",
    "departement_code": "04",
    "region_code": "93",
    "postal_code": "04250"
  },
  {
    "name": "Ubraye",
    "code": "04224",
    "epci_code": "200068625",
    "departement_code": "04",
    "region_code": "93",
    "postal_code": "04240"
  },
  {
    "name": "Uvernet-Fours",
    "code": "04226",
    "epci_code": "200072304",
    "departement_code": "04",
    "region_code": "93",
    "postal_code": "04400"
  },
  {
    "name": "Vachères",
    "code": "04227",
    "epci_code": "200071025",
    "departement_code": "04",
    "region_code": "93",
    "postal_code": "04110"
  },
  {
    "name": "Valavoire",
    "code": "04228",
    "epci_code": "200068765",
    "departement_code": "04",
    "region_code": "93",
    "postal_code": "04250"
  },
  {
    "name": "Valbelle",
    "code": "04229",
    "epci_code": "200071033",
    "departement_code": "04",
    "region_code": "93",
    "postal_code": "04200"
  },
  {
    "name": "Valensole",
    "code": "04230",
    "epci_code": "200034700",
    "departement_code": "04",
    "region_code": "93",
    "postal_code": "04210"
  },
  {
    "name": "Valernes",
    "code": "04231",
    "epci_code": "200068765",
    "departement_code": "04",
    "region_code": "93",
    "postal_code": "04200"
  },
  {
    "name": "Vaumeilh",
    "code": "04233",
    "epci_code": "200068765",
    "departement_code": "04",
    "region_code": "93",
    "postal_code": "04200"
  },
  {
    "name": "Venterol",
    "code": "04234",
    "epci_code": "200067320",
    "departement_code": "04",
    "region_code": "93",
    "postal_code": "05130"
  },
  {
    "name": "Verdaches",
    "code": "04235",
    "epci_code": "200067437",
    "departement_code": "04",
    "region_code": "93",
    "postal_code": "04140"
  },
  {
    "name": "Vergons",
    "code": "04236",
    "epci_code": "200068625",
    "departement_code": "04",
    "region_code": "93",
    "postal_code": "04170"
  },
  {
    "name": "Le Vernet",
    "code": "04237",
    "epci_code": "200067437",
    "departement_code": "04",
    "region_code": "93",
    "postal_code": "04140"
  },
  {
    "name": "Villars-Colmars",
    "code": "04240",
    "epci_code": "200068625",
    "departement_code": "04",
    "region_code": "93",
    "postal_code": "04370"
  },
  {
    "name": "Villemus",
    "code": "04241",
    "epci_code": "200071025",
    "departement_code": "04",
    "region_code": "93",
    "postal_code": "04110"
  },
  {
    "name": "Villeneuve",
    "code": "04242",
    "epci_code": "200034700",
    "departement_code": "04",
    "region_code": "93",
    "postal_code": "04180"
  },
  {
    "name": "Volonne",
    "code": "04244",
    "epci_code": "200067437",
    "departement_code": "04",
    "region_code": "93",
    "postal_code": "04290"
  },
  {
    "name": "Volx",
    "code": "04245",
    "epci_code": "200034700",
    "departement_code": "04",
    "region_code": "93",
    "postal_code": "04130"
  }
]