[
  {
    "name": "Agneaux",
    "code": "50002",
    "epci_code": "200066389",
    "departement_code": "50",
    "region_code": "28",
    "postal_code": "50180"
  },
  {
    "name": "Agon-Coutainville",
    "code": "50003",
    "epci_code": "200067023",
    "departement_code": "50",
    "region_code": "28",
    "postal_code": "50230"
  },
  {
    "name": "Airel",
    "code": "50004",
    "epci_code": "200066389",
    "departement_code": "50",
    "region_code": "28",
    "postal_code": "50680"
  },
  {
    "name": "Amigny",
    "code": "50006",
    "epci_code": "200066389",
    "departement_code": "50",
    "region_code": "28",
    "postal_code": "50620"
  },
  {
    "name": "Anctoville-sur-Boscq",
    "code": "50008",
    "epci_code": "200042604",
    "departement_code": "50",
    "region_code": "28",
    "postal_code": "50400"
  },
  {
    "name": "Anneville-en-Saire",
    "code": "50013",
    "epci_code": "200067205",
    "departement_code": "50",
    "region_code": "28",
    "postal_code": "50760"
  },
  {
    "name": "Appeville",
    "code": "50016",
    "epci_code": "200042729",
    "departement_code": "50",
    "region_code": "28",
    "postal_code": "50500"
  },
  {
    "name": "Aucey-la-Plaine",
    "code": "50019",
    "epci_code": "200069425",
    "departement_code": "50",
    "region_code": "28",
    "postal_code": "50170"
  },
  {
    "name": "Audouville-la-Hubert",
    "code": "50021",
    "epci_code": "200042729",
    "departement_code": "50",
    "region_code": "28",
    "postal_code": "50480"
  },
  {
    "name": "Aumeville-Lestre",
    "code": "50022",
    "epci_code": "200067205",
    "departement_code": "50",
    "region_code": "28",
    "postal_code": "50630"
  },
  {
    "name": "Auvers",
    "code": "50023",
    "epci_code": "200042729",
    "departement_code": "50",
    "region_code": "28",
    "postal_code": "50500"
  },
  {
    "name": "Auxais",
    "code": "50024",
    "epci_code": "200067031",
    "departement_code": "50",
    "region_code": "28",
    "postal_code": "50500"
  },
  {
    "name": "Avranches",
    "code": "50025",
    "epci_code": "200069425",
    "departement_code": "50",
    "region_code": "28",
    "postal_code": "50300"
  },
  {
    "name": "Azeville",
    "code": "50026",
    "epci_code": "200067205",
    "departement_code": "50",
    "region_code": "28",
    "postal_code": "50310"
  },
  {
    "name": "Bacilly",
    "code": "50027",
    "epci_code": "200069425",
    "departement_code": "50",
    "region_code": "28",
    "postal_code": "50530"
  },
  {
    "name": "La Baleine",
    "code": "50028",
    "epci_code": "200067023",
    "departement_code": "50",
    "region_code": "28",
    "postal_code": "50450"
  },
  {
    "name": "Barenton",
    "code": "50029",
    "epci_code": "200069425",
    "departement_code": "50",
    "region_code": "28",
    "postal_code": "50720"
  },
  {
    "name": "Barfleur",
    "code": "50030",
    "epci_code": "200067205",
    "departement_code": "50",
    "region_code": "28",
    "postal_code": "50760"
  },
  {
    "name": "Barneville-Carteret",
    "code": "50031",
    "epci_code": "200067205",
    "departement_code": "50",
    "region_code": "28",
    "postal_code": "50270"
  },
  {
    "name": "La Barre-de-Semilly",
    "code": "50032",
    "epci_code": "200066389",
    "departement_code": "50",
    "region_code": "28",
    "postal_code": "50810"
  },
  {
    "name": "Baubigny",
    "code": "50033",
    "epci_code": "200067205",
    "departement_code": "50",
    "region_code": "28",
    "postal_code": "50270"
  },
  {
    "name": "Baudre",
    "code": "50034",
    "epci_code": "200066389",
    "departement_code": "50",
    "region_code": "28",
    "postal_code": "50000"
  },
  {
    "name": "Baupte",
    "code": "50036",
    "epci_code": "200042729",
    "departement_code": "50",
    "region_code": "28",
    "postal_code": "50500"
  },
  {
    "name": "Beauchamps",
    "code": "50038",
    "epci_code": "200042604",
    "departement_code": "50",
    "region_code": "28",
    "postal_code": "50320"
  },
  {
    "name": "Beaucoudray",
    "code": "50039",
    "epci_code": "200066389",
    "departement_code": "50",
    "region_code": "28",
    "postal_code": "50420"
  },
  {
    "name": "Beauficel",
    "code": "50040",
    "epci_code": "200069425",
    "departement_code": "50",
    "region_code": "28",
    "postal_code": "50150"
  },
  {
    "name": "La Hague",
    "code": "50041",
    "epci_code": "200067205",
    "departement_code": "50",
    "region_code": "28",
    "postal_code": "50440"
  },
  {
    "name": "La Hague",
    "code": "50041",
    "epci_code": "200067205",
    "departement_code": "50",
    "region_code": "28",
    "postal_code": "50460"
  },
  {
    "name": "La Hague",
    "code": "50041",
    "epci_code": "200067205",
    "departement_code": "50",
    "region_code": "28",
    "postal_code": "50690"
  },
  {
    "name": "Beauvoir",
    "code": "50042",
    "epci_code": "200069425",
    "departement_code": "50",
    "region_code": "28",
    "postal_code": "50170"
  },
  {
    "name": "Belval",
    "code": "50044",
    "epci_code": "200067023",
    "departement_code": "50",
    "region_code": "28",
    "postal_code": "50210"
  },
  {
    "name": "Benoîtville",
    "code": "50045",
    "epci_code": "200067205",
    "departement_code": "50",
    "region_code": "28",
    "postal_code": "50340"
  },
  {
    "name": "Bérigny",
    "code": "50046",
    "epci_code": "200066389",
    "departement_code": "50",
    "region_code": "28",
    "postal_code": "50810"
  },
  {
    "name": "Beslon",
    "code": "50048",
    "epci_code": "200043354",
    "departement_code": "50",
    "region_code": "28",
    "postal_code": "50800"
  },
  {
    "name": "Besneville",
    "code": "50049",
    "epci_code": "200067205",
    "departement_code": "50",
    "region_code": "28",
    "postal_code": "50390"
  },
  {
    "name": "Beuvrigny",
    "code": "50050",
    "epci_code": "200066389",
    "departement_code": "50",
    "region_code": "28",
    "postal_code": "50420"
  },
  {
    "name": "Beuzeville-la-Bastille",
    "code": "50052",
    "epci_code": "200042729",
    "departement_code": "50",
    "region_code": "28",
    "postal_code": "50360"
  },
  {
    "name": "Biéville",
    "code": "50054",
    "epci_code": "200066389",
    "departement_code": "50",
    "region_code": "28",
    "postal_code": "50160"
  },
  {
    "name": "Biniville",
    "code": "50055",
    "epci_code": "200067205",
    "departement_code": "50",
    "region_code": "28",
    "postal_code": "50390"
  },
  {
    "name": "Blainville-sur-Mer",
    "code": "50058",
    "epci_code": "200067023",
    "departement_code": "50",
    "region_code": "28",
    "postal_code": "50560"
  },
  {
    "name": "Blosville",
    "code": "50059",
    "epci_code": "200042729",
    "departement_code": "50",
    "region_code": "28",
    "postal_code": "50480"
  },
  {
    "name": "La Bloutière",
    "code": "50060",
    "epci_code": "200043354",
    "departement_code": "50",
    "region_code": "28",
    "postal_code": "50800"
  },
  {
    "name": "Boisyvon",
    "code": "50062",
    "epci_code": "200043354",
    "departement_code": "50",
    "region_code": "28",
    "postal_code": "50800"
  },
  {
    "name": "La Bonneville",
    "code": "50064",
    "epci_code": "200067205",
    "departement_code": "50",
    "region_code": "28",
    "postal_code": "50360"
  },
  {
    "name": "Jullouville",
    "code": "50066",
    "epci_code": "200042604",
    "departement_code": "50",
    "region_code": "28",
    "postal_code": "50610"
  },
  {
    "name": "Bourguenolles",
    "code": "50069",
    "epci_code": "200043354",
    "departement_code": "50",
    "region_code": "28",
    "postal_code": "50800"
  },
  {
    "name": "Boutteville",
    "code": "50070",
    "epci_code": "200042729",
    "departement_code": "50",
    "region_code": "28",
    "postal_code": "50480"
  },
  {
    "name": "Brainville",
    "code": "50072",
    "epci_code": "200067023",
    "departement_code": "50",
    "region_code": "28",
    "postal_code": "50200"
  },
  {
    "name": "Brécey",
    "code": "50074",
    "epci_code": "200069425",
    "departement_code": "50",
    "region_code": "28",
    "postal_code": "50370"
  },
  {
    "name": "Bréhal",
    "code": "50076",
    "epci_code": "200042604",
    "departement_code": "50",
    "region_code": "28",
    "postal_code": "50290"
  },
  {
    "name": "Bretteville",
    "code": "50077",
    "epci_code": "200067205",
    "departement_code": "50",
    "region_code": "28",
    "postal_code": "50110"
  },
  {
    "name": "Bretteville-sur-Ay",
    "code": "50078",
    "epci_code": "200067031",
    "departement_code": "50",
    "region_code": "28",
    "postal_code": "50430"
  },
  {
    "name": "Breuville",
    "code": "50079",
    "epci_code": "200067205",
    "departement_code": "50",
    "region_code": "28",
    "postal_code": "50260"
  },
  {
    "name": "Bréville-sur-Mer",
    "code": "50081",
    "epci_code": "200042604",
    "departement_code": "50",
    "region_code": "28",
    "postal_code": "50290"
  },
  {
    "name": "Bricquebec-en-Cotentin",
    "code": "50082",
    "epci_code": "200067205",
    "departement_code": "50",
    "region_code": "28",
    "postal_code": "50260"
  },
  {
    "name": "Bricquebosq",
    "code": "50083",
    "epci_code": "200067205",
    "departement_code": "50",
    "region_code": "28",
    "postal_code": "50340"
  },
  {
    "name": "Bricqueville-la-Blouette",
    "code": "50084",
    "epci_code": "200067023",
    "departement_code": "50",
    "region_code": "28",
    "postal_code": "50200"
  },
  {
    "name": "Bricqueville-sur-Mer",
    "code": "50085",
    "epci_code": "200042604",
    "departement_code": "50",
    "region_code": "28",
    "postal_code": "50290"
  },
  {
    "name": "Brillevast",
    "code": "50086",
    "epci_code": "200067205",
    "departement_code": "50",
    "region_code": "28",
    "postal_code": "50330"
  },
  {
    "name": "Brix",
    "code": "50087",
    "epci_code": "200067205",
    "departement_code": "50",
    "region_code": "28",
    "postal_code": "50700"
  },
  {
    "name": "Brouains",
    "code": "50088",
    "epci_code": "200069425",
    "departement_code": "50",
    "region_code": "28",
    "postal_code": "50150"
  },
  {
    "name": "Buais-Les-Monts",
    "code": "50090",
    "epci_code": "200069425",
    "departement_code": "50",
    "region_code": "28",
    "postal_code": "50640"
  },
  {
    "name": "Cambernon",
    "code": "50092",
    "epci_code": "200067023",
    "departement_code": "50",
    "region_code": "28",
    "postal_code": "50200"
  },
  {
    "name": "Cametours",
    "code": "50093",
    "epci_code": "200067023",
    "departement_code": "50",
    "region_code": "28",
    "postal_code": "50570"
  },
  {
    "name": "Camprond",
    "code": "50094",
    "epci_code": "200067023",
    "departement_code": "50",
    "region_code": "28",
    "postal_code": "50210"
  },
  {
    "name": "Canisy",
    "code": "50095",
    "epci_code": "200066389",
    "departement_code": "50",
    "region_code": "28",
    "postal_code": "50750"
  },
  {
    "name": "Canteloup",
    "code": "50096",
    "epci_code": "200067205",
    "departement_code": "50",
    "region_code": "28",
    "postal_code": "50330"
  },
  {
    "name": "Canville-la-Rocque",
    "code": "50097",
    "epci_code": "200067205",
    "departement_code": "50",
    "region_code": "28",
    "postal_code": "50580"
  },
  {
    "name": "Carantilly",
    "code": "50098",
    "epci_code": "200066389",
    "departement_code": "50",
    "region_code": "28",
    "postal_code": "50570"
  },
  {
    "name": "Carentan-les-Marais",
    "code": "50099",
    "epci_code": "200042729",
    "departement_code": "50",
    "region_code": "28",
    "postal_code": "50480"
  },
  {
    "name": "Carentan-les-Marais",
    "code": "50099",
    "epci_code": "200042729",
    "departement_code": "50",
    "region_code": "28",
    "postal_code": "50500"
  },
  {
    "name": "Carentan-les-Marais",
    "code": "50099",
    "epci_code": "200042729",
    "departement_code": "50",
    "region_code": "28",
    "postal_code": "50620"
  },
  {
    "name": "Carneville",
    "code": "50101",
    "epci_code": "200067205",
    "departement_code": "50",
    "region_code": "28",
    "postal_code": "50330"
  },
  {
    "name": "Carolles",
    "code": "50102",
    "epci_code": "200042604",
    "departement_code": "50",
    "region_code": "28",
    "postal_code": "50740"
  },
  {
    "name": "Catteville",
    "code": "50105",
    "epci_code": "200067205",
    "departement_code": "50",
    "region_code": "28",
    "postal_code": "50390"
  },
  {
    "name": "Cavigny",
    "code": "50106",
    "epci_code": "200066389",
    "departement_code": "50",
    "region_code": "28",
    "postal_code": "50620"
  },
  {
    "name": "Céaux",
    "code": "50108",
    "epci_code": "200069425",
    "departement_code": "50",
    "region_code": "28",
    "postal_code": "50220"
  },
  {
    "name": "Cérences",
    "code": "50109",
    "epci_code": "200042604",
    "departement_code": "50",
    "region_code": "28",
    "postal_code": "50510"
  },
  {
    "name": "Cerisy-la-Forêt",
    "code": "50110",
    "epci_code": "200066389",
    "departement_code": "50",
    "region_code": "28",
    "postal_code": "50680"
  },
  {
    "name": "Cerisy-la-Salle",
    "code": "50111",
    "epci_code": "200067023",
    "departement_code": "50",
    "region_code": "28",
    "postal_code": "50210"
  },
  {
    "name": "La Chaise-Baudouin",
    "code": "50112",
    "epci_code": "200069425",
    "departement_code": "50",
    "region_code": "28",
    "postal_code": "50370"
  },
  {
    "name": "Le Grippon",
    "code": "50115",
    "epci_code": "200069425",
    "departement_code": "50",
    "region_code": "28",
    "postal_code": "50320"
  },
  {
    "name": "Champeaux",
    "code": "50117",
    "epci_code": "200042604",
    "departement_code": "50",
    "region_code": "28",
    "postal_code": "50530"
  },
  {
    "name": "Champrepus",
    "code": "50118",
    "epci_code": "200043354",
    "departement_code": "50",
    "region_code": "28",
    "postal_code": "50800"
  },
  {
    "name": "Chanteloup",
    "code": "50120",
    "epci_code": "200042604",
    "departement_code": "50",
    "region_code": "28",
    "postal_code": "50510"
  },
  {
    "name": "La Chapelle-Cécelin",
    "code": "50121",
    "epci_code": "200043354",
    "departement_code": "50",
    "region_code": "28",
    "postal_code": "50800"
  },
  {
    "name": "La Chapelle-Urée",
    "code": "50124",
    "epci_code": "200069425",
    "departement_code": "50",
    "region_code": "28",
    "postal_code": "50370"
  },
  {
    "name": "Chavoy",
    "code": "50126",
    "epci_code": "200069425",
    "departement_code": "50",
    "region_code": "28",
    "postal_code": "50870"
  },
  {
    "name": "Cherbourg-en-Cotentin",
    "code": "50129",
    "epci_code": "200067205",
    "departement_code": "50",
    "region_code": "28",
    "postal_code": "50100"
  },
  {
    "name": "Cherbourg-en-Cotentin",
    "code": "50129",
    "epci_code": "200067205",
    "departement_code": "50",
    "region_code": "28",
    "postal_code": "50110"
  },
  {
    "name": "Cherbourg-en-Cotentin",
    "code": "50129",
    "epci_code": "200067205",
    "departement_code": "50",
    "region_code": "28",
    "postal_code": "50120"
  },
  {
    "name": "Cherbourg-en-Cotentin",
    "code": "50129",
    "epci_code": "200067205",
    "departement_code": "50",
    "region_code": "28",
    "postal_code": "50130"
  },
  {
    "name": "Cherbourg-en-Cotentin",
    "code": "50129",
    "epci_code": "200067205",
    "departement_code": "50",
    "region_code": "28",
    "postal_code": "50460"
  },
  {
    "name": "Cherbourg-en-Cotentin",
    "code": "50129",
    "epci_code": "200067205",
    "departement_code": "50",
    "region_code": "28",
    "postal_code": "50470"
  },
  {
    "name": "Chérencé-le-Héron",
    "code": "50130",
    "epci_code": "200043354",
    "departement_code": "50",
    "region_code": "28",
    "postal_code": "50800"
  },
  {
    "name": "Clitourps",
    "code": "50135",
    "epci_code": "200067205",
    "departement_code": "50",
    "region_code": "28",
    "postal_code": "50330"
  },
  {
    "name": "La Colombe",
    "code": "50137",
    "epci_code": "200043354",
    "departement_code": "50",
    "region_code": "28",
    "postal_code": "50800"
  },
  {
    "name": "Colomby",
    "code": "50138",
    "epci_code": "200067205",
    "departement_code": "50",
    "region_code": "28",
    "postal_code": "50700"
  },
  {
    "name": "Condé-sur-Vire",
    "code": "50139",
    "epci_code": "200066389",
    "departement_code": "50",
    "region_code": "28",
    "postal_code": "50420"
  },
  {
    "name": "Condé-sur-Vire",
    "code": "50139",
    "epci_code": "200066389",
    "departement_code": "50",
    "region_code": "28",
    "postal_code": "50890"
  },
  {
    "name": "Vicq-sur-Mer",
    "code": "50142",
    "epci_code": "200067205",
    "departement_code": "50",
    "region_code": "28",
    "postal_code": "50330"
  },
  {
    "name": "Coudeville-sur-Mer",
    "code": "50143",
    "epci_code": "200042604",
    "departement_code": "50",
    "region_code": "28",
    "postal_code": "50290"
  },
  {
    "name": "Coulouvray-Boisbenâtre",
    "code": "50144",
    "epci_code": "200043354",
    "departement_code": "50",
    "region_code": "28",
    "postal_code": "50670"
  },
  {
    "name": "Courcy",
    "code": "50145",
    "epci_code": "200067023",
    "departement_code": "50",
    "region_code": "28",
    "postal_code": "50200"
  },
  {
    "name": "Courtils",
    "code": "50146",
    "epci_code": "200069425",
    "departement_code": "50",
    "region_code": "28",
    "postal_code": "50220"
  },
  {
    "name": "Coutances",
    "code": "50147",
    "epci_code": "200067023",
    "departement_code": "50",
    "region_code": "28",
    "postal_code": "50200"
  },
  {
    "name": "Couvains",
    "code": "50148",
    "epci_code": "200066389",
    "departement_code": "50",
    "region_code": "28",
    "postal_code": "50680"
  },
  {
    "name": "Couville",
    "code": "50149",
    "epci_code": "200067205",
    "departement_code": "50",
    "region_code": "28",
    "postal_code": "50690"
  },
  {
    "name": "Crasville",
    "code": "50150",
    "epci_code": "200067205",
    "departement_code": "50",
    "region_code": "28",
    "postal_code": "50630"
  },
  {
    "name": "Créances",
    "code": "50151",
    "epci_code": "200067031",
    "departement_code": "50",
    "region_code": "28",
    "postal_code": "50710"
  },
  {
    "name": "Les Cresnays",
    "code": "50152",
    "epci_code": "200069425",
    "departement_code": "50",
    "region_code": "28",
    "postal_code": "50370"
  },
  {
    "name": "Crollon",
    "code": "50155",
    "epci_code": "200069425",
    "departement_code": "50",
    "region_code": "28",
    "postal_code": "50220"
  },
  {
    "name": "Crosville-sur-Douve",
    "code": "50156",
    "epci_code": "200067205",
    "departement_code": "50",
    "region_code": "28",
    "postal_code": "50360"
  },
  {
    "name": "Cuves",
    "code": "50158",
    "epci_code": "200069425",
    "departement_code": "50",
    "region_code": "28",
    "postal_code": "50670"
  },
  {
    "name": "Dangy",
    "code": "50159",
    "epci_code": "200066389",
    "departement_code": "50",
    "region_code": "28",
    "postal_code": "50750"
  },
  {
    "name": "Le Dézert",
    "code": "50161",
    "epci_code": "200066389",
    "departement_code": "50",
    "region_code": "28",
    "postal_code": "50620"
  },
  {
    "name": "Digosville",
    "code": "50162",
    "epci_code": "200067205",
    "departement_code": "50",
    "region_code": "28",
    "postal_code": "50110"
  },
  {
    "name": "Domjean",
    "code": "50164",
    "epci_code": "200066389",
    "departement_code": "50",
    "region_code": "28",
    "postal_code": "50420"
  },
  {
    "name": "Donville-les-Bains",
    "code": "50165",
    "epci_code": "200042604",
    "departement_code": "50",
    "region_code": "28",
    "postal_code": "50350"
  },
  {
    "name": "Doville",
    "code": "50166",
    "epci_code": "200067031",
    "departement_code": "50",
    "region_code": "28",
    "postal_code": "50250"
  },
  {
    "name": "Dragey-Ronthon",
    "code": "50167",
    "epci_code": "200069425",
    "departement_code": "50",
    "region_code": "28",
    "postal_code": "50530"
  },
  {
    "name": "Ducey-Les Chéris",
    "code": "50168",
    "epci_code": "200069425",
    "departement_code": "50",
    "region_code": "28",
    "postal_code": "50220"
  },
  {
    "name": "Écausseville",
    "code": "50169",
    "epci_code": "200067205",
    "departement_code": "50",
    "region_code": "28",
    "postal_code": "50310"
  },
  {
    "name": "Émondeville",
    "code": "50172",
    "epci_code": "200067205",
    "departement_code": "50",
    "region_code": "28",
    "postal_code": "50310"
  },
  {
    "name": "Équilly",
    "code": "50174",
    "epci_code": "200042604",
    "departement_code": "50",
    "region_code": "28",
    "postal_code": "50320"
  },
  {
    "name": "Éroudeville",
    "code": "50175",
    "epci_code": "200067205",
    "departement_code": "50",
    "region_code": "28",
    "postal_code": "50310"
  },
  {
    "name": "L’Étang-Bertrand",
    "code": "50176",
    "epci_code": "200067205",
    "departement_code": "50",
    "region_code": "28",
    "postal_code": "50260"
  },
  {
    "name": "Étienville",
    "code": "50177",
    "epci_code": "200042729",
    "departement_code": "50",
    "region_code": "28",
    "postal_code": "50360"
  },
  {
    "name": "Fermanville",
    "code": "50178",
    "epci_code": "200067205",
    "departement_code": "50",
    "region_code": "28",
    "postal_code": "50840"
  },
  {
    "name": "Feugères",
    "code": "50181",
    "epci_code": "200067031",
    "departement_code": "50",
    "region_code": "28",
    "postal_code": "50190"
  },
  {
    "name": "La Feuillie",
    "code": "50182",
    "epci_code": "200067031",
    "departement_code": "50",
    "region_code": "28",
    "postal_code": "50190"
  },
  {
    "name": "Fierville-les-Mines",
    "code": "50183",
    "epci_code": "200067205",
    "departement_code": "50",
    "region_code": "28",
    "postal_code": "50580"
  },
  {
    "name": "Flamanville",
    "code": "50184",
    "epci_code": "200067205",
    "departement_code": "50",
    "region_code": "28",
    "postal_code": "50340"
  },
  {
    "name": "Fleury",
    "code": "50185",
    "epci_code": "200043354",
    "departement_code": "50",
    "region_code": "28",
    "postal_code": "50800"
  },
  {
    "name": "Flottemanville",
    "code": "50186",
    "epci_code": "200067205",
    "departement_code": "50",
    "region_code": "28",
    "postal_code": "50700"
  },
  {
    "name": "Folligny",
    "code": "50188",
    "epci_code": "200042604",
    "departement_code": "50",
    "region_code": "28",
    "postal_code": "50320"
  },
  {
    "name": "Fontenay-sur-Mer",
    "code": "50190",
    "epci_code": "200067205",
    "departement_code": "50",
    "region_code": "28",
    "postal_code": "50310"
  },
  {
    "name": "Fourneaux",
    "code": "50192",
    "epci_code": "200066389",
    "departement_code": "50",
    "region_code": "28",
    "postal_code": "50420"
  },
  {
    "name": "Le Fresne-Poret",
    "code": "50193",
    "epci_code": "200069425",
    "departement_code": "50",
    "region_code": "28",
    "postal_code": "50850"
  },
  {
    "name": "Fresville",
    "code": "50194",
    "epci_code": "200067205",
    "departement_code": "50",
    "region_code": "28",
    "postal_code": "50310"
  },
  {
    "name": "Gathemo",
    "code": "50195",
    "epci_code": "200069425",
    "departement_code": "50",
    "region_code": "28",
    "postal_code": "50150"
  },
  {
    "name": "Gatteville-le-Phare",
    "code": "50196",
    "epci_code": "200067205",
    "departement_code": "50",
    "region_code": "28",
    "postal_code": "50760"
  },
  {
    "name": "Gavray-sur-Sienne",
    "code": "50197",
    "epci_code": "200067023",
    "departement_code": "50",
    "region_code": "28",
    "postal_code": "50450"
  },
  {
    "name": "Geffosses",
    "code": "50198",
    "epci_code": "200067031",
    "departement_code": "50",
    "region_code": "28",
    "postal_code": "50560"
  },
  {
    "name": "Genêts",
    "code": "50199",
    "epci_code": "200069425",
    "departement_code": "50",
    "region_code": "28",
    "postal_code": "50530"
  },
  {
    "name": "Ger",
    "code": "50200",
    "epci_code": "200069425",
    "departement_code": "50",
    "region_code": "28",
    "postal_code": "50850"
  },
  {
    "name": "La Godefroy",
    "code": "50205",
    "epci_code": "200069425",
    "departement_code": "50",
    "region_code": "28",
    "postal_code": "50300"
  },
  {
    "name": "Golleville",
    "code": "50207",
    "epci_code": "200067205",
    "departement_code": "50",
    "region_code": "28",
    "postal_code": "50390"
  },
  {
    "name": "Gonfreville",
    "code": "50208",
    "epci_code": "200067031",
    "departement_code": "50",
    "region_code": "28",
    "postal_code": "50190"
  },
  {
    "name": "Gonneville-Le Theil",
    "code": "50209",
    "epci_code": "200067205",
    "departement_code": "50",
    "region_code": "28",
    "postal_code": "50330"
  },
  {
    "name": "Gorges",
    "code": "50210",
    "epci_code": "200067031",
    "departement_code": "50",
    "region_code": "28",
    "postal_code": "50190"
  },
  {
    "name": "Gouvets",
    "code": "50214",
    "epci_code": "200066389",
    "departement_code": "50",
    "region_code": "28",
    "postal_code": "50420"
  },
  {
    "name": "Gouville-sur-Mer",
    "code": "50215",
    "epci_code": "200067023",
    "departement_code": "50",
    "region_code": "28",
    "postal_code": "50200"
  },
  {
    "name": "Gouville-sur-Mer",
    "code": "50215",
    "epci_code": "200067023",
    "departement_code": "50",
    "region_code": "28",
    "postal_code": "50560"
  },
  {
    "name": "Graignes-Mesnil-Angot",
    "code": "50216",
    "epci_code": "200066389",
    "departement_code": "50",
    "region_code": "28",
    "postal_code": "50620"
  },
  {
    "name": "Le Grand-Celland",
    "code": "50217",
    "epci_code": "200069425",
    "departement_code": "50",
    "region_code": "28",
    "postal_code": "50370"
  },
  {
    "name": "Granville",
    "code": "50218",
    "epci_code": "200042604",
    "departement_code": "50",
    "region_code": "28",
    "postal_code": "50400"
  },
  {
    "name": "Gratot",
    "code": "50219",
    "epci_code": "200067023",
    "departement_code": "50",
    "region_code": "28",
    "postal_code": "50200"
  },
  {
    "name": "Grimesnil",
    "code": "50221",
    "epci_code": "200067023",
    "departement_code": "50",
    "region_code": "28",
    "postal_code": "50450"
  },
  {
    "name": "Grosville",
    "code": "50222",
    "epci_code": "200067205",
    "departement_code": "50",
    "region_code": "28",
    "postal_code": "50340"
  },
  {
    "name": "Le Guislain",
    "code": "50225",
    "epci_code": "200043354",
    "departement_code": "50",
    "region_code": "28",
    "postal_code": "50410"
  },
  {
    "name": "Le Ham",
    "code": "50227",
    "epci_code": "200067205",
    "departement_code": "50",
    "region_code": "28",
    "postal_code": "50310"
  },
  {
    "name": "Hambye",
    "code": "50228",
    "epci_code": "200067023",
    "departement_code": "50",
    "region_code": "28",
    "postal_code": "50450"
  },
  {
    "name": "Hamelin",
    "code": "50229",
    "epci_code": "200069425",
    "departement_code": "50",
    "region_code": "28",
    "postal_code": "50730"
  },
  {
    "name": "Hardinvast",
    "code": "50230",
    "epci_code": "200067205",
    "departement_code": "50",
    "region_code": "28",
    "postal_code": "50690"
  },
  {
    "name": "Hauteville-sur-Mer",
    "code": "50231",
    "epci_code": "200067023",
    "departement_code": "50",
    "region_code": "28",
    "postal_code": "50590"
  },
  {
    "name": "Hauteville-la-Guichard",
    "code": "50232",
    "epci_code": "200067023",
    "departement_code": "50",
    "region_code": "28",
    "postal_code": "50570"
  },
  {
    "name": "Hautteville-Bocage",
    "code": "50233",
    "epci_code": "200067205",
    "departement_code": "50",
    "region_code": "28",
    "postal_code": "50390"
  },
  {
    "name": "La Haye-Bellefond",
    "code": "50234",
    "epci_code": "200043354",
    "departement_code": "50",
    "region_code": "28",
    "postal_code": "50410"
  },
  {
    "name": "La Haye-d’Ectot",
    "code": "50235",
    "epci_code": "200067205",
    "departement_code": "50",
    "region_code": "28",
    "postal_code": "50270"
  },
  {
    "name": "La Haye",
    "code": "50236",
    "epci_code": "200067031",
    "departement_code": "50",
    "region_code": "28",
    "postal_code": "50250"
  },
  {
    "name": "La Haye",
    "code": "50236",
    "epci_code": "200067031",
    "departement_code": "50",
    "region_code": "28",
    "postal_code": "50580"
  },
  {
    "name": "La Haye-Pesnel",
    "code": "50237",
    "epci_code": "200042604",
    "departement_code": "50",
    "region_code": "28",
    "postal_code": "50320"
  },
  {
    "name": "Héauville",
    "code": "50238",
    "epci_code": "200067205",
    "departement_code": "50",
    "region_code": "28",
    "postal_code": "50340"
  },
  {
    "name": "Thèreval",
    "code": "50239",
    "epci_code": "200066389",
    "departement_code": "50",
    "region_code": "28",
    "postal_code": "50180"
  },
  {
    "name": "Thèreval",
    "code": "50239",
    "epci_code": "200066389",
    "departement_code": "50",
    "region_code": "28",
    "postal_code": "50570"
  },
  {
    "name": "Helleville",
    "code": "50240",
    "epci_code": "200067205",
    "departement_code": "50",
    "region_code": "28",
    "postal_code": "50340"
  },
  {
    "name": "Hémevez",
    "code": "50241",
    "epci_code": "200067205",
    "departement_code": "50",
    "region_code": "28",
    "postal_code": "50700"
  },
  {
    "name": "Heugueville-sur-Sienne",
    "code": "50243",
    "epci_code": "200067023",
    "departement_code": "50",
    "region_code": "28",
    "postal_code": "50200"
  },
  {
    "name": "Hiesville",
    "code": "50246",
    "epci_code": "200042729",
    "departement_code": "50",
    "region_code": "28",
    "postal_code": "50480"
  },
  {
    "name": "Hocquigny",
    "code": "50247",
    "epci_code": "200042604",
    "departement_code": "50",
    "region_code": "28",
    "postal_code": "50320"
  },
  {
    "name": "Huberville",
    "code": "50251",
    "epci_code": "200067205",
    "departement_code": "50",
    "region_code": "28",
    "postal_code": "50700"
  },
  {
    "name": "Hudimesnil",
    "code": "50252",
    "epci_code": "200042604",
    "departement_code": "50",
    "region_code": "28",
    "postal_code": "50510"
  },
  {
    "name": "Huisnes-sur-Mer",
    "code": "50253",
    "epci_code": "200069425",
    "departement_code": "50",
    "region_code": "28",
    "postal_code": "50170"
  },
  {
    "name": "Isigny-le-Buat",
    "code": "50256",
    "epci_code": "200069425",
    "departement_code": "50",
    "region_code": "28",
    "postal_code": "50540"
  },
  {
    "name": "Joganville",
    "code": "50258",
    "epci_code": "200067205",
    "departement_code": "50",
    "region_code": "28",
    "postal_code": "50310"
  },
  {
    "name": "Juilley",
    "code": "50259",
    "epci_code": "200069425",
    "departement_code": "50",
    "region_code": "28",
    "postal_code": "50220"
  },
  {
    "name": "Juvigny les Vallées",
    "code": "50260",
    "epci_code": "200069425",
    "departement_code": "50",
    "region_code": "28",
    "postal_code": "50520"
  },
  {
    "name": "Lamberville",
    "code": "50261",
    "epci_code": "200066389",
    "departement_code": "50",
    "region_code": "28",
    "postal_code": "50160"
  },
  {
    "name": "La Lande-d’Airou",
    "code": "50262",
    "epci_code": "200043354",
    "departement_code": "50",
    "region_code": "28",
    "postal_code": "50800"
  },
  {
    "name": "Lapenty",
    "code": "50263",
    "epci_code": "200069425",
    "departement_code": "50",
    "region_code": "28",
    "postal_code": "50600"
  },
  {
    "name": "Laulne",
    "code": "50265",
    "epci_code": "200067031",
    "departement_code": "50",
    "region_code": "28",
    "postal_code": "50430"
  },
  {
    "name": "Lengronne",
    "code": "50266",
    "epci_code": "200067023",
    "departement_code": "50",
    "region_code": "28",
    "postal_code": "50450"
  },
  {
    "name": "Lessay",
    "code": "50267",
    "epci_code": "200067031",
    "departement_code": "50",
    "region_code": "28",
    "postal_code": "50430"
  },
  {
    "name": "Lestre",
    "code": "50268",
    "epci_code": "200067205",
    "departement_code": "50",
    "region_code": "28",
    "postal_code": "50310"
  },
  {
    "name": "Liesville-sur-Douve",
    "code": "50269",
    "epci_code": "200042729",
    "departement_code": "50",
    "region_code": "28",
    "postal_code": "50480"
  },
  {
    "name": "Lieusaint",
    "code": "50270",
    "epci_code": "200067205",
    "departement_code": "50",
    "region_code": "28",
    "postal_code": "50700"
  },
  {
    "name": "Lingeard",
    "code": "50271",
    "epci_code": "200069425",
    "departement_code": "50",
    "region_code": "28",
    "postal_code": "50670"
  },
  {
    "name": "Tourneville-sur-Mer",
    "code": "50272",
    "epci_code": "200067023",
    "departement_code": "50",
    "region_code": "28",
    "postal_code": "50660"
  },
  {
    "name": "Montsenelle",
    "code": "50273",
    "epci_code": "200067031",
    "departement_code": "50",
    "region_code": "28",
    "postal_code": "50250"
  },
  {
    "name": "Les Loges-Marchis",
    "code": "50274",
    "epci_code": "200069425",
    "departement_code": "50",
    "region_code": "28",
    "postal_code": "50600"
  },
  {
    "name": "Les Loges-sur-Brécey",
    "code": "50275",
    "epci_code": "200069425",
    "departement_code": "50",
    "region_code": "28",
    "postal_code": "50370"
  },
  {
    "name": "Lolif",
    "code": "50276",
    "epci_code": "200069425",
    "departement_code": "50",
    "region_code": "28",
    "postal_code": "50530"
  },
  {
    "name": "Longueville",
    "code": "50277",
    "epci_code": "200042604",
    "departement_code": "50",
    "region_code": "28",
    "postal_code": "50290"
  },
  {
    "name": "Le Loreur",
    "code": "50278",
    "epci_code": "200042604",
    "departement_code": "50",
    "region_code": "28",
    "postal_code": "50510"
  },
  {
    "name": "Le Lorey",
    "code": "50279",
    "epci_code": "200066389",
    "departement_code": "50",
    "region_code": "28",
    "postal_code": "50570"
  },
  {
    "name": "La Lucerne-d’Outremer",
    "code": "50281",
    "epci_code": "200042604",
    "departement_code": "50",
    "region_code": "28",
    "postal_code": "50320"
  },
  {
    "name": "Le Luot",
    "code": "50282",
    "epci_code": "200069425",
    "departement_code": "50",
    "region_code": "28",
    "postal_code": "50870"
  },
  {
    "name": "La Luzerne",
    "code": "50283",
    "epci_code": "200066389",
    "departement_code": "50",
    "region_code": "28",
    "postal_code": "50680"
  },
  {
    "name": "Magneville",
    "code": "50285",
    "epci_code": "200067205",
    "departement_code": "50",
    "region_code": "28",
    "postal_code": "50260"
  },
  {
    "name": "Marcey-les-Grèves",
    "code": "50288",
    "epci_code": "200069425",
    "departement_code": "50",
    "region_code": "28",
    "postal_code": "50300"
  },
  {
    "name": "Marchésieux",
    "code": "50289",
    "epci_code": "200067031",
    "departement_code": "50",
    "region_code": "28",
    "postal_code": "50190"
  },
  {
    "name": "Marcilly",
    "code": "50290",
    "epci_code": "200069425",
    "departement_code": "50",
    "region_code": "28",
    "postal_code": "50220"
  },
  {
    "name": "Margueray",
    "code": "50291",
    "epci_code": "200043354",
    "departement_code": "50",
    "region_code": "28",
    "postal_code": "50410"
  },
  {
    "name": "Marigny-Le-Lozon",
    "code": "50292",
    "epci_code": "200066389",
    "departement_code": "50",
    "region_code": "28",
    "postal_code": "50570"
  },
  {
    "name": "Martinvast",
    "code": "50294",
    "epci_code": "200067205",
    "departement_code": "50",
    "region_code": "28",
    "postal_code": "50690"
  },
  {
    "name": "Maupertuis",
    "code": "50295",
    "epci_code": "200043354",
    "departement_code": "50",
    "region_code": "28",
    "postal_code": "50410"
  },
  {
    "name": "Maupertus-sur-Mer",
    "code": "50296",
    "epci_code": "200067205",
    "departement_code": "50",
    "region_code": "28",
    "postal_code": "50330"
  },
  {
    "name": "La Meauffe",
    "code": "50297",
    "epci_code": "200066389",
    "departement_code": "50",
    "region_code": "28",
    "postal_code": "50880"
  },
  {
    "name": "Méautis",
    "code": "50298",
    "epci_code": "200042729",
    "departement_code": "50",
    "region_code": "28",
    "postal_code": "50500"
  },
  {
    "name": "Le Mesnil",
    "code": "50299",
    "epci_code": "200067205",
    "departement_code": "50",
    "region_code": "28",
    "postal_code": "50580"
  },
  {
    "name": "Le Mesnil-Adelée",
    "code": "50300",
    "epci_code": "200069425",
    "departement_code": "50",
    "region_code": "28",
    "postal_code": "50520"
  },
  {
    "name": "Le Mesnil-Amey",
    "code": "50302",
    "epci_code": "200066389",
    "departement_code": "50",
    "region_code": "28",
    "postal_code": "50570"
  },
  {
    "name": "Le Mesnil-Aubert",
    "code": "50304",
    "epci_code": "200042604",
    "departement_code": "50",
    "region_code": "28",
    "postal_code": "50510"
  },
  {
    "name": "Le Mesnil-au-Val",
    "code": "50305",
    "epci_code": "200067205",
    "departement_code": "50",
    "region_code": "28",
    "postal_code": "50110"
  },
  {
    "name": "Le Mesnil-Eury",
    "code": "50310",
    "epci_code": "200066389",
    "departement_code": "50",
    "region_code": "28",
    "postal_code": "50570"
  },
  {
    "name": "Le Mesnil-Garnier",
    "code": "50311",
    "epci_code": "200067023",
    "departement_code": "50",
    "region_code": "28",
    "postal_code": "50450"
  },
  {
    "name": "Le Mesnil-Gilbert",
    "code": "50312",
    "epci_code": "200069425",
    "departement_code": "50",
    "region_code": "28",
    "postal_code": "50670"
  },
  {
    "name": "Le Mesnillard",
    "code": "50315",
    "epci_code": "200069425",
    "departement_code": "50",
    "region_code": "28",
    "postal_code": "50600"
  },
  {
    "name": "Le Mesnil-Ozenne",
    "code": "50317",
    "epci_code": "200069425",
    "departement_code": "50",
    "region_code": "28",
    "postal_code": "50220"
  },
  {
    "name": "Le Mesnil-Rouxelin",
    "code": "50321",
    "epci_code": "200066389",
    "departement_code": "50",
    "region_code": "28",
    "postal_code": "50000"
  },
  {
    "name": "Le Mesnil-Véneron",
    "code": "50324",
    "epci_code": "200066389",
    "departement_code": "50",
    "region_code": "28",
    "postal_code": "50620"
  },
  {
    "name": "Le Mesnil-Villeman",
    "code": "50326",
    "epci_code": "200067023",
    "departement_code": "50",
    "region_code": "28",
    "postal_code": "50450"
  },
  {
    "name": "La Meurdraquière",
    "code": "50327",
    "epci_code": "200042604",
    "departement_code": "50",
    "region_code": "28",
    "postal_code": "50510"
  },
  {
    "name": "Millières",
    "code": "50328",
    "epci_code": "200067031",
    "departement_code": "50",
    "region_code": "28",
    "postal_code": "50190"
  },
  {
    "name": "Les Moitiers-d’Allonne",
    "code": "50332",
    "epci_code": "200067205",
    "departement_code": "50",
    "region_code": "28",
    "postal_code": "50270"
  },
  {
    "name": "Montabot",
    "code": "50334",
    "epci_code": "200043354",
    "departement_code": "50",
    "region_code": "28",
    "postal_code": "50410"
  },
  {
    "name": "Montaigu-la-Brisette",
    "code": "50335",
    "epci_code": "200067205",
    "departement_code": "50",
    "region_code": "28",
    "postal_code": "50700"
  },
  {
    "name": "Montaigu-les-Bois",
    "code": "50336",
    "epci_code": "200067023",
    "departement_code": "50",
    "region_code": "28",
    "postal_code": "50450"
  },
  {
    "name": "Montbray",
    "code": "50338",
    "epci_code": "200043354",
    "departement_code": "50",
    "region_code": "28",
    "postal_code": "50410"
  },
  {
    "name": "Montcuit",
    "code": "50340",
    "epci_code": "200067023",
    "departement_code": "50",
    "region_code": "28",
    "postal_code": "50490"
  },
  {
    "name": "Montebourg",
    "code": "50341",
    "epci_code": "200067205",
    "departement_code": "50",
    "region_code": "28",
    "postal_code": "50310"
  },
  {
    "name": "Montfarville",
    "code": "50342",
    "epci_code": "200067205",
    "departement_code": "50",
    "region_code": "28",
    "postal_code": "50760"
  },
  {
    "name": "Monthuchon",
    "code": "50345",
    "epci_code": "200067023",
    "departement_code": "50",
    "region_code": "28",
    "postal_code": "50200"
  },
  {
    "name": "Montjoie-Saint-Martin",
    "code": "50347",
    "epci_code": "200069425",
    "departement_code": "50",
    "region_code": "28",
    "postal_code": "50240"
  },
  {
    "name": "Montmartin-sur-Mer",
    "code": "50349",
    "epci_code": "200067023",
    "departement_code": "50",
    "region_code": "28",
    "postal_code": "50590"
  },
  {
    "name": "Montpinchon",
    "code": "50350",
    "epci_code": "200067023",
    "departement_code": "50",
    "region_code": "28",
    "postal_code": "50210"
  },
  {
    "name": "Montrabot",
    "code": "50351",
    "epci_code": "200066389",
    "departement_code": "50",
    "region_code": "28",
    "postal_code": "50810"
  },
  {
    "name": "Montreuil-sur-Lozon",
    "code": "50352",
    "epci_code": "200066389",
    "departement_code": "50",
    "region_code": "28",
    "postal_code": "50570"
  },
  {
    "name": "Le Mont-Saint-Michel",
    "code": "50353",
    "epci_code": "200069425",
    "departement_code": "50",
    "region_code": "28",
    "postal_code": "50170"
  },
  {
    "name": "Moon-sur-Elle",
    "code": "50356",
    "epci_code": "200066389",
    "departement_code": "50",
    "region_code": "28",
    "postal_code": "50680"
  },
  {
    "name": "Morigny",
    "code": "50357",
    "epci_code": "200043354",
    "departement_code": "50",
    "region_code": "28",
    "postal_code": "50410"
  },
  {
    "name": "Mortain-Bocage",
    "code": "50359",
    "epci_code": "200069425",
    "departement_code": "50",
    "region_code": "28",
    "postal_code": "50140"
  },
  {
    "name": "Morville",
    "code": "50360",
    "epci_code": "200067205",
    "departement_code": "50",
    "region_code": "28",
    "postal_code": "50700"
  },
  {
    "name": "La Mouche",
    "code": "50361",
    "epci_code": "200042604",
    "departement_code": "50",
    "region_code": "28",
    "postal_code": "50320"
  },
  {
    "name": "Moulines",
    "code": "50362",
    "epci_code": "200069425",
    "departement_code": "50",
    "region_code": "28",
    "postal_code": "50600"
  },
  {
    "name": "Moyon Villages",
    "code": "50363",
    "epci_code": "200066389",
    "departement_code": "50",
    "region_code": "28",
    "postal_code": "50420"
  },
  {
    "name": "Moyon Villages",
    "code": "50363",
    "epci_code": "200066389",
    "departement_code": "50",
    "region_code": "28",
    "postal_code": "50860"
  },
  {
    "name": "Muneville-le-Bingard",
    "code": "50364",
    "epci_code": "200067023",
    "departement_code": "50",
    "region_code": "28",
    "postal_code": "50490"
  },
  {
    "name": "Muneville-sur-Mer",
    "code": "50365",
    "epci_code": "200042604",
    "departement_code": "50",
    "region_code": "28",
    "postal_code": "50290"
  },
  {
    "name": "Nay",
    "code": "50368",
    "epci_code": "200067031",
    "departement_code": "50",
    "region_code": "28",
    "postal_code": "50190"
  },
  {
    "name": "Négreville",
    "code": "50369",
    "epci_code": "200067205",
    "departement_code": "50",
    "region_code": "28",
    "postal_code": "50260"
  },
  {
    "name": "Néhou",
    "code": "50370",
    "epci_code": "200067205",
    "departement_code": "50",
    "region_code": "28",
    "postal_code": "50390"
  },
  {
    "name": "Le Neufbourg",
    "code": "50371",
    "epci_code": "200069425",
    "departement_code": "50",
    "region_code": "28",
    "postal_code": "50140"
  },
  {
    "name": "Neufmesnil",
    "code": "50372",
    "epci_code": "200067031",
    "departement_code": "50",
    "region_code": "28",
    "postal_code": "50250"
  },
  {
    "name": "Neuville-au-Plain",
    "code": "50373",
    "epci_code": "200042729",
    "departement_code": "50",
    "region_code": "28",
    "postal_code": "50480"
  },
  {
    "name": "Neuville-en-Beaumont",
    "code": "50374",
    "epci_code": "200067205",
    "departement_code": "50",
    "region_code": "28",
    "postal_code": "50250"
  },
  {
    "name": "Nicorps",
    "code": "50376",
    "epci_code": "200067023",
    "departement_code": "50",
    "region_code": "28",
    "postal_code": "50200"
  },
  {
    "name": "Notre-Dame-de-Cenilly",
    "code": "50378",
    "epci_code": "200067023",
    "departement_code": "50",
    "region_code": "28",
    "postal_code": "50210"
  },
  {
    "name": "Notre-Dame-de-Livoye",
    "code": "50379",
    "epci_code": "200069425",
    "departement_code": "50",
    "region_code": "28",
    "postal_code": "50370"
  },
  {
    "name": "Nouainville",
    "code": "50382",
    "epci_code": "200067205",
    "departement_code": "50",
    "region_code": "28",
    "postal_code": "50690"
  },
  {
    "name": "Octeville-l’Avenel",
    "code": "50384",
    "epci_code": "200067205",
    "departement_code": "50",
    "region_code": "28",
    "postal_code": "50630"
  },
  {
    "name": "Orglandes",
    "code": "50387",
    "epci_code": "200067205",
    "departement_code": "50",
    "region_code": "28",
    "postal_code": "50390"
  },
  {
    "name": "Orval sur Sienne",
    "code": "50388",
    "epci_code": "200067023",
    "departement_code": "50",
    "region_code": "28",
    "postal_code": "50660"
  },
  {
    "name": "Ouville",
    "code": "50389",
    "epci_code": "200067023",
    "departement_code": "50",
    "region_code": "28",
    "postal_code": "50210"
  },
  {
    "name": "Ozeville",
    "code": "50390",
    "epci_code": "200067205",
    "departement_code": "50",
    "region_code": "28",
    "postal_code": "50310"
  },
  {
    "name": "Grandparigny",
    "code": "50391",
    "epci_code": "200069425",
    "departement_code": "50",
    "region_code": "28",
    "postal_code": "50600"
  },
  {
    "name": "Percy-en-Normandie",
    "code": "50393",
    "epci_code": "200043354",
    "departement_code": "50",
    "region_code": "28",
    "postal_code": "50410"
  },
  {
    "name": "Périers",
    "code": "50394",
    "epci_code": "200067031",
    "departement_code": "50",
    "region_code": "28",
    "postal_code": "50190"
  },
  {
    "name": "La Pernelle",
    "code": "50395",
    "epci_code": "200067205",
    "departement_code": "50",
    "region_code": "28",
    "postal_code": "50630"
  },
  {
    "name": "Perriers-en-Beauficel",
    "code": "50397",
    "epci_code": "200069425",
    "departement_code": "50",
    "region_code": "28",
    "postal_code": "50150"
  },
  {
    "name": "Le Perron",
    "code": "50398",
    "epci_code": "200066389",
    "departement_code": "50",
    "region_code": "28",
    "postal_code": "50160"
  },
  {
    "name": "Le Petit-Celland",
    "code": "50399",
    "epci_code": "200069425",
    "departement_code": "50",
    "region_code": "28",
    "postal_code": "50370"
  },
  {
    "name": "Picauville",
    "code": "50400",
    "epci_code": "200042729",
    "departement_code": "50",
    "region_code": "28",
    "postal_code": "50250"
  },
  {
    "name": "Picauville",
    "code": "50400",
    "epci_code": "200042729",
    "departement_code": "50",
    "region_code": "28",
    "postal_code": "50360"
  },
  {
    "name": "Picauville",
    "code": "50400",
    "epci_code": "200042729",
    "departement_code": "50",
    "region_code": "28",
    "postal_code": "50480"
  },
  {
    "name": "Pierreville",
    "code": "50401",
    "epci_code": "200067205",
    "departement_code": "50",
    "region_code": "28",
    "postal_code": "50340"
  },
  {
    "name": "Les Pieux",
    "code": "50402",
    "epci_code": "200067205",
    "departement_code": "50",
    "region_code": "28",
    "postal_code": "50340"
  },
  {
    "name": "Pirou",
    "code": "50403",
    "epci_code": "200067031",
    "departement_code": "50",
    "region_code": "28",
    "postal_code": "50770"
  },
  {
    "name": "Le Plessis-Lastelle",
    "code": "50405",
    "epci_code": "200067031",
    "departement_code": "50",
    "region_code": "28",
    "postal_code": "50250"
  },
  {
    "name": "Poilley",
    "code": "50407",
    "epci_code": "200069425",
    "departement_code": "50",
    "region_code": "28",
    "postal_code": "50220"
  },
  {
    "name": "Pontaubault",
    "code": "50408",
    "epci_code": "200069425",
    "departement_code": "50",
    "region_code": "28",
    "postal_code": "50220"
  },
  {
    "name": "Pont-Hébert",
    "code": "50409",
    "epci_code": "200066389",
    "departement_code": "50",
    "region_code": "28",
    "postal_code": "50620"
  },
  {
    "name": "Pont-Hébert",
    "code": "50409",
    "epci_code": "200066389",
    "departement_code": "50",
    "region_code": "28",
    "postal_code": "50880"
  },
  {
    "name": "Pontorson",
    "code": "50410",
    "epci_code": "200069425",
    "departement_code": "50",
    "region_code": "28",
    "postal_code": "50170"
  },
  {
    "name": "Ponts",
    "code": "50411",
    "epci_code": "200069425",
    "departement_code": "50",
    "region_code": "28",
    "postal_code": "50300"
  },
  {
    "name": "Port-Bail-sur-Mer",
    "code": "50412",
    "epci_code": "200067205",
    "departement_code": "50",
    "region_code": "28",
    "postal_code": "50580"
  },
  {
    "name": "Précey",
    "code": "50413",
    "epci_code": "200069425",
    "departement_code": "50",
    "region_code": "28",
    "postal_code": "50220"
  },
  {
    "name": "Quettehou",
    "code": "50417",
    "epci_code": "200067205",
    "departement_code": "50",
    "region_code": "28",
    "postal_code": "50630"
  },
  {
    "name": "Quettreville-sur-Sienne",
    "code": "50419",
    "epci_code": "200067023",
    "departement_code": "50",
    "region_code": "28",
    "postal_code": "50210"
  },
  {
    "name": "Quettreville-sur-Sienne",
    "code": "50419",
    "epci_code": "200067023",
    "departement_code": "50",
    "region_code": "28",
    "postal_code": "50660"
  },
  {
    "name": "Quibou",
    "code": "50420",
    "epci_code": "200066389",
    "departement_code": "50",
    "region_code": "28",
    "postal_code": "50750"
  },
  {
    "name": "Quinéville",
    "code": "50421",
    "epci_code": "200067205",
    "departement_code": "50",
    "region_code": "28",
    "postal_code": "50310"
  },
  {
    "name": "Raids",
    "code": "50422",
    "epci_code": "200067031",
    "departement_code": "50",
    "region_code": "28",
    "postal_code": "50500"
  },
  {
    "name": "Rampan",
    "code": "50423",
    "epci_code": "200066389",
    "departement_code": "50",
    "region_code": "28",
    "postal_code": "50000"
  },
  {
    "name": "Rauville-la-Bigot",
    "code": "50425",
    "epci_code": "200067205",
    "departement_code": "50",
    "region_code": "28",
    "postal_code": "50260"
  },
  {
    "name": "Rauville-la-Place",
    "code": "50426",
    "epci_code": "200067205",
    "departement_code": "50",
    "region_code": "28",
    "postal_code": "50390"
  },
  {
    "name": "Reffuveille",
    "code": "50428",
    "epci_code": "200069425",
    "departement_code": "50",
    "region_code": "28",
    "postal_code": "50520"
  },
  {
    "name": "Regnéville-sur-Mer",
    "code": "50429",
    "epci_code": "200067023",
    "departement_code": "50",
    "region_code": "28",
    "postal_code": "50590"
  },
  {
    "name": "Reigneville-Bocage",
    "code": "50430",
    "epci_code": "200067205",
    "departement_code": "50",
    "region_code": "28",
    "postal_code": "50390"
  },
  {
    "name": "Remilly Les Marais",
    "code": "50431",
    "epci_code": "200066389",
    "departement_code": "50",
    "region_code": "28",
    "postal_code": "50570"
  },
  {
    "name": "Remilly Les Marais",
    "code": "50431",
    "epci_code": "200066389",
    "departement_code": "50",
    "region_code": "28",
    "postal_code": "50620"
  },
  {
    "name": "Réville",
    "code": "50433",
    "epci_code": "200067205",
    "departement_code": "50",
    "region_code": "28",
    "postal_code": "50760"
  },
  {
    "name": "Rocheville",
    "code": "50435",
    "epci_code": "200067205",
    "departement_code": "50",
    "region_code": "28",
    "postal_code": "50260"
  },
  {
    "name": "Romagny Fontenay",
    "code": "50436",
    "epci_code": "200069425",
    "departement_code": "50",
    "region_code": "28",
    "postal_code": "50140"
  },
  {
    "name": "Roncey",
    "code": "50437",
    "epci_code": "200067023",
    "departement_code": "50",
    "region_code": "28",
    "postal_code": "50210"
  },
  {
    "name": "Le Rozel",
    "code": "50442",
    "epci_code": "200067205",
    "departement_code": "50",
    "region_code": "28",
    "postal_code": "50340"
  },
  {
    "name": "Sacey",
    "code": "50443",
    "epci_code": "200069425",
    "departement_code": "50",
    "region_code": "28",
    "postal_code": "50170"
  },
  {
    "name": "Saint-Amand-Villages",
    "code": "50444",
    "epci_code": "200066389",
    "departement_code": "50",
    "region_code": "28",
    "postal_code": "50160"
  },
  {
    "name": "Saint-André-de-Bohon",
    "code": "50445",
    "epci_code": "200042729",
    "departement_code": "50",
    "region_code": "28",
    "postal_code": "50500"
  },
  {
    "name": "Saint-André-de-l’Épine",
    "code": "50446",
    "epci_code": "200066389",
    "departement_code": "50",
    "region_code": "28",
    "postal_code": "50680"
  },
  {
    "name": "Saint-Aubin-des-Préaux",
    "code": "50447",
    "epci_code": "200042604",
    "departement_code": "50",
    "region_code": "28",
    "postal_code": "50380"
  },
  {
    "name": "Saint-Aubin-de-Terregatte",
    "code": "50448",
    "epci_code": "200069425",
    "departement_code": "50",
    "region_code": "28",
    "postal_code": "50240"
  },
  {
    "name": "Saint-Barthélemy",
    "code": "50450",
    "epci_code": "200069425",
    "departement_code": "50",
    "region_code": "28",
    "postal_code": "50140"
  },
  {
    "name": "Saint-Brice",
    "code": "50451",
    "epci_code": "200069425",
    "departement_code": "50",
    "region_code": "28",
    "postal_code": "50300"
  },
  {
    "name": "Saint-Brice-de-Landelles",
    "code": "50452",
    "epci_code": "200069425",
    "departement_code": "50",
    "region_code": "28",
    "postal_code": "50730"
  },
  {
    "name": "Sainte-Cécile",
    "code": "50453",
    "epci_code": "200043354",
    "departement_code": "50",
    "region_code": "28",
    "postal_code": "50800"
  },
  {
    "name": "Saint-Christophe-du-Foc",
    "code": "50454",
    "epci_code": "200067205",
    "departement_code": "50",
    "region_code": "28",
    "postal_code": "50340"
  },
  {
    "name": "Saint-Clair-sur-l’Elle",
    "code": "50455",
    "epci_code": "200066389",
    "departement_code": "50",
    "region_code": "28",
    "postal_code": "50680"
  },
  {
    "name": "Saint-Clément-Rancoudray",
    "code": "50456",
    "epci_code": "200069425",
    "departement_code": "50",
    "region_code": "28",
    "postal_code": "50140"
  },
  {
    "name": "Sainte-Colombe",
    "code": "50457",
    "epci_code": "200067205",
    "departement_code": "50",
    "region_code": "28",
    "postal_code": "50390"
  },
  {
    "name": "Saint-Cyr",
    "code": "50461",
    "epci_code": "200067205",
    "departement_code": "50",
    "region_code": "28",
    "postal_code": "50310"
  },
  {
    "name": "Saint-Cyr-du-Bailleul",
    "code": "50462",
    "epci_code": "200069425",
    "departement_code": "50",
    "region_code": "28",
    "postal_code": "50720"
  },
  {
    "name": "Saint-Denis-le-Gast",
    "code": "50463",
    "epci_code": "200067023",
    "departement_code": "50",
    "region_code": "28",
    "postal_code": "50450"
  },
  {
    "name": "Saint-Denis-le-Vêtu",
    "code": "50464",
    "epci_code": "200067023",
    "departement_code": "50",
    "region_code": "28",
    "postal_code": "50210"
  },
  {
    "name": "Saint-Floxel",
    "code": "50467",
    "epci_code": "200067205",
    "departement_code": "50",
    "region_code": "28",
    "postal_code": "50310"
  },
  {
    "name": "Saint-Fromond",
    "code": "50468",
    "epci_code": "200066389",
    "departement_code": "50",
    "region_code": "28",
    "postal_code": "50620"
  },
  {
    "name": "Sainte-Geneviève",
    "code": "50469",
    "epci_code": "200067205",
    "departement_code": "50",
    "region_code": "28",
    "postal_code": "50760"
  },
  {
    "name": "Saint-Georges-de-la-Rivière",
    "code": "50471",
    "epci_code": "200067205",
    "departement_code": "50",
    "region_code": "28",
    "postal_code": "50270"
  },
  {
    "name": "Saint-Georges-de-Livoye",
    "code": "50472",
    "epci_code": "200069425",
    "departement_code": "50",
    "region_code": "28",
    "postal_code": "50370"
  },
  {
    "name": "Saint-Georges-d’Elle",
    "code": "50473",
    "epci_code": "200066389",
    "departement_code": "50",
    "region_code": "28",
    "postal_code": "50680"
  },
  {
    "name": "Saint-Georges-de-Rouelley",
    "code": "50474",
    "epci_code": "200069425",
    "departement_code": "50",
    "region_code": "28",
    "postal_code": "50720"
  },
  {
    "name": "Saint-Georges-Montcocq",
    "code": "50475",
    "epci_code": "200066389",
    "departement_code": "50",
    "region_code": "28",
    "postal_code": "50000"
  },
  {
    "name": "Saint-Germain-d’Elle",
    "code": "50476",
    "epci_code": "200066389",
    "departement_code": "50",
    "region_code": "28",
    "postal_code": "50810"
  },
  {
    "name": "Saint-Germain-de-Tournebut",
    "code": "50478",
    "epci_code": "200067205",
    "departement_code": "50",
    "region_code": "28",
    "postal_code": "50700"
  },
  {
    "name": "Saint-Germain-de-Varreville",
    "code": "50479",
    "epci_code": "200042729",
    "departement_code": "50",
    "region_code": "28",
    "postal_code": "50480"
  },
  {
    "name": "Saint-Germain-le-Gaillard",
    "code": "50480",
    "epci_code": "200067205",
    "departement_code": "50",
    "region_code": "28",
    "postal_code": "50340"
  },
  {
    "name": "Saint-Germain-sur-Ay",
    "code": "50481",
    "epci_code": "200067031",
    "departement_code": "50",
    "region_code": "28",
    "postal_code": "50430"
  },
  {
    "name": "Saint-Germain-sur-Sèves",
    "code": "50482",
    "epci_code": "200067031",
    "departement_code": "50",
    "region_code": "28",
    "postal_code": "50190"
  },
  {
    "name": "Saint-Gilles",
    "code": "50483",
    "epci_code": "200066389",
    "departement_code": "50",
    "region_code": "28",
    "postal_code": "50180"
  },
  {
    "name": "Saint-Hilaire-du-Harcouët",
    "code": "50484",
    "epci_code": "200069425",
    "departement_code": "50",
    "region_code": "28",
    "postal_code": "50600"
  },
  {
    "name": "Saint-Hilaire-du-Harcouët",
    "code": "50484",
    "epci_code": "200069425",
    "departement_code": "50",
    "region_code": "28",
    "postal_code": "50730"
  },
  {
    "name": "Saint-Jacques-de-Néhou",
    "code": "50486",
    "epci_code": "200067205",
    "departement_code": "50",
    "region_code": "28",
    "postal_code": "50390"
  },
  {
    "name": "Saint-James",
    "code": "50487",
    "epci_code": "200069425",
    "departement_code": "50",
    "region_code": "28",
    "postal_code": "50240"
  },
  {
    "name": "Saint-Jean-de-Daye",
    "code": "50488",
    "epci_code": "200066389",
    "departement_code": "50",
    "region_code": "28",
    "postal_code": "50620"
  },
  {
    "name": "Saint-Jean-de-la-Haize",
    "code": "50489",
    "epci_code": "200069425",
    "departement_code": "50",
    "region_code": "28",
    "postal_code": "50300"
  },
  {
    "name": "Saint-Jean-de-la-Rivière",
    "code": "50490",
    "epci_code": "200067205",
    "departement_code": "50",
    "region_code": "28",
    "postal_code": "50270"
  },
  {
    "name": "Saint-Jean-de-Savigny",
    "code": "50491",
    "epci_code": "200066389",
    "departement_code": "50",
    "region_code": "28",
    "postal_code": "50680"
  },
  {
    "name": "Saint-Jean-d’Elle",
    "code": "50492",
    "epci_code": "200066389",
    "departement_code": "50",
    "region_code": "28",
    "postal_code": "50810"
  },
  {
    "name": "Saint-Jean-des-Champs",
    "code": "50493",
    "epci_code": "200042604",
    "departement_code": "50",
    "region_code": "28",
    "postal_code": "50320"
  },
  {
    "name": "Saint-Jean-du-Corail-des-Bois",
    "code": "50495",
    "epci_code": "200069425",
    "departement_code": "50",
    "region_code": "28",
    "postal_code": "50370"
  },
  {
    "name": "Saint-Jean-le-Thomas",
    "code": "50496",
    "epci_code": "200069425",
    "departement_code": "50",
    "region_code": "28",
    "postal_code": "50530"
  },
  {
    "name": "Saint-Joseph",
    "code": "50498",
    "epci_code": "200067205",
    "departement_code": "50",
    "region_code": "28",
    "postal_code": "50700"
  },
  {
    "name": "Saint-Laurent-de-Cuves",
    "code": "50499",
    "epci_code": "200069425",
    "departement_code": "50",
    "region_code": "28",
    "postal_code": "50670"
  },
  {
    "name": "Saint-Laurent-de-Terregatte",
    "code": "50500",
    "epci_code": "200069425",
    "departement_code": "50",
    "region_code": "28",
    "postal_code": "50240"
  },
  {
    "name": "Saint-Lô",
    "code": "50502",
    "epci_code": "200066389",
    "departement_code": "50",
    "region_code": "28",
    "postal_code": "50000"
  },
  {
    "name": "Saint-Louet-sur-Vire",
    "code": "50504",
    "epci_code": "200066389",
    "departement_code": "50",
    "region_code": "28",
    "postal_code": "50420"
  },
  {
    "name": "Saint-Loup",
    "code": "50505",
    "epci_code": "200069425",
    "departement_code": "50",
    "region_code": "28",
    "postal_code": "50300"
  },
  {
    "name": "Saint-Malo-de-la-Lande",
    "code": "50506",
    "epci_code": "200067023",
    "departement_code": "50",
    "region_code": "28",
    "postal_code": "50200"
  },
  {
    "name": "Saint-Marcouf",
    "code": "50507",
    "epci_code": "200067205",
    "departement_code": "50",
    "region_code": "28",
    "postal_code": "50310"
  },
  {
    "name": "Sainte-Marie-du-Mont",
    "code": "50509",
    "epci_code": "200042729",
    "departement_code": "50",
    "region_code": "28",
    "postal_code": "50480"
  },
  {
    "name": "Saint-Martin-d’Aubigny",
    "code": "50510",
    "epci_code": "200067031",
    "departement_code": "50",
    "region_code": "28",
    "postal_code": "50190"
  },
  {
    "name": "Saint-Martin-d’Audouville",
    "code": "50511",
    "epci_code": "200067205",
    "departement_code": "50",
    "region_code": "28",
    "postal_code": "50310"
  },
  {
    "name": "Saint-Martin-de-Bonfossé",
    "code": "50512",
    "epci_code": "200066389",
    "departement_code": "50",
    "region_code": "28",
    "postal_code": "50750"
  },
  {
    "name": "Saint-Martin-de-Cenilly",
    "code": "50513",
    "epci_code": "200067023",
    "departement_code": "50",
    "region_code": "28",
    "postal_code": "50210"
  },
  {
    "name": "Chaulieu",
    "code": "50514",
    "epci_code": "200069425",
    "departement_code": "50",
    "region_code": "28",
    "postal_code": "50150"
  },
  {
    "name": "Saint-Martin-de-Varreville",
    "code": "50517",
    "epci_code": "200042729",
    "departement_code": "50",
    "region_code": "28",
    "postal_code": "50480"
  },
  {
    "name": "Saint-Martin-le-Bouillant",
    "code": "50518",
    "epci_code": "200043354",
    "departement_code": "50",
    "region_code": "28",
    "postal_code": "50800"
  },
  {
    "name": "Saint-Martin-le-Gréard",
    "code": "50519",
    "epci_code": "200067205",
    "departement_code": "50",
    "region_code": "28",
    "postal_code": "50690"
  },
  {
    "name": "Saint-Maur-des-Bois",
    "code": "50521",
    "epci_code": "200043354",
    "departement_code": "50",
    "region_code": "28",
    "postal_code": "50800"
  },
  {
    "name": "Saint-Maurice-en-Cotentin",
    "code": "50522",
    "epci_code": "200067205",
    "departement_code": "50",
    "region_code": "28",
    "postal_code": "50270"
  },
  {
    "name": "Sainte-Mère-Église",
    "code": "50523",
    "epci_code": "200042729",
    "departement_code": "50",
    "region_code": "28",
    "postal_code": "50480"
  },
  {
    "name": "Saint-Michel-de-Montjoie",
    "code": "50525",
    "epci_code": "200069425",
    "departement_code": "50",
    "region_code": "28",
    "postal_code": "50670"
  },
  {
    "name": "Saint-Nicolas-de-Pierrepont",
    "code": "50528",
    "epci_code": "200067031",
    "departement_code": "50",
    "region_code": "28",
    "postal_code": "50250"
  },
  {
    "name": "Saint-Nicolas-des-Bois",
    "code": "50529",
    "epci_code": "200069425",
    "departement_code": "50",
    "region_code": "28",
    "postal_code": "50370"
  },
  {
    "name": "Saint-Ovin",
    "code": "50531",
    "epci_code": "200069425",
    "departement_code": "50",
    "region_code": "28",
    "postal_code": "50300"
  },
  {
    "name": "Saint-Pair-sur-Mer",
    "code": "50532",
    "epci_code": "200042604",
    "departement_code": "50",
    "region_code": "28",
    "postal_code": "50380"
  },
  {
    "name": "Saint-Patrice-de-Claids",
    "code": "50533",
    "epci_code": "200067031",
    "departement_code": "50",
    "region_code": "28",
    "postal_code": "50190"
  },
  {
    "name": "Le Parc",
    "code": "50535",
    "epci_code": "200069425",
    "departement_code": "50",
    "region_code": "28",
    "postal_code": "50870"
  },
  {
    "name": "Saint-Pierre-d’Arthéglise",
    "code": "50536",
    "epci_code": "200067205",
    "departement_code": "50",
    "region_code": "28",
    "postal_code": "50270"
  },
  {
    "name": "Saint-Pierre-de-Coutances",
    "code": "50537",
    "epci_code": "200067023",
    "departement_code": "50",
    "region_code": "28",
    "postal_code": "50200"
  },
  {
    "name": "Saint-Pierre-de-Semilly",
    "code": "50538",
    "epci_code": "200066389",
    "departement_code": "50",
    "region_code": "28",
    "postal_code": "50810"
  },
  {
    "name": "Saint-Pierre-Église",
    "code": "50539",
    "epci_code": "200067205",
    "departement_code": "50",
    "region_code": "28",
    "postal_code": "50330"
  },
  {
    "name": "Saint-Pierre-Langers",
    "code": "50540",
    "epci_code": "200042604",
    "departement_code": "50",
    "region_code": "28",
    "postal_code": "50530"
  },
  {
    "name": "Saint-Planchers",
    "code": "50541",
    "epci_code": "200042604",
    "departement_code": "50",
    "region_code": "28",
    "postal_code": "50400"
  },
  {
    "name": "Saint-Pois",
    "code": "50542",
    "epci_code": "200043354",
    "departement_code": "50",
    "region_code": "28",
    "postal_code": "50670"
  },
  {
    "name": "Saint-Quentin-sur-le-Homme",
    "code": "50543",
    "epci_code": "200069425",
    "departement_code": "50",
    "region_code": "28",
    "postal_code": "50220"
  },
  {
    "name": "Bourgvallées",
    "code": "50546",
    "epci_code": "200066389",
    "departement_code": "50",
    "region_code": "28",
    "postal_code": "50750"
  },
  {
    "name": "Saint-Sauveur-de-Pierrepont",
    "code": "50548",
    "epci_code": "200067031",
    "departement_code": "50",
    "region_code": "28",
    "postal_code": "50250"
  },
  {
    "name": "Saint-Sauveur-la-Pommeraye",
    "code": "50549",
    "epci_code": "200042604",
    "departement_code": "50",
    "region_code": "28",
    "postal_code": "50510"
  },
  {
    "name": "Saint-Sauveur-Villages",
    "code": "50550",
    "epci_code": "200067023",
    "departement_code": "50",
    "region_code": "28",
    "postal_code": "50200"
  },
  {
    "name": "Saint-Sauveur-Villages",
    "code": "50550",
    "epci_code": "200067023",
    "departement_code": "50",
    "region_code": "28",
    "postal_code": "50490"
  },
  {
    "name": "Saint-Sauveur-le-Vicomte",
    "code": "50551",
    "epci_code": "200067205",
    "departement_code": "50",
    "region_code": "28",
    "postal_code": "50390"
  },
  {
    "name": "Saint-Sébastien-de-Raids",
    "code": "50552",
    "epci_code": "200067031",
    "departement_code": "50",
    "region_code": "28",
    "postal_code": "50190"
  },
  {
    "name": "Saint-Senier-de-Beuvron",
    "code": "50553",
    "epci_code": "200069425",
    "departement_code": "50",
    "region_code": "28",
    "postal_code": "50240"
  },
  {
    "name": "Saint-Senier-sous-Avranches",
    "code": "50554",
    "epci_code": "200069425",
    "departement_code": "50",
    "region_code": "28",
    "postal_code": "50300"
  },
  {
    "name": "Sainte-Suzanne-sur-Vire",
    "code": "50556",
    "epci_code": "200066389",
    "departement_code": "50",
    "region_code": "28",
    "postal_code": "50750"
  },
  {
    "name": "Saint-Vaast-la-Hougue",
    "code": "50562",
    "epci_code": "200067205",
    "departement_code": "50",
    "region_code": "28",
    "postal_code": "50550"
  },
  {
    "name": "Saint-Vigor-des-Monts",
    "code": "50563",
    "epci_code": "200066389",
    "departement_code": "50",
    "region_code": "28",
    "postal_code": "50420"
  },
  {
    "name": "Terre-et-Marais",
    "code": "50564",
    "epci_code": "200042729",
    "departement_code": "50",
    "region_code": "28",
    "postal_code": "50500"
  },
  {
    "name": "Sartilly-Baie-Bocage",
    "code": "50565",
    "epci_code": "200069425",
    "departement_code": "50",
    "region_code": "28",
    "postal_code": "50530"
  },
  {
    "name": "Saussemesnil",
    "code": "50567",
    "epci_code": "200067205",
    "departement_code": "50",
    "region_code": "28",
    "postal_code": "50700"
  },
  {
    "name": "Saussey",
    "code": "50568",
    "epci_code": "200067023",
    "departement_code": "50",
    "region_code": "28",
    "postal_code": "50200"
  },
  {
    "name": "Savigny",
    "code": "50569",
    "epci_code": "200067023",
    "departement_code": "50",
    "region_code": "28",
    "postal_code": "50210"
  },
  {
    "name": "Savigny-le-Vieux",
    "code": "50570",
    "epci_code": "200069425",
    "departement_code": "50",
    "region_code": "28",
    "postal_code": "50640"
  },
  {
    "name": "Sébeville",
    "code": "50571",
    "epci_code": "200042729",
    "departement_code": "50",
    "region_code": "28",
    "postal_code": "50480"
  },
  {
    "name": "Sénoville",
    "code": "50572",
    "epci_code": "200067205",
    "departement_code": "50",
    "region_code": "28",
    "postal_code": "50270"
  },
  {
    "name": "Servon",
    "code": "50574",
    "epci_code": "200069425",
    "departement_code": "50",
    "region_code": "28",
    "postal_code": "50170"
  },
  {
    "name": "Sideville",
    "code": "50575",
    "epci_code": "200067205",
    "departement_code": "50",
    "region_code": "28",
    "postal_code": "50690"
  },
  {
    "name": "Siouville-Hague",
    "code": "50576",
    "epci_code": "200067205",
    "departement_code": "50",
    "region_code": "28",
    "postal_code": "50340"
  },
  {
    "name": "Sortosville-en-Beaumont",
    "code": "50577",
    "epci_code": "200067205",
    "departement_code": "50",
    "region_code": "28",
    "postal_code": "50270"
  },
  {
    "name": "Sortosville",
    "code": "50578",
    "epci_code": "200067205",
    "departement_code": "50",
    "region_code": "28",
    "postal_code": "50310"
  },
  {
    "name": "Sottevast",
    "code": "50579",
    "epci_code": "200067205",
    "departement_code": "50",
    "region_code": "28",
    "postal_code": "50260"
  },
  {
    "name": "Sotteville",
    "code": "50580",
    "epci_code": "200067205",
    "departement_code": "50",
    "region_code": "28",
    "postal_code": "50340"
  },
  {
    "name": "Sourdeval",
    "code": "50582",
    "epci_code": "200069425",
    "departement_code": "50",
    "region_code": "28",
    "postal_code": "50150"
  },
  {
    "name": "Subligny",
    "code": "50584",
    "epci_code": "200069425",
    "departement_code": "50",
    "region_code": "28",
    "postal_code": "50870"
  },
  {
    "name": "Surtainville",
    "code": "50585",
    "epci_code": "200067205",
    "departement_code": "50",
    "region_code": "28",
    "postal_code": "50270"
  },
  {
    "name": "Taillepied",
    "code": "50587",
    "epci_code": "200067205",
    "departement_code": "50",
    "region_code": "28",
    "postal_code": "50390"
  },
  {
    "name": "Tamerville",
    "code": "50588",
    "epci_code": "200067205",
    "departement_code": "50",
    "region_code": "28",
    "postal_code": "50700"
  },
  {
    "name": "Tanis",
    "code": "50589",
    "epci_code": "200069425",
    "departement_code": "50",
    "region_code": "28",
    "postal_code": "50170"
  },
  {
    "name": "Le Tanu",
    "code": "50590",
    "epci_code": "200043354",
    "departement_code": "50",
    "region_code": "28",
    "postal_code": "50320"
  },
  {
    "name": "Le Teilleul",
    "code": "50591",
    "epci_code": "200069425",
    "departement_code": "50",
    "region_code": "28",
    "postal_code": "50640"
  },
  {
    "name": "Tessy-Bocage",
    "code": "50592",
    "epci_code": "200066389",
    "departement_code": "50",
    "region_code": "28",
    "postal_code": "50420"
  },
  {
    "name": "Teurthéville-Bocage",
    "code": "50593",
    "epci_code": "200067205",
    "departement_code": "50",
    "region_code": "28",
    "postal_code": "50630"
  },
  {
    "name": "Teurthéville-Hague",
    "code": "50594",
    "epci_code": "200067205",
    "departement_code": "50",
    "region_code": "28",
    "postal_code": "50690"
  },
  {
    "name": "Théville",
    "code": "50596",
    "epci_code": "200067205",
    "departement_code": "50",
    "region_code": "28",
    "postal_code": "50330"
  },
  {
    "name": "Tirepied-sur-Sée",
    "code": "50597",
    "epci_code": "200069425",
    "departement_code": "50",
    "region_code": "28",
    "postal_code": "50300"
  },
  {
    "name": "Tirepied-sur-Sée",
    "code": "50597",
    "epci_code": "200069425",
    "departement_code": "50",
    "region_code": "28",
    "postal_code": "50870"
  },
  {
    "name": "Tocqueville",
    "code": "50598",
    "epci_code": "200067205",
    "departement_code": "50",
    "region_code": "28",
    "postal_code": "50330"
  },
  {
    "name": "Tollevast",
    "code": "50599",
    "epci_code": "200067205",
    "departement_code": "50",
    "region_code": "28",
    "postal_code": "50470"
  },
  {
    "name": "Torigny-les-Villes",
    "code": "50601",
    "epci_code": "200066389",
    "departement_code": "50",
    "region_code": "28",
    "postal_code": "50160"
  },
  {
    "name": "Tourville-sur-Sienne",
    "code": "50603",
    "epci_code": "200067023",
    "departement_code": "50",
    "region_code": "28",
    "postal_code": "50200"
  },
  {
    "name": "Tréauville",
    "code": "50604",
    "epci_code": "200067205",
    "departement_code": "50",
    "region_code": "28",
    "postal_code": "50340"
  },
  {
    "name": "Tribehou",
    "code": "50606",
    "epci_code": "200042729",
    "departement_code": "50",
    "region_code": "28",
    "postal_code": "50620"
  },
  {
    "name": "La Trinité",
    "code": "50607",
    "epci_code": "200043354",
    "departement_code": "50",
    "region_code": "28",
    "postal_code": "50800"
  },
  {
    "name": "Turqueville",
    "code": "50609",
    "epci_code": "200042729",
    "departement_code": "50",
    "region_code": "28",
    "postal_code": "50480"
  },
  {
    "name": "Urville",
    "code": "50610",
    "epci_code": "200067205",
    "departement_code": "50",
    "region_code": "28",
    "postal_code": "50700"
  },
  {
    "name": "Vains",
    "code": "50612",
    "epci_code": "200069425",
    "departement_code": "50",
    "region_code": "28",
    "postal_code": "50300"
  },
  {
    "name": "Valcanville",
    "code": "50613",
    "epci_code": "200067205",
    "departement_code": "50",
    "region_code": "28",
    "postal_code": "50760"
  },
  {
    "name": "Valognes",
    "code": "50615",
    "epci_code": "200067205",
    "departement_code": "50",
    "region_code": "28",
    "postal_code": "50700"
  },
  {
    "name": "Le Val-Saint-Père",
    "code": "50616",
    "epci_code": "200069425",
    "departement_code": "50",
    "region_code": "28",
    "postal_code": "50300"
  },
  {
    "name": "Varenguebec",
    "code": "50617",
    "epci_code": "200067031",
    "departement_code": "50",
    "region_code": "28",
    "postal_code": "50250"
  },
  {
    "name": "Varouville",
    "code": "50618",
    "epci_code": "200067205",
    "departement_code": "50",
    "region_code": "28",
    "postal_code": "50330"
  },
  {
    "name": "Le Vast",
    "code": "50619",
    "epci_code": "200067205",
    "departement_code": "50",
    "region_code": "28",
    "postal_code": "50630"
  },
  {
    "name": "Vaudreville",
    "code": "50621",
    "epci_code": "200067205",
    "departement_code": "50",
    "region_code": "28",
    "postal_code": "50310"
  },
  {
    "name": "La Vendelée",
    "code": "50624",
    "epci_code": "200067023",
    "departement_code": "50",
    "region_code": "28",
    "postal_code": "50200"
  },
  {
    "name": "Ver",
    "code": "50626",
    "epci_code": "200067023",
    "departement_code": "50",
    "region_code": "28",
    "postal_code": "50450"
  },
  {
    "name": "Vernix",
    "code": "50628",
    "epci_code": "200069425",
    "departement_code": "50",
    "region_code": "28",
    "postal_code": "50370"
  },
  {
    "name": "Vesly",
    "code": "50629",
    "epci_code": "200067031",
    "departement_code": "50",
    "region_code": "28",
    "postal_code": "50430"
  },
  {
    "name": "Le Vicel",
    "code": "50633",
    "epci_code": "200067205",
    "departement_code": "50",
    "region_code": "28",
    "postal_code": "50760"
  },
  {
    "name": "Videcosville",
    "code": "50634",
    "epci_code": "200067205",
    "departement_code": "50",
    "region_code": "28",
    "postal_code": "50630"
  },
  {
    "name": "Villebaudon",
    "code": "50637",
    "epci_code": "200043354",
    "departement_code": "50",
    "region_code": "28",
    "postal_code": "50410"
  },
  {
    "name": "Villedieu-les-Poêles-Rouffigny",
    "code": "50639",
    "epci_code": "200043354",
    "departement_code": "50",
    "region_code": "28",
    "postal_code": "50800"
  },
  {
    "name": "Villiers-Fossard",
    "code": "50641",
    "epci_code": "200066389",
    "departement_code": "50",
    "region_code": "28",
    "postal_code": "50680"
  },
  {
    "name": "Virandeville",
    "code": "50643",
    "epci_code": "200067205",
    "departement_code": "50",
    "region_code": "28",
    "postal_code": "50690"
  },
  {
    "name": "Yquelon",
    "code": "50647",
    "epci_code": "200042604",
    "departement_code": "50",
    "region_code": "28",
    "postal_code": "50400"
  },
  {
    "name": "Yvetot-Bocage",
    "code": "50648",
    "epci_code": "200067205",
    "departement_code": "50",
    "region_code": "28",
    "postal_code": "50700"
  }
]